{
    "postcodes": [
        { "city": "佐賀市", "postcode": "849-0000", "prefecture": "佐賀県", "id": 8490000 },
        { "address": "愛敬町", "city": "佐賀市", "postcode": "840-0812", "prefecture": "佐賀県", "id": 8400812 },
        { "address": "赤松町", "city": "佐賀市", "postcode": "840-0042", "prefecture": "佐賀県", "id": 8400042 },
        { "address": "朝日町", "city": "佐賀市", "postcode": "840-0053", "prefecture": "佐賀県", "id": 8400053 },
        { "address": "伊勢町", "city": "佐賀市", "postcode": "840-0844", "prefecture": "佐賀県", "id": 8400844 },
        { "address": "今宿町", "city": "佐賀市", "postcode": "840-0052", "prefecture": "佐賀県", "id": 8400052 },
        { "address": "駅前中央", "city": "佐賀市", "postcode": "840-0801", "prefecture": "佐賀県", "id": 8400801 },
        { "address": "駅南本町", "city": "佐賀市", "postcode": "840-0816", "prefecture": "佐賀県", "id": 8400816 },
        { "address": "大財", "city": "佐賀市", "postcode": "840-0811", "prefecture": "佐賀県", "id": 8400811 },
        { "address": "大財北町", "city": "佐賀市", "postcode": "840-0802", "prefecture": "佐賀県", "id": 8400802 },
        { "address": "鬼丸町", "city": "佐賀市", "postcode": "840-0021", "prefecture": "佐賀県", "id": 8400021 },
        { "address": "卸本町", "city": "佐賀市", "postcode": "849-0933", "prefecture": "佐賀県", "id": 8490933 },
        { "address": "開成", "city": "佐賀市", "postcode": "849-0934", "prefecture": "佐賀県", "id": 8490934 },
        { "address": "嘉瀬町扇町", "city": "佐賀市", "postcode": "840-0862", "prefecture": "佐賀県", "id": 8400862 },
        { "address": "嘉瀬町荻野", "city": "佐賀市", "postcode": "840-0864", "prefecture": "佐賀県", "id": 8400864 },
        { "address": "嘉瀬町十五", "city": "佐賀市", "postcode": "840-0863", "prefecture": "佐賀県", "id": 8400863 },
        { "address": "嘉瀬町中原", "city": "佐賀市", "postcode": "840-0861", "prefecture": "佐賀県", "id": 8400861 },
        { "address": "神園", "city": "佐賀市", "postcode": "840-0806", "prefecture": "佐賀県", "id": 8400806 },
        { "address": "川副町犬井道", "city": "佐賀市", "postcode": "840-2212", "prefecture": "佐賀県", "id": 8402212 },
        { "address": "川副町大詫間", "city": "佐賀市", "postcode": "840-2211", "prefecture": "佐賀県", "id": 8402211 },
        { "address": "川副町鹿江", "city": "佐賀市", "postcode": "840-2213", "prefecture": "佐賀県", "id": 8402213 },
        { "address": "川副町小々森", "city": "佐賀市", "postcode": "840-2214", "prefecture": "佐賀県", "id": 8402214 },
        { "address": "川副町南里", "city": "佐賀市", "postcode": "840-2205", "prefecture": "佐賀県", "id": 8402205 },
        { "address": "川副町西古賀", "city": "佐賀市", "postcode": "840-2204", "prefecture": "佐賀県", "id": 8402204 },
        { "address": "川副町早津江", "city": "佐賀市", "postcode": "840-2203", "prefecture": "佐賀県", "id": 8402203 },
        {
            "address": "川副町早津江津",
            "city": "佐賀市",
            "postcode": "840-2202",
            "prefecture": "佐賀県",
            "id": 8402202
        },
        { "address": "川副町福富", "city": "佐賀市", "postcode": "840-2201", "prefecture": "佐賀県", "id": 8402201 },
        { "address": "川原町", "city": "佐賀市", "postcode": "840-0843", "prefecture": "佐賀県", "id": 8400843 },
        { "address": "北川副町江上", "city": "佐賀市", "postcode": "840-0011", "prefecture": "佐賀県", "id": 8400011 },
        { "address": "北川副町新郷", "city": "佐賀市", "postcode": "840-0013", "prefecture": "佐賀県", "id": 8400013 },
        { "address": "北川副町光法", "city": "佐賀市", "postcode": "840-0012", "prefecture": "佐賀県", "id": 8400012 },
        { "address": "木原", "city": "佐賀市", "postcode": "840-0015", "prefecture": "佐賀県", "id": 8400015 },
        { "address": "金立町金立", "city": "佐賀市", "postcode": "849-0906", "prefecture": "佐賀県", "id": 8490906 },
        { "address": "金立町千布", "city": "佐賀市", "postcode": "849-0905", "prefecture": "佐賀県", "id": 8490905 },
        { "address": "金立町薬師丸", "city": "佐賀市", "postcode": "849-0904", "prefecture": "佐賀県", "id": 8490904 },
        {
            "address": "久保泉町上和泉",
            "city": "佐賀市",
            "postcode": "849-0902",
            "prefecture": "佐賀県",
            "id": 8490902
        },
        {
            "address": "久保泉町川久保",
            "city": "佐賀市",
            "postcode": "849-0901",
            "prefecture": "佐賀県",
            "id": 8490901
        },
        {
            "address": "久保泉町下和泉",
            "city": "佐賀市",
            "postcode": "849-0903",
            "prefecture": "佐賀県",
            "id": 8490903
        },
        { "address": "久保田町江戸", "city": "佐賀市", "postcode": "849-0205", "prefecture": "佐賀県", "id": 8490205 },
        {
            "address": "久保田町久保田",
            "city": "佐賀市",
            "postcode": "849-0204",
            "prefecture": "佐賀県",
            "id": 8490204
        },
        { "address": "久保田町新田", "city": "佐賀市", "postcode": "849-0203", "prefecture": "佐賀県", "id": 8490203 },
        { "address": "久保田町徳万", "city": "佐賀市", "postcode": "849-0201", "prefecture": "佐賀県", "id": 8490201 },
        { "address": "久保田町久富", "city": "佐賀市", "postcode": "849-0202", "prefecture": "佐賀県", "id": 8490202 },
        { "address": "神野東", "city": "佐賀市", "postcode": "840-0804", "prefecture": "佐賀県", "id": 8400804 },
        { "address": "神野西", "city": "佐賀市", "postcode": "840-0805", "prefecture": "佐賀県", "id": 8400805 },
        { "address": "巨勢町牛島", "city": "佐賀市", "postcode": "840-0008", "prefecture": "佐賀県", "id": 8400008 },
        { "address": "巨勢町高尾", "city": "佐賀市", "postcode": "840-0007", "prefecture": "佐賀県", "id": 8400007 },
        { "address": "巨勢町修理田", "city": "佐賀市", "postcode": "840-0001", "prefecture": "佐賀県", "id": 8400001 },
        { "address": "巨勢町東西", "city": "佐賀市", "postcode": "840-0006", "prefecture": "佐賀県", "id": 8400006 },
        { "address": "呉服元町", "city": "佐賀市", "postcode": "840-0824", "prefecture": "佐賀県", "id": 8400824 },
        { "address": "紺屋町", "city": "佐賀市", "postcode": "840-0056", "prefecture": "佐賀県", "id": 8400056 },
        { "address": "材木", "city": "佐賀市", "postcode": "840-0055", "prefecture": "佐賀県", "id": 8400055 },
        { "address": "栄町", "city": "佐賀市", "postcode": "840-0803", "prefecture": "佐賀県", "id": 8400803 },
        { "address": "道祖元町", "city": "佐賀市", "postcode": "840-0044", "prefecture": "佐賀県", "id": 8400044 },
        { "address": "下田町", "city": "佐賀市", "postcode": "840-0031", "prefecture": "佐賀県", "id": 8400031 },
        { "address": "昭栄町", "city": "佐賀市", "postcode": "840-0855", "prefecture": "佐賀県", "id": 8400855 },
        { "address": "城内", "city": "佐賀市", "postcode": "840-0041", "prefecture": "佐賀県", "id": 8400041 },
        { "address": "精町", "city": "佐賀市", "postcode": "840-0043", "prefecture": "佐賀県", "id": 8400043 },
        { "address": "白山", "city": "佐賀市", "postcode": "840-0826", "prefecture": "佐賀県", "id": 8400826 },
        { "address": "新栄西", "city": "佐賀市", "postcode": "840-0859", "prefecture": "佐賀県", "id": 8400859 },
        { "address": "新栄東", "city": "佐賀市", "postcode": "840-0850", "prefecture": "佐賀県", "id": 8400850 },
        { "address": "新郷本町", "city": "佐賀市", "postcode": "840-0017", "prefecture": "佐賀県", "id": 8400017 },
        { "address": "新生町", "city": "佐賀市", "postcode": "840-0856", "prefecture": "佐賀県", "id": 8400856 },
        { "address": "新中町", "city": "佐賀市", "postcode": "849-0924", "prefecture": "佐賀県", "id": 8490924 },
        { "address": "末広", "city": "佐賀市", "postcode": "840-0032", "prefecture": "佐賀県", "id": 8400032 },
        { "address": "成章町", "city": "佐賀市", "postcode": "840-0814", "prefecture": "佐賀県", "id": 8400814 },
        { "address": "高木瀬団地", "city": "佐賀市", "postcode": "849-0927", "prefecture": "佐賀県", "id": 8490927 },
        { "address": "高木瀬東", "city": "佐賀市", "postcode": "849-0922", "prefecture": "佐賀県", "id": 8490922 },
        { "address": "高木瀬西", "city": "佐賀市", "postcode": "849-0921", "prefecture": "佐賀県", "id": 8490921 },
        { "address": "高木瀬町長瀬", "city": "佐賀市", "postcode": "849-0917", "prefecture": "佐賀県", "id": 8490917 },
        {
            "address": "高木瀬町東高木",
            "city": "佐賀市",
            "postcode": "849-0916",
            "prefecture": "佐賀県",
            "id": 8490916
        },
        { "address": "高木町", "city": "佐賀市", "postcode": "840-0822", "prefecture": "佐賀県", "id": 8400822 },
        { "address": "田代", "city": "佐賀市", "postcode": "840-0051", "prefecture": "佐賀県", "id": 8400051 },
        { "address": "多布施", "city": "佐賀市", "postcode": "840-0842", "prefecture": "佐賀県", "id": 8400842 },
        { "address": "中央本町", "city": "佐賀市", "postcode": "840-0825", "prefecture": "佐賀県", "id": 8400825 },
        { "address": "天神", "city": "佐賀市", "postcode": "840-0815", "prefecture": "佐賀県", "id": 8400815 },
        { "address": "天祐", "city": "佐賀市", "postcode": "840-0851", "prefecture": "佐賀県", "id": 8400851 },
        { "address": "天祐団地", "city": "佐賀市", "postcode": "840-0858", "prefecture": "佐賀県", "id": 8400858 },
        { "address": "唐人", "city": "佐賀市", "postcode": "840-0813", "prefecture": "佐賀県", "id": 8400813 },
        { "address": "中折町", "city": "佐賀市", "postcode": "840-0852", "prefecture": "佐賀県", "id": 8400852 },
        { "address": "中の小路", "city": "佐賀市", "postcode": "840-0833", "prefecture": "佐賀県", "id": 8400833 },
        { "address": "中の館町", "city": "佐賀市", "postcode": "840-0022", "prefecture": "佐賀県", "id": 8400022 },
        { "address": "長瀬町", "city": "佐賀市", "postcode": "840-0853", "prefecture": "佐賀県", "id": 8400853 },
        { "address": "鍋島", "city": "佐賀市", "postcode": "849-0937", "prefecture": "佐賀県", "id": 8490937 },
        { "address": "鍋島町蛎久", "city": "佐賀市", "postcode": "849-0931", "prefecture": "佐賀県", "id": 8490931 },
        { "address": "鍋島町鍋島", "city": "佐賀市", "postcode": "849-0938", "prefecture": "佐賀県", "id": 8490938 },
        { "address": "鍋島町森田", "city": "佐賀市", "postcode": "849-0936", "prefecture": "佐賀県", "id": 8490936 },
        { "address": "鍋島町八戸", "city": "佐賀市", "postcode": "840-0857", "prefecture": "佐賀県", "id": 8400857 },
        { "address": "鍋島町八戸溝", "city": "佐賀市", "postcode": "849-0932", "prefecture": "佐賀県", "id": 8490932 },
        { "address": "西魚町", "city": "佐賀市", "postcode": "840-0046", "prefecture": "佐賀県", "id": 8400046 },
        { "address": "西田代", "city": "佐賀市", "postcode": "840-0045", "prefecture": "佐賀県", "id": 8400045 },
        { "address": "西与賀町今津", "city": "佐賀市", "postcode": "840-0035", "prefecture": "佐賀県", "id": 8400035 },
        {
            "address": "西与賀町相応津",
            "city": "佐賀市",
            "postcode": "840-0037",
            "prefecture": "佐賀県",
            "id": 8400037
        },
        { "address": "西与賀町厘外", "city": "佐賀市", "postcode": "840-0034", "prefecture": "佐賀県", "id": 8400034 },
        {
            "address": "西与賀町高太郎",
            "city": "佐賀市",
            "postcode": "840-0036",
            "prefecture": "佐賀県",
            "id": 8400036
        },
        { "address": "蓮池町蓮池", "city": "佐賀市", "postcode": "840-0005", "prefecture": "佐賀県", "id": 8400005 },
        { "address": "蓮池町古賀", "city": "佐賀市", "postcode": "840-0003", "prefecture": "佐賀県", "id": 8400003 },
        { "address": "蓮池町小松", "city": "佐賀市", "postcode": "840-0004", "prefecture": "佐賀県", "id": 8400004 },
        { "address": "蓮池町見島", "city": "佐賀市", "postcode": "840-0002", "prefecture": "佐賀県", "id": 8400002 },
        { "address": "八幡小路", "city": "佐賀市", "postcode": "840-0834", "prefecture": "佐賀県", "id": 8400834 },
        { "address": "八丁畷町", "city": "佐賀市", "postcode": "849-0925", "prefecture": "佐賀県", "id": 8490925 },
        { "address": "光", "city": "佐賀市", "postcode": "840-0033", "prefecture": "佐賀県", "id": 8400033 },
        { "address": "東佐賀町", "city": "佐賀市", "postcode": "840-0821", "prefecture": "佐賀県", "id": 8400821 },
        { "address": "東与賀町飯盛", "city": "佐賀市", "postcode": "840-2223", "prefecture": "佐賀県", "id": 8402223 },
        {
            "address": "東与賀町下古賀",
            "city": "佐賀市",
            "postcode": "840-2221",
            "prefecture": "佐賀県",
            "id": 8402221
        },
        { "address": "東与賀町田中", "city": "佐賀市", "postcode": "840-2222", "prefecture": "佐賀県", "id": 8402222 },
        { "address": "日の出", "city": "佐賀市", "postcode": "849-0923", "prefecture": "佐賀県", "id": 8490923 },
        { "address": "兵庫町瓦町", "city": "佐賀市", "postcode": "849-0912", "prefecture": "佐賀県", "id": 8490912 },
        { "address": "兵庫町藤木", "city": "佐賀市", "postcode": "849-0915", "prefecture": "佐賀県", "id": 8490915 },
        { "address": "兵庫町西渕", "city": "佐賀市", "postcode": "849-0914", "prefecture": "佐賀県", "id": 8490914 },
        { "address": "兵庫町渕", "city": "佐賀市", "postcode": "849-0913", "prefecture": "佐賀県", "id": 8490913 },
        { "address": "兵庫町若宮", "city": "佐賀市", "postcode": "849-0911", "prefecture": "佐賀県", "id": 8490911 },
        { "address": "兵庫北", "city": "佐賀市", "postcode": "849-0919", "prefecture": "佐賀県", "id": 8490919 },
        { "address": "兵庫南", "city": "佐賀市", "postcode": "849-0918", "prefecture": "佐賀県", "id": 8490918 },
        { "address": "富士町市川", "city": "佐賀市", "postcode": "840-0503", "prefecture": "佐賀県", "id": 8400503 },
        { "address": "富士町内野", "city": "佐賀市", "postcode": "840-0514", "prefecture": "佐賀県", "id": 8400514 },
        { "address": "富士町梅野", "city": "佐賀市", "postcode": "840-0516", "prefecture": "佐賀県", "id": 8400516 },
        { "address": "富士町大串", "city": "佐賀市", "postcode": "840-0533", "prefecture": "佐賀県", "id": 8400533 },
        { "address": "富士町大野", "city": "佐賀市", "postcode": "840-0532", "prefecture": "佐賀県", "id": 8400532 },
        { "address": "富士町小副川", "city": "佐賀市", "postcode": "840-0521", "prefecture": "佐賀県", "id": 8400521 },
        { "address": "富士町鎌原", "city": "佐賀市", "postcode": "840-0511", "prefecture": "佐賀県", "id": 8400511 },
        { "address": "富士町上合瀬", "city": "佐賀市", "postcode": "840-0545", "prefecture": "佐賀県", "id": 8400545 },
        { "address": "富士町上熊川", "city": "佐賀市", "postcode": "840-0512", "prefecture": "佐賀県", "id": 8400512 },
        {
            "address": "富士町上無津呂",
            "city": "佐賀市",
            "postcode": "840-0536",
            "prefecture": "佐賀県",
            "id": 8400536
        },
        { "address": "富士町栗並", "city": "佐賀市", "postcode": "840-0531", "prefecture": "佐賀県", "id": 8400531 },
        { "address": "富士町古場", "city": "佐賀市", "postcode": "840-0543", "prefecture": "佐賀県", "id": 8400543 },
        { "address": "富士町下合瀬", "city": "佐賀市", "postcode": "840-0544", "prefecture": "佐賀県", "id": 8400544 },
        { "address": "富士町下熊川", "city": "佐賀市", "postcode": "840-0513", "prefecture": "佐賀県", "id": 8400513 },
        {
            "address": "富士町下無津呂",
            "city": "佐賀市",
            "postcode": "840-0535",
            "prefecture": "佐賀県",
            "id": 8400535
        },
        { "address": "富士町杉山", "city": "佐賀市", "postcode": "840-0502", "prefecture": "佐賀県", "id": 8400502 },
        { "address": "富士町関屋", "city": "佐賀市", "postcode": "840-0541", "prefecture": "佐賀県", "id": 8400541 },
        { "address": "富士町苣木", "city": "佐賀市", "postcode": "840-0504", "prefecture": "佐賀県", "id": 8400504 },
        { "address": "富士町中原", "city": "佐賀市", "postcode": "840-0534", "prefecture": "佐賀県", "id": 8400534 },
        { "address": "富士町畑瀬", "city": "佐賀市", "postcode": "840-0522", "prefecture": "佐賀県", "id": 8400522 },
        { "address": "富士町藤瀬", "city": "佐賀市", "postcode": "840-0542", "prefecture": "佐賀県", "id": 8400542 },
        { "address": "富士町古湯", "city": "佐賀市", "postcode": "840-0501", "prefecture": "佐賀県", "id": 8400501 },
        { "address": "富士町松瀬", "city": "佐賀市", "postcode": "840-0515", "prefecture": "佐賀県", "id": 8400515 },
        { "address": "富士町麻那古", "city": "佐賀市", "postcode": "840-0537", "prefecture": "佐賀県", "id": 8400537 },
        { "address": "堀川町", "city": "佐賀市", "postcode": "840-0832", "prefecture": "佐賀県", "id": 8400832 },
        { "address": "本庄町鹿子", "city": "佐賀市", "postcode": "840-0025", "prefecture": "佐賀県", "id": 8400025 },
        { "address": "本庄町本庄", "city": "佐賀市", "postcode": "840-0027", "prefecture": "佐賀県", "id": 8400027 },
        { "address": "本庄町正里", "city": "佐賀市", "postcode": "840-0026", "prefecture": "佐賀県", "id": 8400026 },
        { "address": "本庄町末次", "city": "佐賀市", "postcode": "840-0024", "prefecture": "佐賀県", "id": 8400024 },
        { "address": "本庄町袋", "city": "佐賀市", "postcode": "840-0023", "prefecture": "佐賀県", "id": 8400023 },
        { "address": "松原", "city": "佐賀市", "postcode": "840-0831", "prefecture": "佐賀県", "id": 8400831 },
        { "address": "水ケ江", "city": "佐賀市", "postcode": "840-0054", "prefecture": "佐賀県", "id": 8400054 },
        { "address": "三瀬村藤原", "city": "佐賀市", "postcode": "842-0302", "prefecture": "佐賀県", "id": 8420302 },
        { "address": "三瀬村三瀬", "city": "佐賀市", "postcode": "842-0301", "prefecture": "佐賀県", "id": 8420301 },
        { "address": "三瀬村杠", "city": "佐賀市", "postcode": "842-0303", "prefecture": "佐賀県", "id": 8420303 },
        { "address": "緑小路", "city": "佐賀市", "postcode": "840-0841", "prefecture": "佐賀県", "id": 8400841 },
        { "address": "南佐賀", "city": "佐賀市", "postcode": "840-0016", "prefecture": "佐賀県", "id": 8400016 },
        { "address": "諸富町大堂", "city": "佐賀市", "postcode": "840-2101", "prefecture": "佐賀県", "id": 8402101 },
        { "address": "諸富町為重", "city": "佐賀市", "postcode": "840-2102", "prefecture": "佐賀県", "id": 8402102 },
        { "address": "諸富町寺井津", "city": "佐賀市", "postcode": "840-2103", "prefecture": "佐賀県", "id": 8402103 },
        { "address": "諸富町徳富", "city": "佐賀市", "postcode": "840-2104", "prefecture": "佐賀県", "id": 8402104 },
        { "address": "諸富町諸富津", "city": "佐賀市", "postcode": "840-2105", "prefecture": "佐賀県", "id": 8402105 },
        { "address": "諸富町山領", "city": "佐賀市", "postcode": "840-2106", "prefecture": "佐賀県", "id": 8402106 },
        { "address": "八戸", "city": "佐賀市", "postcode": "840-0854", "prefecture": "佐賀県", "id": 8400854 },
        { "address": "八戸溝", "city": "佐賀市", "postcode": "849-0935", "prefecture": "佐賀県", "id": 8490935 },
        { "address": "柳町", "city": "佐賀市", "postcode": "840-0823", "prefecture": "佐賀県", "id": 8400823 },
        { "address": "大和町池上", "city": "佐賀市", "postcode": "840-0212", "prefecture": "佐賀県", "id": 8400212 },
        { "address": "大和町梅野", "city": "佐賀市", "postcode": "840-0203", "prefecture": "佐賀県", "id": 8400203 },
        { "address": "大和町川上", "city": "佐賀市", "postcode": "840-0214", "prefecture": "佐賀県", "id": 8400214 },
        { "address": "大和町久池井", "city": "佐賀市", "postcode": "840-0202", "prefecture": "佐賀県", "id": 8400202 },
        { "address": "大和町久留間", "city": "佐賀市", "postcode": "840-0213", "prefecture": "佐賀県", "id": 8400213 },
        { "address": "大和町名尾", "city": "佐賀市", "postcode": "840-0205", "prefecture": "佐賀県", "id": 8400205 },
        { "address": "大和町尼寺", "city": "佐賀市", "postcode": "840-0201", "prefecture": "佐賀県", "id": 8400201 },
        { "address": "大和町八反原", "city": "佐賀市", "postcode": "840-0215", "prefecture": "佐賀県", "id": 8400215 },
        { "address": "大和町東山田", "city": "佐賀市", "postcode": "840-0211", "prefecture": "佐賀県", "id": 8400211 },
        { "address": "大和町松瀬", "city": "佐賀市", "postcode": "840-0204", "prefecture": "佐賀県", "id": 8400204 },
        { "address": "与賀町", "city": "佐賀市", "postcode": "840-0047", "prefecture": "佐賀県", "id": 8400047 },
        { "address": "六座町", "city": "佐賀市", "postcode": "840-0845", "prefecture": "佐賀県", "id": 8400845 },
        { "address": "若楠", "city": "佐賀市", "postcode": "849-0928", "prefecture": "佐賀県", "id": 8490928 },
        { "address": "若宮", "city": "佐賀市", "postcode": "849-0926", "prefecture": "佐賀県", "id": 8490926 },
        { "city": "唐津市", "postcode": "847-0000", "prefecture": "佐賀県", "id": 8470000 },
        { "address": "旭が丘", "city": "唐津市", "postcode": "847-0823", "prefecture": "佐賀県", "id": 8470823 },
        { "address": "朝日町", "city": "唐津市", "postcode": "847-0841", "prefecture": "佐賀県", "id": 8470841 },
        { "address": "石志", "city": "唐津市", "postcode": "847-0832", "prefecture": "佐賀県", "id": 8470832 },
        { "address": "魚屋町", "city": "唐津市", "postcode": "847-0042", "prefecture": "佐賀県", "id": 8470042 },
        { "address": "宇木", "city": "唐津市", "postcode": "847-0025", "prefecture": "佐賀県", "id": 8470025 },
        { "address": "後川内", "city": "唐津市", "postcode": "847-0804", "prefecture": "佐賀県", "id": 8470804 },
        { "address": "浦", "city": "唐津市", "postcode": "847-0124", "prefecture": "佐賀県", "id": 8470124 },
        { "address": "江川町", "city": "唐津市", "postcode": "847-0853", "prefecture": "佐賀県", "id": 8470853 },
        { "address": "枝去木", "city": "唐津市", "postcode": "847-0123", "prefecture": "佐賀県", "id": 8470123 },
        { "address": "相賀", "city": "唐津市", "postcode": "847-0132", "prefecture": "佐賀県", "id": 8470132 },
        { "address": "相知町伊岐佐", "city": "唐津市", "postcode": "849-3223", "prefecture": "佐賀県", "id": 8493223 },
        { "address": "相知町相知", "city": "唐津市", "postcode": "849-3201", "prefecture": "佐賀県", "id": 8493201 },
        { "address": "相知町大野", "city": "唐津市", "postcode": "849-3221", "prefecture": "佐賀県", "id": 8493221 },
        { "address": "相知町楠", "city": "唐津市", "postcode": "849-3215", "prefecture": "佐賀県", "id": 8493215 },
        { "address": "相知町久保", "city": "唐津市", "postcode": "849-3232", "prefecture": "佐賀県", "id": 8493232 },
        { "address": "相知町黒岩", "city": "唐津市", "postcode": "849-3222", "prefecture": "佐賀県", "id": 8493222 },
        { "address": "相知町佐里", "city": "唐津市", "postcode": "849-3233", "prefecture": "佐賀県", "id": 8493233 },
        { "address": "相知町千束", "city": "唐津市", "postcode": "849-3211", "prefecture": "佐賀県", "id": 8493211 },
        { "address": "相知町田頭", "city": "唐津市", "postcode": "849-3214", "prefecture": "佐賀県", "id": 8493214 },
        { "address": "相知町鷹取", "city": "唐津市", "postcode": "849-3219", "prefecture": "佐賀県", "id": 8493219 },
        { "address": "相知町町切", "city": "唐津市", "postcode": "849-3216", "prefecture": "佐賀県", "id": 8493216 },
        { "address": "相知町長部田", "city": "唐津市", "postcode": "849-3217", "prefecture": "佐賀県", "id": 8493217 },
        { "address": "相知町中山", "city": "唐津市", "postcode": "849-3218", "prefecture": "佐賀県", "id": 8493218 },
        { "address": "相知町平山上", "city": "唐津市", "postcode": "849-3203", "prefecture": "佐賀県", "id": 8493203 },
        { "address": "相知町平山下", "city": "唐津市", "postcode": "849-3202", "prefecture": "佐賀県", "id": 8493202 },
        { "address": "相知町牟田部", "city": "唐津市", "postcode": "849-3231", "prefecture": "佐賀県", "id": 8493231 },
        { "address": "相知町山崎", "city": "唐津市", "postcode": "849-3224", "prefecture": "佐賀県", "id": 8493224 },
        { "address": "相知町湯屋", "city": "唐津市", "postcode": "849-3213", "prefecture": "佐賀県", "id": 8493213 },
        { "address": "相知町横枕", "city": "唐津市", "postcode": "849-3212", "prefecture": "佐賀県", "id": 8493212 },
        { "address": "大石町", "city": "唐津市", "postcode": "847-0066", "prefecture": "佐賀県", "id": 8470066 },
        { "address": "海岸通", "city": "唐津市", "postcode": "847-0873", "prefecture": "佐賀県", "id": 8470873 },
        { "address": "鏡", "city": "唐津市", "postcode": "847-0022", "prefecture": "佐賀県", "id": 8470022 },
        { "address": "鏡新開", "city": "唐津市", "postcode": "847-0028", "prefecture": "佐賀県", "id": 8470028 },
        { "address": "水主町", "city": "唐津市", "postcode": "847-0065", "prefecture": "佐賀県", "id": 8470065 },
        { "address": "柏崎", "city": "唐津市", "postcode": "847-0026", "prefecture": "佐賀県", "id": 8470026 },
        { "address": "神集島", "city": "唐津市", "postcode": "847-0131", "prefecture": "佐賀県", "id": 8470131 },
        { "address": "刀町", "city": "唐津市", "postcode": "847-0055", "prefecture": "佐賀県", "id": 8470055 },
        { "address": "北城内", "city": "唐津市", "postcode": "847-0015", "prefecture": "佐賀県", "id": 8470015 },
        { "address": "北波多大杉", "city": "唐津市", "postcode": "847-1212", "prefecture": "佐賀県", "id": 8471212 },
        { "address": "北波多上平野", "city": "唐津市", "postcode": "847-1221", "prefecture": "佐賀県", "id": 8471221 },
        { "address": "北波多岸山", "city": "唐津市", "postcode": "847-1211", "prefecture": "佐賀県", "id": 8471211 },
        { "address": "北波多志気", "city": "唐津市", "postcode": "847-1225", "prefecture": "佐賀県", "id": 8471225 },
        { "address": "北波多下平野", "city": "唐津市", "postcode": "847-1223", "prefecture": "佐賀県", "id": 8471223 },
        { "address": "北波多竹有", "city": "唐津市", "postcode": "847-1213", "prefecture": "佐賀県", "id": 8471213 },
        { "address": "北波多田中", "city": "唐津市", "postcode": "847-1202", "prefecture": "佐賀県", "id": 8471202 },
        { "address": "北波多徳須恵", "city": "唐津市", "postcode": "847-1201", "prefecture": "佐賀県", "id": 8471201 },
        { "address": "北波多成渕", "city": "唐津市", "postcode": "847-1222", "prefecture": "佐賀県", "id": 8471222 },
        { "address": "北波多稗田", "city": "唐津市", "postcode": "847-1214", "prefecture": "佐賀県", "id": 8471214 },
        { "address": "北波多山彦", "city": "唐津市", "postcode": "847-1203", "prefecture": "佐賀県", "id": 8471203 },
        { "address": "北波多行合野", "city": "唐津市", "postcode": "847-1224", "prefecture": "佐賀県", "id": 8471224 },
        { "address": "厳木町天川", "city": "唐津市", "postcode": "849-3101", "prefecture": "佐賀県", "id": 8493101 },
        { "address": "厳木町岩屋", "city": "唐津市", "postcode": "849-3123", "prefecture": "佐賀県", "id": 8493123 },
        {
            "address": "厳木町うつぼ木",
            "city": "唐津市",
            "postcode": "849-3132",
            "prefecture": "佐賀県",
            "id": 8493132
        },
        { "address": "厳木町浦川内", "city": "唐津市", "postcode": "849-3114", "prefecture": "佐賀県", "id": 8493114 },
        { "address": "厳木町厳木", "city": "唐津市", "postcode": "849-3131", "prefecture": "佐賀県", "id": 8493131 },
        {
            "address": "厳木町瀬戸木場",
            "city": "唐津市",
            "postcode": "849-3121",
            "prefecture": "佐賀県",
            "id": 8493121
        },
        { "address": "厳木町鳥越", "city": "唐津市", "postcode": "849-3102", "prefecture": "佐賀県", "id": 8493102 },
        { "address": "厳木町中島", "city": "唐津市", "postcode": "849-3112", "prefecture": "佐賀県", "id": 8493112 },
        { "address": "厳木町浪瀬", "city": "唐津市", "postcode": "849-3122", "prefecture": "佐賀県", "id": 8493122 },
        { "address": "厳木町平之", "city": "唐津市", "postcode": "849-3115", "prefecture": "佐賀県", "id": 8493115 },
        { "address": "厳木町広川", "city": "唐津市", "postcode": "849-3103", "prefecture": "佐賀県", "id": 8493103 },
        { "address": "厳木町広瀬", "city": "唐津市", "postcode": "849-3111", "prefecture": "佐賀県", "id": 8493111 },
        { "address": "厳木町星領", "city": "唐津市", "postcode": "849-3104", "prefecture": "佐賀県", "id": 8493104 },
        { "address": "厳木町牧瀬", "city": "唐津市", "postcode": "849-3113", "prefecture": "佐賀県", "id": 8493113 },
        { "address": "厳木町本山", "city": "唐津市", "postcode": "849-3133", "prefecture": "佐賀県", "id": 8493133 },
        { "address": "京町", "city": "唐津市", "postcode": "847-0045", "prefecture": "佐賀県", "id": 8470045 },
        { "address": "木綿町", "city": "唐津市", "postcode": "847-0044", "prefecture": "佐賀県", "id": 8470044 },
        { "address": "熊原町", "city": "唐津市", "postcode": "847-0817", "prefecture": "佐賀県", "id": 8470817 },
        { "address": "熊ノ峰", "city": "唐津市", "postcode": "847-0884", "prefecture": "佐賀県", "id": 8470884 },
        { "address": "久里", "city": "唐津市", "postcode": "847-0033", "prefecture": "佐賀県", "id": 8470033 },
        { "address": "神田", "city": "唐津市", "postcode": "847-0824", "prefecture": "佐賀県", "id": 8470824 },
        { "address": "呉服町", "city": "唐津市", "postcode": "847-0052", "prefecture": "佐賀県", "id": 8470052 },
        { "address": "米屋町", "city": "唐津市", "postcode": "847-0054", "prefecture": "佐賀県", "id": 8470054 },
        { "address": "紺屋町", "city": "唐津市", "postcode": "847-0053", "prefecture": "佐賀県", "id": 8470053 },
        { "address": "材木町", "city": "唐津市", "postcode": "847-0061", "prefecture": "佐賀県", "id": 8470061 },
        { "address": "栄町", "city": "唐津市", "postcode": "847-0011", "prefecture": "佐賀県", "id": 8470011 },
        { "address": "桜馬場", "city": "唐津市", "postcode": "847-0843", "prefecture": "佐賀県", "id": 8470843 },
        { "address": "桜町", "city": "唐津市", "postcode": "847-0104", "prefecture": "佐賀県", "id": 8470104 },
        { "address": "佐志", "city": "唐津市", "postcode": "847-0111", "prefecture": "佐賀県", "id": 8470111 },
        { "address": "佐志中里", "city": "唐津市", "postcode": "847-0113", "prefecture": "佐賀県", "id": 8470113 },
        { "address": "佐志中通", "city": "唐津市", "postcode": "847-0114", "prefecture": "佐賀県", "id": 8470114 },
        { "address": "佐志浜町", "city": "唐津市", "postcode": "847-0115", "prefecture": "佐賀県", "id": 8470115 },
        { "address": "佐志南", "city": "唐津市", "postcode": "847-0112", "prefecture": "佐賀県", "id": 8470112 },
        { "address": "重河内", "city": "唐津市", "postcode": "847-0883", "prefecture": "佐賀県", "id": 8470883 },
        { "address": "十人町", "city": "唐津市", "postcode": "847-0067", "prefecture": "佐賀県", "id": 8470067 },
        { "address": "松南町", "city": "唐津市", "postcode": "847-0021", "prefecture": "佐賀県", "id": 8470021 },
        { "address": "新興町", "city": "唐津市", "postcode": "847-0043", "prefecture": "佐賀県", "id": 8470043 },
        { "address": "新興町", "city": "唐津市", "postcode": "847-0816", "prefecture": "佐賀県", "id": 8470816 },
        { "address": "新町", "city": "唐津市", "postcode": "847-0813", "prefecture": "佐賀県", "id": 8470813 },
        { "address": "菅牟田", "city": "唐津市", "postcode": "847-0882", "prefecture": "佐賀県", "id": 8470882 },
        { "address": "双水", "city": "唐津市", "postcode": "847-0001", "prefecture": "佐賀県", "id": 8470001 },
        { "address": "大名小路", "city": "唐津市", "postcode": "847-0012", "prefecture": "佐賀県", "id": 8470012 },
        { "address": "大良", "city": "唐津市", "postcode": "847-0803", "prefecture": "佐賀県", "id": 8470803 },
        { "address": "高砂町", "city": "唐津市", "postcode": "847-0046", "prefecture": "佐賀県", "id": 8470046 },
        { "address": "高島", "city": "唐津市", "postcode": "847-0027", "prefecture": "佐賀県", "id": 8470027 },
        { "address": "竹木場", "city": "唐津市", "postcode": "847-0881", "prefecture": "佐賀県", "id": 8470881 },
        { "address": "千々賀", "city": "唐津市", "postcode": "847-0831", "prefecture": "佐賀県", "id": 8470831 },
        { "address": "町田", "city": "唐津市", "postcode": "847-0821", "prefecture": "佐賀県", "id": 8470821 },
        { "address": "千代田町", "city": "唐津市", "postcode": "847-0041", "prefecture": "佐賀県", "id": 8470041 },
        { "address": "鎮西町赤木", "city": "唐津市", "postcode": "847-0312", "prefecture": "佐賀県", "id": 8470312 },
        { "address": "鎮西町石室", "city": "唐津市", "postcode": "847-0327", "prefecture": "佐賀県", "id": 8470327 },
        { "address": "鎮西町岩野", "city": "唐津市", "postcode": "847-0323", "prefecture": "佐賀県", "id": 8470323 },
        { "address": "鎮西町打上", "city": "唐津市", "postcode": "847-0322", "prefecture": "佐賀県", "id": 8470322 },
        { "address": "鎮西町加唐島", "city": "唐津市", "postcode": "847-0317", "prefecture": "佐賀県", "id": 8470317 },
        { "address": "鎮西町加倉", "city": "唐津市", "postcode": "847-0325", "prefecture": "佐賀県", "id": 8470325 },
        { "address": "鎮西町串", "city": "唐津市", "postcode": "847-0403", "prefecture": "佐賀県", "id": 8470403 },
        { "address": "鎮西町高野", "city": "唐津市", "postcode": "847-0324", "prefecture": "佐賀県", "id": 8470324 },
        { "address": "鎮西町塩鶴", "city": "唐津市", "postcode": "847-0313", "prefecture": "佐賀県", "id": 8470313 },
        { "address": "鎮西町菖蒲", "city": "唐津市", "postcode": "847-0314", "prefecture": "佐賀県", "id": 8470314 },
        { "address": "鎮西町中野", "city": "唐津市", "postcode": "847-0316", "prefecture": "佐賀県", "id": 8470316 },
        { "address": "鎮西町名護屋", "city": "唐津市", "postcode": "847-0401", "prefecture": "佐賀県", "id": 8470401 },
        { "address": "鎮西町野元", "city": "唐津市", "postcode": "847-0402", "prefecture": "佐賀県", "id": 8470402 },
        { "address": "鎮西町波戸", "city": "唐津市", "postcode": "847-0404", "prefecture": "佐賀県", "id": 8470404 },
        { "address": "鎮西町早田", "city": "唐津市", "postcode": "847-0326", "prefecture": "佐賀県", "id": 8470326 },
        { "address": "鎮西町馬渡島", "city": "唐津市", "postcode": "847-0405", "prefecture": "佐賀県", "id": 8470405 },
        { "address": "鎮西町松島", "city": "唐津市", "postcode": "847-0406", "prefecture": "佐賀県", "id": 8470406 },
        { "address": "鎮西町丸田", "city": "唐津市", "postcode": "847-0311", "prefecture": "佐賀県", "id": 8470311 },
        { "address": "鎮西町八床", "city": "唐津市", "postcode": "847-0315", "prefecture": "佐賀県", "id": 8470315 },
        { "address": "鎮西町横竹", "city": "唐津市", "postcode": "847-0321", "prefecture": "佐賀県", "id": 8470321 },
        { "address": "唐川", "city": "唐津市", "postcode": "847-0885", "prefecture": "佐賀県", "id": 8470885 },
        { "address": "唐房", "city": "唐津市", "postcode": "847-0122", "prefecture": "佐賀県", "id": 8470122 },
        { "address": "中里", "city": "唐津市", "postcode": "847-0134", "prefecture": "佐賀県", "id": 8470134 },
        { "address": "中瀬通", "city": "唐津市", "postcode": "847-0101", "prefecture": "佐賀県", "id": 8470101 },
        { "address": "中原", "city": "唐津市", "postcode": "847-0034", "prefecture": "佐賀県", "id": 8470034 },
        { "address": "中町", "city": "唐津市", "postcode": "847-0051", "prefecture": "佐賀県", "id": 8470051 },
        { "address": "中山町", "city": "唐津市", "postcode": "847-0862", "prefecture": "佐賀県", "id": 8470862 },
        { "address": "長谷", "city": "唐津市", "postcode": "847-0822", "prefecture": "佐賀県", "id": 8470822 },
        { "address": "梨川内", "city": "唐津市", "postcode": "847-0802", "prefecture": "佐賀県", "id": 8470802 },
        { "address": "七山荒川", "city": "唐津市", "postcode": "847-1101", "prefecture": "佐賀県", "id": 8471101 },
        { "address": "七山池原", "city": "唐津市", "postcode": "847-1103", "prefecture": "佐賀県", "id": 8471103 },
        { "address": "七山木浦", "city": "唐津市", "postcode": "847-1104", "prefecture": "佐賀県", "id": 8471104 },
        { "address": "七山白木", "city": "唐津市", "postcode": "847-1108", "prefecture": "佐賀県", "id": 8471108 },
        { "address": "七山滝川", "city": "唐津市", "postcode": "847-1106", "prefecture": "佐賀県", "id": 8471106 },
        { "address": "七山仁部", "city": "唐津市", "postcode": "847-1105", "prefecture": "佐賀県", "id": 8471105 },
        { "address": "七山藤川", "city": "唐津市", "postcode": "847-1107", "prefecture": "佐賀県", "id": 8471107 },
        { "address": "七山馬川", "city": "唐津市", "postcode": "847-1102", "prefecture": "佐賀県", "id": 8471102 },
        { "address": "菜畑", "city": "唐津市", "postcode": "847-0844", "prefecture": "佐賀県", "id": 8470844 },
        { "address": "西大島町", "city": "唐津市", "postcode": "847-0872", "prefecture": "佐賀県", "id": 8470872 },
        { "address": "西唐津", "city": "唐津市", "postcode": "847-0875", "prefecture": "佐賀県", "id": 8470875 },
        { "address": "西城内", "city": "唐津市", "postcode": "847-0014", "prefecture": "佐賀県", "id": 8470014 },
        { "address": "西寺町", "city": "唐津市", "postcode": "847-0815", "prefecture": "佐賀県", "id": 8470815 },
        { "address": "西浜町", "city": "唐津市", "postcode": "847-0855", "prefecture": "佐賀県", "id": 8470855 },
        { "address": "西旗町", "city": "唐津市", "postcode": "847-0854", "prefecture": "佐賀県", "id": 8470854 },
        { "address": "橋本", "city": "唐津市", "postcode": "847-0003", "prefecture": "佐賀県", "id": 8470003 },
        { "address": "橋本町", "city": "唐津市", "postcode": "847-0103", "prefecture": "佐賀県", "id": 8470103 },
        { "address": "畑島", "city": "唐津市", "postcode": "847-0833", "prefecture": "佐賀県", "id": 8470833 },
        { "address": "半田", "city": "唐津市", "postcode": "847-0023", "prefecture": "佐賀県", "id": 8470023 },
        { "address": "鳩川", "city": "唐津市", "postcode": "847-0121", "prefecture": "佐賀県", "id": 8470121 },
        { "address": "浜玉町大江", "city": "唐津市", "postcode": "849-5103", "prefecture": "佐賀県", "id": 8495103 },
        { "address": "浜玉町岡口", "city": "唐津市", "postcode": "849-5101", "prefecture": "佐賀県", "id": 8495101 },
        { "address": "浜玉町五反田", "city": "唐津市", "postcode": "849-5102", "prefecture": "佐賀県", "id": 8495102 },
        { "address": "浜玉町谷口", "city": "唐津市", "postcode": "849-5105", "prefecture": "佐賀県", "id": 8495105 },
        { "address": "浜玉町鳥巣", "city": "唐津市", "postcode": "849-5113", "prefecture": "佐賀県", "id": 8495113 },
        { "address": "浜玉町浜崎", "city": "唐津市", "postcode": "849-5131", "prefecture": "佐賀県", "id": 8495131 },
        { "address": "浜玉町東山田", "city": "唐津市", "postcode": "849-5123", "prefecture": "佐賀県", "id": 8495123 },
        { "address": "浜玉町平原", "city": "唐津市", "postcode": "849-5112", "prefecture": "佐賀県", "id": 8495112 },
        { "address": "浜玉町渕上", "city": "唐津市", "postcode": "849-5104", "prefecture": "佐賀県", "id": 8495104 },
        { "address": "浜玉町南山", "city": "唐津市", "postcode": "849-5111", "prefecture": "佐賀県", "id": 8495111 },
        { "address": "浜玉町山瀬", "city": "唐津市", "postcode": "849-5124", "prefecture": "佐賀県", "id": 8495124 },
        { "address": "浜玉町横田上", "city": "唐津市", "postcode": "849-5121", "prefecture": "佐賀県", "id": 8495121 },
        { "address": "浜玉町横田下", "city": "唐津市", "postcode": "849-5122", "prefecture": "佐賀県", "id": 8495122 },
        { "address": "原", "city": "唐津市", "postcode": "847-0031", "prefecture": "佐賀県", "id": 8470031 },
        { "address": "東宇木", "city": "唐津市", "postcode": "847-0024", "prefecture": "佐賀県", "id": 8470024 },
        { "address": "東大島町", "city": "唐津市", "postcode": "847-0871", "prefecture": "佐賀県", "id": 8470871 },
        { "address": "東唐津", "city": "唐津市", "postcode": "847-0017", "prefecture": "佐賀県", "id": 8470017 },
        { "address": "東城内", "city": "唐津市", "postcode": "847-0016", "prefecture": "佐賀県", "id": 8470016 },
        { "address": "東町", "city": "唐津市", "postcode": "847-0063", "prefecture": "佐賀県", "id": 8470063 },
        { "address": "東山", "city": "唐津市", "postcode": "847-0801", "prefecture": "佐賀県", "id": 8470801 },
        { "address": "肥前町赤坂", "city": "唐津市", "postcode": "847-1502", "prefecture": "佐賀県", "id": 8471502 },
        { "address": "肥前町上ケ倉", "city": "唐津市", "postcode": "847-1517", "prefecture": "佐賀県", "id": 8471517 },
        { "address": "肥前町犬頭", "city": "唐津市", "postcode": "847-1522", "prefecture": "佐賀県", "id": 8471522 },
        { "address": "肥前町入野", "city": "唐津市", "postcode": "847-1526", "prefecture": "佐賀県", "id": 8471526 },
        { "address": "肥前町梅崎", "city": "唐津市", "postcode": "847-1512", "prefecture": "佐賀県", "id": 8471512 },
        { "address": "肥前町瓜ケ坂", "city": "唐津市", "postcode": "847-1516", "prefecture": "佐賀県", "id": 8471516 },
        { "address": "肥前町大浦", "city": "唐津市", "postcode": "847-1506", "prefecture": "佐賀県", "id": 8471506 },
        { "address": "肥前町切木", "city": "唐津市", "postcode": "847-1501", "prefecture": "佐賀県", "id": 8471501 },
        { "address": "肥前町杉野浦", "city": "唐津市", "postcode": "847-1505", "prefecture": "佐賀県", "id": 8471505 },
        { "address": "肥前町田野", "city": "唐津市", "postcode": "847-1521", "prefecture": "佐賀県", "id": 8471521 },
        { "address": "肥前町鶴牧", "city": "唐津市", "postcode": "847-1527", "prefecture": "佐賀県", "id": 8471527 },
        { "address": "肥前町寺浦", "city": "唐津市", "postcode": "847-1513", "prefecture": "佐賀県", "id": 8471513 },
        { "address": "肥前町中浦", "city": "唐津市", "postcode": "847-1504", "prefecture": "佐賀県", "id": 8471504 },
        { "address": "肥前町新木場", "city": "唐津市", "postcode": "847-1511", "prefecture": "佐賀県", "id": 8471511 },
        {
            "address": "肥前町仁田野尾",
            "city": "唐津市",
            "postcode": "847-1514",
            "prefecture": "佐賀県",
            "id": 8471514
        },
        { "address": "肥前町納所", "city": "唐津市", "postcode": "847-1525", "prefecture": "佐賀県", "id": 8471525 },
        { "address": "肥前町星賀", "city": "唐津市", "postcode": "847-1523", "prefecture": "佐賀県", "id": 8471523 },
        {
            "address": "肥前町万賀里川",
            "city": "唐津市",
            "postcode": "847-1515",
            "prefecture": "佐賀県",
            "id": 8471515
        },
        { "address": "肥前町満越", "city": "唐津市", "postcode": "847-1507", "prefecture": "佐賀県", "id": 8471507 },
        { "address": "肥前町向島", "city": "唐津市", "postcode": "847-1524", "prefecture": "佐賀県", "id": 8471524 },
        { "address": "肥前町湯野浦", "city": "唐津市", "postcode": "847-1503", "prefecture": "佐賀県", "id": 8471503 },
        { "address": "平野町", "city": "唐津市", "postcode": "847-0812", "prefecture": "佐賀県", "id": 8470812 },
        { "address": "藤崎通", "city": "唐津市", "postcode": "847-0874", "prefecture": "佐賀県", "id": 8470874 },
        { "address": "富士見町", "city": "唐津市", "postcode": "847-0851", "prefecture": "佐賀県", "id": 8470851 },
        { "address": "二タ子", "city": "唐津市", "postcode": "847-0861", "prefecture": "佐賀県", "id": 8470861 },
        { "address": "船宮町", "city": "唐津市", "postcode": "847-0062", "prefecture": "佐賀県", "id": 8470062 },
        { "address": "坊主町", "city": "唐津市", "postcode": "847-0056", "prefecture": "佐賀県", "id": 8470056 },
        { "address": "本町", "city": "唐津市", "postcode": "847-0047", "prefecture": "佐賀県", "id": 8470047 },
        { "address": "湊町", "city": "唐津市", "postcode": "847-0133", "prefecture": "佐賀県", "id": 8470133 },
        { "address": "南城内", "city": "唐津市", "postcode": "847-0013", "prefecture": "佐賀県", "id": 8470013 },
        { "address": "南富士見町", "city": "唐津市", "postcode": "847-0876", "prefecture": "佐賀県", "id": 8470876 },
        { "address": "妙見町", "city": "唐津市", "postcode": "847-0863", "prefecture": "佐賀県", "id": 8470863 },
        { "address": "見借", "city": "唐津市", "postcode": "847-0825", "prefecture": "佐賀県", "id": 8470825 },
        { "address": "元石町", "city": "唐津市", "postcode": "847-0064", "prefecture": "佐賀県", "id": 8470064 },
        { "address": "元旗町", "city": "唐津市", "postcode": "847-0852", "prefecture": "佐賀県", "id": 8470852 },
        { "address": "八百屋町", "city": "唐津市", "postcode": "847-0811", "prefecture": "佐賀県", "id": 8470811 },
        { "address": "屋形石", "city": "唐津市", "postcode": "847-0135", "prefecture": "佐賀県", "id": 8470135 },
        { "address": "八幡町", "city": "唐津市", "postcode": "847-0102", "prefecture": "佐賀県", "id": 8470102 },
        { "address": "養母田", "city": "唐津市", "postcode": "847-0004", "prefecture": "佐賀県", "id": 8470004 },
        { "address": "養母田鬼塚", "city": "唐津市", "postcode": "847-0005", "prefecture": "佐賀県", "id": 8470005 },
        { "address": "山下町", "city": "唐津市", "postcode": "847-0842", "prefecture": "佐賀県", "id": 8470842 },
        { "address": "山田", "city": "唐津市", "postcode": "847-0834", "prefecture": "佐賀県", "id": 8470834 },
        { "address": "山本", "city": "唐津市", "postcode": "847-0002", "prefecture": "佐賀県", "id": 8470002 },
        { "address": "夕日", "city": "唐津市", "postcode": "847-0032", "prefecture": "佐賀県", "id": 8470032 },
        { "address": "弓鷹町", "city": "唐津市", "postcode": "847-0814", "prefecture": "佐賀県", "id": 8470814 },
        { "address": "横野", "city": "唐津市", "postcode": "847-0136", "prefecture": "佐賀県", "id": 8470136 },
        { "address": "呼子町大友", "city": "唐津市", "postcode": "847-0301", "prefecture": "佐賀県", "id": 8470301 },
        { "address": "呼子町小川島", "city": "唐津市", "postcode": "847-0306", "prefecture": "佐賀県", "id": 8470306 },
        { "address": "呼子町加部島", "city": "唐津市", "postcode": "847-0305", "prefecture": "佐賀県", "id": 8470305 },
        { "address": "呼子町小友", "city": "唐津市", "postcode": "847-0302", "prefecture": "佐賀県", "id": 8470302 },
        { "address": "呼子町殿ノ浦", "city": "唐津市", "postcode": "847-0304", "prefecture": "佐賀県", "id": 8470304 },
        { "address": "呼子町呼子", "city": "唐津市", "postcode": "847-0303", "prefecture": "佐賀県", "id": 8470303 },
        { "address": "和多田海士町", "city": "唐津市", "postcode": "847-0071", "prefecture": "佐賀県", "id": 8470071 },
        { "address": "和多田大土井", "city": "唐津市", "postcode": "847-0083", "prefecture": "佐賀県", "id": 8470083 },
        { "address": "和多田先石", "city": "唐津市", "postcode": "847-0074", "prefecture": "佐賀県", "id": 8470074 },
        { "address": "和多田天満町", "city": "唐津市", "postcode": "847-0082", "prefecture": "佐賀県", "id": 8470082 },
        { "address": "和多田西山", "city": "唐津市", "postcode": "847-0084", "prefecture": "佐賀県", "id": 8470084 },
        {
            "address": "和多田東百人町",
            "city": "唐津市",
            "postcode": "847-0073",
            "prefecture": "佐賀県",
            "id": 8470073
        },
        { "address": "和多田百人町", "city": "唐津市", "postcode": "847-0072", "prefecture": "佐賀県", "id": 8470072 },
        { "address": "和多田本村", "city": "唐津市", "postcode": "847-0085", "prefecture": "佐賀県", "id": 8470085 },
        { "address": "和多田南先石", "city": "唐津市", "postcode": "847-0081", "prefecture": "佐賀県", "id": 8470081 },
        { "address": "和多田用尺", "city": "唐津市", "postcode": "847-0075", "prefecture": "佐賀県", "id": 8470075 },
        { "city": "鳥栖市", "postcode": "841-0000", "prefecture": "佐賀県", "id": 8410000 },
        { "address": "秋葉町", "city": "鳥栖市", "postcode": "841-0036", "prefecture": "佐賀県", "id": 8410036 },
        { "address": "浅井町", "city": "鳥栖市", "postcode": "841-0082", "prefecture": "佐賀県", "id": 8410082 },
        { "address": "あさひ新町", "city": "鳥栖市", "postcode": "841-0068", "prefecture": "佐賀県", "id": 8410068 },
        { "address": "安楽寺町", "city": "鳥栖市", "postcode": "841-0045", "prefecture": "佐賀県", "id": 8410045 },
        { "address": "飯田町", "city": "鳥栖市", "postcode": "841-0022", "prefecture": "佐賀県", "id": 8410022 },
        { "address": "今泉町", "city": "鳥栖市", "postcode": "841-0047", "prefecture": "佐賀県", "id": 8410047 },
        { "address": "今町", "city": "鳥栖市", "postcode": "841-0001", "prefecture": "佐賀県", "id": 8410001 },
        { "address": "牛原町", "city": "鳥栖市", "postcode": "841-0086", "prefecture": "佐賀県", "id": 8410086 },
        { "address": "江島町", "city": "鳥栖市", "postcode": "841-0073", "prefecture": "佐賀県", "id": 8410073 },
        { "address": "加藤田町", "city": "鳥栖市", "postcode": "841-0003", "prefecture": "佐賀県", "id": 8410003 },
        { "address": "萱方町", "city": "鳥栖市", "postcode": "841-0081", "prefecture": "佐賀県", "id": 8410081 },
        { "address": "河内町", "city": "鳥栖市", "postcode": "841-0087", "prefecture": "佐賀県", "id": 8410087 },
        { "address": "儀徳町", "city": "鳥栖市", "postcode": "841-0066", "prefecture": "佐賀県", "id": 8410066 },
        { "address": "京町", "city": "鳥栖市", "postcode": "841-0034", "prefecture": "佐賀県", "id": 8410034 },
        { "address": "蔵上", "city": "鳥栖市", "postcode": "841-0056", "prefecture": "佐賀県", "id": 8410056 },
        { "address": "蔵上町", "city": "鳥栖市", "postcode": "841-0054", "prefecture": "佐賀県", "id": 8410054 },
        { "address": "神辺町", "city": "鳥栖市", "postcode": "841-0004", "prefecture": "佐賀県", "id": 8410004 },
        { "address": "古賀町", "city": "鳥栖市", "postcode": "841-0083", "prefecture": "佐賀県", "id": 8410083 },
        { "address": "幸津町", "city": "鳥栖市", "postcode": "841-0062", "prefecture": "佐賀県", "id": 8410062 },
        { "address": "酒井東町", "city": "鳥栖市", "postcode": "841-0041", "prefecture": "佐賀県", "id": 8410041 },
        { "address": "酒井西町", "city": "鳥栖市", "postcode": "841-0042", "prefecture": "佐賀県", "id": 8410042 },
        { "address": "桜ケ丘町", "city": "鳥栖市", "postcode": "841-0088", "prefecture": "佐賀県", "id": 8410088 },
        { "address": "桜町", "city": "鳥栖市", "postcode": "841-0014", "prefecture": "佐賀県", "id": 8410014 },
        { "address": "下野町", "city": "鳥栖市", "postcode": "841-0063", "prefecture": "佐賀県", "id": 8410063 },
        { "address": "宿町", "city": "鳥栖市", "postcode": "841-0052", "prefecture": "佐賀県", "id": 8410052 },
        { "address": "曽根崎町", "city": "鳥栖市", "postcode": "841-0025", "prefecture": "佐賀県", "id": 8410025 },
        { "address": "大正町", "city": "鳥栖市", "postcode": "841-0032", "prefecture": "佐賀県", "id": 8410032 },
        { "address": "高田町", "city": "鳥栖市", "postcode": "841-0044", "prefecture": "佐賀県", "id": 8410044 },
        { "address": "田代上町", "city": "鳥栖市", "postcode": "841-0015", "prefecture": "佐賀県", "id": 8410015 },
        { "address": "田代昌町", "city": "鳥栖市", "postcode": "841-0012", "prefecture": "佐賀県", "id": 8410012 },
        { "address": "田代新町", "city": "鳥栖市", "postcode": "841-0013", "prefecture": "佐賀県", "id": 8410013 },
        { "address": "田代大官町", "city": "鳥栖市", "postcode": "841-0017", "prefecture": "佐賀県", "id": 8410017 },
        { "address": "田代外町", "city": "鳥栖市", "postcode": "841-0016", "prefecture": "佐賀県", "id": 8410016 },
        { "address": "田代本町", "city": "鳥栖市", "postcode": "841-0018", "prefecture": "佐賀県", "id": 8410018 },
        { "address": "立石町", "city": "鳥栖市", "postcode": "841-0075", "prefecture": "佐賀県", "id": 8410075 },
        { "address": "土井町", "city": "鳥栖市", "postcode": "841-0039", "prefecture": "佐賀県", "id": 8410039 },
        { "address": "轟木町", "city": "鳥栖市", "postcode": "841-0061", "prefecture": "佐賀県", "id": 8410061 },
        { "address": "永吉町", "city": "鳥栖市", "postcode": "841-0011", "prefecture": "佐賀県", "id": 8410011 },
        { "address": "西新町", "city": "鳥栖市", "postcode": "841-0074", "prefecture": "佐賀県", "id": 8410074 },
        { "address": "西田町", "city": "鳥栖市", "postcode": "841-0067", "prefecture": "佐賀県", "id": 8410067 },
        { "address": "虹ケ丘町", "city": "鳥栖市", "postcode": "841-0089", "prefecture": "佐賀県", "id": 8410089 },
        { "address": "幡崎町", "city": "鳥栖市", "postcode": "841-0021", "prefecture": "佐賀県", "id": 8410021 },
        { "address": "原古賀町", "city": "鳥栖市", "postcode": "841-0071", "prefecture": "佐賀県", "id": 8410071 },
        { "address": "原町", "city": "鳥栖市", "postcode": "841-0024", "prefecture": "佐賀県", "id": 8410024 },
        { "address": "東町", "city": "鳥栖市", "postcode": "841-0035", "prefecture": "佐賀県", "id": 8410035 },
        { "address": "姫方町", "city": "鳥栖市", "postcode": "841-0023", "prefecture": "佐賀県", "id": 8410023 },
        { "address": "平田町", "city": "鳥栖市", "postcode": "841-0076", "prefecture": "佐賀県", "id": 8410076 },
        { "address": "藤木町", "city": "鳥栖市", "postcode": "841-0048", "prefecture": "佐賀県", "id": 8410048 },
        { "address": "布津原町", "city": "鳥栖市", "postcode": "841-0053", "prefecture": "佐賀県", "id": 8410053 },
        { "address": "古野町", "city": "鳥栖市", "postcode": "841-0038", "prefecture": "佐賀県", "id": 8410038 },
        { "address": "本通町", "city": "鳥栖市", "postcode": "841-0033", "prefecture": "佐賀県", "id": 8410033 },
        { "address": "本鳥栖町", "city": "鳥栖市", "postcode": "841-0026", "prefecture": "佐賀県", "id": 8410026 },
        { "address": "本町", "city": "鳥栖市", "postcode": "841-0037", "prefecture": "佐賀県", "id": 8410037 },
        { "address": "前田町", "city": "鳥栖市", "postcode": "841-0065", "prefecture": "佐賀県", "id": 8410065 },
        { "address": "真木町", "city": "鳥栖市", "postcode": "841-0046", "prefecture": "佐賀県", "id": 8410046 },
        { "address": "松原町", "city": "鳥栖市", "postcode": "841-0027", "prefecture": "佐賀県", "id": 8410027 },
        { "address": "三島町", "city": "鳥栖市", "postcode": "841-0064", "prefecture": "佐賀県", "id": 8410064 },
        { "address": "水屋町", "city": "鳥栖市", "postcode": "841-0043", "prefecture": "佐賀県", "id": 8410043 },
        { "address": "村田町", "city": "鳥栖市", "postcode": "841-0072", "prefecture": "佐賀県", "id": 8410072 },
        { "address": "元町", "city": "鳥栖市", "postcode": "841-0051", "prefecture": "佐賀県", "id": 8410051 },
        { "address": "養父町", "city": "鳥栖市", "postcode": "841-0055", "prefecture": "佐賀県", "id": 8410055 },
        { "address": "山浦町", "city": "鳥栖市", "postcode": "841-0084", "prefecture": "佐賀県", "id": 8410084 },
        { "address": "山都町", "city": "鳥栖市", "postcode": "841-0085", "prefecture": "佐賀県", "id": 8410085 },
        { "address": "弥生が丘", "city": "鳥栖市", "postcode": "841-0005", "prefecture": "佐賀県", "id": 8410005 },
        { "address": "鎗田町", "city": "鳥栖市", "postcode": "841-0031", "prefecture": "佐賀県", "id": 8410031 },
        { "address": "柚比町", "city": "鳥栖市", "postcode": "841-0002", "prefecture": "佐賀県", "id": 8410002 },
        { "city": "多久市", "postcode": "846-0000", "prefecture": "佐賀県", "id": 8460000 },
        { "address": "北多久町", "city": "多久市", "postcode": "846-0001", "prefecture": "佐賀県", "id": 8460001 },
        { "address": "北多久町莇原", "city": "多久市", "postcode": "846-0006", "prefecture": "佐賀県", "id": 8460006 },
        { "address": "北多久町小侍", "city": "多久市", "postcode": "846-0002", "prefecture": "佐賀県", "id": 8460002 },
        { "address": "北多久町砂原", "city": "多久市", "postcode": "846-0005", "prefecture": "佐賀県", "id": 8460005 },
        {
            "address": "北多久町多久原",
            "city": "多久市",
            "postcode": "846-0003",
            "prefecture": "佐賀県",
            "id": 8460003
        },
        {
            "address": "北多久町中多久",
            "city": "多久市",
            "postcode": "846-0004",
            "prefecture": "佐賀県",
            "id": 8460004
        },
        {
            "address": "北多久町メイプルタウン",
            "city": "多久市",
            "postcode": "846-0007",
            "prefecture": "佐賀県",
            "id": 8460007
        },
        { "address": "多久町", "city": "多久市", "postcode": "846-0031", "prefecture": "佐賀県", "id": 8460031 },
        { "address": "西多久町", "city": "多久市", "postcode": "846-0041", "prefecture": "佐賀県", "id": 8460041 },
        { "address": "東多久町", "city": "多久市", "postcode": "846-0011", "prefecture": "佐賀県", "id": 8460011 },
        { "address": "東多久町古賀", "city": "多久市", "postcode": "846-0013", "prefecture": "佐賀県", "id": 8460013 },
        { "address": "東多久町納所", "city": "多久市", "postcode": "846-0014", "prefecture": "佐賀県", "id": 8460014 },
        { "address": "東多久町別府", "city": "多久市", "postcode": "846-0012", "prefecture": "佐賀県", "id": 8460012 },
        { "address": "南多久町", "city": "多久市", "postcode": "846-0021", "prefecture": "佐賀県", "id": 8460021 },
        { "address": "南多久町泉町", "city": "多久市", "postcode": "846-0022", "prefecture": "佐賀県", "id": 8460022 },
        {
            "address": "南多久町下多久",
            "city": "多久市",
            "postcode": "846-0024",
            "prefecture": "佐賀県",
            "id": 8460024
        },
        { "address": "南多久町長尾", "city": "多久市", "postcode": "846-0023", "prefecture": "佐賀県", "id": 8460023 },
        { "address": "南多久町花祭", "city": "多久市", "postcode": "846-0025", "prefecture": "佐賀県", "id": 8460025 },
        { "city": "伊万里市", "postcode": "848-0000", "prefecture": "佐賀県", "id": 8480000 },
        { "address": "伊万里町甲", "city": "伊万里市", "postcode": "848-0047", "prefecture": "佐賀県", "id": 8480047 },
        { "address": "伊万里町乙", "city": "伊万里市", "postcode": "848-0046", "prefecture": "佐賀県", "id": 8480046 },
        { "address": "大川内町甲", "city": "伊万里市", "postcode": "848-0024", "prefecture": "佐賀県", "id": 8480024 },
        { "address": "大川内町乙", "city": "伊万里市", "postcode": "848-0025", "prefecture": "佐賀県", "id": 8480025 },
        { "address": "大川内町丙", "city": "伊万里市", "postcode": "848-0026", "prefecture": "佐賀県", "id": 8480026 },
        {
            "address": "大川町大川野",
            "city": "伊万里市",
            "postcode": "849-5251",
            "prefecture": "佐賀県",
            "id": 8495251
        },
        { "address": "大川町川原", "city": "伊万里市", "postcode": "849-5257", "prefecture": "佐賀県", "id": 8495257 },
        { "address": "大川町川西", "city": "伊万里市", "postcode": "849-5252", "prefecture": "佐賀県", "id": 8495252 },
        { "address": "大川町駒鳴", "city": "伊万里市", "postcode": "849-5253", "prefecture": "佐賀県", "id": 8495253 },
        { "address": "大川町立川", "city": "伊万里市", "postcode": "849-5254", "prefecture": "佐賀県", "id": 8495254 },
        {
            "address": "大川町東田代",
            "city": "伊万里市",
            "postcode": "849-5256",
            "prefecture": "佐賀県",
            "id": 8495256
        },
        { "address": "大川町山口", "city": "伊万里市", "postcode": "849-5255", "prefecture": "佐賀県", "id": 8495255 },
        { "address": "大坪町甲", "city": "伊万里市", "postcode": "848-0021", "prefecture": "佐賀県", "id": 8480021 },
        { "address": "大坪町乙", "city": "伊万里市", "postcode": "848-0022", "prefecture": "佐賀県", "id": 8480022 },
        { "address": "大坪町丙", "city": "伊万里市", "postcode": "848-0023", "prefecture": "佐賀県", "id": 8480023 },
        { "address": "木須町", "city": "伊万里市", "postcode": "848-0044", "prefecture": "佐賀県", "id": 8480044 },
        { "address": "黒川町", "city": "伊万里市", "postcode": "848-0124", "prefecture": "佐賀県", "id": 8480124 },
        {
            "address": "黒川町大黒川",
            "city": "伊万里市",
            "postcode": "848-0123",
            "prefecture": "佐賀県",
            "id": 8480123
        },
        { "address": "黒川町黒塩", "city": "伊万里市", "postcode": "848-0146", "prefecture": "佐賀県", "id": 8480146 },
        {
            "address": "黒川町小黒川",
            "city": "伊万里市",
            "postcode": "848-0125",
            "prefecture": "佐賀県",
            "id": 8480125
        },
        { "address": "黒川町塩屋", "city": "伊万里市", "postcode": "848-0121", "prefecture": "佐賀県", "id": 8480121 },
        { "address": "黒川町清水", "city": "伊万里市", "postcode": "848-0141", "prefecture": "佐賀県", "id": 8480141 },
        { "address": "黒川町立目", "city": "伊万里市", "postcode": "848-0142", "prefecture": "佐賀県", "id": 8480142 },
        { "address": "黒川町椿原", "city": "伊万里市", "postcode": "848-0145", "prefecture": "佐賀県", "id": 8480145 },
        { "address": "黒川町長尾", "city": "伊万里市", "postcode": "848-0132", "prefecture": "佐賀県", "id": 8480132 },
        {
            "address": "黒川町畑川内",
            "city": "伊万里市",
            "postcode": "848-0131",
            "prefecture": "佐賀県",
            "id": 8480131
        },
        { "address": "黒川町花房", "city": "伊万里市", "postcode": "848-0134", "prefecture": "佐賀県", "id": 8480134 },
        { "address": "黒川町福田", "city": "伊万里市", "postcode": "848-0122", "prefecture": "佐賀県", "id": 8480122 },
        {
            "address": "黒川町真手野",
            "city": "伊万里市",
            "postcode": "848-0133",
            "prefecture": "佐賀県",
            "id": 8480133
        },
        { "address": "黒川町牟田", "city": "伊万里市", "postcode": "848-0143", "prefecture": "佐賀県", "id": 8480143 },
        { "address": "黒川町横野", "city": "伊万里市", "postcode": "848-0144", "prefecture": "佐賀県", "id": 8480144 },
        { "address": "新天町", "city": "伊万里市", "postcode": "848-0041", "prefecture": "佐賀県", "id": 8480041 },
        { "address": "瀬戸町", "city": "伊万里市", "postcode": "848-0043", "prefecture": "佐賀県", "id": 8480043 },
        { "address": "立花町", "city": "伊万里市", "postcode": "848-0027", "prefecture": "佐賀県", "id": 8480027 },
        {
            "address": "二里町大里甲",
            "city": "伊万里市",
            "postcode": "848-0032",
            "prefecture": "佐賀県",
            "id": 8480032
        },
        {
            "address": "二里町大里乙",
            "city": "伊万里市",
            "postcode": "848-0035",
            "prefecture": "佐賀県",
            "id": 8480035
        },
        {
            "address": "二里町中里甲",
            "city": "伊万里市",
            "postcode": "848-0034",
            "prefecture": "佐賀県",
            "id": 8480034
        },
        {
            "address": "二里町中里乙",
            "city": "伊万里市",
            "postcode": "848-0033",
            "prefecture": "佐賀県",
            "id": 8480033
        },
        {
            "address": "二里町八谷搦",
            "city": "伊万里市",
            "postcode": "848-0031",
            "prefecture": "佐賀県",
            "id": 8480031
        },
        { "address": "蓮池町", "city": "伊万里市", "postcode": "848-0042", "prefecture": "佐賀県", "id": 8480042 },
        {
            "address": "波多津町板木",
            "city": "伊万里市",
            "postcode": "848-0113",
            "prefecture": "佐賀県",
            "id": 8480113
        },
        {
            "address": "波多津町井野尾",
            "city": "伊万里市",
            "postcode": "848-0116",
            "prefecture": "佐賀県",
            "id": 8480116
        },
        {
            "address": "波多津町内野",
            "city": "伊万里市",
            "postcode": "848-0103",
            "prefecture": "佐賀県",
            "id": 8480103
        },
        {
            "address": "波多津町木場",
            "city": "伊万里市",
            "postcode": "848-0111",
            "prefecture": "佐賀県",
            "id": 8480111
        },
        {
            "address": "波多津町煤屋",
            "city": "伊万里市",
            "postcode": "848-0104",
            "prefecture": "佐賀県",
            "id": 8480104
        },
        {
            "address": "波多津町田代",
            "city": "伊万里市",
            "postcode": "848-0112",
            "prefecture": "佐賀県",
            "id": 8480112
        },
        { "address": "波多津町辻", "city": "伊万里市", "postcode": "848-0101", "prefecture": "佐賀県", "id": 8480101 },
        {
            "address": "波多津町筒井",
            "city": "伊万里市",
            "postcode": "848-0117",
            "prefecture": "佐賀県",
            "id": 8480117
        },
        {
            "address": "波多津町津留主屋",
            "city": "伊万里市",
            "postcode": "848-0114",
            "prefecture": "佐賀県",
            "id": 8480114
        },
        {
            "address": "波多津町中山",
            "city": "伊万里市",
            "postcode": "848-0115",
            "prefecture": "佐賀県",
            "id": 8480115
        },
        {
            "address": "波多津町畑津",
            "city": "伊万里市",
            "postcode": "848-0102",
            "prefecture": "佐賀県",
            "id": 8480102
        },
        {
            "address": "波多津町馬蛤潟",
            "city": "伊万里市",
            "postcode": "848-0105",
            "prefecture": "佐賀県",
            "id": 8480105
        },
        {
            "address": "東山代町浦川内",
            "city": "伊万里市",
            "postcode": "849-4284",
            "prefecture": "佐賀県",
            "id": 8494284
        },
        {
            "address": "東山代町大久保",
            "city": "伊万里市",
            "postcode": "849-4281",
            "prefecture": "佐賀県",
            "id": 8494281
        },
        {
            "address": "東山代町川内野",
            "city": "伊万里市",
            "postcode": "849-4286",
            "prefecture": "佐賀県",
            "id": 8494286
        },
        { "address": "東山代町里", "city": "伊万里市", "postcode": "849-4282", "prefecture": "佐賀県", "id": 8494282 },
        {
            "address": "東山代町滝川内",
            "city": "伊万里市",
            "postcode": "849-4285",
            "prefecture": "佐賀県",
            "id": 8494285
        },
        {
            "address": "東山代町天神",
            "city": "伊万里市",
            "postcode": "849-4273",
            "prefecture": "佐賀県",
            "id": 8494273
        },
        {
            "address": "東山代町長浜",
            "city": "伊万里市",
            "postcode": "849-4271",
            "prefecture": "佐賀県",
            "id": 8494271
        },
        {
            "address": "東山代町日尾",
            "city": "伊万里市",
            "postcode": "849-4272",
            "prefecture": "佐賀県",
            "id": 8494272
        },
        {
            "address": "東山代町東大久保",
            "city": "伊万里市",
            "postcode": "849-4283",
            "prefecture": "佐賀県",
            "id": 8494283
        },
        {
            "address": "東山代町脇野",
            "city": "伊万里市",
            "postcode": "849-4274",
            "prefecture": "佐賀県",
            "id": 8494274
        },
        { "address": "松浦町提川", "city": "伊万里市", "postcode": "849-5264", "prefecture": "佐賀県", "id": 8495264 },
        {
            "address": "松浦町中野原",
            "city": "伊万里市",
            "postcode": "849-5262",
            "prefecture": "佐賀県",
            "id": 8495262
        },
        { "address": "松浦町桃川", "city": "伊万里市", "postcode": "849-5261", "prefecture": "佐賀県", "id": 8495261 },
        { "address": "松浦町山形", "city": "伊万里市", "postcode": "849-5263", "prefecture": "佐賀県", "id": 8495263 },
        { "address": "松島町", "city": "伊万里市", "postcode": "848-0045", "prefecture": "佐賀県", "id": 8480045 },
        {
            "address": "南波多町井手野",
            "city": "伊万里市",
            "postcode": "848-0007",
            "prefecture": "佐賀県",
            "id": 8480007
        },
        {
            "address": "南波多町大川原",
            "city": "伊万里市",
            "postcode": "848-0011",
            "prefecture": "佐賀県",
            "id": 8480011
        },
        {
            "address": "南波多町大曲",
            "city": "伊万里市",
            "postcode": "848-0005",
            "prefecture": "佐賀県",
            "id": 8480005
        },
        {
            "address": "南波多町笠椎",
            "city": "伊万里市",
            "postcode": "848-0013",
            "prefecture": "佐賀県",
            "id": 8480013
        },
        {
            "address": "南波多町小麦原",
            "city": "伊万里市",
            "postcode": "848-0014",
            "prefecture": "佐賀県",
            "id": 8480014
        },
        {
            "address": "南波多町重橋",
            "city": "伊万里市",
            "postcode": "848-0001",
            "prefecture": "佐賀県",
            "id": 8480001
        },
        {
            "address": "南波多町高瀬",
            "city": "伊万里市",
            "postcode": "848-0006",
            "prefecture": "佐賀県",
            "id": 8480006
        },
        {
            "address": "南波多町谷口",
            "city": "伊万里市",
            "postcode": "848-0002",
            "prefecture": "佐賀県",
            "id": 8480002
        },
        {
            "address": "南波多町水留",
            "city": "伊万里市",
            "postcode": "848-0004",
            "prefecture": "佐賀県",
            "id": 8480004
        },
        {
            "address": "南波多町原屋敷",
            "city": "伊万里市",
            "postcode": "848-0016",
            "prefecture": "佐賀県",
            "id": 8480016
        },
        {
            "address": "南波多町府招",
            "city": "伊万里市",
            "postcode": "848-0015",
            "prefecture": "佐賀県",
            "id": 8480015
        },
        {
            "address": "南波多町古川",
            "city": "伊万里市",
            "postcode": "848-0012",
            "prefecture": "佐賀県",
            "id": 8480012
        },
        {
            "address": "南波多町古里",
            "city": "伊万里市",
            "postcode": "848-0003",
            "prefecture": "佐賀県",
            "id": 8480003
        },
        { "address": "山代町楠久", "city": "伊万里市", "postcode": "849-4251", "prefecture": "佐賀県", "id": 8494251 },
        {
            "address": "山代町楠久津",
            "city": "伊万里市",
            "postcode": "849-4252",
            "prefecture": "佐賀県",
            "id": 8494252
        },
        { "address": "山代町久原", "city": "伊万里市", "postcode": "849-4256", "prefecture": "佐賀県", "id": 8494256 },
        { "address": "山代町城", "city": "伊万里市", "postcode": "849-4254", "prefecture": "佐賀県", "id": 8494254 },
        { "address": "山代町立岩", "city": "伊万里市", "postcode": "849-4261", "prefecture": "佐賀県", "id": 8494261 },
        {
            "address": "山代町西大久保",
            "city": "伊万里市",
            "postcode": "849-4263",
            "prefecture": "佐賀県",
            "id": 8494263
        },
        { "address": "山代町東分", "city": "伊万里市", "postcode": "849-4264", "prefecture": "佐賀県", "id": 8494264 },
        { "address": "山代町西分", "city": "伊万里市", "postcode": "849-4262", "prefecture": "佐賀県", "id": 8494262 },
        {
            "address": "山代町福川内",
            "city": "伊万里市",
            "postcode": "849-4255",
            "prefecture": "佐賀県",
            "id": 8494255
        },
        { "address": "山代町峰", "city": "伊万里市", "postcode": "849-4253", "prefecture": "佐賀県", "id": 8494253 },
        { "address": "脇田町", "city": "伊万里市", "postcode": "848-0028", "prefecture": "佐賀県", "id": 8480028 },
        { "city": "武雄市", "postcode": "843-0000", "prefecture": "佐賀県", "id": 8430000 },
        { "address": "朝日町芦原", "city": "武雄市", "postcode": "843-0003", "prefecture": "佐賀県", "id": 8430003 },
        { "address": "朝日町甘久", "city": "武雄市", "postcode": "843-0001", "prefecture": "佐賀県", "id": 8430001 },
        { "address": "朝日町中野", "city": "武雄市", "postcode": "843-0002", "prefecture": "佐賀県", "id": 8430002 },
        { "address": "北方町芦原", "city": "武雄市", "postcode": "849-2203", "prefecture": "佐賀県", "id": 8492203 },
        { "address": "北方町大崎", "city": "武雄市", "postcode": "849-2204", "prefecture": "佐賀県", "id": 8492204 },
        { "address": "北方町大渡", "city": "武雄市", "postcode": "849-2202", "prefecture": "佐賀県", "id": 8492202 },
        { "address": "北方町志久", "city": "武雄市", "postcode": "849-2201", "prefecture": "佐賀県", "id": 8492201 },
        { "address": "武内町梅野", "city": "武雄市", "postcode": "849-2341", "prefecture": "佐賀県", "id": 8492341 },
        { "address": "武内町真手野", "city": "武雄市", "postcode": "849-2342", "prefecture": "佐賀県", "id": 8492342 },
        { "address": "武雄町昭和", "city": "武雄市", "postcode": "843-0023", "prefecture": "佐賀県", "id": 8430023 },
        { "address": "武雄町武雄", "city": "武雄市", "postcode": "843-0022", "prefecture": "佐賀県", "id": 8430022 },
        { "address": "武雄町富岡", "city": "武雄市", "postcode": "843-0024", "prefecture": "佐賀県", "id": 8430024 },
        { "address": "武雄町永島", "city": "武雄市", "postcode": "843-0021", "prefecture": "佐賀県", "id": 8430021 },
        { "address": "橘町芦原", "city": "武雄市", "postcode": "843-0011", "prefecture": "佐賀県", "id": 8430011 },
        { "address": "橘町片白", "city": "武雄市", "postcode": "843-0012", "prefecture": "佐賀県", "id": 8430012 },
        { "address": "橘町大日", "city": "武雄市", "postcode": "843-0013", "prefecture": "佐賀県", "id": 8430013 },
        { "address": "橘町永島", "city": "武雄市", "postcode": "843-0014", "prefecture": "佐賀県", "id": 8430014 },
        {
            "address": "西川登町小田志",
            "city": "武雄市",
            "postcode": "843-0231",
            "prefecture": "佐賀県",
            "id": 8430231
        },
        { "address": "西川登町神六", "city": "武雄市", "postcode": "843-0232", "prefecture": "佐賀県", "id": 8430232 },
        { "address": "東川登町永野", "city": "武雄市", "postcode": "843-0233", "prefecture": "佐賀県", "id": 8430233 },
        { "address": "東川登町袴野", "city": "武雄市", "postcode": "843-0234", "prefecture": "佐賀県", "id": 8430234 },
        { "address": "山内町犬走", "city": "武雄市", "postcode": "849-2301", "prefecture": "佐賀県", "id": 8492301 },
        { "address": "山内町大野", "city": "武雄市", "postcode": "849-2304", "prefecture": "佐賀県", "id": 8492304 },
        { "address": "山内町鳥海", "city": "武雄市", "postcode": "849-2302", "prefecture": "佐賀県", "id": 8492302 },
        { "address": "山内町三間坂", "city": "武雄市", "postcode": "849-2303", "prefecture": "佐賀県", "id": 8492303 },
        { "address": "山内町宮野", "city": "武雄市", "postcode": "849-2305", "prefecture": "佐賀県", "id": 8492305 },
        { "address": "若木町川古", "city": "武雄市", "postcode": "843-0151", "prefecture": "佐賀県", "id": 8430151 },
        { "address": "若木町本部", "city": "武雄市", "postcode": "843-0152", "prefecture": "佐賀県", "id": 8430152 },
        { "address": "若木町桃川", "city": "武雄市", "postcode": "843-0153", "prefecture": "佐賀県", "id": 8430153 },
        { "city": "鹿島市", "postcode": "849-1300", "prefecture": "佐賀県", "id": 8491300 },
        { "address": "飯田", "city": "鹿島市", "postcode": "849-1324", "prefecture": "佐賀県", "id": 8491324 },
        { "address": "井手", "city": "鹿島市", "postcode": "849-1302", "prefecture": "佐賀県", "id": 8491302 },
        { "address": "音成", "city": "鹿島市", "postcode": "849-1323", "prefecture": "佐賀県", "id": 8491323 },
        { "address": "重ノ木", "city": "鹿島市", "postcode": "849-1313", "prefecture": "佐賀県", "id": 8491313 },
        { "address": "高津原", "city": "鹿島市", "postcode": "849-1311", "prefecture": "佐賀県", "id": 8491311 },
        { "address": "常広", "city": "鹿島市", "postcode": "849-1301", "prefecture": "佐賀県", "id": 8491301 },
        { "address": "中村", "city": "鹿島市", "postcode": "849-1304", "prefecture": "佐賀県", "id": 8491304 },
        { "address": "納富分", "city": "鹿島市", "postcode": "849-1312", "prefecture": "佐賀県", "id": 8491312 },
        { "address": "浜町", "city": "鹿島市", "postcode": "849-1322", "prefecture": "佐賀県", "id": 8491322 },
        { "address": "古枝", "city": "鹿島市", "postcode": "849-1321", "prefecture": "佐賀県", "id": 8491321 },
        { "address": "三河内", "city": "鹿島市", "postcode": "849-1315", "prefecture": "佐賀県", "id": 8491315 },
        { "address": "森", "city": "鹿島市", "postcode": "849-1303", "prefecture": "佐賀県", "id": 8491303 },
        { "address": "山浦", "city": "鹿島市", "postcode": "849-1314", "prefecture": "佐賀県", "id": 8491314 },
        { "city": "小城市", "postcode": "845-0000", "prefecture": "佐賀県", "id": 8450000 },
        { "address": "芦刈町芦溝", "city": "小城市", "postcode": "849-0311", "prefecture": "佐賀県", "id": 8490311 },
        { "address": "芦刈町下古賀", "city": "小城市", "postcode": "849-0312", "prefecture": "佐賀県", "id": 8490312 },
        { "address": "芦刈町道免", "city": "小城市", "postcode": "849-0316", "prefecture": "佐賀県", "id": 8490316 },
        { "address": "芦刈町永田", "city": "小城市", "postcode": "849-0313", "prefecture": "佐賀県", "id": 8490313 },
        { "address": "芦刈町浜枝川", "city": "小城市", "postcode": "849-0315", "prefecture": "佐賀県", "id": 8490315 },
        { "address": "芦刈町三王崎", "city": "小城市", "postcode": "849-0314", "prefecture": "佐賀県", "id": 8490314 },
        { "address": "牛津町牛津", "city": "小城市", "postcode": "849-0303", "prefecture": "佐賀県", "id": 8490303 },
        { "address": "牛津町乙柳", "city": "小城市", "postcode": "849-0301", "prefecture": "佐賀県", "id": 8490301 },
        { "address": "牛津町柿樋瀬", "city": "小城市", "postcode": "849-0302", "prefecture": "佐賀県", "id": 8490302 },
        { "address": "牛津町勝", "city": "小城市", "postcode": "849-0306", "prefecture": "佐賀県", "id": 8490306 },
        { "address": "牛津町上砥川", "city": "小城市", "postcode": "849-0305", "prefecture": "佐賀県", "id": 8490305 },
        { "address": "牛津町下砥川", "city": "小城市", "postcode": "849-0304", "prefecture": "佐賀県", "id": 8490304 },
        { "address": "小城町", "city": "小城市", "postcode": "845-0001", "prefecture": "佐賀県", "id": 8450001 },
        { "address": "小城町池上", "city": "小城市", "postcode": "845-0012", "prefecture": "佐賀県", "id": 8450012 },
        { "address": "小城町岩蔵", "city": "小城市", "postcode": "845-0003", "prefecture": "佐賀県", "id": 8450003 },
        { "address": "小城町栗原", "city": "小城市", "postcode": "845-0013", "prefecture": "佐賀県", "id": 8450013 },
        { "address": "小城町畑田", "city": "小城市", "postcode": "845-0002", "prefecture": "佐賀県", "id": 8450002 },
        { "address": "小城町晴気", "city": "小城市", "postcode": "845-0014", "prefecture": "佐賀県", "id": 8450014 },
        { "address": "小城町東新町", "city": "小城市", "postcode": "845-0005", "prefecture": "佐賀県", "id": 8450005 },
        { "address": "小城町船田", "city": "小城市", "postcode": "845-0011", "prefecture": "佐賀県", "id": 8450011 },
        { "address": "小城町松尾", "city": "小城市", "postcode": "845-0004", "prefecture": "佐賀県", "id": 8450004 },
        { "address": "三日月町石木", "city": "小城市", "postcode": "845-0035", "prefecture": "佐賀県", "id": 8450035 },
        { "address": "三日月町織島", "city": "小城市", "postcode": "845-0023", "prefecture": "佐賀県", "id": 8450023 },
        { "address": "三日月町金田", "city": "小城市", "postcode": "845-0032", "prefecture": "佐賀県", "id": 8450032 },
        { "address": "三日月町久米", "city": "小城市", "postcode": "845-0022", "prefecture": "佐賀県", "id": 8450022 },
        {
            "address": "三日月町甲柳原",
            "city": "小城市",
            "postcode": "845-0034",
            "prefecture": "佐賀県",
            "id": 8450034
        },
        {
            "address": "三日月町長神田",
            "city": "小城市",
            "postcode": "845-0021",
            "prefecture": "佐賀県",
            "id": 8450021
        },
        { "address": "三日月町樋口", "city": "小城市", "postcode": "845-0033", "prefecture": "佐賀県", "id": 8450033 },
        { "address": "三日月町堀江", "city": "小城市", "postcode": "845-0031", "prefecture": "佐賀県", "id": 8450031 },
        {
            "address": "三日月町三ケ島",
            "city": "小城市",
            "postcode": "845-0025",
            "prefecture": "佐賀県",
            "id": 8450025
        },
        { "address": "三日月町道辺", "city": "小城市", "postcode": "845-0024", "prefecture": "佐賀県", "id": 8450024 },
        { "city": "嬉野市", "postcode": "843-0300", "prefecture": "佐賀県", "id": 8430300 },
        {
            "address": "嬉野町岩屋川内",
            "city": "嬉野市",
            "postcode": "843-0304",
            "prefecture": "佐賀県",
            "id": 8430304
        },
        { "address": "嬉野町下宿", "city": "嬉野市", "postcode": "843-0301", "prefecture": "佐賀県", "id": 8430301 },
        { "address": "嬉野町下野", "city": "嬉野市", "postcode": "843-0302", "prefecture": "佐賀県", "id": 8430302 },
        { "address": "嬉野町不動山", "city": "嬉野市", "postcode": "843-0305", "prefecture": "佐賀県", "id": 8430305 },
        { "address": "嬉野町吉田", "city": "嬉野市", "postcode": "843-0303", "prefecture": "佐賀県", "id": 8430303 },
        {
            "address": "塩田町大草野乙",
            "city": "嬉野市",
            "postcode": "849-1416",
            "prefecture": "佐賀県",
            "id": 8491416
        },
        {
            "address": "塩田町大草野甲",
            "city": "嬉野市",
            "postcode": "849-1414",
            "prefecture": "佐賀県",
            "id": 8491414
        },
        {
            "address": "塩田町大草野丙",
            "city": "嬉野市",
            "postcode": "849-1415",
            "prefecture": "佐賀県",
            "id": 8491415
        },
        { "address": "塩田町久間乙", "city": "嬉野市", "postcode": "849-1402", "prefecture": "佐賀県", "id": 8491402 },
        { "address": "塩田町久間甲", "city": "嬉野市", "postcode": "849-1401", "prefecture": "佐賀県", "id": 8491401 },
        { "address": "塩田町久間丁", "city": "嬉野市", "postcode": "849-1404", "prefecture": "佐賀県", "id": 8491404 },
        { "address": "塩田町久間丙", "city": "嬉野市", "postcode": "849-1403", "prefecture": "佐賀県", "id": 8491403 },
        {
            "address": "塩田町五町田乙",
            "city": "嬉野市",
            "postcode": "849-1426",
            "prefecture": "佐賀県",
            "id": 8491426
        },
        {
            "address": "塩田町五町田甲",
            "city": "嬉野市",
            "postcode": "849-1425",
            "prefecture": "佐賀県",
            "id": 8491425
        },
        { "address": "塩田町谷所乙", "city": "嬉野市", "postcode": "849-1423", "prefecture": "佐賀県", "id": 8491423 },
        { "address": "塩田町谷所甲", "city": "嬉野市", "postcode": "849-1422", "prefecture": "佐賀県", "id": 8491422 },
        { "address": "塩田町谷所丙", "city": "嬉野市", "postcode": "849-1424", "prefecture": "佐賀県", "id": 8491424 },
        {
            "address": "塩田町馬場下乙",
            "city": "嬉野市",
            "postcode": "849-1412",
            "prefecture": "佐賀県",
            "id": 8491412
        },
        {
            "address": "塩田町馬場下甲",
            "city": "嬉野市",
            "postcode": "849-1411",
            "prefecture": "佐賀県",
            "id": 8491411
        },
        {
            "address": "塩田町馬場下丙",
            "city": "嬉野市",
            "postcode": "849-1413",
            "prefecture": "佐賀県",
            "id": 8491413
        },
        { "address": "塩田町真崎", "city": "嬉野市", "postcode": "849-1421", "prefecture": "佐賀県", "id": 8491421 },
        { "city": "神埼市", "postcode": "842-0000", "prefecture": "佐賀県", "id": 8420000 },
        { "address": "神埼町姉川", "city": "神埼市", "postcode": "842-0014", "prefecture": "佐賀県", "id": 8420014 },
        { "address": "神埼町的", "city": "神埼市", "postcode": "842-0123", "prefecture": "佐賀県", "id": 8420123 },
        { "address": "神埼町枝ケ里", "city": "神埼市", "postcode": "842-0006", "prefecture": "佐賀県", "id": 8420006 },
        { "address": "神埼町尾崎", "city": "神埼市", "postcode": "842-0015", "prefecture": "佐賀県", "id": 8420015 },
        { "address": "神埼町神埼", "city": "神埼市", "postcode": "842-0001", "prefecture": "佐賀県", "id": 8420001 },
        { "address": "神埼町城原", "city": "神埼市", "postcode": "842-0122", "prefecture": "佐賀県", "id": 8420122 },
        { "address": "神埼町志波屋", "city": "神埼市", "postcode": "842-0121", "prefecture": "佐賀県", "id": 8420121 },
        { "address": "神埼町竹", "city": "神埼市", "postcode": "842-0011", "prefecture": "佐賀県", "id": 8420011 },
        {
            "address": "神埼町田道ケ里",
            "city": "神埼市",
            "postcode": "842-0002",
            "prefecture": "佐賀県",
            "id": 8420002
        },
        { "address": "神埼町鶴", "city": "神埼市", "postcode": "842-0107", "prefecture": "佐賀県", "id": 8420107 },
        { "address": "神埼町鶴", "city": "神埼市", "postcode": "842-0007", "prefecture": "佐賀県", "id": 8420007 },
        { "address": "神埼町永歌", "city": "神埼市", "postcode": "842-0004", "prefecture": "佐賀県", "id": 8420004 },
        {
            "address": "神埼町西小津ケ里",
            "city": "神埼市",
            "postcode": "842-0005",
            "prefecture": "佐賀県",
            "id": 8420005
        },
        {
            "address": "神埼町本告牟田",
            "city": "神埼市",
            "postcode": "842-0013",
            "prefecture": "佐賀県",
            "id": 8420013
        },
        { "address": "神埼町本堀", "city": "神埼市", "postcode": "842-0003", "prefecture": "佐賀県", "id": 8420003 },
        { "address": "神埼町横武", "city": "神埼市", "postcode": "842-0012", "prefecture": "佐賀県", "id": 8420012 },
        { "address": "脊振町服巻", "city": "神埼市", "postcode": "842-0203", "prefecture": "佐賀県", "id": 8420203 },
        { "address": "脊振町広滝", "city": "神埼市", "postcode": "842-0201", "prefecture": "佐賀県", "id": 8420201 },
        { "address": "脊振町鹿路", "city": "神埼市", "postcode": "842-0202", "prefecture": "佐賀県", "id": 8420202 },
        { "address": "千代田町姉", "city": "神埼市", "postcode": "842-0052", "prefecture": "佐賀県", "id": 8420052 },
        { "address": "千代田町餘江", "city": "神埼市", "postcode": "842-0054", "prefecture": "佐賀県", "id": 8420054 },
        { "address": "千代田町嘉納", "city": "神埼市", "postcode": "842-0067", "prefecture": "佐賀県", "id": 8420067 },
        { "address": "千代田町黒井", "city": "神埼市", "postcode": "842-0051", "prefecture": "佐賀県", "id": 8420051 },
        { "address": "千代田町境原", "city": "神埼市", "postcode": "842-0056", "prefecture": "佐賀県", "id": 8420056 },
        { "address": "千代田町崎村", "city": "神埼市", "postcode": "842-0065", "prefecture": "佐賀県", "id": 8420065 },
        { "address": "千代田町下板", "city": "神埼市", "postcode": "842-0068", "prefecture": "佐賀県", "id": 8420068 },
        { "address": "千代田町下西", "city": "神埼市", "postcode": "842-0055", "prefecture": "佐賀県", "id": 8420055 },
        { "address": "千代田町詫田", "city": "神埼市", "postcode": "842-0061", "prefecture": "佐賀県", "id": 8420061 },
        { "address": "千代田町直鳥", "city": "神埼市", "postcode": "842-0053", "prefecture": "佐賀県", "id": 8420053 },
        { "address": "千代田町迎島", "city": "神埼市", "postcode": "842-0063", "prefecture": "佐賀県", "id": 8420063 },
        { "address": "千代田町柳島", "city": "神埼市", "postcode": "842-0062", "prefecture": "佐賀県", "id": 8420062 },
        { "address": "千代田町用作", "city": "神埼市", "postcode": "842-0066", "prefecture": "佐賀県", "id": 8420066 },
        { "address": "千代田町渡瀬", "city": "神埼市", "postcode": "842-0064", "prefecture": "佐賀県", "id": 8420064 },
        {
            "address": "石動",
            "city": "神埼郡吉野ヶ里町",
            "postcode": "842-0102",
            "prefecture": "佐賀県",
            "id": 8420102
        },
        {
            "address": "大曲",
            "city": "神埼郡吉野ヶ里町",
            "postcode": "842-0103",
            "prefecture": "佐賀県",
            "id": 8420103
        },
        {
            "address": "田手",
            "city": "神埼郡吉野ヶ里町",
            "postcode": "842-0035",
            "prefecture": "佐賀県",
            "id": 8420035
        },
        {
            "address": "立野",
            "city": "神埼郡吉野ヶ里町",
            "postcode": "842-0032",
            "prefecture": "佐賀県",
            "id": 8420032
        },
        {
            "address": "箱川",
            "city": "神埼郡吉野ヶ里町",
            "postcode": "842-0034",
            "prefecture": "佐賀県",
            "id": 8420034
        },
        {
            "address": "松隈",
            "city": "神埼郡吉野ヶ里町",
            "postcode": "842-0101",
            "prefecture": "佐賀県",
            "id": 8420101
        },
        {
            "address": "豆田",
            "city": "神埼郡吉野ヶ里町",
            "postcode": "842-0033",
            "prefecture": "佐賀県",
            "id": 8420033
        },
        {
            "address": "三津",
            "city": "神埼郡吉野ヶ里町",
            "postcode": "842-0104",
            "prefecture": "佐賀県",
            "id": 8420104
        },
        {
            "address": "吉田",
            "city": "神埼郡吉野ヶ里町",
            "postcode": "842-0031",
            "prefecture": "佐賀県",
            "id": 8420031
        },
        { "city": "三養基郡基山町", "postcode": "841-0200", "prefecture": "佐賀県", "id": 8410200 },
        {
            "address": "けやき台",
            "city": "三養基郡基山町",
            "postcode": "841-0205",
            "prefecture": "佐賀県",
            "id": 8410205
        },
        { "address": "小倉", "city": "三養基郡基山町", "postcode": "841-0201", "prefecture": "佐賀県", "id": 8410201 },
        { "address": "園部", "city": "三養基郡基山町", "postcode": "841-0203", "prefecture": "佐賀県", "id": 8410203 },
        { "address": "長野", "city": "三養基郡基山町", "postcode": "841-0202", "prefecture": "佐賀県", "id": 8410202 },
        { "address": "宮浦", "city": "三養基郡基山町", "postcode": "841-0204", "prefecture": "佐賀県", "id": 8410204 },
        { "city": "三養基郡上峰町", "postcode": "849-0100", "prefecture": "佐賀県", "id": 8490100 },
        { "address": "江迎", "city": "三養基郡上峰町", "postcode": "849-0121", "prefecture": "佐賀県", "id": 8490121 },
        { "address": "堤", "city": "三養基郡上峰町", "postcode": "849-0124", "prefecture": "佐賀県", "id": 8490124 },
        { "address": "坊所", "city": "三養基郡上峰町", "postcode": "849-0123", "prefecture": "佐賀県", "id": 8490123 },
        {
            "address": "前牟田",
            "city": "三養基郡上峰町",
            "postcode": "849-0122",
            "prefecture": "佐賀県",
            "id": 8490122
        },
        {
            "address": "市武",
            "city": "三養基郡みやき町",
            "postcode": "840-1106",
            "prefecture": "佐賀県",
            "id": 8401106
        },
        {
            "address": "江口",
            "city": "三養基郡みやき町",
            "postcode": "849-0112",
            "prefecture": "佐賀県",
            "id": 8490112
        },
        {
            "address": "坂口",
            "city": "三養基郡みやき町",
            "postcode": "840-1103",
            "prefecture": "佐賀県",
            "id": 8401103
        },
        {
            "address": "白壁",
            "city": "三養基郡みやき町",
            "postcode": "849-0111",
            "prefecture": "佐賀県",
            "id": 8490111
        },
        {
            "address": "天建寺",
            "city": "三養基郡みやき町",
            "postcode": "840-1102",
            "prefecture": "佐賀県",
            "id": 8401102
        },
        {
            "address": "中津隈",
            "city": "三養基郡みやき町",
            "postcode": "849-0114",
            "prefecture": "佐賀県",
            "id": 8490114
        },
        {
            "address": "西島",
            "city": "三養基郡みやき町",
            "postcode": "840-1101",
            "prefecture": "佐賀県",
            "id": 8401101
        },
        {
            "address": "原古賀",
            "city": "三養基郡みやき町",
            "postcode": "849-0101",
            "prefecture": "佐賀県",
            "id": 8490101
        },
        {
            "address": "東尾",
            "city": "三養基郡みやき町",
            "postcode": "849-0113",
            "prefecture": "佐賀県",
            "id": 8490113
        },
        {
            "address": "東津",
            "city": "三養基郡みやき町",
            "postcode": "840-1104",
            "prefecture": "佐賀県",
            "id": 8401104
        },
        {
            "address": "簑原",
            "city": "三養基郡みやき町",
            "postcode": "849-0102",
            "prefecture": "佐賀県",
            "id": 8490102
        },
        {
            "address": "寄人",
            "city": "三養基郡みやき町",
            "postcode": "840-1105",
            "prefecture": "佐賀県",
            "id": 8401105
        },
        { "city": "東松浦郡玄海町", "postcode": "847-1400", "prefecture": "佐賀県", "id": 8471400 },
        {
            "address": "有浦上",
            "city": "東松浦郡玄海町",
            "postcode": "847-1403",
            "prefecture": "佐賀県",
            "id": 8471403
        },
        {
            "address": "有浦下",
            "city": "東松浦郡玄海町",
            "postcode": "847-1402",
            "prefecture": "佐賀県",
            "id": 8471402
        },
        { "address": "石田", "city": "東松浦郡玄海町", "postcode": "847-1423", "prefecture": "佐賀県", "id": 8471423 },
        { "address": "今村", "city": "東松浦郡玄海町", "postcode": "847-1441", "prefecture": "佐賀県", "id": 8471441 },
        { "address": "大薗", "city": "東松浦郡玄海町", "postcode": "847-1434", "prefecture": "佐賀県", "id": 8471434 },
        { "address": "大鳥", "city": "東松浦郡玄海町", "postcode": "847-1413", "prefecture": "佐賀県", "id": 8471413 },
        { "address": "仮立", "city": "東松浦郡玄海町", "postcode": "847-1443", "prefecture": "佐賀県", "id": 8471443 },
        { "address": "仮屋", "city": "東松浦郡玄海町", "postcode": "847-1435", "prefecture": "佐賀県", "id": 8471435 },
        {
            "address": "小加倉",
            "city": "東松浦郡玄海町",
            "postcode": "847-1401",
            "prefecture": "佐賀県",
            "id": 8471401
        },
        { "address": "栄", "city": "東松浦郡玄海町", "postcode": "847-1424", "prefecture": "佐賀県", "id": 8471424 },
        { "address": "下宮", "city": "東松浦郡玄海町", "postcode": "847-1445", "prefecture": "佐賀県", "id": 8471445 },
        { "address": "新田", "city": "東松浦郡玄海町", "postcode": "847-1422", "prefecture": "佐賀県", "id": 8471422 },
        {
            "address": "座川内",
            "city": "東松浦郡玄海町",
            "postcode": "847-1415",
            "prefecture": "佐賀県",
            "id": 8471415
        },
        { "address": "田代", "city": "東松浦郡玄海町", "postcode": "847-1412", "prefecture": "佐賀県", "id": 8471412 },
        {
            "address": "値賀川内",
            "city": "東松浦郡玄海町",
            "postcode": "847-1442",
            "prefecture": "佐賀県",
            "id": 8471442
        },
        { "address": "轟木", "city": "東松浦郡玄海町", "postcode": "847-1411", "prefecture": "佐賀県", "id": 8471411 },
        { "address": "中通", "city": "東松浦郡玄海町", "postcode": "847-1444", "prefecture": "佐賀県", "id": 8471444 },
        { "address": "長倉", "city": "東松浦郡玄海町", "postcode": "847-1404", "prefecture": "佐賀県", "id": 8471404 },
        {
            "address": "花の木",
            "city": "東松浦郡玄海町",
            "postcode": "847-1425",
            "prefecture": "佐賀県",
            "id": 8471425
        },
        {
            "address": "浜野浦",
            "city": "東松浦郡玄海町",
            "postcode": "847-1433",
            "prefecture": "佐賀県",
            "id": 8471433
        },
        { "address": "平尾", "city": "東松浦郡玄海町", "postcode": "847-1432", "prefecture": "佐賀県", "id": 8471432 },
        {
            "address": "普恩寺",
            "city": "東松浦郡玄海町",
            "postcode": "847-1431",
            "prefecture": "佐賀県",
            "id": 8471431
        },
        { "address": "藤平", "city": "東松浦郡玄海町", "postcode": "847-1405", "prefecture": "佐賀県", "id": 8471405 },
        { "address": "外津", "city": "東松浦郡玄海町", "postcode": "847-1446", "prefecture": "佐賀県", "id": 8471446 },
        { "address": "牟形", "city": "東松浦郡玄海町", "postcode": "847-1416", "prefecture": "佐賀県", "id": 8471416 },
        { "address": "諸浦", "city": "東松浦郡玄海町", "postcode": "847-1421", "prefecture": "佐賀県", "id": 8471421 },
        {
            "address": "湯野尾",
            "city": "東松浦郡玄海町",
            "postcode": "847-1414",
            "prefecture": "佐賀県",
            "id": 8471414
        },
        { "city": "西松浦郡有田町", "postcode": "844-0000", "prefecture": "佐賀県", "id": 8440000 },
        {
            "address": "赤絵町",
            "city": "西松浦郡有田町",
            "postcode": "844-0006",
            "prefecture": "佐賀県",
            "id": 8440006
        },
        { "address": "赤坂", "city": "西松浦郡有田町", "postcode": "844-0024", "prefecture": "佐賀県", "id": 8440024 },
        { "address": "泉山", "city": "西松浦郡有田町", "postcode": "844-0001", "prefecture": "佐賀県", "id": 8440001 },
        {
            "address": "岩谷川内",
            "city": "西松浦郡有田町",
            "postcode": "844-0011",
            "prefecture": "佐賀県",
            "id": 8440011
        },
        { "address": "応法", "city": "西松浦郡有田町", "postcode": "844-0021", "prefecture": "佐賀県", "id": 8440021 },
        {
            "address": "大木宿",
            "city": "西松浦郡有田町",
            "postcode": "849-4154",
            "prefecture": "佐賀県",
            "id": 8494154
        },
        { "address": "大樽", "city": "西松浦郡有田町", "postcode": "844-0004", "prefecture": "佐賀県", "id": 8440004 },
        { "address": "大野", "city": "西松浦郡有田町", "postcode": "844-0013", "prefecture": "佐賀県", "id": 8440013 },
        {
            "address": "上内野",
            "city": "西松浦郡有田町",
            "postcode": "849-4162",
            "prefecture": "佐賀県",
            "id": 8494162
        },
        {
            "address": "上幸平",
            "city": "西松浦郡有田町",
            "postcode": "844-0003",
            "prefecture": "佐賀県",
            "id": 8440003
        },
        { "address": "上本", "city": "西松浦郡有田町", "postcode": "849-4174", "prefecture": "佐賀県", "id": 8494174 },
        {
            "address": "上山谷",
            "city": "西松浦郡有田町",
            "postcode": "849-4144",
            "prefecture": "佐賀県",
            "id": 8494144
        },
        {
            "address": "北ノ川内",
            "city": "西松浦郡有田町",
            "postcode": "849-4166",
            "prefecture": "佐賀県",
            "id": 8494166
        },
        {
            "address": "楠木原",
            "city": "西松浦郡有田町",
            "postcode": "849-4175",
            "prefecture": "佐賀県",
            "id": 8494175
        },
        { "address": "黒川", "city": "西松浦郡有田町", "postcode": "849-4165", "prefecture": "佐賀県", "id": 8494165 },
        {
            "address": "黒牟田",
            "city": "西松浦郡有田町",
            "postcode": "844-0022",
            "prefecture": "佐賀県",
            "id": 8440022
        },
        {
            "address": "桑古場",
            "city": "西松浦郡有田町",
            "postcode": "844-0012",
            "prefecture": "佐賀県",
            "id": 8440012
        },
        {
            "address": "桑木原",
            "city": "西松浦郡有田町",
            "postcode": "849-4156",
            "prefecture": "佐賀県",
            "id": 8494156
        },
        { "address": "幸平", "city": "西松浦郡有田町", "postcode": "844-0005", "prefecture": "佐賀県", "id": 8440005 },
        { "address": "境野", "city": "西松浦郡有田町", "postcode": "844-0016", "prefecture": "佐賀県", "id": 8440016 },
        {
            "address": "下内野",
            "city": "西松浦郡有田町",
            "postcode": "849-4163",
            "prefecture": "佐賀県",
            "id": 8494163
        },
        { "address": "下本", "city": "西松浦郡有田町", "postcode": "849-4172", "prefecture": "佐賀県", "id": 8494172 },
        {
            "address": "下山谷",
            "city": "西松浦郡有田町",
            "postcode": "849-4143",
            "prefecture": "佐賀県",
            "id": 8494143
        },
        { "address": "白川", "city": "西松浦郡有田町", "postcode": "844-0007", "prefecture": "佐賀県", "id": 8440007 },
        { "address": "蔵宿", "city": "西松浦郡有田町", "postcode": "849-4161", "prefecture": "佐賀県", "id": 8494161 },
        { "address": "岳", "city": "西松浦郡有田町", "postcode": "849-4146", "prefecture": "佐賀県", "id": 8494146 },
        { "address": "立部", "city": "西松浦郡有田町", "postcode": "849-4153", "prefecture": "佐賀県", "id": 8494153 },
        { "address": "戸杓", "city": "西松浦郡有田町", "postcode": "844-0017", "prefecture": "佐賀県", "id": 8440017 },
        { "address": "戸矢", "city": "西松浦郡有田町", "postcode": "844-0014", "prefecture": "佐賀県", "id": 8440014 },
        { "address": "中樽", "city": "西松浦郡有田町", "postcode": "844-0002", "prefecture": "佐賀県", "id": 8440002 },
        {
            "address": "中の原",
            "city": "西松浦郡有田町",
            "postcode": "844-0009",
            "prefecture": "佐賀県",
            "id": 8440009
        },
        { "address": "南山", "city": "西松浦郡有田町", "postcode": "844-0028", "prefecture": "佐賀県", "id": 8440028 },
        { "address": "南原", "city": "西松浦郡有田町", "postcode": "844-0027", "prefecture": "佐賀県", "id": 8440027 },
        {
            "address": "二ノ瀬",
            "city": "西松浦郡有田町",
            "postcode": "849-4141",
            "prefecture": "佐賀県",
            "id": 8494141
        },
        { "address": "原明", "city": "西松浦郡有田町", "postcode": "849-4176", "prefecture": "佐賀県", "id": 8494176 },
        {
            "address": "稗古場",
            "city": "西松浦郡有田町",
            "postcode": "844-0008",
            "prefecture": "佐賀県",
            "id": 8440008
        },
        { "address": "広瀬", "city": "西松浦郡有田町", "postcode": "849-4152", "prefecture": "佐賀県", "id": 8494152 },
        {
            "address": "広瀬山",
            "city": "西松浦郡有田町",
            "postcode": "849-4151",
            "prefecture": "佐賀県",
            "id": 8494151
        },
        {
            "address": "古木場",
            "city": "西松浦郡有田町",
            "postcode": "844-0015",
            "prefecture": "佐賀県",
            "id": 8440015
        },
        {
            "address": "外尾町",
            "city": "西松浦郡有田町",
            "postcode": "844-0026",
            "prefecture": "佐賀県",
            "id": 8440026
        },
        {
            "address": "外尾山",
            "city": "西松浦郡有田町",
            "postcode": "844-0025",
            "prefecture": "佐賀県",
            "id": 8440025
        },
        {
            "address": "仏ノ原",
            "city": "西松浦郡有田町",
            "postcode": "849-4164",
            "prefecture": "佐賀県",
            "id": 8494164
        },
        { "address": "本町", "city": "西松浦郡有田町", "postcode": "844-0018", "prefecture": "佐賀県", "id": 8440018 },
        { "address": "舞原", "city": "西松浦郡有田町", "postcode": "849-4173", "prefecture": "佐賀県", "id": 8494173 },
        { "address": "丸尾", "city": "西松浦郡有田町", "postcode": "844-0023", "prefecture": "佐賀県", "id": 8440023 },
        {
            "address": "山谷切口",
            "city": "西松浦郡有田町",
            "postcode": "849-4145",
            "prefecture": "佐賀県",
            "id": 8494145
        },
        {
            "address": "山谷牧",
            "city": "西松浦郡有田町",
            "postcode": "849-4142",
            "prefecture": "佐賀県",
            "id": 8494142
        },
        { "address": "山本", "city": "西松浦郡有田町", "postcode": "849-4155", "prefecture": "佐賀県", "id": 8494155 },
        {
            "address": "代々木",
            "city": "西松浦郡有田町",
            "postcode": "849-4171",
            "prefecture": "佐賀県",
            "id": 8494171
        },
        { "city": "杵島郡大町町", "postcode": "849-2100", "prefecture": "佐賀県", "id": 8492100 },
        { "address": "大町", "city": "杵島郡大町町", "postcode": "849-2101", "prefecture": "佐賀県", "id": 8492101 },
        { "address": "福母", "city": "杵島郡大町町", "postcode": "849-2102", "prefecture": "佐賀県", "id": 8492102 },
        { "city": "杵島郡江北町", "postcode": "849-0500", "prefecture": "佐賀県", "id": 8490500 },
        { "address": "上小田", "city": "杵島郡江北町", "postcode": "849-0506", "prefecture": "佐賀県", "id": 8490506 },
        { "address": "佐留志", "city": "杵島郡江北町", "postcode": "849-0502", "prefecture": "佐賀県", "id": 8490502 },
        { "address": "下小田", "city": "杵島郡江北町", "postcode": "849-0505", "prefecture": "佐賀県", "id": 8490505 },
        { "address": "惣領分", "city": "杵島郡江北町", "postcode": "849-0503", "prefecture": "佐賀県", "id": 8490503 },
        { "address": "八町", "city": "杵島郡江北町", "postcode": "849-0504", "prefecture": "佐賀県", "id": 8490504 },
        { "address": "山口", "city": "杵島郡江北町", "postcode": "849-0501", "prefecture": "佐賀県", "id": 8490501 },
        { "city": "杵島郡白石町", "postcode": "849-1100", "prefecture": "佐賀県", "id": 8491100 },
        { "address": "今泉", "city": "杵島郡白石町", "postcode": "849-1101", "prefecture": "佐賀県", "id": 8491101 },
        { "address": "牛屋", "city": "杵島郡白石町", "postcode": "849-1201", "prefecture": "佐賀県", "id": 8491201 },
        { "address": "大渡", "city": "杵島郡白石町", "postcode": "849-1102", "prefecture": "佐賀県", "id": 8491102 },
        { "address": "坂田", "city": "杵島郡白石町", "postcode": "849-1204", "prefecture": "佐賀県", "id": 8491204 },
        { "address": "新開", "city": "杵島郡白石町", "postcode": "849-1208", "prefecture": "佐賀県", "id": 8491208 },
        { "address": "新拓", "city": "杵島郡白石町", "postcode": "849-1221", "prefecture": "佐賀県", "id": 8491221 },
        { "address": "新明", "city": "杵島郡白石町", "postcode": "849-1202", "prefecture": "佐賀県", "id": 8491202 },
        { "address": "田野上", "city": "杵島郡白石町", "postcode": "849-1205", "prefecture": "佐賀県", "id": 8491205 },
        { "address": "築切", "city": "杵島郡白石町", "postcode": "849-1103", "prefecture": "佐賀県", "id": 8491103 },
        { "address": "堤", "city": "杵島郡白石町", "postcode": "849-1104", "prefecture": "佐賀県", "id": 8491104 },
        { "address": "遠江", "city": "杵島郡白石町", "postcode": "849-1105", "prefecture": "佐賀県", "id": 8491105 },
        { "address": "戸ケ里", "city": "杵島郡白石町", "postcode": "849-1203", "prefecture": "佐賀県", "id": 8491203 },
        { "address": "廿治", "city": "杵島郡白石町", "postcode": "849-1106", "prefecture": "佐賀県", "id": 8491106 },
        { "address": "八平", "city": "杵島郡白石町", "postcode": "849-0403", "prefecture": "佐賀県", "id": 8490403 },
        { "address": "東郷", "city": "杵島郡白石町", "postcode": "849-1111", "prefecture": "佐賀県", "id": 8491111 },
        { "address": "深浦", "city": "杵島郡白石町", "postcode": "849-1207", "prefecture": "佐賀県", "id": 8491207 },
        { "address": "福田", "city": "杵島郡白石町", "postcode": "849-1112", "prefecture": "佐賀県", "id": 8491112 },
        { "address": "福富", "city": "杵島郡白石町", "postcode": "849-0401", "prefecture": "佐賀県", "id": 8490401 },
        {
            "address": "福富下分",
            "city": "杵島郡白石町",
            "postcode": "849-0402",
            "prefecture": "佐賀県",
            "id": 8490402
        },
        { "address": "福吉", "city": "杵島郡白石町", "postcode": "849-1113", "prefecture": "佐賀県", "id": 8491113 },
        { "address": "辺田", "city": "杵島郡白石町", "postcode": "849-1206", "prefecture": "佐賀県", "id": 8491206 },
        { "address": "馬洗", "city": "杵島郡白石町", "postcode": "849-1114", "prefecture": "佐賀県", "id": 8491114 },
        { "address": "湯崎", "city": "杵島郡白石町", "postcode": "849-1115", "prefecture": "佐賀県", "id": 8491115 },
        { "address": "横手", "city": "杵島郡白石町", "postcode": "849-1116", "prefecture": "佐賀県", "id": 8491116 },
        { "city": "藤津郡太良町", "postcode": "849-1600", "prefecture": "佐賀県", "id": 8491600 },
        { "address": "糸岐", "city": "藤津郡太良町", "postcode": "849-1603", "prefecture": "佐賀県", "id": 8491603 },
        { "address": "伊福甲", "city": "藤津郡太良町", "postcode": "849-1601", "prefecture": "佐賀県", "id": 8491601 },
        { "address": "大浦甲", "city": "藤津郡太良町", "postcode": "849-1614", "prefecture": "佐賀県", "id": 8491614 },
        { "address": "大浦乙", "city": "藤津郡太良町", "postcode": "849-1615", "prefecture": "佐賀県", "id": 8491615 },
        { "address": "大浦丙", "city": "藤津郡太良町", "postcode": "849-1613", "prefecture": "佐賀県", "id": 8491613 },
        { "address": "大浦丁", "city": "藤津郡太良町", "postcode": "849-1612", "prefecture": "佐賀県", "id": 8491612 },
        { "address": "大浦戊", "city": "藤津郡太良町", "postcode": "849-1611", "prefecture": "佐賀県", "id": 8491611 },
        { "address": "大浦己", "city": "藤津郡太良町", "postcode": "849-1616", "prefecture": "佐賀県", "id": 8491616 },
        { "address": "多良", "city": "藤津郡太良町", "postcode": "849-1602", "prefecture": "佐賀県", "id": 8491602 }
    ]
}
