{
    "postcodes": [
        { "city": "和歌山市", "postcode": "6400000", "prefecture": "和歌山県", "id": 0 },
        { "address": "葵町", "city": "和歌山市", "postcode": "6408273", "prefecture": "和歌山県", "id": 1 },
        { "address": "秋月", "city": "和歌山市", "postcode": "6408322", "prefecture": "和歌山県", "id": 2 },
        { "address": "秋葉町", "city": "和歌山市", "postcode": "6410056", "prefecture": "和歌山県", "id": 3 },
        { "address": "朝日", "city": "和歌山市", "postcode": "6400344", "prefecture": "和歌山県", "id": 4 },
        { "address": "芦辺丁", "city": "和歌山市", "postcode": "6408134", "prefecture": "和歌山県", "id": 5 },
        { "address": "小豆島", "city": "和歌山市", "postcode": "6496336", "prefecture": "和歌山県", "id": 6 },
        { "address": "網屋町", "city": "和歌山市", "postcode": "6408238", "prefecture": "和歌山県", "id": 7 },
        { "address": "有家", "city": "和歌山市", "postcode": "6408316", "prefecture": "和歌山県", "id": 8 },
        { "address": "有田屋町", "city": "和歌山市", "postcode": "6408248", "prefecture": "和歌山県", "id": 9 },
        { "address": "有田屋町西ノ丁", "city": "和歌山市", "postcode": "6408246", "prefecture": "和歌山県", "id": 10 },
        { "address": "有田屋町南ノ丁", "city": "和歌山市", "postcode": "6408245", "prefecture": "和歌山県", "id": 11 },
        { "address": "有本", "city": "和歌山市", "postcode": "6408390", "prefecture": "和歌山県", "id": 12 },
        { "address": "新内", "city": "和歌山市", "postcode": "6408351", "prefecture": "和歌山県", "id": 13 },
        { "address": "粟", "city": "和歌山市", "postcode": "6408462", "prefecture": "和歌山県", "id": 14 },
        { "address": "石橋丁", "city": "和歌山市", "postcode": "6408201", "prefecture": "和歌山県", "id": 15 },
        { "address": "磯の浦", "city": "和歌山市", "postcode": "6400114", "prefecture": "和歌山県", "id": 16 },
        { "address": "板屋町", "city": "和歌山市", "postcode": "6408044", "prefecture": "和歌山県", "id": 17 },
        { "address": "伊太祈曽", "city": "和歌山市", "postcode": "6400361", "prefecture": "和歌山県", "id": 18 },
        { "address": "市小路", "city": "和歌山市", "postcode": "6408464", "prefecture": "和歌山県", "id": 19 },
        { "address": "一番丁", "city": "和歌山市", "postcode": "6408146", "prefecture": "和歌山県", "id": 20 },
        { "address": "五筋目", "city": "和歌山市", "postcode": "6408076", "prefecture": "和歌山県", "id": 21 },
        { "address": "井戸", "city": "和歌山市", "postcode": "6400352", "prefecture": "和歌山県", "id": 22 },
        { "address": "井ノ口", "city": "和歌山市", "postcode": "6496323", "prefecture": "和歌山県", "id": 23 },
        { "address": "今福", "city": "和歌山市", "postcode": "6410044", "prefecture": "和歌山県", "id": 24 },
        { "address": "岩橋", "city": "和歌山市", "postcode": "6408301", "prefecture": "和歌山県", "id": 25 },
        { "address": "井辺", "city": "和歌山市", "postcode": "6408302", "prefecture": "和歌山県", "id": 26 },
        { "address": "上野", "city": "和歌山市", "postcode": "6496316", "prefecture": "和歌山県", "id": 27 },
        { "address": "上野町", "city": "和歌山市", "postcode": "6408242", "prefecture": "和歌山県", "id": 28 },
        { "address": "植松丁", "city": "和歌山市", "postcode": "6408298", "prefecture": "和歌山県", "id": 29 },
        { "address": "宇治鉄砲場", "city": "和歌山市", "postcode": "6408078", "prefecture": "和歌山県", "id": 30 },
        { "address": "宇治袋町", "city": "和歌山市", "postcode": "6408039", "prefecture": "和歌山県", "id": 31 },
        { "address": "宇治家裏", "city": "和歌山市", "postcode": "6408072", "prefecture": "和歌山県", "id": 32 },
        { "address": "宇治薮下", "city": "和歌山市", "postcode": "6408071", "prefecture": "和歌山県", "id": 33 },
        { "address": "宇須", "city": "和歌山市", "postcode": "6410043", "prefecture": "和歌山県", "id": 34 },
        { "address": "宇田森", "city": "和歌山市", "postcode": "6496332", "prefecture": "和歌山県", "id": 35 },
        { "address": "打越町", "city": "和歌山市", "postcode": "6410053", "prefecture": "和歌山県", "id": 36 },
        { "address": "内原", "city": "和歌山市", "postcode": "6410013", "prefecture": "和歌山県", "id": 37 },
        { "address": "梅原", "city": "和歌山市", "postcode": "6408452", "prefecture": "和歌山県", "id": 38 },
        { "address": "上町", "city": "和歌山市", "postcode": "6408239", "prefecture": "和歌山県", "id": 39 },
        { "address": "餌差町", "city": "和歌山市", "postcode": "6408335", "prefecture": "和歌山県", "id": 40 },
        { "address": "江南", "city": "和歌山市", "postcode": "6400343", "prefecture": "和歌山県", "id": 41 },
        { "address": "榎原", "city": "和歌山市", "postcode": "6408434", "prefecture": "和歌山県", "id": 42 },
        { "address": "大川", "city": "和歌山市", "postcode": "6400101", "prefecture": "和歌山県", "id": 43 },
        { "address": "大河内", "city": "和歌山市", "postcode": "6400316", "prefecture": "和歌山県", "id": 44 },
        { "address": "大垣内", "city": "和歌山市", "postcode": "6496272", "prefecture": "和歌山県", "id": 45 },
        { "address": "大谷", "city": "和歌山市", "postcode": "6408472", "prefecture": "和歌山県", "id": 46 },
        { "address": "太田", "city": "和歌山市", "postcode": "6408323", "prefecture": "和歌山県", "id": 47 },
        { "address": "岡円福院東ノ丁", "city": "和歌山市", "postcode": "6408361", "prefecture": "和歌山県", "id": 48 },
        { "address": "岡円福院西ノ丁", "city": "和歌山市", "postcode": "6408364", "prefecture": "和歌山県", "id": 49 },
        { "address": "岡織屋小路", "city": "和歌山市", "postcode": "6408362", "prefecture": "和歌山県", "id": 50 },
        { "address": "岡北ノ丁", "city": "和歌山市", "postcode": "6408365", "prefecture": "和歌山県", "id": 51 },
        { "address": "岡南ノ丁", "city": "和歌山市", "postcode": "6408363", "prefecture": "和歌山県", "id": 52 },
        { "address": "岡山丁", "city": "和歌山市", "postcode": "6408145", "prefecture": "和歌山県", "id": 53 },
        { "address": "奥須佐", "city": "和歌山市", "postcode": "6400362", "prefecture": "和歌山県", "id": 54 },
        { "address": "小倉", "city": "和歌山市", "postcode": "6496261", "prefecture": "和歌山県", "id": 55 },
        { "address": "尾崎丁", "city": "和歌山市", "postcode": "6408271", "prefecture": "和歌山県", "id": 56 },
        { "address": "落合", "city": "和歌山市", "postcode": "6496308", "prefecture": "和歌山県", "id": 57 },
        { "address": "男野芝丁", "city": "和歌山市", "postcode": "6408230", "prefecture": "和歌山県", "id": 58 },
        { "address": "小野町", "city": "和歌山市", "postcode": "6408224", "prefecture": "和歌山県", "id": 59 },
        { "address": "雄松町", "city": "和歌山市", "postcode": "6408124", "prefecture": "和歌山県", "id": 60 },
        { "address": "嘉家作丁", "city": "和歌山市", "postcode": "6408073", "prefecture": "和歌山県", "id": 61 },
        { "address": "駕町", "city": "和歌山市", "postcode": "6408293", "prefecture": "和歌山県", "id": 62 },
        { "address": "片岡町", "city": "和歌山市", "postcode": "6408139", "prefecture": "和歌山県", "id": 63 },
        { "address": "加太", "city": "和歌山市", "postcode": "6400103", "prefecture": "和歌山県", "id": 64 },
        { "address": "徒町", "city": "和歌山市", "postcode": "6408243", "prefecture": "和歌山県", "id": 65 },
        { "address": "金谷", "city": "和歌山市", "postcode": "6496274", "prefecture": "和歌山県", "id": 66 },
        { "address": "加納", "city": "和歌山市", "postcode": "6408391", "prefecture": "和歌山県", "id": 67 },
        { "address": "加納町", "city": "和歌山市", "postcode": "6408288", "prefecture": "和歌山県", "id": 68 },
        { "address": "上黒谷", "city": "和歌山市", "postcode": "6496306", "prefecture": "和歌山県", "id": 69 },
        { "address": "上三毛", "city": "和歌山市", "postcode": "6496262", "prefecture": "和歌山県", "id": 70 },
        { "address": "川辺", "city": "和歌山市", "postcode": "6496312", "prefecture": "和歌山県", "id": 71 },
        { "address": "梶取", "city": "和歌山市", "postcode": "6408411", "prefecture": "和歌山県", "id": 72 },
        { "address": "北", "city": "和歌山市", "postcode": "6496334", "prefecture": "和歌山県", "id": 73 },
        { "address": "北相生丁", "city": "和歌山市", "postcode": "6408253", "prefecture": "和歌山県", "id": 74 },
        { "address": "北牛町", "city": "和歌山市", "postcode": "6408299", "prefecture": "和歌山県", "id": 75 },
        { "address": "北桶屋町", "city": "和歌山市", "postcode": "6408020", "prefecture": "和歌山県", "id": 76 },
        { "address": "北休賀町", "city": "和歌山市", "postcode": "6408103", "prefecture": "和歌山県", "id": 77 },
        { "address": "北釘貫丁", "city": "和歌山市", "postcode": "6408062", "prefecture": "和歌山県", "id": 78 },
        { "address": "北細工町", "city": "和歌山市", "postcode": "6408118", "prefecture": "和歌山県", "id": 79 },
        { "address": "北坂ノ上丁", "city": "和歌山市", "postcode": "6408233", "prefecture": "和歌山県", "id": 80 },
        { "address": "北新", "city": "和歌山市", "postcode": "6408002", "prefecture": "和歌山県", "id": 81 },
        { "address": "北新戎ノ丁", "city": "和歌山市", "postcode": "6408017", "prefecture": "和歌山県", "id": 82 },
        { "address": "北新桶屋町", "city": "和歌山市", "postcode": "6408015", "prefecture": "和歌山県", "id": 83 },
        { "address": "北新金屋丁", "city": "和歌山市", "postcode": "6408012", "prefecture": "和歌山県", "id": 84 },
        { "address": "北新七軒丁", "city": "和歌山市", "postcode": "6408001", "prefecture": "和歌山県", "id": 85 },
        { "address": "北新中ノ丁", "city": "和歌山市", "postcode": "6408016", "prefecture": "和歌山県", "id": 86 },
        { "address": "北新博労町", "city": "和歌山市", "postcode": "6408003", "prefecture": "和歌山県", "id": 87 },
        { "address": "北新元金屋丁", "city": "和歌山市", "postcode": "6408011", "prefecture": "和歌山県", "id": 88 },
        { "address": "北島", "city": "和歌山市", "postcode": "6408403", "prefecture": "和歌山県", "id": 89 },
        { "address": "北甚五兵衛丁", "city": "和歌山市", "postcode": "6408291", "prefecture": "和歌山県", "id": 90 },
        { "address": "北田辺丁", "city": "和歌山市", "postcode": "6408252", "prefecture": "和歌山県", "id": 91 },
        { "address": "北大工町", "city": "和歌山市", "postcode": "6408031", "prefecture": "和歌山県", "id": 92 },
        { "address": "北中間町", "city": "和歌山市", "postcode": "6408294", "prefecture": "和歌山県", "id": 93 },
        { "address": "北出島", "city": "和歌山市", "postcode": "6408317", "prefecture": "和歌山県", "id": 94 },
        { "address": "北土佐丁", "city": "和歌山市", "postcode": "6408296", "prefecture": "和歌山県", "id": 95 },
        { "address": "北中島", "city": "和歌山市", "postcode": "6410008", "prefecture": "和歌山県", "id": 96 },
        { "address": "北野", "city": "和歌山市", "postcode": "6496331", "prefecture": "和歌山県", "id": 97 },
        { "address": "北ノ新地", "city": "和歌山市", "postcode": "6408355", "prefecture": "和歌山県", "id": 98 },
        { "address": "北ノ新地裏田町", "city": "和歌山市", "postcode": "6408352", "prefecture": "和歌山県", "id": 99 },
        { "address": "北ノ新地榎丁", "city": "和歌山市", "postcode": "6408353", "prefecture": "和歌山県", "id": 100 },
        {
            "address": "北ノ新地上六軒丁",
            "city": "和歌山市",
            "postcode": "6408356",
            "prefecture": "和歌山県",
            "id": 101
        },
        {
            "address": "北ノ新地中六軒丁",
            "city": "和歌山市",
            "postcode": "6408357",
            "prefecture": "和歌山県",
            "id": 102
        },
        {
            "address": "北ノ新地下六軒丁",
            "city": "和歌山市",
            "postcode": "6408358",
            "prefecture": "和歌山県",
            "id": 103
        },
        { "address": "北ノ新地田町", "city": "和歌山市", "postcode": "6408359", "prefecture": "和歌山県", "id": 104 },
        { "address": "北ノ新地東ノ丁", "city": "和歌山市", "postcode": "6408354", "prefecture": "和歌山県", "id": 105 },
        { "address": "北ノ新地分銅丁", "city": "和歌山市", "postcode": "6408350", "prefecture": "和歌山県", "id": 106 },
        { "address": "北別所", "city": "和歌山市", "postcode": "6496307", "prefecture": "和歌山県", "id": 107 },
        { "address": "北町", "city": "和歌山市", "postcode": "6408038", "prefecture": "和歌山県", "id": 108 },
        { "address": "北汀丁", "city": "和歌山市", "postcode": "6408231", "prefecture": "和歌山県", "id": 109 },
        { "address": "狐島", "city": "和歌山市", "postcode": "6408412", "prefecture": "和歌山県", "id": 110 },
        { "address": "木ノ本", "city": "和歌山市", "postcode": "6408453", "prefecture": "和歌山県", "id": 111 },
        { "address": "木広町", "city": "和歌山市", "postcode": "6408328", "prefecture": "和歌山県", "id": 112 },
        { "address": "紀三井寺", "city": "和歌山市", "postcode": "6410012", "prefecture": "和歌山県", "id": 113 },
        { "address": "久右衛門丁", "city": "和歌山市", "postcode": "6408244", "prefecture": "和歌山県", "id": 114 },
        { "address": "九番丁", "city": "和歌山市", "postcode": "6408155", "prefecture": "和歌山県", "id": 115 },
        { "address": "吉礼", "city": "和歌山市", "postcode": "6400351", "prefecture": "和歌山県", "id": 116 },
        { "address": "金龍寺丁", "city": "和歌山市", "postcode": "6408274", "prefecture": "和歌山県", "id": 117 },
        { "address": "杭ノ瀬", "city": "和歌山市", "postcode": "6410001", "prefecture": "和歌山県", "id": 118 },
        { "address": "九家ノ丁", "city": "和歌山市", "postcode": "6408055", "prefecture": "和歌山県", "id": 119 },
        { "address": "楠右衛門小路", "city": "和歌山市", "postcode": "6408332", "prefecture": "和歌山県", "id": 120 },
        { "address": "楠見中", "city": "和歌山市", "postcode": "6408463", "prefecture": "和歌山県", "id": 121 },
        { "address": "楠本", "city": "和歌山市", "postcode": "6496313", "prefecture": "和歌山県", "id": 122 },
        { "address": "口須佐", "city": "和歌山市", "postcode": "6400364", "prefecture": "和歌山県", "id": 123 },
        { "address": "久保丁", "city": "和歌山市", "postcode": "6408225", "prefecture": "和歌山県", "id": 124 },
        { "address": "蔵小路", "city": "和歌山市", "postcode": "6408333", "prefecture": "和歌山県", "id": 125 },
        { "address": "栗栖", "city": "和歌山市", "postcode": "6408305", "prefecture": "和歌山県", "id": 126 },
        { "address": "黒岩", "city": "和歌山市", "postcode": "6400311", "prefecture": "和歌山県", "id": 127 },
        { "address": "黒田", "city": "和歌山市", "postcode": "6408341", "prefecture": "和歌山県", "id": 128 },
        { "address": "黒谷", "city": "和歌山市", "postcode": "6400312", "prefecture": "和歌山県", "id": 129 },
        { "address": "桑山", "city": "和歌山市", "postcode": "6400345", "prefecture": "和歌山県", "id": 130 },
        { "address": "毛革屋丁", "city": "和歌山市", "postcode": "6408337", "prefecture": "和歌山県", "id": 131 },
        { "address": "毛見", "city": "和歌山市", "postcode": "6410014", "prefecture": "和歌山県", "id": 132 },
        { "address": "下町", "city": "和歌山市", "postcode": "6408220", "prefecture": "和歌山県", "id": 133 },
        { "address": "源蔵馬場", "city": "和歌山市", "postcode": "6408075", "prefecture": "和歌山県", "id": 134 },
        { "address": "神前", "city": "和歌山市", "postcode": "6408314", "prefecture": "和歌山県", "id": 135 },
        { "address": "神波", "city": "和歌山市", "postcode": "6496315", "prefecture": "和歌山県", "id": 136 },
        { "address": "小雑賀", "city": "和歌山市", "postcode": "6410007", "prefecture": "和歌山県", "id": 137 },
        { "address": "小瀬田", "city": "和歌山市", "postcode": "6400323", "prefecture": "和歌山県", "id": 138 },
        { "address": "五番丁", "city": "和歌山市", "postcode": "6408141", "prefecture": "和歌山県", "id": 139 },
        { "address": "木挽丁", "city": "和歌山市", "postcode": "6408373", "prefecture": "和歌山県", "id": 140 },
        { "address": "小人町", "city": "和歌山市", "postcode": "6408226", "prefecture": "和歌山県", "id": 141 },
        { "address": "小人町南ノ丁", "city": "和歌山市", "postcode": "6408228", "prefecture": "和歌山県", "id": 142 },
        { "address": "木枕", "city": "和歌山市", "postcode": "6400301", "prefecture": "和歌山県", "id": 143 },
        { "address": "小松原", "city": "和歌山市", "postcode": "6408265", "prefecture": "和歌山県", "id": 144 },
        { "address": "小松原通", "city": "和歌山市", "postcode": "6408269", "prefecture": "和歌山県", "id": 145 },
        { "address": "米屋町", "city": "和歌山市", "postcode": "6408027", "prefecture": "和歌山県", "id": 146 },
        { "address": "古屋", "city": "和歌山市", "postcode": "6408435", "prefecture": "和歌山県", "id": 147 },
        { "address": "雑賀崎", "city": "和歌山市", "postcode": "6410062", "prefecture": "和歌山県", "id": 148 },
        { "address": "雑賀町", "city": "和歌山市", "postcode": "6408108", "prefecture": "和歌山県", "id": 149 },
        { "address": "雑賀道", "city": "和歌山市", "postcode": "6408121", "prefecture": "和歌山県", "id": 150 },
        { "address": "雑賀屋町", "city": "和歌山市", "postcode": "6408249", "prefecture": "和歌山県", "id": 151 },
        { "address": "雑賀屋町東ノ丁", "city": "和歌山市", "postcode": "6408241", "prefecture": "和歌山県", "id": 152 },
        { "address": "材木丁", "city": "和歌山市", "postcode": "6408237", "prefecture": "和歌山県", "id": 153 },
        { "address": "境原", "city": "和歌山市", "postcode": "6400313", "prefecture": "和歌山県", "id": 154 },
        { "address": "栄谷", "city": "和歌山市", "postcode": "6408441", "prefecture": "和歌山県", "id": 155 },
        { "address": "坂田", "city": "和歌山市", "postcode": "6410003", "prefecture": "和歌山県", "id": 156 },
        { "address": "鷺ノ森", "city": "和歌山市", "postcode": "6408053", "prefecture": "和歌山県", "id": 157 },
        { "address": "鷺ノ森片町", "city": "和歌山市", "postcode": "6408054", "prefecture": "和歌山県", "id": 158 },
        { "address": "鷺ノ森新道", "city": "和歌山市", "postcode": "6408057", "prefecture": "和歌山県", "id": 159 },
        { "address": "鷺ノ森堂前丁", "city": "和歌山市", "postcode": "6408052", "prefecture": "和歌山県", "id": 160 },
        { "address": "鷺ノ森中ノ丁", "city": "和歌山市", "postcode": "6408058", "prefecture": "和歌山県", "id": 161 },
        { "address": "鷺ノ森東ノ丁", "city": "和歌山市", "postcode": "6408051", "prefecture": "和歌山県", "id": 162 },
        { "address": "鷺ノ森西ノ丁", "city": "和歌山市", "postcode": "6408056", "prefecture": "和歌山県", "id": 163 },
        { "address": "鷺ノ森南ノ丁", "city": "和歌山市", "postcode": "6408047", "prefecture": "和歌山県", "id": 164 },
        { "address": "鷺ノ森明神丁", "city": "和歌山市", "postcode": "6408059", "prefecture": "和歌山県", "id": 165 },
        { "address": "作事丁", "city": "和歌山市", "postcode": "6408276", "prefecture": "和歌山県", "id": 166 },
        { "address": "里", "city": "和歌山市", "postcode": "6496311", "prefecture": "和歌山県", "id": 167 },
        { "address": "山東中", "city": "和歌山市", "postcode": "6400303", "prefecture": "和歌山県", "id": 168 },
        { "address": "三番丁", "city": "和歌山市", "postcode": "6408142", "prefecture": "和歌山県", "id": 169 },
        { "address": "塩ノ谷", "city": "和歌山市", "postcode": "6400306", "prefecture": "和歌山県", "id": 170 },
        { "address": "汐見町", "city": "和歌山市", "postcode": "6408122", "prefecture": "和歌山県", "id": 171 },
        { "address": "塩屋", "city": "和歌山市", "postcode": "6410054", "prefecture": "和歌山県", "id": 172 },
        { "address": "七番丁", "city": "和歌山市", "postcode": "6408156", "prefecture": "和歌山県", "id": 173 },
        { "address": "芝ノ丁", "city": "和歌山市", "postcode": "6408267", "prefecture": "和歌山県", "id": 174 },
        { "address": "島", "city": "和歌山市", "postcode": "6496314", "prefecture": "和歌山県", "id": 175 },
        { "address": "島崎町", "city": "和歌山市", "postcode": "6408125", "prefecture": "和歌山県", "id": 176 },
        { "address": "島橋東ノ丁", "city": "和歌山市", "postcode": "6408413", "prefecture": "和歌山県", "id": 177 },
        { "address": "島橋西ノ丁", "city": "和歌山市", "postcode": "6408414", "prefecture": "和歌山県", "id": 178 },
        { "address": "島橋南ノ丁", "city": "和歌山市", "postcode": "6408415", "prefecture": "和歌山県", "id": 179 },
        { "address": "島橋北ノ丁", "city": "和歌山市", "postcode": "6408416", "prefecture": "和歌山県", "id": 180 },
        { "address": "下三毛", "city": "和歌山市", "postcode": "6496263", "prefecture": "和歌山県", "id": 181 },
        { "address": "下和佐", "city": "和歌山市", "postcode": "6496325", "prefecture": "和歌山県", "id": 182 },
        { "address": "新魚町", "city": "和歌山市", "postcode": "6408074", "prefecture": "和歌山県", "id": 183 },
        { "address": "新雑賀町", "city": "和歌山市", "postcode": "6408101", "prefecture": "和歌山県", "id": 184 },
        { "address": "新堺丁", "city": "和歌山市", "postcode": "6408377", "prefecture": "和歌山県", "id": 185 },
        { "address": "新在家", "city": "和歌山市", "postcode": "6408345", "prefecture": "和歌山県", "id": 186 },
        { "address": "新庄", "city": "和歌山市", "postcode": "6496264", "prefecture": "和歌山県", "id": 187 },
        { "address": "新生町", "city": "和歌山市", "postcode": "6408325", "prefecture": "和歌山県", "id": 188 },
        { "address": "新大工町", "city": "和歌山市", "postcode": "6408372", "prefecture": "和歌山県", "id": 189 },
        { "address": "新通", "city": "和歌山市", "postcode": "6408111", "prefecture": "和歌山県", "id": 190 },
        { "address": "新中島", "city": "和歌山市", "postcode": "6410002", "prefecture": "和歌山県", "id": 191 },
        { "address": "新中通", "city": "和歌山市", "postcode": "6408376", "prefecture": "和歌山県", "id": 192 },
        { "address": "新堀東", "city": "和歌山市", "postcode": "6410042", "prefecture": "和歌山県", "id": 193 },
        { "address": "新八百屋丁", "city": "和歌山市", "postcode": "6408371", "prefecture": "和歌山県", "id": 194 },
        { "address": "新和歌浦", "city": "和歌山市", "postcode": "6410023", "prefecture": "和歌山県", "id": 195 },
        { "address": "十番丁", "city": "和歌山市", "postcode": "6408152", "prefecture": "和歌山県", "id": 196 },
        { "address": "十一番丁", "city": "和歌山市", "postcode": "6408159", "prefecture": "和歌山県", "id": 197 },
        { "address": "十二番丁", "city": "和歌山市", "postcode": "6408158", "prefecture": "和歌山県", "id": 198 },
        { "address": "十三番丁", "city": "和歌山市", "postcode": "6408150", "prefecture": "和歌山県", "id": 199 },
        { "address": "次郎丸", "city": "和歌山市", "postcode": "6408444", "prefecture": "和歌山県", "id": 200 },
        { "address": "数寄屋丁", "city": "和歌山市", "postcode": "6408374", "prefecture": "和歌山県", "id": 201 },
        { "address": "杉ノ馬場", "city": "和歌山市", "postcode": "6408212", "prefecture": "和歌山県", "id": 202 },
        { "address": "鈴丸丁", "city": "和歌山市", "postcode": "6408378", "prefecture": "和歌山県", "id": 203 },
        { "address": "頭陀寺", "city": "和歌山市", "postcode": "6400314", "prefecture": "和歌山県", "id": 204 },
        { "address": "砂山南", "city": "和歌山市", "postcode": "6408272", "prefecture": "和歌山県", "id": 205 },
        { "address": "住吉町", "city": "和歌山市", "postcode": "6408022", "prefecture": "和歌山県", "id": 206 },
        { "address": "駿河町", "city": "和歌山市", "postcode": "6408034", "prefecture": "和歌山県", "id": 207 },
        { "address": "関戸", "city": "和歌山市", "postcode": "6410035", "prefecture": "和歌山県", "id": 208 },
        { "address": "専光寺門前丁", "city": "和歌山市", "postcode": "6408041", "prefecture": "和歌山県", "id": 209 },
        { "address": "船場町", "city": "和歌山市", "postcode": "6408114", "prefecture": "和歌山県", "id": 210 },
        { "address": "善明寺", "city": "和歌山市", "postcode": "6408471", "prefecture": "和歌山県", "id": 211 },
        { "address": "相坂", "city": "和歌山市", "postcode": "6400341", "prefecture": "和歌山県", "id": 212 },
        { "address": "園部", "city": "和歌山市", "postcode": "6408483", "prefecture": "和歌山県", "id": 213 },
        { "address": "鷹匠町", "city": "和歌山市", "postcode": "6408135", "prefecture": "和歌山県", "id": 214 },
        { "address": "滝畑", "city": "和歌山市", "postcode": "6496301", "prefecture": "和歌山県", "id": 215 },
        { "address": "匠町", "city": "和歌山市", "postcode": "6408028", "prefecture": "和歌山県", "id": 216 },
        { "address": "田尻", "city": "和歌山市", "postcode": "6410005", "prefecture": "和歌山県", "id": 217 },
        { "address": "畳屋町", "city": "和歌山市", "postcode": "6408061", "prefecture": "和歌山県", "id": 218 },
        { "address": "田中町", "city": "和歌山市", "postcode": "6408329", "prefecture": "和歌山県", "id": 219 },
        { "address": "谷", "city": "和歌山市", "postcode": "6496305", "prefecture": "和歌山県", "id": 220 },
        { "address": "谷町", "city": "和歌山市", "postcode": "6408133", "prefecture": "和歌山県", "id": 221 },
        { "address": "田野", "city": "和歌山市", "postcode": "6410061", "prefecture": "和歌山県", "id": 222 },
        { "address": "田屋", "city": "和歌山市", "postcode": "6496337", "prefecture": "和歌山県", "id": 223 },
        { "address": "築港", "city": "和歌山市", "postcode": "6408287", "prefecture": "和歌山県", "id": 224 },
        { "address": "茶屋ノ丁", "city": "和歌山市", "postcode": "6408263", "prefecture": "和歌山県", "id": 225 },
        { "address": "茶屋町", "city": "和歌山市", "postcode": "6408334", "prefecture": "和歌山県", "id": 226 },
        { "address": "つつじが丘", "city": "和歌山市", "postcode": "6400115", "prefecture": "和歌山県", "id": 227 },
        { "address": "津秦", "city": "和歌山市", "postcode": "6408315", "prefecture": "和歌山県", "id": 228 },
        { "address": "手平", "city": "和歌山市", "postcode": "6408319", "prefecture": "和歌山県", "id": 229 },
        { "address": "手平出島", "city": "和歌山市", "postcode": "6408320", "prefecture": "和歌山県", "id": 230 },
        { "address": "寺内", "city": "和歌山市", "postcode": "6408311", "prefecture": "和歌山県", "id": 231 },
        { "address": "出口甲賀丁", "city": "和歌山市", "postcode": "6408282", "prefecture": "和歌山県", "id": 232 },
        { "address": "出口新端ノ丁", "city": "和歌山市", "postcode": "6408285", "prefecture": "和歌山県", "id": 233 },
        { "address": "出口中ノ丁", "city": "和歌山市", "postcode": "6408283", "prefecture": "和歌山県", "id": 234 },
        { "address": "出口端ノ丁", "city": "和歌山市", "postcode": "6408284", "prefecture": "和歌山県", "id": 235 },
        { "address": "出島", "city": "和歌山市", "postcode": "6408306", "prefecture": "和歌山県", "id": 236 },
        { "address": "出水", "city": "和歌山市", "postcode": "6408321", "prefecture": "和歌山県", "id": 237 },
        { "address": "伝法橋南ノ丁", "city": "和歌山市", "postcode": "6408204", "prefecture": "和歌山県", "id": 238 },
        { "address": "道場町", "city": "和歌山市", "postcode": "6408229", "prefecture": "和歌山県", "id": 239 },
        { "address": "土入", "city": "和歌山市", "postcode": "6408432", "prefecture": "和歌山県", "id": 240 },
        { "address": "徳田木丁", "city": "和歌山市", "postcode": "6408206", "prefecture": "和歌山県", "id": 241 },
        { "address": "土佐町", "city": "和歌山市", "postcode": "6408256", "prefecture": "和歌山県", "id": 242 },
        { "address": "友田町", "city": "和歌山市", "postcode": "6408342", "prefecture": "和歌山県", "id": 243 },
        { "address": "中", "city": "和歌山市", "postcode": "6408451", "prefecture": "和歌山県", "id": 244 },
        { "address": "中島", "city": "和歌山市", "postcode": "6410006", "prefecture": "和歌山県", "id": 245 },
        { "address": "中筋日延", "city": "和歌山市", "postcode": "6496304", "prefecture": "和歌山県", "id": 246 },
        { "address": "中野", "city": "和歌山市", "postcode": "6408433", "prefecture": "和歌山県", "id": 247 },
        { "address": "中之島", "city": "和歌山市", "postcode": "6408392", "prefecture": "和歌山県", "id": 248 },
        { "address": "中ノ店中ノ丁", "city": "和歌山市", "postcode": "6408025", "prefecture": "和歌山県", "id": 249 },
        { "address": "中ノ店南ノ丁", "city": "和歌山市", "postcode": "6408026", "prefecture": "和歌山県", "id": 250 },
        { "address": "中ノ店北ノ丁", "city": "和歌山市", "postcode": "6408023", "prefecture": "和歌山県", "id": 251 },
        { "address": "永山", "city": "和歌山市", "postcode": "6400302", "prefecture": "和歌山県", "id": 252 },
        { "address": "七曲り", "city": "和歌山市", "postcode": "6408236", "prefecture": "和歌山県", "id": 253 },
        { "address": "鍋屋町", "city": "和歌山市", "postcode": "6408009", "prefecture": "和歌山県", "id": 254 },
        { "address": "鳴神", "city": "和歌山市", "postcode": "6408303", "prefecture": "和歌山県", "id": 255 },
        { "address": "永穂", "city": "和歌山市", "postcode": "6496333", "prefecture": "和歌山県", "id": 256 },
        { "address": "新高町", "city": "和歌山市", "postcode": "6410034", "prefecture": "和歌山県", "id": 257 },
        { "address": "仁井辺", "city": "和歌山市", "postcode": "6400322", "prefecture": "和歌山県", "id": 258 },
        { "address": "西", "city": "和歌山市", "postcode": "6408313", "prefecture": "和歌山県", "id": 259 },
        { "address": "西鍛冶屋町", "city": "和歌山市", "postcode": "6408046", "prefecture": "和歌山県", "id": 260 },
        { "address": "西河岸町", "city": "和歌山市", "postcode": "6408297", "prefecture": "和歌山県", "id": 261 },
        { "address": "西釘貫丁", "city": "和歌山市", "postcode": "6408063", "prefecture": "和歌山県", "id": 262 },
        { "address": "西蔵前丁", "city": "和歌山市", "postcode": "6408205", "prefecture": "和歌山県", "id": 263 },
        { "address": "西小二里", "city": "和歌山市", "postcode": "6410031", "prefecture": "和歌山県", "id": 264 },
        { "address": "西紺屋町", "city": "和歌山市", "postcode": "6408116", "prefecture": "和歌山県", "id": 265 },
        { "address": "西坂ノ上丁", "city": "和歌山市", "postcode": "6408234", "prefecture": "和歌山県", "id": 266 },
        { "address": "西田井", "city": "和歌山市", "postcode": "6496335", "prefecture": "和歌山県", "id": 267 },
        { "address": "西高松", "city": "和歌山市", "postcode": "6410051", "prefecture": "和歌山県", "id": 268 },
        { "address": "西大工町", "city": "和歌山市", "postcode": "6408037", "prefecture": "和歌山県", "id": 269 },
        { "address": "西仲間町", "city": "和歌山市", "postcode": "6408014", "prefecture": "和歌山県", "id": 270 },
        { "address": "西長町", "city": "和歌山市", "postcode": "6408290", "prefecture": "和歌山県", "id": 271 },
        { "address": "西布経丁", "city": "和歌山市", "postcode": "6408211", "prefecture": "和歌山県", "id": 272 },
        { "address": "西庄", "city": "和歌山市", "postcode": "6400112", "prefecture": "和歌山県", "id": 273 },
        { "address": "西ノ店", "city": "和歌山市", "postcode": "6408042", "prefecture": "和歌山県", "id": 274 },
        { "address": "西旅籠町", "city": "和歌山市", "postcode": "6408021", "prefecture": "和歌山県", "id": 275 },
        { "address": "西浜", "city": "和歌山市", "postcode": "6410036", "prefecture": "和歌山県", "id": 276 },
        { "address": "西汀丁", "city": "和歌山市", "postcode": "6408227", "prefecture": "和歌山県", "id": 277 },
        { "address": "二番丁", "city": "和歌山市", "postcode": "6408143", "prefecture": "和歌山県", "id": 278 },
        { "address": "新留丁", "city": "和歌山市", "postcode": "6408326", "prefecture": "和歌山県", "id": 279 },
        { "address": "布引", "city": "和歌山市", "postcode": "6410015", "prefecture": "和歌山県", "id": 280 },
        { "address": "祢宜", "city": "和歌山市", "postcode": "6496324", "prefecture": "和歌山県", "id": 281 },
        { "address": "直川", "city": "和歌山市", "postcode": "6408481", "prefecture": "和歌山県", "id": 282 },
        { "address": "納定", "city": "和歌山市", "postcode": "6408344", "prefecture": "和歌山県", "id": 283 },
        { "address": "野崎", "city": "和歌山市", "postcode": "6408402", "prefecture": "和歌山県", "id": 284 },
        { "address": "延時", "city": "和歌山市", "postcode": "6408443", "prefecture": "和歌山県", "id": 285 },
        { "address": "橋丁", "city": "和歌山市", "postcode": "6408215", "prefecture": "和歌山県", "id": 286 },
        { "address": "橋向丁", "city": "和歌山市", "postcode": "6408327", "prefecture": "和歌山県", "id": 287 },
        { "address": "畑屋敷榎丁", "city": "和歌山市", "postcode": "6408382", "prefecture": "和歌山県", "id": 288 },
        {
            "address": "畑屋敷円福院東ノ丁",
            "city": "和歌山市",
            "postcode": "6408383",
            "prefecture": "和歌山県",
            "id": 289
        },
        {
            "address": "畑屋敷円福院西ノ丁",
            "city": "和歌山市",
            "postcode": "6408385",
            "prefecture": "和歌山県",
            "id": 290
        },
        { "address": "畑屋敷雁木丁", "city": "和歌山市", "postcode": "6408386", "prefecture": "和歌山県", "id": 291 },
        { "address": "畑屋敷葛屋丁", "city": "和歌山市", "postcode": "6408384", "prefecture": "和歌山県", "id": 292 },
        { "address": "畑屋敷新道丁", "city": "和歌山市", "postcode": "6408397", "prefecture": "和歌山県", "id": 293 },
        { "address": "畑屋敷千体仏丁", "city": "和歌山市", "postcode": "6408394", "prefecture": "和歌山県", "id": 294 },
        { "address": "畑屋敷中ノ丁", "city": "和歌山市", "postcode": "6408395", "prefecture": "和歌山県", "id": 295 },
        { "address": "畑屋敷端ノ丁", "city": "和歌山市", "postcode": "6408393", "prefecture": "和歌山県", "id": 296 },
        { "address": "畑屋敷東ノ丁", "city": "和歌山市", "postcode": "6408381", "prefecture": "和歌山県", "id": 297 },
        { "address": "畑屋敷西ノ丁", "city": "和歌山市", "postcode": "6408396", "prefecture": "和歌山県", "id": 298 },
        { "address": "畑屋敷兵庫ノ丁", "city": "和歌山市", "postcode": "6408399", "prefecture": "和歌山県", "id": 299 },
        { "address": "畑屋敷袋町", "city": "和歌山市", "postcode": "6408387", "prefecture": "和歌山県", "id": 300 },
        { "address": "畑屋敷松ケ枝丁", "city": "和歌山市", "postcode": "6408398", "prefecture": "和歌山県", "id": 301 },
        { "address": "八番丁", "city": "和歌山市", "postcode": "6408157", "prefecture": "和歌山県", "id": 302 },
        { "address": "馬場", "city": "和歌山市", "postcode": "6400353", "prefecture": "和歌山県", "id": 303 },
        { "address": "吐前", "city": "和歌山市", "postcode": "6496275", "prefecture": "和歌山県", "id": 304 },
        { "address": "東鍛冶屋町", "city": "和歌山市", "postcode": "6408036", "prefecture": "和歌山県", "id": 305 },
        { "address": "東釘貫丁", "city": "和歌山市", "postcode": "6408064", "prefecture": "和歌山県", "id": 306 },
        { "address": "東蔵前丁", "city": "和歌山市", "postcode": "6408203", "prefecture": "和歌山県", "id": 307 },
        { "address": "東小二里町", "city": "和歌山市", "postcode": "6410032", "prefecture": "和歌山県", "id": 308 },
        { "address": "東紺屋町", "city": "和歌山市", "postcode": "6408115", "prefecture": "和歌山県", "id": 309 },
        { "address": "東坂ノ上丁", "city": "和歌山市", "postcode": "6408247", "prefecture": "和歌山県", "id": 310 },
        { "address": "東高松", "city": "和歌山市", "postcode": "6410052", "prefecture": "和歌山県", "id": 311 },
        { "address": "東田中", "city": "和歌山市", "postcode": "6496273", "prefecture": "和歌山県", "id": 312 },
        { "address": "東仲間町", "city": "和歌山市", "postcode": "6408013", "prefecture": "和歌山県", "id": 313 },
        { "address": "東長町", "city": "和歌山市", "postcode": "6408235", "prefecture": "和歌山県", "id": 314 },
        { "address": "東長町中ノ丁", "city": "和歌山市", "postcode": "6408266", "prefecture": "和歌山県", "id": 315 },
        { "address": "東布経丁", "city": "和歌山市", "postcode": "6408066", "prefecture": "和歌山県", "id": 316 },
        { "address": "東旅籠町", "city": "和歌山市", "postcode": "6408004", "prefecture": "和歌山県", "id": 317 },
        { "address": "一筋目", "city": "和歌山市", "postcode": "6408067", "prefecture": "和歌山県", "id": 318 },
        { "address": "日野", "city": "和歌山市", "postcode": "6400111", "prefecture": "和歌山県", "id": 319 },
        { "address": "屏風丁", "city": "和歌山市", "postcode": "6408202", "prefecture": "和歌山県", "id": 320 },
        { "address": "平井", "city": "和歌山市", "postcode": "6408442", "prefecture": "和歌山県", "id": 321 },
        { "address": "平尾", "city": "和歌山市", "postcode": "6400304", "prefecture": "和歌山県", "id": 322 },
        { "address": "平岡", "city": "和歌山市", "postcode": "6496303", "prefecture": "和歌山県", "id": 323 },
        { "address": "広瀬通丁", "city": "和歌山市", "postcode": "6408113", "prefecture": "和歌山県", "id": 324 },
        { "address": "広瀬中ノ丁", "city": "和歌山市", "postcode": "6408128", "prefecture": "和歌山県", "id": 325 },
        { "address": "広原", "city": "和歌山市", "postcode": "6400333", "prefecture": "和歌山県", "id": 326 },
        { "address": "広道", "city": "和歌山市", "postcode": "6408268", "prefecture": "和歌山県", "id": 327 },
        { "address": "弘西", "city": "和歌山市", "postcode": "6496339", "prefecture": "和歌山県", "id": 328 },
        { "address": "吹上", "city": "和歌山市", "postcode": "6408137", "prefecture": "和歌山県", "id": 329 },
        { "address": "吹屋町", "city": "和歌山市", "postcode": "6408324", "prefecture": "和歌山県", "id": 330 },
        { "address": "福島", "city": "和歌山市", "postcode": "6408401", "prefecture": "和歌山県", "id": 331 },
        { "address": "福町", "city": "和歌山市", "postcode": "6408043", "prefecture": "和歌山県", "id": 332 },
        { "address": "藤田", "city": "和歌山市", "postcode": "6496318", "prefecture": "和歌山県", "id": 333 },
        { "address": "二筋目", "city": "和歌山市", "postcode": "6408068", "prefecture": "和歌山県", "id": 334 },
        { "address": "府中", "city": "和歌山市", "postcode": "6496338", "prefecture": "和歌山県", "id": 335 },
        { "address": "舟大工町", "city": "和歌山市", "postcode": "6408213", "prefecture": "和歌山県", "id": 336 },
        { "address": "舟津町", "city": "和歌山市", "postcode": "6408255", "prefecture": "和歌山県", "id": 337 },
        { "address": "船所", "city": "和歌山市", "postcode": "6408461", "prefecture": "和歌山県", "id": 338 },
        { "address": "冬野", "city": "和歌山市", "postcode": "6400332", "prefecture": "和歌山県", "id": 339 },
        { "address": "弁財天丁", "city": "和歌山市", "postcode": "6408131", "prefecture": "和歌山県", "id": 340 },
        { "address": "坊主丁", "city": "和歌山市", "postcode": "6408375", "prefecture": "和歌山県", "id": 341 },
        { "address": "卜半町", "city": "和歌山市", "postcode": "6408045", "prefecture": "和歌山県", "id": 342 },
        { "address": "布施屋", "city": "和歌山市", "postcode": "6496321", "prefecture": "和歌山県", "id": 343 },
        { "address": "堀止南ノ丁", "city": "和歌山市", "postcode": "6410041", "prefecture": "和歌山県", "id": 344 },
        { "address": "堀止東", "city": "和歌山市", "postcode": "6408136", "prefecture": "和歌山県", "id": 345 },
        { "address": "堀止西", "city": "和歌山市", "postcode": "6410045", "prefecture": "和歌山県", "id": 346 },
        { "address": "本町", "city": "和歌山市", "postcode": "6408033", "prefecture": "和歌山県", "id": 347 },
        { "address": "真砂丁", "city": "和歌山市", "postcode": "6408261", "prefecture": "和歌山県", "id": 348 },
        { "address": "松江", "city": "和歌山市", "postcode": "6408421", "prefecture": "和歌山県", "id": 349 },
        { "address": "松江中", "city": "和歌山市", "postcode": "6408423", "prefecture": "和歌山県", "id": 350 },
        { "address": "松江東", "city": "和歌山市", "postcode": "6408422", "prefecture": "和歌山県", "id": 351 },
        { "address": "松江西", "city": "和歌山市", "postcode": "6408424", "prefecture": "和歌山県", "id": 352 },
        { "address": "松江北", "city": "和歌山市", "postcode": "6408425", "prefecture": "和歌山県", "id": 353 },
        { "address": "松ケ丘", "city": "和歌山市", "postcode": "6410033", "prefecture": "和歌山県", "id": 354 },
        { "address": "松島", "city": "和歌山市", "postcode": "6408304", "prefecture": "和歌山県", "id": 355 },
        { "address": "松原", "city": "和歌山市", "postcode": "6400342", "prefecture": "和歌山県", "id": 356 },
        { "address": "三葛", "city": "和歌山市", "postcode": "6410011", "prefecture": "和歌山県", "id": 357 },
        { "address": "三木町台所町", "city": "和歌山市", "postcode": "6408153", "prefecture": "和歌山県", "id": 358 },
        { "address": "三木町中ノ丁", "city": "和歌山市", "postcode": "6408106", "prefecture": "和歌山県", "id": 359 },
        { "address": "三木町堀詰", "city": "和歌山市", "postcode": "6408107", "prefecture": "和歌山県", "id": 360 },
        { "address": "三木町南ノ丁", "city": "和歌山市", "postcode": "6408105", "prefecture": "和歌山県", "id": 361 },
        { "address": "三沢町", "city": "和歌山市", "postcode": "6408123", "prefecture": "和歌山県", "id": 362 },
        { "address": "三筋目", "city": "和歌山市", "postcode": "6408069", "prefecture": "和歌山県", "id": 363 },
        { "address": "美園町", "city": "和歌山市", "postcode": "6408331", "prefecture": "和歌山県", "id": 364 },
        { "address": "満屋", "city": "和歌山市", "postcode": "6496271", "prefecture": "和歌山県", "id": 365 },
        { "address": "湊", "city": "和歌山市", "postcode": "6408404", "prefecture": "和歌山県", "id": 366 },
        { "address": "湊桶屋町", "city": "和歌山市", "postcode": "6408264", "prefecture": "和歌山県", "id": 367 },
        { "address": "湊北町", "city": "和歌山市", "postcode": "6408223", "prefecture": "和歌山県", "id": 368 },
        { "address": "湊紺屋町", "city": "和歌山市", "postcode": "6408221", "prefecture": "和歌山県", "id": 369 },
        { "address": "湊御殿", "city": "和歌山市", "postcode": "6408286", "prefecture": "和歌山県", "id": 370 },
        { "address": "湊通丁南", "city": "和歌山市", "postcode": "6408281", "prefecture": "和歌山県", "id": 371 },
        { "address": "湊通丁北", "city": "和歌山市", "postcode": "6408262", "prefecture": "和歌山県", "id": 372 },
        { "address": "湊本町", "city": "和歌山市", "postcode": "6408222", "prefecture": "和歌山県", "id": 373 },
        { "address": "南相生丁", "city": "和歌山市", "postcode": "6408275", "prefecture": "和歌山県", "id": 374 },
        { "address": "南牛町", "city": "和歌山市", "postcode": "6408295", "prefecture": "和歌山県", "id": 375 },
        { "address": "南桶屋町", "city": "和歌山市", "postcode": "6408029", "prefecture": "和歌山県", "id": 376 },
        { "address": "南片原", "city": "和歌山市", "postcode": "6408126", "prefecture": "和歌山県", "id": 377 },
        { "address": "南休賀町", "city": "和歌山市", "postcode": "6408104", "prefecture": "和歌山県", "id": 378 },
        { "address": "南雑賀町", "city": "和歌山市", "postcode": "6408102", "prefecture": "和歌山県", "id": 379 },
        { "address": "南細工町", "city": "和歌山市", "postcode": "6408117", "prefecture": "和歌山県", "id": 380 },
        { "address": "南材木丁", "city": "和歌山市", "postcode": "6408112", "prefecture": "和歌山県", "id": 381 },
        { "address": "南甚五兵衛丁", "city": "和歌山市", "postcode": "6408292", "prefecture": "和歌山県", "id": 382 },
        { "address": "南田辺丁", "city": "和歌山市", "postcode": "6408254", "prefecture": "和歌山県", "id": 383 },
        { "address": "南大工町", "city": "和歌山市", "postcode": "6408032", "prefecture": "和歌山県", "id": 384 },
        { "address": "南中間町", "city": "和歌山市", "postcode": "6408251", "prefecture": "和歌山県", "id": 385 },
        { "address": "南出島", "city": "和歌山市", "postcode": "6408318", "prefecture": "和歌山県", "id": 386 },
        { "address": "南畑", "city": "和歌山市", "postcode": "6400315", "prefecture": "和歌山県", "id": 387 },
        { "address": "南汀丁", "city": "和歌山市", "postcode": "6408232", "prefecture": "和歌山県", "id": 388 },
        { "address": "深山", "city": "和歌山市", "postcode": "6400102", "prefecture": "和歌山県", "id": 389 },
        { "address": "明王寺", "city": "和歌山市", "postcode": "6400305", "prefecture": "和歌山県", "id": 390 },
        { "address": "向", "city": "和歌山市", "postcode": "6408431", "prefecture": "和歌山県", "id": 391 },
        { "address": "六筋目", "city": "和歌山市", "postcode": "6408077", "prefecture": "和歌山県", "id": 392 },
        { "address": "六十谷", "city": "和歌山市", "postcode": "6408482", "prefecture": "和歌山県", "id": 393 },
        { "address": "元寺町", "city": "和歌山市", "postcode": "6408024", "prefecture": "和歌山県", "id": 394 },
        { "address": "元寺町東ノ丁", "city": "和歌山市", "postcode": "6408006", "prefecture": "和歌山県", "id": 395 },
        { "address": "元寺町西ノ丁", "city": "和歌山市", "postcode": "6408007", "prefecture": "和歌山県", "id": 396 },
        { "address": "元寺町南ノ丁", "city": "和歌山市", "postcode": "6408005", "prefecture": "和歌山県", "id": 397 },
        { "address": "元寺町北ノ丁", "city": "和歌山市", "postcode": "6408008", "prefecture": "和歌山県", "id": 398 },
        { "address": "元博労町", "city": "和歌山市", "postcode": "6408216", "prefecture": "和歌山県", "id": 399 },
        { "address": "元町奉行丁", "city": "和歌山市", "postcode": "6408127", "prefecture": "和歌山県", "id": 400 },
        { "address": "本脇", "city": "和歌山市", "postcode": "6400113", "prefecture": "和歌山県", "id": 401 },
        { "address": "本渡", "city": "和歌山市", "postcode": "6400324", "prefecture": "和歌山県", "id": 402 },
        { "address": "森小手穂", "city": "和歌山市", "postcode": "6408312", "prefecture": "和歌山県", "id": 403 },
        { "address": "屋形町", "city": "和歌山市", "postcode": "6408151", "prefecture": "和歌山県", "id": 404 },
        { "address": "薬勝寺", "city": "和歌山市", "postcode": "6400321", "prefecture": "和歌山県", "id": 405 },
        { "address": "矢田", "city": "和歌山市", "postcode": "6400307", "prefecture": "和歌山県", "id": 406 },
        { "address": "柳丁", "city": "和歌山市", "postcode": "6408336", "prefecture": "和歌山県", "id": 407 },
        { "address": "薮ノ丁", "city": "和歌山市", "postcode": "6408138", "prefecture": "和歌山県", "id": 408 },
        { "address": "山蔭丁", "city": "和歌山市", "postcode": "6408132", "prefecture": "和歌山県", "id": 409 },
        { "address": "山口西", "city": "和歌山市", "postcode": "6496317", "prefecture": "和歌山県", "id": 410 },
        { "address": "山吹丁", "city": "和歌山市", "postcode": "6408065", "prefecture": "和歌山県", "id": 411 },
        { "address": "湯屋谷", "city": "和歌山市", "postcode": "6496302", "prefecture": "和歌山県", "id": 412 },
        { "address": "吉里", "city": "和歌山市", "postcode": "6400363", "prefecture": "和歌山県", "id": 413 },
        { "address": "吉田", "city": "和歌山市", "postcode": "6408343", "prefecture": "和歌山県", "id": 414 },
        { "address": "吉原", "city": "和歌山市", "postcode": "6400331", "prefecture": "和歌山県", "id": 415 },
        { "address": "四筋目", "city": "和歌山市", "postcode": "6408060", "prefecture": "和歌山県", "id": 416 },
        { "address": "寄合町", "city": "和歌山市", "postcode": "6408214", "prefecture": "和歌山県", "id": 417 },
        { "address": "万町", "city": "和歌山市", "postcode": "6408035", "prefecture": "和歌山県", "id": 418 },
        { "address": "四番丁", "city": "和歌山市", "postcode": "6408144", "prefecture": "和歌山県", "id": 419 },
        { "address": "六番丁", "city": "和歌山市", "postcode": "6408154", "prefecture": "和歌山県", "id": 420 },
        { "address": "和歌浦中", "city": "和歌山市", "postcode": "6410025", "prefecture": "和歌山県", "id": 421 },
        { "address": "和歌浦東", "city": "和歌山市", "postcode": "6410021", "prefecture": "和歌山県", "id": 422 },
        { "address": "和歌浦西", "city": "和歌山市", "postcode": "6410024", "prefecture": "和歌山県", "id": 423 },
        { "address": "和歌浦南", "city": "和歌山市", "postcode": "6410022", "prefecture": "和歌山県", "id": 424 },
        { "address": "和歌川町", "city": "和歌山市", "postcode": "6410055", "prefecture": "和歌山県", "id": 425 },
        { "address": "和歌町", "city": "和歌山市", "postcode": "6408119", "prefecture": "和歌山県", "id": 426 },
        { "address": "和佐関戸", "city": "和歌山市", "postcode": "6496322", "prefecture": "和歌山県", "id": 427 },
        { "address": "和佐中", "city": "和歌山市", "postcode": "6496326", "prefecture": "和歌山県", "id": 428 },
        { "address": "和田", "city": "和歌山市", "postcode": "6410004", "prefecture": "和歌山県", "id": 429 },
        { "city": "海南市", "postcode": "6420000", "prefecture": "和歌山県", "id": 430 },
        { "address": "赤沼", "city": "海南市", "postcode": "6401163", "prefecture": "和歌山県", "id": 431 },
        { "address": "且来", "city": "海南市", "postcode": "6420015", "prefecture": "和歌山県", "id": 432 },
        { "address": "井田", "city": "海南市", "postcode": "6420021", "prefecture": "和歌山県", "id": 433 },
        { "address": "海老谷", "city": "海南市", "postcode": "6401164", "prefecture": "和歌山県", "id": 434 },
        { "address": "多田", "city": "海南市", "postcode": "6420013", "prefecture": "和歌山県", "id": 435 },
        { "address": "大野中", "city": "海南市", "postcode": "6420022", "prefecture": "和歌山県", "id": 436 },
        { "address": "岡田", "city": "海南市", "postcode": "6420012", "prefecture": "和歌山県", "id": 437 },
        { "address": "沖野々", "city": "海南市", "postcode": "6401175", "prefecture": "和歌山県", "id": 438 },
        { "address": "小野田", "city": "海南市", "postcode": "6420014", "prefecture": "和歌山県", "id": 439 },
        { "address": "上谷", "city": "海南市", "postcode": "6401162", "prefecture": "和歌山県", "id": 440 },
        { "address": "木津", "city": "海南市", "postcode": "6401174", "prefecture": "和歌山県", "id": 441 },
        { "address": "北赤坂", "city": "海南市", "postcode": "6420016", "prefecture": "和歌山県", "id": 442 },
        { "address": "九品寺", "city": "海南市", "postcode": "6401167", "prefecture": "和歌山県", "id": 443 },
        { "address": "扱沢", "city": "海南市", "postcode": "6420027", "prefecture": "和歌山県", "id": 444 },
        { "address": "黒江", "city": "海南市", "postcode": "6420011", "prefecture": "和歌山県", "id": 445 },
        { "address": "阪井", "city": "海南市", "postcode": "6420024", "prefecture": "和歌山県", "id": 446 },
        { "address": "重根", "city": "海南市", "postcode": "6420023", "prefecture": "和歌山県", "id": 447 },
        { "address": "重根西", "city": "海南市", "postcode": "6420019", "prefecture": "和歌山県", "id": 448 },
        { "address": "重根東", "city": "海南市", "postcode": "6420018", "prefecture": "和歌山県", "id": 449 },
        { "address": "冷水", "city": "海南市", "postcode": "6420035", "prefecture": "和歌山県", "id": 450 },
        { "address": "下津町青枝", "city": "海南市", "postcode": "6490147", "prefecture": "和歌山県", "id": 451 },
        { "address": "下津町市坪", "city": "海南市", "postcode": "6490145", "prefecture": "和歌山県", "id": 452 },
        { "address": "下津町梅田", "city": "海南市", "postcode": "6490132", "prefecture": "和歌山県", "id": 453 },
        { "address": "下津町大窪", "city": "海南市", "postcode": "6490155", "prefecture": "和歌山県", "id": 454 },
        { "address": "下津町大崎", "city": "海南市", "postcode": "6490112", "prefecture": "和歌山県", "id": 455 },
        { "address": "下津町興", "city": "海南市", "postcode": "6490153", "prefecture": "和歌山県", "id": 456 },
        { "address": "下津町小原", "city": "海南市", "postcode": "6490162", "prefecture": "和歌山県", "id": 457 },
        { "address": "下津町笠畑", "city": "海南市", "postcode": "6490154", "prefecture": "和歌山県", "id": 458 },
        { "address": "下津町方", "city": "海南市", "postcode": "6490111", "prefecture": "和歌山県", "id": 459 },
        { "address": "下津町上", "city": "海南市", "postcode": "6490164", "prefecture": "和歌山県", "id": 460 },
        { "address": "下津町鰈川", "city": "海南市", "postcode": "6490163", "prefecture": "和歌山県", "id": 461 },
        { "address": "下津町橘本", "city": "海南市", "postcode": "6490144", "prefecture": "和歌山県", "id": 462 },
        { "address": "下津町沓掛", "city": "海南市", "postcode": "6490146", "prefecture": "和歌山県", "id": 463 },
        { "address": "下津町黒田", "city": "海南市", "postcode": "6490122", "prefecture": "和歌山県", "id": 464 },
        { "address": "下津町小畑", "city": "海南市", "postcode": "6490161", "prefecture": "和歌山県", "id": 465 },
        { "address": "下津町小松原", "city": "海南市", "postcode": "6490143", "prefecture": "和歌山県", "id": 466 },
        { "address": "下津町小南", "city": "海南市", "postcode": "6490141", "prefecture": "和歌山県", "id": 467 },
        { "address": "下津町塩津", "city": "海南市", "postcode": "6490131", "prefecture": "和歌山県", "id": 468 },
        { "address": "下津町下", "city": "海南市", "postcode": "6490133", "prefecture": "和歌山県", "id": 469 },
        { "address": "下津町下津", "city": "海南市", "postcode": "6490101", "prefecture": "和歌山県", "id": 470 },
        { "address": "下津町曽根田", "city": "海南市", "postcode": "6490151", "prefecture": "和歌山県", "id": 471 },
        { "address": "下津町中", "city": "海南市", "postcode": "6490142", "prefecture": "和歌山県", "id": 472 },
        { "address": "下津町引尾", "city": "海南市", "postcode": "6490152", "prefecture": "和歌山県", "id": 473 },
        { "address": "下津町丸田", "city": "海南市", "postcode": "6490121", "prefecture": "和歌山県", "id": 474 },
        { "address": "下津町百垣内", "city": "海南市", "postcode": "6490156", "prefecture": "和歌山県", "id": 475 },
        { "address": "下津町丁", "city": "海南市", "postcode": "6490123", "prefecture": "和歌山県", "id": 476 },
        { "address": "下津野", "city": "海南市", "postcode": "6400443", "prefecture": "和歌山県", "id": 477 },
        { "address": "高津", "city": "海南市", "postcode": "6400451", "prefecture": "和歌山県", "id": 478 },
        { "address": "築地", "city": "海南市", "postcode": "6420031", "prefecture": "和歌山県", "id": 479 },
        { "address": "次ケ谷", "city": "海南市", "postcode": "6401166", "prefecture": "和歌山県", "id": 480 },
        { "address": "鳥居", "city": "海南市", "postcode": "6420033", "prefecture": "和歌山県", "id": 481 },
        { "address": "名高", "city": "海南市", "postcode": "6420032", "prefecture": "和歌山県", "id": 482 },
        { "address": "七山", "city": "海南市", "postcode": "6400441", "prefecture": "和歌山県", "id": 483 },
        { "address": "野上新", "city": "海南市", "postcode": "6401161", "prefecture": "和歌山県", "id": 484 },
        { "address": "野上中", "city": "海南市", "postcode": "6401171", "prefecture": "和歌山県", "id": 485 },
        { "address": "野尻", "city": "海南市", "postcode": "6400453", "prefecture": "和歌山県", "id": 486 },
        { "address": "幡川", "city": "海南市", "postcode": "6420028", "prefecture": "和歌山県", "id": 487 },
        { "address": "馬場町", "city": "海南市", "postcode": "6420004", "prefecture": "和歌山県", "id": 488 },
        { "address": "原野", "city": "海南市", "postcode": "6400442", "prefecture": "和歌山県", "id": 489 },
        { "address": "日方", "city": "海南市", "postcode": "6420002", "prefecture": "和歌山県", "id": 490 },
        { "address": "東畑", "city": "海南市", "postcode": "6420025", "prefecture": "和歌山県", "id": 491 },
        { "address": "ひや水", "city": "海南市", "postcode": "6401165", "prefecture": "和歌山県", "id": 492 },
        { "address": "藤白", "city": "海南市", "postcode": "6420034", "prefecture": "和歌山県", "id": 493 },
        { "address": "船尾", "city": "海南市", "postcode": "6420001", "prefecture": "和歌山県", "id": 494 },
        { "address": "別院", "city": "海南市", "postcode": "6400454", "prefecture": "和歌山県", "id": 495 },
        { "address": "別所", "city": "海南市", "postcode": "6420026", "prefecture": "和歌山県", "id": 496 },
        { "address": "溝ノ口", "city": "海南市", "postcode": "6401172", "prefecture": "和歌山県", "id": 497 },
        { "address": "南赤坂", "city": "海南市", "postcode": "6420017", "prefecture": "和歌山県", "id": 498 },
        { "address": "椋木", "city": "海南市", "postcode": "6401173", "prefecture": "和歌山県", "id": 499 },
        { "address": "孟子", "city": "海南市", "postcode": "6400452", "prefecture": "和歌山県", "id": 500 },
        { "address": "山崎町", "city": "海南市", "postcode": "6420003", "prefecture": "和歌山県", "id": 501 },
        { "address": "山田", "city": "海南市", "postcode": "6420029", "prefecture": "和歌山県", "id": 502 },
        { "city": "橋本市", "postcode": "6480000", "prefecture": "和歌山県", "id": 503 },
        { "address": "赤塚", "city": "橋本市", "postcode": "6480022", "prefecture": "和歌山県", "id": 504 },
        { "address": "あやの台", "city": "橋本市", "postcode": "6480019", "prefecture": "和歌山県", "id": 505 },
        { "address": "市脇", "city": "橋本市", "postcode": "6480073", "prefecture": "和歌山県", "id": 506 },
        { "address": "上田", "city": "橋本市", "postcode": "6480024", "prefecture": "和歌山県", "id": 507 },
        { "address": "小原田", "city": "橋本市", "postcode": "6480071", "prefecture": "和歌山県", "id": 508 },
        { "address": "小峰台", "city": "橋本市", "postcode": "6480005", "prefecture": "和歌山県", "id": 509 },
        { "address": "柿の木坂", "city": "橋本市", "postcode": "6480097", "prefecture": "和歌山県", "id": 510 },
        { "address": "賢堂", "city": "橋本市", "postcode": "6480037", "prefecture": "和歌山県", "id": 511 },
        { "address": "柏原", "city": "橋本市", "postcode": "6480084", "prefecture": "和歌山県", "id": 512 },
        { "address": "学文路", "city": "橋本市", "postcode": "6480043", "prefecture": "和歌山県", "id": 513 },
        { "address": "岸上", "city": "橋本市", "postcode": "6480085", "prefecture": "和歌山県", "id": 514 },
        { "address": "北馬場", "city": "橋本市", "postcode": "6480061", "prefecture": "和歌山県", "id": 515 },
        { "address": "北宿", "city": "橋本市", "postcode": "6480033", "prefecture": "和歌山県", "id": 516 },
        { "address": "紀ノ光台", "city": "橋本市", "postcode": "6480007", "prefecture": "和歌山県", "id": 517 },
        { "address": "紀見", "city": "橋本市", "postcode": "6480052", "prefecture": "和歌山県", "id": 518 },
        { "address": "紀見ケ丘", "city": "橋本市", "postcode": "6480092", "prefecture": "和歌山県", "id": 519 },
        { "address": "慶賀野", "city": "橋本市", "postcode": "6480093", "prefecture": "和歌山県", "id": 520 },
        { "address": "恋野", "city": "橋本市", "postcode": "6480021", "prefecture": "和歌山県", "id": 521 },
        { "address": "高野口町応其", "city": "橋本市", "postcode": "6497201", "prefecture": "和歌山県", "id": 522 },
        { "address": "高野口町大野", "city": "橋本市", "postcode": "6497207", "prefecture": "和歌山県", "id": 523 },
        { "address": "高野口町小田", "city": "橋本市", "postcode": "6497204", "prefecture": "和歌山県", "id": 524 },
        { "address": "高野口町上中", "city": "橋本市", "postcode": "6497212", "prefecture": "和歌山県", "id": 525 },
        { "address": "高野口町九重", "city": "橋本市", "postcode": "6497215", "prefecture": "和歌山県", "id": 526 },
        { "address": "高野口町嵯峨谷", "city": "橋本市", "postcode": "6497213", "prefecture": "和歌山県", "id": 527 },
        { "address": "高野口町下中", "city": "橋本市", "postcode": "6497211", "prefecture": "和歌山県", "id": 528 },
        { "address": "高野口町竹尾", "city": "橋本市", "postcode": "6497214", "prefecture": "和歌山県", "id": 529 },
        { "address": "高野口町田原", "city": "橋本市", "postcode": "6497216", "prefecture": "和歌山県", "id": 530 },
        { "address": "高野口町名倉", "city": "橋本市", "postcode": "6497205", "prefecture": "和歌山県", "id": 531 },
        { "address": "高野口町名古曽", "city": "橋本市", "postcode": "6497203", "prefecture": "和歌山県", "id": 532 },
        { "address": "高野口町伏原", "city": "橋本市", "postcode": "6497202", "prefecture": "和歌山県", "id": 533 },
        { "address": "高野口町向島", "city": "橋本市", "postcode": "6497206", "prefecture": "和歌山県", "id": 534 },
        { "address": "光陽台", "city": "橋本市", "postcode": "6480099", "prefecture": "和歌山県", "id": 535 },
        { "address": "古佐田", "city": "橋本市", "postcode": "6480065", "prefecture": "和歌山県", "id": 536 },
        { "address": "神野々", "city": "橋本市", "postcode": "6480086", "prefecture": "和歌山県", "id": 537 },
        { "address": "胡麻生", "city": "橋本市", "postcode": "6480066", "prefecture": "和歌山県", "id": 538 },
        { "address": "境原", "city": "橋本市", "postcode": "6480006", "prefecture": "和歌山県", "id": 539 },
        { "address": "さつき台", "city": "橋本市", "postcode": "6480075", "prefecture": "和歌山県", "id": 540 },
        { "address": "清水", "city": "橋本市", "postcode": "6480041", "prefecture": "和歌山県", "id": 541 },
        { "address": "菖蒲谷", "city": "橋本市", "postcode": "6480082", "prefecture": "和歌山県", "id": 542 },
        { "address": "しらさぎ台", "city": "橋本市", "postcode": "6480053", "prefecture": "和歌山県", "id": 543 },
        { "address": "城山台", "city": "橋本市", "postcode": "6480054", "prefecture": "和歌山県", "id": 544 },
        { "address": "杉尾", "city": "橋本市", "postcode": "6480001", "prefecture": "和歌山県", "id": 545 },
        { "address": "須河", "city": "橋本市", "postcode": "6480038", "prefecture": "和歌山県", "id": 546 },
        { "address": "隅田町芋生", "city": "橋本市", "postcode": "6480012", "prefecture": "和歌山県", "id": 547 },
        { "address": "隅田町上兵庫", "city": "橋本市", "postcode": "6480014", "prefecture": "和歌山県", "id": 548 },
        { "address": "隅田町下兵庫", "city": "橋本市", "postcode": "6480016", "prefecture": "和歌山県", "id": 549 },
        { "address": "隅田町河瀬", "city": "橋本市", "postcode": "6480015", "prefecture": "和歌山県", "id": 550 },
        { "address": "隅田町霜草", "city": "橋本市", "postcode": "6480004", "prefecture": "和歌山県", "id": 551 },
        { "address": "隅田町垂井", "city": "橋本市", "postcode": "6480018", "prefecture": "和歌山県", "id": 552 },
        { "address": "隅田町中下", "city": "橋本市", "postcode": "6480013", "prefecture": "和歌山県", "id": 553 },
        { "address": "隅田町中島", "city": "橋本市", "postcode": "6480017", "prefecture": "和歌山県", "id": 554 },
        { "address": "隅田町平野", "city": "橋本市", "postcode": "6480002", "prefecture": "和歌山県", "id": 555 },
        { "address": "隅田町真土", "city": "橋本市", "postcode": "6480011", "prefecture": "和歌山県", "id": 556 },
        { "address": "隅田町山内", "city": "橋本市", "postcode": "6480003", "prefecture": "和歌山県", "id": 557 },
        { "address": "只野", "city": "橋本市", "postcode": "6480031", "prefecture": "和歌山県", "id": 558 },
        { "address": "谷奥深", "city": "橋本市", "postcode": "6480032", "prefecture": "和歌山県", "id": 559 },
        { "address": "妻", "city": "橋本市", "postcode": "6480062", "prefecture": "和歌山県", "id": 560 },
        { "address": "出塔", "city": "橋本市", "postcode": "6480083", "prefecture": "和歌山県", "id": 561 },
        { "address": "東家", "city": "橋本市", "postcode": "6480072", "prefecture": "和歌山県", "id": 562 },
        { "address": "中道", "city": "橋本市", "postcode": "6480023", "prefecture": "和歌山県", "id": 563 },
        { "address": "西畑", "city": "橋本市", "postcode": "6480042", "prefecture": "和歌山県", "id": 564 },
        { "address": "野", "city": "橋本市", "postcode": "6480074", "prefecture": "和歌山県", "id": 565 },
        { "address": "橋谷", "city": "橋本市", "postcode": "6480095", "prefecture": "和歌山県", "id": 566 },
        { "address": "橋本", "city": "橋本市", "postcode": "6480064", "prefecture": "和歌山県", "id": 567 },
        { "address": "柱本", "city": "橋本市", "postcode": "6480091", "prefecture": "和歌山県", "id": 568 },
        { "address": "原田", "city": "橋本市", "postcode": "6480063", "prefecture": "和歌山県", "id": 569 },
        { "address": "彦谷", "city": "橋本市", "postcode": "6480035", "prefecture": "和歌山県", "id": 570 },
        { "address": "細川", "city": "橋本市", "postcode": "6480051", "prefecture": "和歌山県", "id": 571 },
        { "address": "三石台", "city": "橋本市", "postcode": "6480094", "prefecture": "和歌山県", "id": 572 },
        { "address": "南馬場", "city": "橋本市", "postcode": "6480044", "prefecture": "和歌山県", "id": 573 },
        { "address": "南宿", "city": "橋本市", "postcode": "6480034", "prefecture": "和歌山県", "id": 574 },
        { "address": "みゆき台", "city": "橋本市", "postcode": "6480088", "prefecture": "和歌山県", "id": 575 },
        { "address": "御幸辻", "city": "橋本市", "postcode": "6480096", "prefecture": "和歌山県", "id": 576 },
        { "address": "向副", "city": "橋本市", "postcode": "6480025", "prefecture": "和歌山県", "id": 577 },
        { "address": "矢倉脇", "city": "橋本市", "postcode": "6480098", "prefecture": "和歌山県", "id": 578 },
        { "address": "山田", "city": "橋本市", "postcode": "6480081", "prefecture": "和歌山県", "id": 579 },
        { "address": "横座", "city": "橋本市", "postcode": "6480036", "prefecture": "和歌山県", "id": 580 },
        { "address": "吉原", "city": "橋本市", "postcode": "6480087", "prefecture": "和歌山県", "id": 581 },
        { "city": "有田市", "postcode": "6490300", "prefecture": "和歌山県", "id": 582 },
        { "address": "糸我町中番", "city": "有田市", "postcode": "6490421", "prefecture": "和歌山県", "id": 583 },
        { "address": "糸我町西", "city": "有田市", "postcode": "6490422", "prefecture": "和歌山県", "id": 584 },
        { "address": "古江見", "city": "有田市", "postcode": "6490317", "prefecture": "和歌山県", "id": 585 },
        { "address": "下中島", "city": "有田市", "postcode": "6490301", "prefecture": "和歌山県", "id": 586 },
        { "address": "新堂", "city": "有田市", "postcode": "6490303", "prefecture": "和歌山県", "id": 587 },
        { "address": "千田", "city": "有田市", "postcode": "6490313", "prefecture": "和歌山県", "id": 588 },
        { "address": "辻堂", "city": "有田市", "postcode": "6490311", "prefecture": "和歌山県", "id": 589 },
        { "address": "野", "city": "有田市", "postcode": "6490314", "prefecture": "和歌山県", "id": 590 },
        { "address": "初島町里", "city": "有田市", "postcode": "6490307", "prefecture": "和歌山県", "id": 591 },
        { "address": "初島町浜", "city": "有田市", "postcode": "6490306", "prefecture": "和歌山県", "id": 592 },
        { "address": "星尾", "city": "有田市", "postcode": "6490312", "prefecture": "和歌山県", "id": 593 },
        { "address": "港町", "city": "有田市", "postcode": "6490305", "prefecture": "和歌山県", "id": 594 },
        { "address": "箕島", "city": "有田市", "postcode": "6490304", "prefecture": "和歌山県", "id": 595 },
        { "address": "宮崎町", "city": "有田市", "postcode": "6490316", "prefecture": "和歌山県", "id": 596 },
        { "address": "宮原町新町", "city": "有田市", "postcode": "6490434", "prefecture": "和歌山県", "id": 597 },
        { "address": "宮原町須谷", "city": "有田市", "postcode": "6490433", "prefecture": "和歌山県", "id": 598 },
        { "address": "宮原町滝", "city": "有田市", "postcode": "6490437", "prefecture": "和歌山県", "id": 599 },
        { "address": "宮原町滝川原", "city": "有田市", "postcode": "6490435", "prefecture": "和歌山県", "id": 600 },
        { "address": "宮原町道", "city": "有田市", "postcode": "6490436", "prefecture": "和歌山県", "id": 601 },
        { "address": "宮原町畑", "city": "有田市", "postcode": "6490431", "prefecture": "和歌山県", "id": 602 },
        { "address": "宮原町東", "city": "有田市", "postcode": "6490432", "prefecture": "和歌山県", "id": 603 },
        { "address": "山田原", "city": "有田市", "postcode": "6490302", "prefecture": "和歌山県", "id": 604 },
        { "address": "山地", "city": "有田市", "postcode": "6490315", "prefecture": "和歌山県", "id": 605 },
        { "city": "御坊市", "postcode": "6440000", "prefecture": "和歌山県", "id": 606 },
        { "address": "荊木", "city": "御坊市", "postcode": "6440015", "prefecture": "和歌山県", "id": 607 },
        { "address": "熊野", "city": "御坊市", "postcode": "6440033", "prefecture": "和歌山県", "id": 608 },
        { "address": "岩内", "city": "御坊市", "postcode": "6440032", "prefecture": "和歌山県", "id": 609 },
        { "address": "御坊", "city": "御坊市", "postcode": "6440001", "prefecture": "和歌山県", "id": 610 },
        { "address": "塩屋町南塩屋", "city": "御坊市", "postcode": "6440024", "prefecture": "和歌山県", "id": 611 },
        { "address": "塩屋町北塩屋", "city": "御坊市", "postcode": "6440025", "prefecture": "和歌山県", "id": 612 },
        { "address": "島", "city": "御坊市", "postcode": "6440003", "prefecture": "和歌山県", "id": 613 },
        { "address": "薗", "city": "御坊市", "postcode": "6440002", "prefecture": "和歌山県", "id": 614 },
        { "address": "名田町上野", "city": "御坊市", "postcode": "6440022", "prefecture": "和歌山県", "id": 615 },
        { "address": "名田町楠井", "city": "御坊市", "postcode": "6440021", "prefecture": "和歌山県", "id": 616 },
        { "address": "名田町野島", "city": "御坊市", "postcode": "6440023", "prefecture": "和歌山県", "id": 617 },
        { "address": "名屋", "city": "御坊市", "postcode": "6440004", "prefecture": "和歌山県", "id": 618 },
        { "address": "名屋町", "city": "御坊市", "postcode": "6440005", "prefecture": "和歌山県", "id": 619 },
        { "address": "野口", "city": "御坊市", "postcode": "6440031", "prefecture": "和歌山県", "id": 620 },
        { "address": "藤田町藤井", "city": "御坊市", "postcode": "6491341", "prefecture": "和歌山県", "id": 621 },
        { "address": "藤田町吉田", "city": "御坊市", "postcode": "6491342", "prefecture": "和歌山県", "id": 622 },
        { "address": "明神川", "city": "御坊市", "postcode": "6440034", "prefecture": "和歌山県", "id": 623 },
        { "address": "湯川町小松原", "city": "御坊市", "postcode": "6440012", "prefecture": "和歌山県", "id": 624 },
        { "address": "湯川町財部", "city": "御坊市", "postcode": "6440011", "prefecture": "和歌山県", "id": 625 },
        { "address": "湯川町富安", "city": "御坊市", "postcode": "6440014", "prefecture": "和歌山県", "id": 626 },
        { "address": "湯川町丸山", "city": "御坊市", "postcode": "6440013", "prefecture": "和歌山県", "id": 627 },
        { "city": "田辺市", "postcode": "6460000", "prefecture": "和歌山県", "id": 628 },
        { "address": "秋津川", "city": "田辺市", "postcode": "6460102", "prefecture": "和歌山県", "id": 629 },
        { "address": "秋津町", "city": "田辺市", "postcode": "6460005", "prefecture": "和歌山県", "id": 630 },
        { "address": "あけぼの", "city": "田辺市", "postcode": "6460021", "prefecture": "和歌山県", "id": 631 },
        { "address": "朝日ヶ丘", "city": "田辺市", "postcode": "6460027", "prefecture": "和歌山県", "id": 632 },
        { "address": "鮎川", "city": "田辺市", "postcode": "6461101", "prefecture": "和歌山県", "id": 633 },
        { "address": "磯間", "city": "田辺市", "postcode": "6460037", "prefecture": "和歌山県", "id": 634 },
        { "address": "稲成町", "city": "田辺市", "postcode": "6460051", "prefecture": "和歌山県", "id": 635 },
        { "address": "今福町", "city": "田辺市", "postcode": "6460043", "prefecture": "和歌山県", "id": 636 },
        { "address": "熊野", "city": "田辺市", "postcode": "6461321", "prefecture": "和歌山県", "id": 637 },
        { "address": "上野", "city": "田辺市", "postcode": "6460212", "prefecture": "和歌山県", "id": 638 },
        { "address": "上の山", "city": "田辺市", "postcode": "6460061", "prefecture": "和歌山県", "id": 639 },
        { "address": "江川", "city": "田辺市", "postcode": "6460054", "prefecture": "和歌山県", "id": 640 },
        { "address": "扇ケ浜", "city": "田辺市", "postcode": "6460034", "prefecture": "和歌山県", "id": 641 },
        { "address": "学園", "city": "田辺市", "postcode": "6460024", "prefecture": "和歌山県", "id": 642 },
        { "address": "神島台", "city": "田辺市", "postcode": "6460012", "prefecture": "和歌山県", "id": 643 },
        { "address": "片町", "city": "田辺市", "postcode": "6460045", "prefecture": "和歌山県", "id": 644 },
        { "address": "上秋津", "city": "田辺市", "postcode": "6460001", "prefecture": "和歌山県", "id": 645 },
        { "address": "上芳養", "city": "田辺市", "postcode": "6460101", "prefecture": "和歌山県", "id": 646 },
        { "address": "上万呂", "city": "田辺市", "postcode": "6460002", "prefecture": "和歌山県", "id": 647 },
        { "address": "上三栖", "city": "田辺市", "postcode": "6460214", "prefecture": "和歌山県", "id": 648 },
        { "address": "上屋敷", "city": "田辺市", "postcode": "6460036", "prefecture": "和歌山県", "id": 649 },
        { "address": "北新町", "city": "田辺市", "postcode": "6460041", "prefecture": "和歌山県", "id": 650 },
        { "address": "九川", "city": "田辺市", "postcode": "6461334", "prefecture": "和歌山県", "id": 651 },
        { "address": "串", "city": "田辺市", "postcode": "6461335", "prefecture": "和歌山県", "id": 652 },
        { "address": "合川", "city": "田辺市", "postcode": "6461338", "prefecture": "和歌山県", "id": 653 },
        { "address": "小谷", "city": "田辺市", "postcode": "6461325", "prefecture": "和歌山県", "id": 654 },
        { "address": "五味", "city": "田辺市", "postcode": "6461332", "prefecture": "和歌山県", "id": 655 },
        { "address": "木守", "city": "田辺市", "postcode": "6461331", "prefecture": "和歌山県", "id": 656 },
        { "address": "紺屋町", "city": "田辺市", "postcode": "6460047", "prefecture": "和歌山県", "id": 657 },
        { "address": "栄町", "city": "田辺市", "postcode": "6460048", "prefecture": "和歌山県", "id": 658 },
        { "address": "下川上", "city": "田辺市", "postcode": "6461212", "prefecture": "和歌山県", "id": 659 },
        { "address": "下川下", "city": "田辺市", "postcode": "6461213", "prefecture": "和歌山県", "id": 660 },
        { "address": "下露", "city": "田辺市", "postcode": "6461337", "prefecture": "和歌山県", "id": 661 },
        { "address": "下万呂", "city": "田辺市", "postcode": "6460004", "prefecture": "和歌山県", "id": 662 },
        { "address": "下三栖", "city": "田辺市", "postcode": "6460216", "prefecture": "和歌山県", "id": 663 },
        { "address": "下屋敷町", "city": "田辺市", "postcode": "6460032", "prefecture": "和歌山県", "id": 664 },
        { "address": "城山台", "city": "田辺市", "postcode": "6460217", "prefecture": "和歌山県", "id": 665 },
        { "address": "新庄町", "city": "田辺市", "postcode": "6460011", "prefecture": "和歌山県", "id": 666 },
        { "address": "新万", "city": "田辺市", "postcode": "6460014", "prefecture": "和歌山県", "id": 667 },
        { "address": "新屋敷町", "city": "田辺市", "postcode": "6460033", "prefecture": "和歌山県", "id": 668 },
        { "address": "末広町", "city": "田辺市", "postcode": "6460038", "prefecture": "和歌山県", "id": 669 },
        { "address": "高雄", "city": "田辺市", "postcode": "6460028", "prefecture": "和歌山県", "id": 670 },
        { "address": "たきない町", "city": "田辺市", "postcode": "6460015", "prefecture": "和歌山県", "id": 671 },
        { "address": "竹ノ平", "city": "田辺市", "postcode": "6461324", "prefecture": "和歌山県", "id": 672 },
        { "address": "谷野口", "city": "田辺市", "postcode": "6461336", "prefecture": "和歌山県", "id": 673 },
        { "address": "天神崎", "city": "田辺市", "postcode": "6460050", "prefecture": "和歌山県", "id": 674 },
        { "address": "東陽", "city": "田辺市", "postcode": "6460029", "prefecture": "和歌山県", "id": 675 },
        { "address": "長瀬", "city": "田辺市", "postcode": "6461339", "prefecture": "和歌山県", "id": 676 },
        { "address": "中芳養", "city": "田辺市", "postcode": "6460057", "prefecture": "和歌山県", "id": 677 },
        { "address": "中辺路町石船", "city": "田辺市", "postcode": "6461412", "prefecture": "和歌山県", "id": 678 },
        { "address": "中辺路町内井川", "city": "田辺市", "postcode": "6461439", "prefecture": "和歌山県", "id": 679 },
        { "address": "中辺路町大内川", "city": "田辺市", "postcode": "6461411", "prefecture": "和歌山県", "id": 680 },
        { "address": "中辺路町大川", "city": "田辺市", "postcode": "6461433", "prefecture": "和歌山県", "id": 681 },
        { "address": "中辺路町川合", "city": "田辺市", "postcode": "6461417", "prefecture": "和歌山県", "id": 682 },
        { "address": "中辺路町熊野川", "city": "田辺市", "postcode": "6461436", "prefecture": "和歌山県", "id": 683 },
        { "address": "中辺路町栗栖川", "city": "田辺市", "postcode": "6461421", "prefecture": "和歌山県", "id": 684 },
        { "address": "中辺路町小皆", "city": "田辺市", "postcode": "6461435", "prefecture": "和歌山県", "id": 685 },
        { "address": "中辺路町小松原", "city": "田辺市", "postcode": "6461431", "prefecture": "和歌山県", "id": 686 },
        { "address": "中辺路町沢", "city": "田辺市", "postcode": "6461437", "prefecture": "和歌山県", "id": 687 },
        { "address": "中辺路町高原", "city": "田辺市", "postcode": "6461416", "prefecture": "和歌山県", "id": 688 },
        { "address": "中辺路町近露", "city": "田辺市", "postcode": "6461402", "prefecture": "和歌山県", "id": 689 },
        { "address": "中辺路町西谷", "city": "田辺市", "postcode": "6461414", "prefecture": "和歌山県", "id": 690 },
        { "address": "中辺路町温川", "city": "田辺市", "postcode": "6461434", "prefecture": "和歌山県", "id": 691 },
        { "address": "中辺路町野中", "city": "田辺市", "postcode": "6461401", "prefecture": "和歌山県", "id": 692 },
        { "address": "中辺路町福定", "city": "田辺市", "postcode": "6461432", "prefecture": "和歌山県", "id": 693 },
        { "address": "中辺路町北郡", "city": "田辺市", "postcode": "6461413", "prefecture": "和歌山県", "id": 694 },
        { "address": "中辺路町真砂", "city": "田辺市", "postcode": "6461415", "prefecture": "和歌山県", "id": 695 },
        { "address": "中辺路町水上", "city": "田辺市", "postcode": "6461438", "prefecture": "和歌山県", "id": 696 },
        { "address": "中万呂", "city": "田辺市", "postcode": "6460003", "prefecture": "和歌山県", "id": 697 },
        { "address": "中三栖", "city": "田辺市", "postcode": "6460215", "prefecture": "和歌山県", "id": 698 },
        { "address": "中屋敷町", "city": "田辺市", "postcode": "6460035", "prefecture": "和歌山県", "id": 699 },
        { "address": "長野", "city": "田辺市", "postcode": "6460213", "prefecture": "和歌山県", "id": 700 },
        { "address": "芳養町", "city": "田辺市", "postcode": "6460056", "prefecture": "和歌山県", "id": 701 },
        { "address": "芳養松原", "city": "田辺市", "postcode": "6460063", "prefecture": "和歌山県", "id": 702 },
        { "address": "東伏菟野", "city": "田辺市", "postcode": "6461333", "prefecture": "和歌山県", "id": 703 },
        { "address": "東山", "city": "田辺市", "postcode": "6460022", "prefecture": "和歌山県", "id": 704 },
        { "address": "平瀬", "city": "田辺市", "postcode": "6461214", "prefecture": "和歌山県", "id": 705 },
        { "address": "深谷", "city": "田辺市", "postcode": "6461326", "prefecture": "和歌山県", "id": 706 },
        { "address": "福路町", "city": "田辺市", "postcode": "6460044", "prefecture": "和歌山県", "id": 707 },
        { "address": "伏菟野", "city": "田辺市", "postcode": "6460211", "prefecture": "和歌山県", "id": 708 },
        { "address": "古尾", "city": "田辺市", "postcode": "6460059", "prefecture": "和歌山県", "id": 709 },
        { "address": "宝来町", "city": "田辺市", "postcode": "6460026", "prefecture": "和歌山県", "id": 710 },
        { "address": "本宮町一本松", "city": "田辺市", "postcode": "6471742", "prefecture": "和歌山県", "id": 711 },
        { "address": "本宮町請川", "city": "田辺市", "postcode": "6471703", "prefecture": "和歌山県", "id": 712 },
        { "address": "本宮町大居", "city": "田辺市", "postcode": "6471741", "prefecture": "和歌山県", "id": 713 },
        { "address": "本宮町大瀬", "city": "田辺市", "postcode": "6471725", "prefecture": "和歌山県", "id": 714 },
        { "address": "本宮町大津荷", "city": "田辺市", "postcode": "6471702", "prefecture": "和歌山県", "id": 715 },
        { "address": "本宮町上大野", "city": "田辺市", "postcode": "6471716", "prefecture": "和歌山県", "id": 716 },
        { "address": "本宮町上切原", "city": "田辺市", "postcode": "6471751", "prefecture": "和歌山県", "id": 717 },
        { "address": "本宮町川湯", "city": "田辺市", "postcode": "6471717", "prefecture": "和歌山県", "id": 718 },
        { "address": "本宮町切畑", "city": "田辺市", "postcode": "6471752", "prefecture": "和歌山県", "id": 719 },
        { "address": "本宮町久保野", "city": "田辺市", "postcode": "6471736", "prefecture": "和歌山県", "id": 720 },
        { "address": "本宮町小々森", "city": "田辺市", "postcode": "6471722", "prefecture": "和歌山県", "id": 721 },
        { "address": "本宮町小津荷", "city": "田辺市", "postcode": "6471701", "prefecture": "和歌山県", "id": 722 },
        { "address": "本宮町静川", "city": "田辺市", "postcode": "6471714", "prefecture": "和歌山県", "id": 723 },
        { "address": "本宮町下湯川", "city": "田辺市", "postcode": "6471734", "prefecture": "和歌山県", "id": 724 },
        { "address": "本宮町高山", "city": "田辺市", "postcode": "6471705", "prefecture": "和歌山県", "id": 725 },
        { "address": "本宮町田代", "city": "田辺市", "postcode": "6471712", "prefecture": "和歌山県", "id": 726 },
        { "address": "本宮町土河屋", "city": "田辺市", "postcode": "6471753", "prefecture": "和歌山県", "id": 727 },
        { "address": "本宮町野竹", "city": "田辺市", "postcode": "6471724", "prefecture": "和歌山県", "id": 728 },
        { "address": "本宮町東和田", "city": "田辺市", "postcode": "6471715", "prefecture": "和歌山県", "id": 729 },
        { "address": "本宮町檜葉", "city": "田辺市", "postcode": "6471721", "prefecture": "和歌山県", "id": 730 },
        { "address": "本宮町伏拝", "city": "田辺市", "postcode": "6471743", "prefecture": "和歌山県", "id": 731 },
        { "address": "本宮町武住", "city": "田辺市", "postcode": "6471726", "prefecture": "和歌山県", "id": 732 },
        { "address": "本宮町本宮", "city": "田辺市", "postcode": "6471731", "prefecture": "和歌山県", "id": 733 },
        { "address": "本宮町曲川", "city": "田辺市", "postcode": "6471735", "prefecture": "和歌山県", "id": 734 },
        { "address": "本宮町三越", "city": "田辺市", "postcode": "6471744", "prefecture": "和歌山県", "id": 735 },
        { "address": "本宮町皆瀬川", "city": "田辺市", "postcode": "6471711", "prefecture": "和歌山県", "id": 736 },
        { "address": "本宮町皆地", "city": "田辺市", "postcode": "6471723", "prefecture": "和歌山県", "id": 737 },
        { "address": "本宮町簑尾谷", "city": "田辺市", "postcode": "6471713", "prefecture": "和歌山県", "id": 738 },
        { "address": "本宮町耳打", "city": "田辺市", "postcode": "6471704", "prefecture": "和歌山県", "id": 739 },
        { "address": "本宮町湯峯", "city": "田辺市", "postcode": "6471732", "prefecture": "和歌山県", "id": 740 },
        { "address": "本宮町渡瀬", "city": "田辺市", "postcode": "6471733", "prefecture": "和歌山県", "id": 741 },
        { "address": "本町", "city": "田辺市", "postcode": "6460046", "prefecture": "和歌山県", "id": 742 },
        { "address": "神子浜", "city": "田辺市", "postcode": "6460025", "prefecture": "和歌山県", "id": 743 },
        { "address": "湊", "city": "田辺市", "postcode": "6460031", "prefecture": "和歌山県", "id": 744 },
        { "address": "南新町", "city": "田辺市", "postcode": "6460042", "prefecture": "和歌山県", "id": 745 },
        { "address": "南新万", "city": "田辺市", "postcode": "6460013", "prefecture": "和歌山県", "id": 746 },
        { "address": "向山", "city": "田辺市", "postcode": "6461323", "prefecture": "和歌山県", "id": 747 },
        { "address": "むつみ", "city": "田辺市", "postcode": "6460052", "prefecture": "和歌山県", "id": 748 },
        { "address": "明洋", "city": "田辺市", "postcode": "6460062", "prefecture": "和歌山県", "id": 749 },
        { "address": "目良", "city": "田辺市", "postcode": "6460058", "prefecture": "和歌山県", "id": 750 },
        { "address": "面川", "city": "田辺市", "postcode": "6461322", "prefecture": "和歌山県", "id": 751 },
        { "address": "元町", "city": "田辺市", "postcode": "6460053", "prefecture": "和歌山県", "id": 752 },
        { "address": "文里", "city": "田辺市", "postcode": "6460023", "prefecture": "和歌山県", "id": 753 },
        { "address": "龍神村小家", "city": "田辺市", "postcode": "6450303", "prefecture": "和歌山県", "id": 754 },
        { "address": "龍神村甲斐ノ川", "city": "田辺市", "postcode": "6450302", "prefecture": "和歌山県", "id": 755 },
        { "address": "龍神村小又川", "city": "田辺市", "postcode": "6450521", "prefecture": "和歌山県", "id": 756 },
        { "address": "龍神村殿原", "city": "田辺市", "postcode": "6450413", "prefecture": "和歌山県", "id": 757 },
        { "address": "龍神村西", "city": "田辺市", "postcode": "6450415", "prefecture": "和歌山県", "id": 758 },
        { "address": "龍神村丹生ノ川", "city": "田辺市", "postcode": "6450412", "prefecture": "和歌山県", "id": 759 },
        { "address": "龍神村東", "city": "田辺市", "postcode": "6450414", "prefecture": "和歌山県", "id": 760 },
        { "address": "龍神村広井原", "city": "田辺市", "postcode": "6450523", "prefecture": "和歌山県", "id": 761 },
        { "address": "龍神村福井", "city": "田辺市", "postcode": "6450301", "prefecture": "和歌山県", "id": 762 },
        { "address": "龍神村三ツ又", "city": "田辺市", "postcode": "6450522", "prefecture": "和歌山県", "id": 763 },
        { "address": "龍神村宮代", "city": "田辺市", "postcode": "6450411", "prefecture": "和歌山県", "id": 764 },
        { "address": "龍神村安井", "city": "田辺市", "postcode": "6450416", "prefecture": "和歌山県", "id": 765 },
        { "address": "龍神村柳瀬", "city": "田辺市", "postcode": "6450417", "prefecture": "和歌山県", "id": 766 },
        { "address": "龍神村湯ノ又", "city": "田辺市", "postcode": "6450524", "prefecture": "和歌山県", "id": 767 },
        { "address": "龍神村龍神", "city": "田辺市", "postcode": "6450525", "prefecture": "和歌山県", "id": 768 },
        { "address": "和田", "city": "田辺市", "postcode": "6461211", "prefecture": "和歌山県", "id": 769 },
        { "city": "新宮市", "postcode": "6470000", "prefecture": "和歌山県", "id": 770 },
        { "address": "相筋", "city": "新宮市", "postcode": "6470001", "prefecture": "和歌山県", "id": 771 },
        { "address": "あけぼの", "city": "新宮市", "postcode": "6470025", "prefecture": "和歌山県", "id": 772 },
        { "address": "阿須賀", "city": "新宮市", "postcode": "6470022", "prefecture": "和歌山県", "id": 773 },
        { "address": "池田", "city": "新宮市", "postcode": "6470021", "prefecture": "和歌山県", "id": 774 },
        { "address": "伊佐田町", "city": "新宮市", "postcode": "6470012", "prefecture": "和歌山県", "id": 775 },
        { "address": "井の沢", "city": "新宮市", "postcode": "6470045", "prefecture": "和歌山県", "id": 776 },
        { "address": "磐盾", "city": "新宮市", "postcode": "6470051", "prefecture": "和歌山県", "id": 777 },
        { "address": "浮島", "city": "新宮市", "postcode": "6470014", "prefecture": "和歌山県", "id": 778 },
        { "address": "馬町", "city": "新宮市", "postcode": "6470008", "prefecture": "和歌山県", "id": 779 },
        { "address": "相賀", "city": "新宮市", "postcode": "6471102", "prefecture": "和歌山県", "id": 780 },
        { "address": "王子町", "city": "新宮市", "postcode": "6470032", "prefecture": "和歌山県", "id": 781 },
        { "address": "大橋通", "city": "新宮市", "postcode": "6470004", "prefecture": "和歌山県", "id": 782 },
        { "address": "春日", "city": "新宮市", "postcode": "6470013", "prefecture": "和歌山県", "id": 783 },
        { "address": "神倉", "city": "新宮市", "postcode": "6470044", "prefecture": "和歌山県", "id": 784 },
        { "address": "上本町", "city": "新宮市", "postcode": "6470003", "prefecture": "和歌山県", "id": 785 },
        { "address": "木ノ川", "city": "新宮市", "postcode": "6470073", "prefecture": "和歌山県", "id": 786 },
        { "address": "熊野川町相須", "city": "新宮市", "postcode": "6471216", "prefecture": "和歌山県", "id": 787 },
        { "address": "熊野川町赤木", "city": "新宮市", "postcode": "6471214", "prefecture": "和歌山県", "id": 788 },
        { "address": "熊野川町畝畑", "city": "新宮市", "postcode": "6471207", "prefecture": "和歌山県", "id": 789 },
        { "address": "熊野川町大山", "city": "新宮市", "postcode": "6471203", "prefecture": "和歌山県", "id": 790 },
        { "address": "熊野川町鎌塚", "city": "新宮市", "postcode": "6471204", "prefecture": "和歌山県", "id": 791 },
        { "address": "熊野川町上長井", "city": "新宮市", "postcode": "6471201", "prefecture": "和歌山県", "id": 792 },
        { "address": "熊野川町九重", "city": "新宮市", "postcode": "6471233", "prefecture": "和歌山県", "id": 793 },
        { "address": "熊野川町篠尾", "city": "新宮市", "postcode": "6471223", "prefecture": "和歌山県", "id": 794 },
        { "address": "熊野川町四滝", "city": "新宮市", "postcode": "6471234", "prefecture": "和歌山県", "id": 795 },
        { "address": "熊野川町嶋津", "city": "新宮市", "postcode": "6471232", "prefecture": "和歌山県", "id": 796 },
        { "address": "熊野川町滝本", "city": "新宮市", "postcode": "6471205", "prefecture": "和歌山県", "id": 797 },
        { "address": "熊野川町田長", "city": "新宮市", "postcode": "6471212", "prefecture": "和歌山県", "id": 798 },
        { "address": "熊野川町玉置口", "city": "新宮市", "postcode": "6471231", "prefecture": "和歌山県", "id": 799 },
        { "address": "熊野川町西", "city": "新宮市", "postcode": "6471206", "prefecture": "和歌山県", "id": 800 },
        { "address": "熊野川町西敷屋", "city": "新宮市", "postcode": "6471221", "prefecture": "和歌山県", "id": 801 },
        { "address": "熊野川町能城山本", "city": "新宮市", "postcode": "6471213", "prefecture": "和歌山県", "id": 802 },
        { "address": "熊野川町東", "city": "新宮市", "postcode": "6471202", "prefecture": "和歌山県", "id": 803 },
        { "address": "熊野川町東敷屋", "city": "新宮市", "postcode": "6471222", "prefecture": "和歌山県", "id": 804 },
        { "address": "熊野川町日足", "city": "新宮市", "postcode": "6471211", "prefecture": "和歌山県", "id": 805 },
        { "address": "熊野川町宮井", "city": "新宮市", "postcode": "6471235", "prefecture": "和歌山県", "id": 806 },
        { "address": "熊野川町椋井", "city": "新宮市", "postcode": "6471215", "prefecture": "和歌山県", "id": 807 },
        { "address": "熊野地", "city": "新宮市", "postcode": "6470024", "prefecture": "和歌山県", "id": 808 },
        { "address": "五新", "city": "新宮市", "postcode": "6470053", "prefecture": "和歌山県", "id": 809 },
        { "address": "佐野", "city": "新宮市", "postcode": "6470071", "prefecture": "和歌山県", "id": 810 },
        { "address": "清水元", "city": "新宮市", "postcode": "6470033", "prefecture": "和歌山県", "id": 811 },
        { "address": "下田", "city": "新宮市", "postcode": "6470042", "prefecture": "和歌山県", "id": 812 },
        { "address": "下本町", "city": "新宮市", "postcode": "6470011", "prefecture": "和歌山県", "id": 813 },
        { "address": "徐福", "city": "新宮市", "postcode": "6470020", "prefecture": "和歌山県", "id": 814 },
        { "address": "新宮", "city": "新宮市", "postcode": "6470081", "prefecture": "和歌山県", "id": 815 },
        { "address": "新町", "city": "新宮市", "postcode": "6470019", "prefecture": "和歌山県", "id": 816 },
        { "address": "高田", "city": "新宮市", "postcode": "6471101", "prefecture": "和歌山県", "id": 817 },
        { "address": "田鶴原町", "city": "新宮市", "postcode": "6470031", "prefecture": "和歌山県", "id": 818 },
        { "address": "谷王子町", "city": "新宮市", "postcode": "6470016", "prefecture": "和歌山県", "id": 819 },
        { "address": "丹鶴", "city": "新宮市", "postcode": "6470010", "prefecture": "和歌山県", "id": 820 },
        { "address": "千穂", "city": "新宮市", "postcode": "6470015", "prefecture": "和歌山県", "id": 821 },
        { "address": "仲之町", "city": "新宮市", "postcode": "6470018", "prefecture": "和歌山県", "id": 822 },
        { "address": "野田", "city": "新宮市", "postcode": "6470041", "prefecture": "和歌山県", "id": 823 },
        { "address": "橋本", "city": "新宮市", "postcode": "6470052", "prefecture": "和歌山県", "id": 824 },
        { "address": "蜂伏", "city": "新宮市", "postcode": "6470072", "prefecture": "和歌山県", "id": 825 },
        { "address": "船町", "city": "新宮市", "postcode": "6470002", "prefecture": "和歌山県", "id": 826 },
        { "address": "別当屋敷町", "city": "新宮市", "postcode": "6470007", "prefecture": "和歌山県", "id": 827 },
        { "address": "蓬莱", "city": "新宮市", "postcode": "6470023", "prefecture": "和歌山県", "id": 828 },
        { "address": "丸山", "city": "新宮市", "postcode": "6470034", "prefecture": "和歌山県", "id": 829 },
        { "address": "緑ケ丘", "city": "新宮市", "postcode": "6470043", "prefecture": "和歌山県", "id": 830 },
        { "address": "南檜杖", "city": "新宮市", "postcode": "6470054", "prefecture": "和歌山県", "id": 831 },
        { "address": "南檜杖", "city": "新宮市", "postcode": "6471103", "prefecture": "和歌山県", "id": 832 },
        { "address": "三輪崎", "city": "新宮市", "postcode": "6470061", "prefecture": "和歌山県", "id": 833 },
        { "address": "元鍛治町", "city": "新宮市", "postcode": "6470005", "prefecture": "和歌山県", "id": 834 },
        { "address": "薬師町", "city": "新宮市", "postcode": "6470006", "prefecture": "和歌山県", "id": 835 },
        { "address": "横町", "city": "新宮市", "postcode": "6470017", "prefecture": "和歌山県", "id": 836 },
        { "city": "紀の川市", "postcode": "6496400", "prefecture": "和歌山県", "id": 837 },
        { "address": "赤尾", "city": "紀の川市", "postcode": "6496404", "prefecture": "和歌山県", "id": 838 },
        { "address": "赤沼田", "city": "紀の川市", "postcode": "6496614", "prefecture": "和歌山県", "id": 839 },
        { "address": "穴伏", "city": "紀の川市", "postcode": "6496611", "prefecture": "和歌山県", "id": 840 },
        { "address": "荒見", "city": "紀の川市", "postcode": "6496561", "prefecture": "和歌山県", "id": 841 },
        { "address": "池田新", "city": "紀の川市", "postcode": "6496407", "prefecture": "和歌山県", "id": 842 },
        { "address": "井田", "city": "紀の川市", "postcode": "6496541", "prefecture": "和歌山県", "id": 843 },
        { "address": "猪垣", "city": "紀の川市", "postcode": "6496511", "prefecture": "和歌山県", "id": 844 },
        { "address": "上野", "city": "紀の川市", "postcode": "6496416", "prefecture": "和歌山県", "id": 845 },
        { "address": "打田", "city": "紀の川市", "postcode": "6496414", "prefecture": "和歌山県", "id": 846 },
        { "address": "馬宿", "city": "紀の川市", "postcode": "6496521", "prefecture": "和歌山県", "id": 847 },
        { "address": "江川中", "city": "紀の川市", "postcode": "6496605", "prefecture": "和歌山県", "id": 848 },
        { "address": "王子", "city": "紀の川市", "postcode": "6496624", "prefecture": "和歌山県", "id": 849 },
        { "address": "麻生津中", "city": "紀の川市", "postcode": "6496615", "prefecture": "和歌山県", "id": 850 },
        { "address": "尾崎", "city": "紀の川市", "postcode": "6496423", "prefecture": "和歌山県", "id": 851 },
        { "address": "遠方", "city": "紀の川市", "postcode": "6496562", "prefecture": "和歌山県", "id": 852 },
        { "address": "風市", "city": "紀の川市", "postcode": "6496563", "prefecture": "和歌山県", "id": 853 },
        { "address": "勝神", "city": "紀の川市", "postcode": "6496564", "prefecture": "和歌山県", "id": 854 },
        { "address": "上鞆渕", "city": "紀の川市", "postcode": "6496571", "prefecture": "和歌山県", "id": 855 },
        { "address": "上丹生谷", "city": "紀の川市", "postcode": "6496522", "prefecture": "和歌山県", "id": 856 },
        { "address": "貴志川町尼寺", "city": "紀の川市", "postcode": "6400403", "prefecture": "和歌山県", "id": 857 },
        { "address": "貴志川町井ノ口", "city": "紀の川市", "postcode": "6400424", "prefecture": "和歌山県", "id": 858 },
        { "address": "貴志川町上野山", "city": "紀の川市", "postcode": "6400412", "prefecture": "和歌山県", "id": 859 },
        { "address": "貴志川町岸小野", "city": "紀の川市", "postcode": "6400422", "prefecture": "和歌山県", "id": 860 },
        { "address": "貴志川町岸宮", "city": "紀の川市", "postcode": "6400405", "prefecture": "和歌山県", "id": 861 },
        { "address": "貴志川町北", "city": "紀の川市", "postcode": "6400421", "prefecture": "和歌山県", "id": 862 },
        { "address": "貴志川町北山", "city": "紀の川市", "postcode": "6400402", "prefecture": "和歌山県", "id": 863 },
        { "address": "貴志川町国主", "city": "紀の川市", "postcode": "6400414", "prefecture": "和歌山県", "id": 864 },
        { "address": "貴志川町神戸", "city": "紀の川市", "postcode": "6400413", "prefecture": "和歌山県", "id": 865 },
        { "address": "貴志川町高尾", "city": "紀の川市", "postcode": "6400423", "prefecture": "和歌山県", "id": 866 },
        { "address": "貴志川町鳥居", "city": "紀の川市", "postcode": "6400404", "prefecture": "和歌山県", "id": 867 },
        { "address": "貴志川町長原", "city": "紀の川市", "postcode": "6400415", "prefecture": "和歌山県", "id": 868 },
        { "address": "貴志川町長山", "city": "紀の川市", "postcode": "6400416", "prefecture": "和歌山県", "id": 869 },
        { "address": "貴志川町西山", "city": "紀の川市", "postcode": "6400406", "prefecture": "和歌山県", "id": 870 },
        { "address": "貴志川町前田", "city": "紀の川市", "postcode": "6400411", "prefecture": "和歌山県", "id": 871 },
        { "address": "貴志川町丸栖", "city": "紀の川市", "postcode": "6400401", "prefecture": "和歌山県", "id": 872 },
        { "address": "北大井", "city": "紀の川市", "postcode": "6496406", "prefecture": "和歌山県", "id": 873 },
        { "address": "北志野", "city": "紀の川市", "postcode": "6496501", "prefecture": "和歌山県", "id": 874 },
        { "address": "北勢田", "city": "紀の川市", "postcode": "6496402", "prefecture": "和歌山県", "id": 875 },
        { "address": "北中", "city": "紀の川市", "postcode": "6496443", "prefecture": "和歌山県", "id": 876 },
        { "address": "北長田", "city": "紀の川市", "postcode": "6496502", "prefecture": "和歌山県", "id": 877 },
        { "address": "北涌", "city": "紀の川市", "postcode": "6496612", "prefecture": "和歌山県", "id": 878 },
        { "address": "切畑", "city": "紀の川市", "postcode": "6496606", "prefecture": "和歌山県", "id": 879 },
        { "address": "窪", "city": "紀の川市", "postcode": "6496415", "prefecture": "和歌山県", "id": 880 },
        { "address": "久留壁", "city": "紀の川市", "postcode": "6496418", "prefecture": "和歌山県", "id": 881 },
        { "address": "黒土", "city": "紀の川市", "postcode": "6496412", "prefecture": "和歌山県", "id": 882 },
        { "address": "花野", "city": "紀の川市", "postcode": "6496422", "prefecture": "和歌山県", "id": 883 },
        { "address": "上田井", "city": "紀の川市", "postcode": "6496551", "prefecture": "和歌山県", "id": 884 },
        { "address": "粉河", "city": "紀の川市", "postcode": "6496531", "prefecture": "和歌山県", "id": 885 },
        { "address": "重行", "city": "紀の川市", "postcode": "6496401", "prefecture": "和歌山県", "id": 886 },
        { "address": "嶋", "city": "紀の川市", "postcode": "6496552", "prefecture": "和歌山県", "id": 887 },
        { "address": "下井阪", "city": "紀の川市", "postcode": "6496426", "prefecture": "和歌山県", "id": 888 },
        { "address": "下鞆渕", "city": "紀の川市", "postcode": "6496572", "prefecture": "和歌山県", "id": 889 },
        { "address": "下丹生谷", "city": "紀の川市", "postcode": "6496523", "prefecture": "和歌山県", "id": 890 },
        { "address": "後田", "city": "紀の川市", "postcode": "6496622", "prefecture": "和歌山県", "id": 891 },
        { "address": "神通", "city": "紀の川市", "postcode": "6496451", "prefecture": "和歌山県", "id": 892 },
        { "address": "神領", "city": "紀の川市", "postcode": "6496442", "prefecture": "和歌山県", "id": 893 },
        { "address": "杉原", "city": "紀の川市", "postcode": "6496565", "prefecture": "和歌山県", "id": 894 },
        { "address": "高野", "city": "紀の川市", "postcode": "6496161", "prefecture": "和歌山県", "id": 895 },
        { "address": "竹房", "city": "紀の川市", "postcode": "6496413", "prefecture": "和歌山県", "id": 896 },
        { "address": "竹房", "city": "紀の川市", "postcode": "6496162", "prefecture": "和歌山県", "id": 897 },
        { "address": "田中馬場", "city": "紀の川市", "postcode": "6496421", "prefecture": "和歌山県", "id": 898 },
        { "address": "東毛", "city": "紀の川市", "postcode": "6496512", "prefecture": "和歌山県", "id": 899 },
        { "address": "豊田", "city": "紀の川市", "postcode": "6496445", "prefecture": "和歌山県", "id": 900 },
        { "address": "中井阪", "city": "紀の川市", "postcode": "6496425", "prefecture": "和歌山県", "id": 901 },
        { "address": "長田中", "city": "紀の川市", "postcode": "6496503", "prefecture": "和歌山県", "id": 902 },
        { "address": "中津川", "city": "紀の川市", "postcode": "6496513", "prefecture": "和歌山県", "id": 903 },
        { "address": "中鞆渕", "city": "紀の川市", "postcode": "6496573", "prefecture": "和歌山県", "id": 904 },
        { "address": "中畑", "city": "紀の川市", "postcode": "6496452", "prefecture": "和歌山県", "id": 905 },
        { "address": "中三谷", "city": "紀の川市", "postcode": "6496434", "prefecture": "和歌山県", "id": 906 },
        { "address": "中山", "city": "紀の川市", "postcode": "6496532", "prefecture": "和歌山県", "id": 907 },
        { "address": "名手市場", "city": "紀の川市", "postcode": "6496631", "prefecture": "和歌山県", "id": 908 },
        { "address": "名手上", "city": "紀の川市", "postcode": "6496601", "prefecture": "和歌山県", "id": 909 },
        { "address": "名手下", "city": "紀の川市", "postcode": "6496603", "prefecture": "和歌山県", "id": 910 },
        { "address": "名手西野", "city": "紀の川市", "postcode": "6496621", "prefecture": "和歌山県", "id": 911 },
        { "address": "西井阪", "city": "紀の川市", "postcode": "6496427", "prefecture": "和歌山県", "id": 912 },
        { "address": "西大井", "city": "紀の川市", "postcode": "6496417", "prefecture": "和歌山県", "id": 913 },
        { "address": "西川原", "city": "紀の川市", "postcode": "6496524", "prefecture": "和歌山県", "id": 914 },
        { "address": "西野山", "city": "紀の川市", "postcode": "6496604", "prefecture": "和歌山県", "id": 915 },
        { "address": "西三谷", "city": "紀の川市", "postcode": "6496433", "prefecture": "和歌山県", "id": 916 },
        { "address": "西山田", "city": "紀の川市", "postcode": "6496447", "prefecture": "和歌山県", "id": 917 },
        { "address": "西脇", "city": "紀の川市", "postcode": "6496616", "prefecture": "和歌山県", "id": 918 },
        { "address": "野上", "city": "紀の川市", "postcode": "6496525", "prefecture": "和歌山県", "id": 919 },
        { "address": "登尾", "city": "紀の川市", "postcode": "6496444", "prefecture": "和歌山県", "id": 920 },
        { "address": "畑野上", "city": "紀の川市", "postcode": "6496424", "prefecture": "和歌山県", "id": 921 },
        { "address": "東大井", "city": "紀の川市", "postcode": "6496405", "prefecture": "和歌山県", "id": 922 },
        { "address": "東川原", "city": "紀の川市", "postcode": "6496526", "prefecture": "和歌山県", "id": 923 },
        { "address": "東国分", "city": "紀の川市", "postcode": "6496428", "prefecture": "和歌山県", "id": 924 },
        { "address": "東野", "city": "紀の川市", "postcode": "6496542", "prefecture": "和歌山県", "id": 925 },
        { "address": "東三谷", "city": "紀の川市", "postcode": "6496435", "prefecture": "和歌山県", "id": 926 },
        { "address": "東山田", "city": "紀の川市", "postcode": "6496441", "prefecture": "和歌山県", "id": 927 },
        { "address": "平野", "city": "紀の川市", "postcode": "6496602", "prefecture": "和歌山県", "id": 928 },
        { "address": "広野", "city": "紀の川市", "postcode": "6496411", "prefecture": "和歌山県", "id": 929 },
        { "address": "枇杷谷", "city": "紀の川市", "postcode": "6496446", "prefecture": "和歌山県", "id": 930 },
        { "address": "深田", "city": "紀の川市", "postcode": "6496553", "prefecture": "和歌山県", "id": 931 },
        { "address": "藤井", "city": "紀の川市", "postcode": "6496514", "prefecture": "和歌山県", "id": 932 },
        { "address": "藤崎", "city": "紀の川市", "postcode": "6496623", "prefecture": "和歌山県", "id": 933 },
        { "address": "古和田", "city": "紀の川市", "postcode": "6496432", "prefecture": "和歌山県", "id": 934 },
        { "address": "別所", "city": "紀の川市", "postcode": "6496554", "prefecture": "和歌山県", "id": 935 },
        { "address": "松井", "city": "紀の川市", "postcode": "6496555", "prefecture": "和歌山県", "id": 936 },
        { "address": "南志野", "city": "紀の川市", "postcode": "6496504", "prefecture": "和歌山県", "id": 937 },
        { "address": "南勢田", "city": "紀の川市", "postcode": "6496403", "prefecture": "和歌山県", "id": 938 },
        { "address": "南中", "city": "紀の川市", "postcode": "6496431", "prefecture": "和歌山県", "id": 939 },
        { "address": "桃山町市場", "city": "紀の川市", "postcode": "6496124", "prefecture": "和歌山県", "id": 940 },
        { "address": "桃山町大原", "city": "紀の川市", "postcode": "6496105", "prefecture": "和歌山県", "id": 941 },
        { "address": "桃山町垣内", "city": "紀の川市", "postcode": "6401333", "prefecture": "和歌山県", "id": 942 },
        { "address": "桃山町黒川", "city": "紀の川市", "postcode": "6496102", "prefecture": "和歌山県", "id": 943 },
        { "address": "桃山町神田", "city": "紀の川市", "postcode": "6496123", "prefecture": "和歌山県", "id": 944 },
        { "address": "桃山町善田", "city": "紀の川市", "postcode": "6496101", "prefecture": "和歌山県", "id": 945 },
        { "address": "桃山町段", "city": "紀の川市", "postcode": "6496125", "prefecture": "和歌山県", "id": 946 },
        { "address": "桃山町段新田", "city": "紀の川市", "postcode": "6496121", "prefecture": "和歌山県", "id": 947 },
        { "address": "桃山町調月", "city": "紀の川市", "postcode": "6496112", "prefecture": "和歌山県", "id": 948 },
        { "address": "桃山町中畑", "city": "紀の川市", "postcode": "6401332", "prefecture": "和歌山県", "id": 949 },
        { "address": "桃山町野田原", "city": "紀の川市", "postcode": "6496103", "prefecture": "和歌山県", "id": 950 },
        { "address": "桃山町峯", "city": "紀の川市", "postcode": "6401331", "prefecture": "和歌山県", "id": 951 },
        { "address": "桃山町最上", "city": "紀の川市", "postcode": "6496111", "prefecture": "和歌山県", "id": 952 },
        { "address": "桃山町元", "city": "紀の川市", "postcode": "6496122", "prefecture": "和歌山県", "id": 953 },
        { "address": "桃山町脇谷", "city": "紀の川市", "postcode": "6496104", "prefecture": "和歌山県", "id": 954 },
        { "address": "横谷", "city": "紀の川市", "postcode": "6496613", "prefecture": "和歌山県", "id": 955 },
        { "city": "岩出市", "postcode": "6496200", "prefecture": "和歌山県", "id": 956 },
        { "address": "相谷", "city": "岩出市", "postcode": "6496257", "prefecture": "和歌山県", "id": 957 },
        { "address": "赤垣内", "city": "岩出市", "postcode": "6496242", "prefecture": "和歌山県", "id": 958 },
        { "address": "尼ケ辻", "city": "岩出市", "postcode": "6496207", "prefecture": "和歌山県", "id": 959 },
        { "address": "安上", "city": "岩出市", "postcode": "6496252", "prefecture": "和歌山県", "id": 960 },
        { "address": "荊本", "city": "岩出市", "postcode": "6496232", "prefecture": "和歌山県", "id": 961 },
        { "address": "今中", "city": "岩出市", "postcode": "6496204", "prefecture": "和歌山県", "id": 962 },
        { "address": "今畑", "city": "岩出市", "postcode": "6496208", "prefecture": "和歌山県", "id": 963 },
        { "address": "大町", "city": "岩出市", "postcode": "6496228", "prefecture": "和歌山県", "id": 964 },
        { "address": "岡田", "city": "岩出市", "postcode": "6496222", "prefecture": "和歌山県", "id": 965 },
        { "address": "押川", "city": "岩出市", "postcode": "6496201", "prefecture": "和歌山県", "id": 966 },
        { "address": "金池", "city": "岩出市", "postcode": "6496256", "prefecture": "和歌山県", "id": 967 },
        { "address": "金屋", "city": "岩出市", "postcode": "6496243", "prefecture": "和歌山県", "id": 968 },
        { "address": "川尻", "city": "岩出市", "postcode": "6496231", "prefecture": "和歌山県", "id": 969 },
        { "address": "紀泉台", "city": "岩出市", "postcode": "6496253", "prefecture": "和歌山県", "id": 970 },
        { "address": "北大池", "city": "岩出市", "postcode": "6496219", "prefecture": "和歌山県", "id": 971 },
        { "address": "境谷", "city": "岩出市", "postcode": "6496251", "prefecture": "和歌山県", "id": 972 },
        { "address": "桜台", "city": "岩出市", "postcode": "6496203", "prefecture": "和歌山県", "id": 973 },
        { "address": "清水", "city": "岩出市", "postcode": "6496227", "prefecture": "和歌山県", "id": 974 },
        { "address": "新田広芝", "city": "岩出市", "postcode": "6496212", "prefecture": "和歌山県", "id": 975 },
        { "address": "曽屋", "city": "岩出市", "postcode": "6496236", "prefecture": "和歌山県", "id": 976 },
        { "address": "高瀬", "city": "岩出市", "postcode": "6496234", "prefecture": "和歌山県", "id": 977 },
        { "address": "高塚", "city": "岩出市", "postcode": "6496223", "prefecture": "和歌山県", "id": 978 },
        { "address": "中黒", "city": "岩出市", "postcode": "6496248", "prefecture": "和歌山県", "id": 979 },
        { "address": "中島", "city": "岩出市", "postcode": "6496245", "prefecture": "和歌山県", "id": 980 },
        { "address": "中迫", "city": "岩出市", "postcode": "6496215", "prefecture": "和歌山県", "id": 981 },
        { "address": "西安上", "city": "岩出市", "postcode": "6496255", "prefecture": "和歌山県", "id": 982 },
        { "address": "西国分", "city": "岩出市", "postcode": "6496213", "prefecture": "和歌山県", "id": 983 },
        { "address": "西野", "city": "岩出市", "postcode": "6496235", "prefecture": "和歌山県", "id": 984 },
        { "address": "根来", "city": "岩出市", "postcode": "6496202", "prefecture": "和歌山県", "id": 985 },
        { "address": "野上野", "city": "岩出市", "postcode": "6496216", "prefecture": "和歌山県", "id": 986 },
        { "address": "畑毛", "city": "岩出市", "postcode": "6496244", "prefecture": "和歌山県", "id": 987 },
        { "address": "波分", "city": "岩出市", "postcode": "6496241", "prefecture": "和歌山県", "id": 988 },
        { "address": "原", "city": "岩出市", "postcode": "6496254", "prefecture": "和歌山県", "id": 989 },
        { "address": "東坂本", "city": "岩出市", "postcode": "6496211", "prefecture": "和歌山県", "id": 990 },
        { "address": "備前", "city": "岩出市", "postcode": "6496233", "prefecture": "和歌山県", "id": 991 },
        { "address": "船戸", "city": "岩出市", "postcode": "6496225", "prefecture": "和歌山県", "id": 992 },
        { "address": "堀口", "city": "岩出市", "postcode": "6496206", "prefecture": "和歌山県", "id": 993 },
        { "address": "水栖", "city": "岩出市", "postcode": "6496214", "prefecture": "和歌山県", "id": 994 },
        { "address": "溝川", "city": "岩出市", "postcode": "6496221", "prefecture": "和歌山県", "id": 995 },
        { "address": "南大池", "city": "岩出市", "postcode": "6496218", "prefecture": "和歌山県", "id": 996 },
        { "address": "宮", "city": "岩出市", "postcode": "6496226", "prefecture": "和歌山県", "id": 997 },
        { "address": "森", "city": "岩出市", "postcode": "6496205", "prefecture": "和歌山県", "id": 998 },
        { "address": "山", "city": "岩出市", "postcode": "6496258", "prefecture": "和歌山県", "id": 999 },
        { "address": "山崎", "city": "岩出市", "postcode": "6496224", "prefecture": "和歌山県", "id": 1000 },
        { "address": "山田", "city": "岩出市", "postcode": "6496217", "prefecture": "和歌山県", "id": 1001 },
        { "address": "吉田", "city": "岩出市", "postcode": "6496246", "prefecture": "和歌山県", "id": 1002 },
        { "city": "海草郡紀美野町", "postcode": "6401100", "prefecture": "和歌山県", "id": 1003 },
        { "address": "赤木", "city": "海草郡紀美野町", "postcode": "6401213", "prefecture": "和歌山県", "id": 1004 },
        { "address": "上ケ井", "city": "海草郡紀美野町", "postcode": "6401231", "prefecture": "和歌山県", "id": 1005 },
        { "address": "井堰", "city": "海草郡紀美野町", "postcode": "6401207", "prefecture": "和歌山県", "id": 1006 },
        { "address": "今西", "city": "海草郡紀美野町", "postcode": "6401365", "prefecture": "和歌山県", "id": 1007 },
        { "address": "初生谷", "city": "海草郡紀美野町", "postcode": "6401202", "prefecture": "和歌山県", "id": 1008 },
        { "address": "梅本", "city": "海草郡紀美野町", "postcode": "6401113", "prefecture": "和歌山県", "id": 1009 },
        { "address": "円明寺", "city": "海草郡紀美野町", "postcode": "6401353", "prefecture": "和歌山県", "id": 1010 },
        { "address": "大角", "city": "海草郡紀美野町", "postcode": "6401222", "prefecture": "和歌山県", "id": 1011 },
        { "address": "奥佐々", "city": "海草郡紀美野町", "postcode": "6401115", "prefecture": "和歌山県", "id": 1012 },
        { "address": "勝谷", "city": "海草郡紀美野町", "postcode": "6401351", "prefecture": "和歌山県", "id": 1013 },
        { "address": "桂瀬", "city": "海草郡紀美野町", "postcode": "6401211", "prefecture": "和歌山県", "id": 1014 },
        { "address": "釜滝", "city": "海草郡紀美野町", "postcode": "6401255", "prefecture": "和歌山県", "id": 1015 },
        { "address": "鎌滝", "city": "海草郡紀美野町", "postcode": "6401215", "prefecture": "和歌山県", "id": 1016 },
        { "address": "北野", "city": "海草郡紀美野町", "postcode": "6401201", "prefecture": "和歌山県", "id": 1017 },
        { "address": "国木原", "city": "海草郡紀美野町", "postcode": "6401251", "prefecture": "和歌山県", "id": 1018 },
        { "address": "毛原上", "city": "海草郡紀美野町", "postcode": "6401472", "prefecture": "和歌山県", "id": 1019 },
        { "address": "毛原下", "city": "海草郡紀美野町", "postcode": "6401476", "prefecture": "和歌山県", "id": 1020 },
        { "address": "毛原中", "city": "海草郡紀美野町", "postcode": "6401474", "prefecture": "和歌山県", "id": 1021 },
        { "address": "毛原宮", "city": "海草郡紀美野町", "postcode": "6401473", "prefecture": "和歌山県", "id": 1022 },
        {
            "address": "神野市場",
            "city": "海草郡紀美野町",
            "postcode": "6401243",
            "prefecture": "和歌山県",
            "id": 1023
        },
        { "address": "小西", "city": "海草郡紀美野町", "postcode": "6401475", "prefecture": "和歌山県", "id": 1024 },
        { "address": "坂本", "city": "海草郡紀美野町", "postcode": "6401112", "prefecture": "和歌山県", "id": 1025 },
        { "address": "柴目", "city": "海草郡紀美野町", "postcode": "6401102", "prefecture": "和歌山県", "id": 1026 },
        { "address": "下佐々", "city": "海草郡紀美野町", "postcode": "6401121", "prefecture": "和歌山県", "id": 1027 },
        { "address": "小畑", "city": "海草郡紀美野町", "postcode": "6401141", "prefecture": "和歌山県", "id": 1028 },
        { "address": "菅沢", "city": "海草郡紀美野町", "postcode": "6401364", "prefecture": "和歌山県", "id": 1029 },
        { "address": "田", "city": "海草郡紀美野町", "postcode": "6401363", "prefecture": "和歌山県", "id": 1030 },
        { "address": "高畑", "city": "海草郡紀美野町", "postcode": "6401212", "prefecture": "和歌山県", "id": 1031 },
        { "address": "滝ノ川", "city": "海草郡紀美野町", "postcode": "6401362", "prefecture": "和歌山県", "id": 1032 },
        { "address": "谷", "city": "海草郡紀美野町", "postcode": "6401352", "prefecture": "和歌山県", "id": 1033 },
        { "address": "津川", "city": "海草郡紀美野町", "postcode": "6401223", "prefecture": "和歌山県", "id": 1034 },
        { "address": "動木", "city": "海草郡紀美野町", "postcode": "6401131", "prefecture": "和歌山県", "id": 1035 },
        { "address": "中", "city": "海草郡紀美野町", "postcode": "6401361", "prefecture": "和歌山県", "id": 1036 },
        { "address": "中田", "city": "海草郡紀美野町", "postcode": "6401114", "prefecture": "和歌山県", "id": 1037 },
        { "address": "長谷", "city": "海草郡紀美野町", "postcode": "6401101", "prefecture": "和歌山県", "id": 1038 },
        { "address": "永谷", "city": "海草郡紀美野町", "postcode": "6401241", "prefecture": "和歌山県", "id": 1039 },
        { "address": "西野", "city": "海草郡紀美野町", "postcode": "6401252", "prefecture": "和歌山県", "id": 1040 },
        { "address": "野中", "city": "海草郡紀美野町", "postcode": "6401235", "prefecture": "和歌山県", "id": 1041 },
        { "address": "長谷宮", "city": "海草郡紀美野町", "postcode": "6401471", "prefecture": "和歌山県", "id": 1042 },
        { "address": "花野原", "city": "海草郡紀美野町", "postcode": "6401203", "prefecture": "和歌山県", "id": 1043 },
        { "address": "東野", "city": "海草郡紀美野町", "postcode": "6401253", "prefecture": "和歌山県", "id": 1044 },
        { "address": "樋下", "city": "海草郡紀美野町", "postcode": "6401242", "prefecture": "和歌山県", "id": 1045 },
        { "address": "福井", "city": "海草郡紀美野町", "postcode": "6401111", "prefecture": "和歌山県", "id": 1046 },
        { "address": "福田", "city": "海草郡紀美野町", "postcode": "6401244", "prefecture": "和歌山県", "id": 1047 },
        { "address": "真国宮", "city": "海草郡紀美野町", "postcode": "6401205", "prefecture": "和歌山県", "id": 1048 },
        { "address": "松ケ峯", "city": "海草郡紀美野町", "postcode": "6401366", "prefecture": "和歌山県", "id": 1049 },
        { "address": "松瀬", "city": "海草郡紀美野町", "postcode": "6401254", "prefecture": "和歌山県", "id": 1050 },
        { "address": "三尾川", "city": "海草郡紀美野町", "postcode": "6401221", "prefecture": "和歌山県", "id": 1051 },
        { "address": "南畑", "city": "海草郡紀美野町", "postcode": "6401233", "prefecture": "和歌山県", "id": 1052 },
        { "address": "蓑垣内", "city": "海草郡紀美野町", "postcode": "6401206", "prefecture": "和歌山県", "id": 1053 },
        { "address": "蓑津呂", "city": "海草郡紀美野町", "postcode": "6401204", "prefecture": "和歌山県", "id": 1054 },
        { "address": "明添", "city": "海草郡紀美野町", "postcode": "6401214", "prefecture": "和歌山県", "id": 1055 },
        { "address": "箕六", "city": "海草郡紀美野町", "postcode": "6401232", "prefecture": "和歌山県", "id": 1056 },
        { "address": "安井", "city": "海草郡紀美野町", "postcode": "6401234", "prefecture": "和歌山県", "id": 1057 },
        { "address": "四郷", "city": "海草郡紀美野町", "postcode": "6401354", "prefecture": "和歌山県", "id": 1058 },
        { "address": "吉野", "city": "海草郡紀美野町", "postcode": "6401103", "prefecture": "和歌山県", "id": 1059 },
        { "city": "伊都郡かつらぎ町", "postcode": "6497100", "prefecture": "和歌山県", "id": 1060 },
        { "address": "兄井", "city": "伊都郡かつらぎ町", "postcode": "6497137", "prefecture": "和歌山県", "id": 1061 },
        { "address": "移", "city": "伊都郡かつらぎ町", "postcode": "6497167", "prefecture": "和歌山県", "id": 1062 },
        { "address": "蛭子", "city": "伊都郡かつらぎ町", "postcode": "6497172", "prefecture": "和歌山県", "id": 1063 },
        { "address": "大谷", "city": "伊都郡かつらぎ町", "postcode": "6497173", "prefecture": "和歌山県", "id": 1064 },
        { "address": "大畑", "city": "伊都郡かつらぎ町", "postcode": "6497111", "prefecture": "和歌山県", "id": 1065 },
        { "address": "大薮", "city": "伊都郡かつらぎ町", "postcode": "6497171", "prefecture": "和歌山県", "id": 1066 },
        { "address": "柏木", "city": "伊都郡かつらぎ町", "postcode": "6497123", "prefecture": "和歌山県", "id": 1067 },
        {
            "address": "笠田中",
            "city": "伊都郡かつらぎ町",
            "postcode": "6497162",
            "prefecture": "和歌山県",
            "id": 1068
        },
        {
            "address": "笠田東",
            "city": "伊都郡かつらぎ町",
            "postcode": "6497161",
            "prefecture": "和歌山県",
            "id": 1069
        },
        {
            "address": "上天野",
            "city": "伊都郡かつらぎ町",
            "postcode": "6497141",
            "prefecture": "和歌山県",
            "id": 1070
        },
        {
            "address": "教良寺",
            "city": "伊都郡かつらぎ町",
            "postcode": "6497132",
            "prefecture": "和歌山県",
            "id": 1071
        },
        { "address": "窪", "city": "伊都郡かつらぎ町", "postcode": "6497164", "prefecture": "和歌山県", "id": 1072 },
        { "address": "神田", "city": "伊都郡かつらぎ町", "postcode": "6497143", "prefecture": "和歌山県", "id": 1073 },
        { "address": "御所", "city": "伊都郡かつらぎ町", "postcode": "6497153", "prefecture": "和歌山県", "id": 1074 },
        { "address": "佐野", "city": "伊都郡かつらぎ町", "postcode": "6497174", "prefecture": "和歌山県", "id": 1075 },
        { "address": "志賀", "city": "伊都郡かつらぎ町", "postcode": "6497144", "prefecture": "和歌山県", "id": 1076 },
        { "address": "島", "city": "伊都郡かつらぎ町", "postcode": "6497155", "prefecture": "和歌山県", "id": 1077 },
        {
            "address": "下天野",
            "city": "伊都郡かつらぎ町",
            "postcode": "6497142",
            "prefecture": "和歌山県",
            "id": 1078
        },
        { "address": "新城", "city": "伊都郡かつらぎ町", "postcode": "6401481", "prefecture": "和歌山県", "id": 1079 },
        { "address": "新田", "city": "伊都郡かつらぎ町", "postcode": "6497122", "prefecture": "和歌山県", "id": 1080 },
        {
            "address": "背ノ山",
            "city": "伊都郡かつらぎ町",
            "postcode": "6497165",
            "prefecture": "和歌山県",
            "id": 1081
        },
        { "address": "平", "city": "伊都郡かつらぎ町", "postcode": "6497104", "prefecture": "和歌山県", "id": 1082 },
        { "address": "高田", "city": "伊都郡かつらぎ町", "postcode": "6497166", "prefecture": "和歌山県", "id": 1083 },
        { "address": "滝", "city": "伊都郡かつらぎ町", "postcode": "6497102", "prefecture": "和歌山県", "id": 1084 },
        {
            "address": "丁ノ町",
            "city": "伊都郡かつらぎ町",
            "postcode": "6497121",
            "prefecture": "和歌山県",
            "id": 1085
        },
        { "address": "寺尾", "city": "伊都郡かつらぎ町", "postcode": "6497136", "prefecture": "和歌山県", "id": 1086 },
        {
            "address": "中飯降",
            "city": "伊都郡かつらぎ町",
            "postcode": "6497112",
            "prefecture": "和歌山県",
            "id": 1087
        },
        {
            "address": "西飯降",
            "city": "伊都郡かつらぎ町",
            "postcode": "6497114",
            "prefecture": "和歌山県",
            "id": 1088
        },
        {
            "address": "西渋田",
            "city": "伊都郡かつらぎ町",
            "postcode": "6497154",
            "prefecture": "和歌山県",
            "id": 1089
        },
        { "address": "萩原", "city": "伊都郡かつらぎ町", "postcode": "6497163", "prefecture": "和歌山県", "id": 1090 },
        {
            "address": "花園新子",
            "city": "伊都郡かつらぎ町",
            "postcode": "6430614",
            "prefecture": "和歌山県",
            "id": 1091
        },
        {
            "address": "花園池ノ窪",
            "city": "伊都郡かつらぎ町",
            "postcode": "6430613",
            "prefecture": "和歌山県",
            "id": 1092
        },
        {
            "address": "花園北寺",
            "city": "伊都郡かつらぎ町",
            "postcode": "6430612",
            "prefecture": "和歌山県",
            "id": 1093
        },
        {
            "address": "花園久木",
            "city": "伊都郡かつらぎ町",
            "postcode": "6480201",
            "prefecture": "和歌山県",
            "id": 1094
        },
        {
            "address": "花園中南",
            "city": "伊都郡かつらぎ町",
            "postcode": "6480202",
            "prefecture": "和歌山県",
            "id": 1095
        },
        {
            "address": "花園梁瀬",
            "city": "伊都郡かつらぎ町",
            "postcode": "6430611",
            "prefecture": "和歌山県",
            "id": 1096
        },
        {
            "address": "東渋田",
            "city": "伊都郡かつらぎ町",
            "postcode": "6497151",
            "prefecture": "和歌山県",
            "id": 1097
        },
        { "address": "東谷", "city": "伊都郡かつらぎ町", "postcode": "6497101", "prefecture": "和歌山県", "id": 1098 },
        { "address": "日高", "city": "伊都郡かつらぎ町", "postcode": "6497145", "prefecture": "和歌山県", "id": 1099 },
        {
            "address": "平沼田",
            "city": "伊都郡かつらぎ町",
            "postcode": "6497135",
            "prefecture": "和歌山県",
            "id": 1100
        },
        { "address": "広浦", "city": "伊都郡かつらぎ町", "postcode": "6497175", "prefecture": "和歌山県", "id": 1101 },
        { "address": "広口", "city": "伊都郡かつらぎ町", "postcode": "6497103", "prefecture": "和歌山県", "id": 1102 },
        { "address": "星川", "city": "伊都郡かつらぎ町", "postcode": "6497152", "prefecture": "和歌山県", "id": 1103 },
        { "address": "星山", "city": "伊都郡かつらぎ町", "postcode": "6497146", "prefecture": "和歌山県", "id": 1104 },
        { "address": "短野", "city": "伊都郡かつらぎ町", "postcode": "6497115", "prefecture": "和歌山県", "id": 1105 },
        { "address": "三谷", "city": "伊都郡かつらぎ町", "postcode": "6497133", "prefecture": "和歌山県", "id": 1106 },
        { "address": "宮本", "city": "伊都郡かつらぎ町", "postcode": "6497134", "prefecture": "和歌山県", "id": 1107 },
        { "address": "妙寺", "city": "伊都郡かつらぎ町", "postcode": "6497113", "prefecture": "和歌山県", "id": 1108 },
        { "address": "山崎", "city": "伊都郡かつらぎ町", "postcode": "6497131", "prefecture": "和歌山県", "id": 1109 },
        { "city": "伊都郡九度山町", "postcode": "6480100", "prefecture": "和歌山県", "id": 1110 },
        { "address": "市平", "city": "伊都郡九度山町", "postcode": "6480131", "prefecture": "和歌山県", "id": 1111 },
        { "address": "笠木", "city": "伊都郡九度山町", "postcode": "6480142", "prefecture": "和歌山県", "id": 1112 },
        { "address": "河根", "city": "伊都郡九度山町", "postcode": "6480111", "prefecture": "和歌山県", "id": 1113 },
        { "address": "上古沢", "city": "伊都郡九度山町", "postcode": "6480143", "prefecture": "和歌山県", "id": 1114 },
        { "address": "北又", "city": "伊都郡九度山町", "postcode": "6480132", "prefecture": "和歌山県", "id": 1115 },
        { "address": "九度山", "city": "伊都郡九度山町", "postcode": "6480101", "prefecture": "和歌山県", "id": 1116 },
        { "address": "椎出", "city": "伊都郡九度山町", "postcode": "6480141", "prefecture": "和歌山県", "id": 1117 },
        { "address": "慈尊院", "city": "伊都郡九度山町", "postcode": "6480151", "prefecture": "和歌山県", "id": 1118 },
        { "address": "下古沢", "city": "伊都郡九度山町", "postcode": "6480145", "prefecture": "和歌山県", "id": 1119 },
        { "address": "中古沢", "city": "伊都郡九度山町", "postcode": "6480144", "prefecture": "和歌山県", "id": 1120 },
        { "address": "丹生川", "city": "伊都郡九度山町", "postcode": "6480121", "prefecture": "和歌山県", "id": 1121 },
        { "address": "入郷", "city": "伊都郡九度山町", "postcode": "6480161", "prefecture": "和歌山県", "id": 1122 },
        { "address": "東郷", "city": "伊都郡九度山町", "postcode": "6480133", "prefecture": "和歌山県", "id": 1123 },
        { "city": "伊都郡高野町", "postcode": "6480200", "prefecture": "和歌山県", "id": 1124 },
        { "address": "相ノ浦", "city": "伊都郡高野町", "postcode": "6480241", "prefecture": "和歌山県", "id": 1125 },
        { "address": "大滝", "city": "伊都郡高野町", "postcode": "6480231", "prefecture": "和歌山県", "id": 1126 },
        { "address": "樫原", "city": "伊都郡高野町", "postcode": "6480227", "prefecture": "和歌山県", "id": 1127 },
        { "address": "上筒香", "city": "伊都郡高野町", "postcode": "6480403", "prefecture": "和歌山県", "id": 1128 },
        { "address": "高野山", "city": "伊都郡高野町", "postcode": "6480211", "prefecture": "和歌山県", "id": 1129 },
        { "address": "下筒香", "city": "伊都郡高野町", "postcode": "6480405", "prefecture": "和歌山県", "id": 1130 },
        { "address": "杖ケ薮", "city": "伊都郡高野町", "postcode": "6480225", "prefecture": "和歌山県", "id": 1131 },
        { "address": "中筒香", "city": "伊都郡高野町", "postcode": "6480404", "prefecture": "和歌山県", "id": 1132 },
        { "address": "西ケ峰", "city": "伊都郡高野町", "postcode": "6480221", "prefecture": "和歌山県", "id": 1133 },
        { "address": "西郷", "city": "伊都郡高野町", "postcode": "6480261", "prefecture": "和歌山県", "id": 1134 },
        { "address": "西郷", "city": "伊都郡高野町", "postcode": "6480171", "prefecture": "和歌山県", "id": 1135 },
        { "address": "西富貴", "city": "伊都郡高野町", "postcode": "6480401", "prefecture": "和歌山県", "id": 1136 },
        { "address": "花坂", "city": "伊都郡高野町", "postcode": "6480263", "prefecture": "和歌山県", "id": 1137 },
        { "address": "林", "city": "伊都郡高野町", "postcode": "6480223", "prefecture": "和歌山県", "id": 1138 },
        { "address": "東富貴", "city": "伊都郡高野町", "postcode": "6480402", "prefecture": "和歌山県", "id": 1139 },
        { "address": "東又", "city": "伊都郡高野町", "postcode": "6480226", "prefecture": "和歌山県", "id": 1140 },
        { "address": "平原", "city": "伊都郡高野町", "postcode": "6480224", "prefecture": "和歌山県", "id": 1141 },
        { "address": "細川", "city": "伊都郡高野町", "postcode": "6480262", "prefecture": "和歌山県", "id": 1142 },
        { "address": "南", "city": "伊都郡高野町", "postcode": "6480222", "prefecture": "和歌山県", "id": 1143 },
        { "address": "湯川", "city": "伊都郡高野町", "postcode": "6480251", "prefecture": "和歌山県", "id": 1144 },
        { "city": "有田郡湯浅町", "postcode": "6430000", "prefecture": "和歌山県", "id": 1145 },
        { "address": "青木", "city": "有田郡湯浅町", "postcode": "6430002", "prefecture": "和歌山県", "id": 1146 },
        { "address": "栖原", "city": "有田郡湯浅町", "postcode": "6430005", "prefecture": "和歌山県", "id": 1147 },
        { "address": "田", "city": "有田郡湯浅町", "postcode": "6430006", "prefecture": "和歌山県", "id": 1148 },
        { "address": "別所", "city": "有田郡湯浅町", "postcode": "6430003", "prefecture": "和歌山県", "id": 1149 },
        { "address": "山田", "city": "有田郡湯浅町", "postcode": "6430001", "prefecture": "和歌山県", "id": 1150 },
        { "address": "湯浅", "city": "有田郡湯浅町", "postcode": "6430004", "prefecture": "和歌山県", "id": 1151 },
        { "address": "吉川", "city": "有田郡湯浅町", "postcode": "6430007", "prefecture": "和歌山県", "id": 1152 },
        { "address": "井関", "city": "有田郡広川町", "postcode": "6430055", "prefecture": "和歌山県", "id": 1153 },
        { "address": "上津木", "city": "有田郡広川町", "postcode": "6430052", "prefecture": "和歌山県", "id": 1154 },
        { "address": "上中野", "city": "有田郡広川町", "postcode": "6430064", "prefecture": "和歌山県", "id": 1155 },
        { "address": "唐尾", "city": "有田郡広川町", "postcode": "6430073", "prefecture": "和歌山県", "id": 1156 },
        { "address": "河瀬", "city": "有田郡広川町", "postcode": "6430053", "prefecture": "和歌山県", "id": 1157 },
        { "address": "下津木", "city": "有田郡広川町", "postcode": "6430051", "prefecture": "和歌山県", "id": 1158 },
        { "address": "殿", "city": "有田郡広川町", "postcode": "6430062", "prefecture": "和歌山県", "id": 1159 },
        { "address": "名島", "city": "有田郡広川町", "postcode": "6430066", "prefecture": "和歌山県", "id": 1160 },
        { "address": "西広", "city": "有田郡広川町", "postcode": "6430074", "prefecture": "和歌山県", "id": 1161 },
        { "address": "東中", "city": "有田郡広川町", "postcode": "6430065", "prefecture": "和歌山県", "id": 1162 },
        { "address": "広", "city": "有田郡広川町", "postcode": "6430071", "prefecture": "和歌山県", "id": 1163 },
        { "address": "前田", "city": "有田郡広川町", "postcode": "6430054", "prefecture": "和歌山県", "id": 1164 },
        { "address": "南金屋", "city": "有田郡広川町", "postcode": "6430063", "prefecture": "和歌山県", "id": 1165 },
        { "address": "柳瀬", "city": "有田郡広川町", "postcode": "6430061", "prefecture": "和歌山県", "id": 1166 },
        { "address": "山本", "city": "有田郡広川町", "postcode": "6430072", "prefecture": "和歌山県", "id": 1167 },
        { "address": "和田", "city": "有田郡広川町", "postcode": "6430075", "prefecture": "和歌山県", "id": 1168 },
        { "address": "粟生", "city": "有田郡有田川町", "postcode": "6430366", "prefecture": "和歌山県", "id": 1169 },
        { "address": "青田", "city": "有田郡有田川町", "postcode": "6430136", "prefecture": "和歌山県", "id": 1170 },
        { "address": "畦田", "city": "有田郡有田川町", "postcode": "6430129", "prefecture": "和歌山県", "id": 1171 },
        { "address": "有原", "city": "有田郡有田川町", "postcode": "6430127", "prefecture": "和歌山県", "id": 1172 },
        { "address": "板尾", "city": "有田郡有田川町", "postcode": "6430603", "prefecture": "和歌山県", "id": 1173 },
        { "address": "井谷", "city": "有田郡有田川町", "postcode": "6430604", "prefecture": "和歌山県", "id": 1174 },
        { "address": "市場", "city": "有田郡有田川町", "postcode": "6430144", "prefecture": "和歌山県", "id": 1175 },
        { "address": "出", "city": "有田郡有田川町", "postcode": "6430851", "prefecture": "和歌山県", "id": 1176 },
        { "address": "糸川", "city": "有田郡有田川町", "postcode": "6430165", "prefecture": "和歌山県", "id": 1177 },
        { "address": "糸野", "city": "有田郡有田川町", "postcode": "6430174", "prefecture": "和歌山県", "id": 1178 },
        { "address": "井口", "city": "有田郡有田川町", "postcode": "6430844", "prefecture": "和歌山県", "id": 1179 },
        { "address": "岩野河", "city": "有田郡有田川町", "postcode": "6430312", "prefecture": "和歌山県", "id": 1180 },
        { "address": "宇井苔", "city": "有田郡有田川町", "postcode": "6430164", "prefecture": "和歌山県", "id": 1181 },
        { "address": "植野", "city": "有田郡有田川町", "postcode": "6430026", "prefecture": "和歌山県", "id": 1182 },
        { "address": "生石", "city": "有田郡有田川町", "postcode": "6430131", "prefecture": "和歌山県", "id": 1183 },
        { "address": "大賀畑", "city": "有田郡有田川町", "postcode": "6430847", "prefecture": "和歌山県", "id": 1184 },
        { "address": "大蔵", "city": "有田郡有田川町", "postcode": "6430513", "prefecture": "和歌山県", "id": 1185 },
        { "address": "大薗", "city": "有田郡有田川町", "postcode": "6430134", "prefecture": "和歌山県", "id": 1186 },
        { "address": "大谷", "city": "有田郡有田川町", "postcode": "6430845", "prefecture": "和歌山県", "id": 1187 },
        { "address": "大西", "city": "有田郡有田川町", "postcode": "6430135", "prefecture": "和歌山県", "id": 1188 },
        { "address": "小川", "city": "有田郡有田川町", "postcode": "6430142", "prefecture": "和歌山県", "id": 1189 },
        { "address": "奥", "city": "有田郡有田川町", "postcode": "6430022", "prefecture": "和歌山県", "id": 1190 },
        { "address": "押手", "city": "有田郡有田川町", "postcode": "6430601", "prefecture": "和歌山県", "id": 1191 },
        { "address": "小島", "city": "有田郡有田川町", "postcode": "6430034", "prefecture": "和歌山県", "id": 1192 },
        { "address": "尾中", "city": "有田郡有田川町", "postcode": "6430852", "prefecture": "和歌山県", "id": 1193 },
        { "address": "尾上", "city": "有田郡有田川町", "postcode": "6430133", "prefecture": "和歌山県", "id": 1194 },
        { "address": "小原", "city": "有田郡有田川町", "postcode": "6430132", "prefecture": "和歌山県", "id": 1195 },
        { "address": "垣倉", "city": "有田郡有田川町", "postcode": "6430812", "prefecture": "和歌山県", "id": 1196 },
        { "address": "賢", "city": "有田郡有田川町", "postcode": "6430843", "prefecture": "和歌山県", "id": 1197 },
        { "address": "金屋", "city": "有田郡有田川町", "postcode": "6430152", "prefecture": "和歌山県", "id": 1198 },
        { "address": "釜中", "city": "有田郡有田川町", "postcode": "6430176", "prefecture": "和歌山県", "id": 1199 },
        { "address": "上中島", "city": "有田郡有田川町", "postcode": "6430855", "prefecture": "和歌山県", "id": 1200 },
        { "address": "上六川", "city": "有田郡有田川町", "postcode": "6430171", "prefecture": "和歌山県", "id": 1201 },
        { "address": "上湯川", "city": "有田郡有田川町", "postcode": "6430551", "prefecture": "和歌山県", "id": 1202 },
        { "address": "川合", "city": "有田郡有田川町", "postcode": "6430364", "prefecture": "和歌山県", "id": 1203 },
        { "address": "川口", "city": "有田郡有田川町", "postcode": "6430313", "prefecture": "和歌山県", "id": 1204 },
        { "address": "歓喜寺", "city": "有田郡有田川町", "postcode": "6430161", "prefecture": "和歌山県", "id": 1205 },
        { "address": "北野川", "city": "有田郡有田川町", "postcode": "6430362", "prefecture": "和歌山県", "id": 1206 },
        { "address": "楠本", "city": "有田郡有田川町", "postcode": "6430531", "prefecture": "和歌山県", "id": 1207 },
        { "address": "久野原", "city": "有田郡有田川町", "postcode": "6430514", "prefecture": "和歌山県", "id": 1208 },
        { "address": "熊井", "city": "有田郡有田川町", "postcode": "6430023", "prefecture": "和歌山県", "id": 1209 },
        { "address": "黒松", "city": "有田郡有田川町", "postcode": "6430172", "prefecture": "和歌山県", "id": 1210 },
        { "address": "境川", "city": "有田郡有田川町", "postcode": "6430544", "prefecture": "和歌山県", "id": 1211 },
        { "address": "清水", "city": "有田郡有田川町", "postcode": "6430521", "prefecture": "和歌山県", "id": 1212 },
        { "address": "下津野", "city": "有田郡有田川町", "postcode": "6430021", "prefecture": "和歌山県", "id": 1213 },
        { "address": "下六川", "city": "有田郡有田川町", "postcode": "6430173", "prefecture": "和歌山県", "id": 1214 },
        { "address": "下湯川", "city": "有田郡有田川町", "postcode": "6430522", "prefecture": "和歌山県", "id": 1215 },
        { "address": "庄", "city": "有田郡有田川町", "postcode": "6430811", "prefecture": "和歌山県", "id": 1216 },
        { "address": "杉野原", "city": "有田郡有田川町", "postcode": "6430602", "prefecture": "和歌山県", "id": 1217 },
        { "address": "角", "city": "有田郡有田川町", "postcode": "6430853", "prefecture": "和歌山県", "id": 1218 },
        { "address": "修理川", "city": "有田郡有田川町", "postcode": "6430163", "prefecture": "和歌山県", "id": 1219 },
        { "address": "瀬井", "city": "有田郡有田川町", "postcode": "6430122", "prefecture": "和歌山県", "id": 1220 },
        { "address": "田口", "city": "有田郡有田川町", "postcode": "6430846", "prefecture": "和歌山県", "id": 1221 },
        { "address": "田角", "city": "有田郡有田川町", "postcode": "6430848", "prefecture": "和歌山県", "id": 1222 },
        { "address": "立石", "city": "有田郡有田川町", "postcode": "6430314", "prefecture": "和歌山県", "id": 1223 },
        { "address": "谷", "city": "有田郡有田川町", "postcode": "6430311", "prefecture": "和歌山県", "id": 1224 },
        { "address": "天満", "city": "有田郡有田川町", "postcode": "6430032", "prefecture": "和歌山県", "id": 1225 },
        { "address": "遠井", "city": "有田郡有田川町", "postcode": "6430533", "prefecture": "和歌山県", "id": 1226 },
        { "address": "徳田", "city": "有田郡有田川町", "postcode": "6430801", "prefecture": "和歌山県", "id": 1227 },
        { "address": "中", "city": "有田郡有田川町", "postcode": "6430123", "prefecture": "和歌山県", "id": 1228 },
        { "address": "中井原", "city": "有田郡有田川町", "postcode": "6430153", "prefecture": "和歌山県", "id": 1229 },
        { "address": "長田", "city": "有田郡有田川町", "postcode": "6430854", "prefecture": "和歌山県", "id": 1230 },
        { "address": "長谷", "city": "有田郡有田川町", "postcode": "6430841", "prefecture": "和歌山県", "id": 1231 },
        { "address": "中野", "city": "有田郡有田川町", "postcode": "6430143", "prefecture": "和歌山県", "id": 1232 },
        { "address": "中原", "city": "有田郡有田川町", "postcode": "6430365", "prefecture": "和歌山県", "id": 1233 },
        { "address": "中峯", "city": "有田郡有田川町", "postcode": "6430124", "prefecture": "和歌山県", "id": 1234 },
        { "address": "丹生", "city": "有田郡有田川町", "postcode": "6430175", "prefecture": "和歌山県", "id": 1235 },
        { "address": "二沢", "city": "有田郡有田川町", "postcode": "6430363", "prefecture": "和歌山県", "id": 1236 },
        { "address": "西ケ峯", "city": "有田郡有田川町", "postcode": "6430128", "prefecture": "和歌山県", "id": 1237 },
        {
            "address": "西丹生図",
            "city": "有田郡有田川町",
            "postcode": "6430813",
            "prefecture": "和歌山県",
            "id": 1238
        },
        { "address": "沼田", "city": "有田郡有田川町", "postcode": "6430125", "prefecture": "和歌山県", "id": 1239 },
        { "address": "沼", "city": "有田郡有田川町", "postcode": "6430532", "prefecture": "和歌山県", "id": 1240 },
        { "address": "沼谷", "city": "有田郡有田川町", "postcode": "6430605", "prefecture": "和歌山県", "id": 1241 },
        { "address": "野田", "city": "有田郡有田川町", "postcode": "6430031", "prefecture": "和歌山県", "id": 1242 },
        { "address": "延坂", "city": "有田郡有田川町", "postcode": "6430137", "prefecture": "和歌山県", "id": 1243 },
        { "address": "長谷川", "city": "有田郡有田川町", "postcode": "6430151", "prefecture": "和歌山県", "id": 1244 },
        { "address": "土生", "city": "有田郡有田川町", "postcode": "6430025", "prefecture": "和歌山県", "id": 1245 },
        { "address": "東大谷", "city": "有田郡有田川町", "postcode": "6430541", "prefecture": "和歌山県", "id": 1246 },
        {
            "address": "東丹生図",
            "city": "有田郡有田川町",
            "postcode": "6430803",
            "prefecture": "和歌山県",
            "id": 1247
        },
        { "address": "彦ケ瀬", "city": "有田郡有田川町", "postcode": "6430121", "prefecture": "和歌山県", "id": 1248 },
        { "address": "日物川", "city": "有田郡有田川町", "postcode": "6430543", "prefecture": "和歌山県", "id": 1249 },
        { "address": "二川", "city": "有田郡有田川町", "postcode": "6430542", "prefecture": "和歌山県", "id": 1250 },
        { "address": "船坂", "city": "有田郡有田川町", "postcode": "6430842", "prefecture": "和歌山県", "id": 1251 },
        { "address": "伏羊", "city": "有田郡有田川町", "postcode": "6430141", "prefecture": "和歌山県", "id": 1252 },
        { "address": "本堂", "city": "有田郡有田川町", "postcode": "6430126", "prefecture": "和歌山県", "id": 1253 },
        { "address": "松原", "city": "有田郡有田川町", "postcode": "6430162", "prefecture": "和歌山県", "id": 1254 },
        { "address": "水尻", "city": "有田郡有田川町", "postcode": "6430024", "prefecture": "和歌山県", "id": 1255 },
        { "address": "三瀬川", "city": "有田郡有田川町", "postcode": "6430361", "prefecture": "和歌山県", "id": 1256 },
        { "address": "三田", "city": "有田郡有田川町", "postcode": "6430511", "prefecture": "和歌山県", "id": 1257 },
        { "address": "宮川", "city": "有田郡有田川町", "postcode": "6430512", "prefecture": "和歌山県", "id": 1258 },
        { "address": "明王寺", "city": "有田郡有田川町", "postcode": "6430033", "prefecture": "和歌山県", "id": 1259 },
        { "address": "室川", "city": "有田郡有田川町", "postcode": "6430515", "prefecture": "和歌山県", "id": 1260 },
        { "address": "吉原", "city": "有田郡有田川町", "postcode": "6430166", "prefecture": "和歌山県", "id": 1261 },
        { "address": "吉見", "city": "有田郡有田川町", "postcode": "6430802", "prefecture": "和歌山県", "id": 1262 },
        { "address": "田井", "city": "日高郡美浜町", "postcode": "6440041", "prefecture": "和歌山県", "id": 1263 },
        { "address": "浜ノ瀬", "city": "日高郡美浜町", "postcode": "6440042", "prefecture": "和歌山県", "id": 1264 },
        { "address": "三尾", "city": "日高郡美浜町", "postcode": "6440045", "prefecture": "和歌山県", "id": 1265 },
        { "address": "吉原", "city": "日高郡美浜町", "postcode": "6440043", "prefecture": "和歌山県", "id": 1266 },
        { "address": "和田", "city": "日高郡美浜町", "postcode": "6440044", "prefecture": "和歌山県", "id": 1267 },
        { "city": "日高郡日高町", "postcode": "6491200", "prefecture": "和歌山県", "id": 1268 },
        { "address": "阿尾", "city": "日高郡日高町", "postcode": "6491232", "prefecture": "和歌山県", "id": 1269 },
        { "address": "池田", "city": "日高郡日高町", "postcode": "6491203", "prefecture": "和歌山県", "id": 1270 },
        { "address": "荊木", "city": "日高郡日高町", "postcode": "6491211", "prefecture": "和歌山県", "id": 1271 },
        { "address": "産湯", "city": "日高郡日高町", "postcode": "6491233", "prefecture": "和歌山県", "id": 1272 },
        { "address": "小池", "city": "日高郡日高町", "postcode": "6491222", "prefecture": "和歌山県", "id": 1273 },
        { "address": "小浦", "city": "日高郡日高町", "postcode": "6491223", "prefecture": "和歌山県", "id": 1274 },
        { "address": "小坂", "city": "日高郡日高町", "postcode": "6491231", "prefecture": "和歌山県", "id": 1275 },
        { "address": "小中", "city": "日高郡日高町", "postcode": "6491212", "prefecture": "和歌山県", "id": 1276 },
        { "address": "方杭", "city": "日高郡日高町", "postcode": "6491225", "prefecture": "和歌山県", "id": 1277 },
        { "address": "志賀", "city": "日高郡日高町", "postcode": "6491221", "prefecture": "和歌山県", "id": 1278 },
        { "address": "高家", "city": "日高郡日高町", "postcode": "6491213", "prefecture": "和歌山県", "id": 1279 },
        { "address": "津久野", "city": "日高郡日高町", "postcode": "6491224", "prefecture": "和歌山県", "id": 1280 },
        { "address": "萩原", "city": "日高郡日高町", "postcode": "6491202", "prefecture": "和歌山県", "id": 1281 },
        { "address": "原谷", "city": "日高郡日高町", "postcode": "6491201", "prefecture": "和歌山県", "id": 1282 },
        { "address": "比井", "city": "日高郡日高町", "postcode": "6491234", "prefecture": "和歌山県", "id": 1283 },
        { "city": "日高郡由良町", "postcode": "6491100", "prefecture": "和歌山県", "id": 1284 },
        { "address": "網代", "city": "日高郡由良町", "postcode": "6491112", "prefecture": "和歌山県", "id": 1285 },
        { "address": "阿戸", "city": "日高郡由良町", "postcode": "6491113", "prefecture": "和歌山県", "id": 1286 },
        { "address": "衣奈", "city": "日高郡由良町", "postcode": "6491132", "prefecture": "和歌山県", "id": 1287 },
        { "address": "江ノ駒", "city": "日高郡由良町", "postcode": "6491104", "prefecture": "和歌山県", "id": 1288 },
        { "address": "大引", "city": "日高郡由良町", "postcode": "6491123", "prefecture": "和歌山県", "id": 1289 },
        { "address": "神谷", "city": "日高郡由良町", "postcode": "6491122", "prefecture": "和歌山県", "id": 1290 },
        { "address": "小引", "city": "日高郡由良町", "postcode": "6491131", "prefecture": "和歌山県", "id": 1291 },
        { "address": "里", "city": "日高郡由良町", "postcode": "6491111", "prefecture": "和歌山県", "id": 1292 },
        { "address": "戸津井", "city": "日高郡由良町", "postcode": "6491134", "prefecture": "和歌山県", "id": 1293 },
        { "address": "中", "city": "日高郡由良町", "postcode": "6491102", "prefecture": "和歌山県", "id": 1294 },
        { "address": "畑", "city": "日高郡由良町", "postcode": "6491101", "prefecture": "和歌山県", "id": 1295 },
        { "address": "吹井", "city": "日高郡由良町", "postcode": "6491121", "prefecture": "和歌山県", "id": 1296 },
        { "address": "三尾川", "city": "日高郡由良町", "postcode": "6491133", "prefecture": "和歌山県", "id": 1297 },
        { "address": "門前", "city": "日高郡由良町", "postcode": "6491103", "prefecture": "和歌山県", "id": 1298 },
        { "city": "日高郡印南町", "postcode": "6491500", "prefecture": "和歌山県", "id": 1299 },
        { "address": "印南", "city": "日高郡印南町", "postcode": "6491534", "prefecture": "和歌山県", "id": 1300 },
        { "address": "印南原", "city": "日高郡印南町", "postcode": "6491532", "prefecture": "和歌山県", "id": 1301 },
        { "address": "皆瀬川", "city": "日高郡印南町", "postcode": "6440215", "prefecture": "和歌山県", "id": 1302 },
        { "address": "上洞", "city": "日高郡印南町", "postcode": "6440202", "prefecture": "和歌山県", "id": 1303 },
        { "address": "川又", "city": "日高郡印南町", "postcode": "6440201", "prefecture": "和歌山県", "id": 1304 },
        { "address": "小原", "city": "日高郡印南町", "postcode": "6440214", "prefecture": "和歌山県", "id": 1305 },
        { "address": "崎ノ原", "city": "日高郡印南町", "postcode": "6440216", "prefecture": "和歌山県", "id": 1306 },
        { "address": "島田", "city": "日高郡印南町", "postcode": "6491527", "prefecture": "和歌山県", "id": 1307 },
        { "address": "高串", "city": "日高郡印南町", "postcode": "6440211", "prefecture": "和歌山県", "id": 1308 },
        { "address": "立石", "city": "日高郡印南町", "postcode": "6491531", "prefecture": "和歌山県", "id": 1309 },
        { "address": "田ノ垣内", "city": "日高郡印南町", "postcode": "6440212", "prefecture": "和歌山県", "id": 1310 },
        { "address": "津井", "city": "日高郡印南町", "postcode": "6491535", "prefecture": "和歌山県", "id": 1311 },
        { "address": "西神ノ川", "city": "日高郡印南町", "postcode": "6440213", "prefecture": "和歌山県", "id": 1312 },
        { "address": "西ノ地", "city": "日高郡印南町", "postcode": "6491528", "prefecture": "和歌山県", "id": 1313 },
        { "address": "丹生", "city": "日高郡印南町", "postcode": "6440217", "prefecture": "和歌山県", "id": 1314 },
        { "address": "羽六", "city": "日高郡印南町", "postcode": "6491524", "prefecture": "和歌山県", "id": 1315 },
        { "address": "古井", "city": "日高郡印南町", "postcode": "6491522", "prefecture": "和歌山県", "id": 1316 },
        { "address": "古屋", "city": "日高郡印南町", "postcode": "6491525", "prefecture": "和歌山県", "id": 1317 },
        { "address": "樮川", "city": "日高郡印南町", "postcode": "6491523", "prefecture": "和歌山県", "id": 1318 },
        { "address": "松原", "city": "日高郡印南町", "postcode": "6440218", "prefecture": "和歌山県", "id": 1319 },
        { "address": "美里", "city": "日高郡印南町", "postcode": "6491521", "prefecture": "和歌山県", "id": 1320 },
        { "address": "南谷", "city": "日高郡印南町", "postcode": "6491536", "prefecture": "和歌山県", "id": 1321 },
        { "address": "宮ノ前", "city": "日高郡印南町", "postcode": "6491526", "prefecture": "和歌山県", "id": 1322 },
        { "address": "明神川", "city": "日高郡印南町", "postcode": "6491537", "prefecture": "和歌山県", "id": 1323 },
        { "address": "山口", "city": "日高郡印南町", "postcode": "6491533", "prefecture": "和歌山県", "id": 1324 },
        { "city": "日高郡みなべ町", "postcode": "6450000", "prefecture": "和歌山県", "id": 1325 },
        { "address": "市井川", "city": "日高郡みなべ町", "postcode": "6450208", "prefecture": "和歌山県", "id": 1326 },
        { "address": "晩稲", "city": "日高郡みなべ町", "postcode": "6450022", "prefecture": "和歌山県", "id": 1327 },
        { "address": "気佐藤", "city": "日高郡みなべ町", "postcode": "6450011", "prefecture": "和歌山県", "id": 1328 },
        { "address": "北道", "city": "日高郡みなべ町", "postcode": "6450006", "prefecture": "和歌山県", "id": 1329 },
        { "address": "清川", "city": "日高郡みなべ町", "postcode": "6450201", "prefecture": "和歌山県", "id": 1330 },
        { "address": "熊岡", "city": "日高郡みなべ町", "postcode": "6450023", "prefecture": "和歌山県", "id": 1331 },
        { "address": "熊瀬川", "city": "日高郡みなべ町", "postcode": "6450028", "prefecture": "和歌山県", "id": 1332 },
        { "address": "堺", "city": "日高郡みなべ町", "postcode": "6450003", "prefecture": "和歌山県", "id": 1333 },
        { "address": "芝", "city": "日高郡みなべ町", "postcode": "6450002", "prefecture": "和歌山県", "id": 1334 },
        { "address": "島之瀬", "city": "日高郡みなべ町", "postcode": "6450203", "prefecture": "和歌山県", "id": 1335 },
        { "address": "筋", "city": "日高郡みなべ町", "postcode": "6450025", "prefecture": "和歌山県", "id": 1336 },
        { "address": "高野", "city": "日高郡みなべ町", "postcode": "6450207", "prefecture": "和歌山県", "id": 1337 },
        { "address": "滝", "city": "日高郡みなべ町", "postcode": "6450205", "prefecture": "和歌山県", "id": 1338 },
        { "address": "谷口", "city": "日高郡みなべ町", "postcode": "6450026", "prefecture": "和歌山県", "id": 1339 },
        { "address": "土井", "city": "日高郡みなべ町", "postcode": "6450206", "prefecture": "和歌山県", "id": 1340 },
        { "address": "徳蔵", "city": "日高郡みなべ町", "postcode": "6450024", "prefecture": "和歌山県", "id": 1341 },
        { "address": "西岩代", "city": "日高郡みなべ町", "postcode": "6450014", "prefecture": "和歌山県", "id": 1342 },
        { "address": "西本庄", "city": "日高郡みなべ町", "postcode": "6450027", "prefecture": "和歌山県", "id": 1343 },
        { "address": "埴田", "city": "日高郡みなべ町", "postcode": "6450004", "prefecture": "和歌山県", "id": 1344 },
        { "address": "東岩代", "city": "日高郡みなべ町", "postcode": "6450013", "prefecture": "和歌山県", "id": 1345 },
        {
            "address": "東神野川",
            "city": "日高郡みなべ町",
            "postcode": "6450202",
            "prefecture": "和歌山県",
            "id": 1346
        },
        { "address": "東本庄", "city": "日高郡みなべ町", "postcode": "6450021", "prefecture": "和歌山県", "id": 1347 },
        { "address": "東吉田", "city": "日高郡みなべ町", "postcode": "6450001", "prefecture": "和歌山県", "id": 1348 },
        { "address": "広野", "city": "日高郡みなべ町", "postcode": "6450204", "prefecture": "和歌山県", "id": 1349 },
        { "address": "南道", "city": "日高郡みなべ町", "postcode": "6450005", "prefecture": "和歌山県", "id": 1350 },
        { "address": "山内", "city": "日高郡みなべ町", "postcode": "6450012", "prefecture": "和歌山県", "id": 1351 },
        { "city": "日高郡日高川町", "postcode": "6491300", "prefecture": "和歌山県", "id": 1352 },
        { "address": "浅間", "city": "日高郡日高川町", "postcode": "6441243", "prefecture": "和歌山県", "id": 1353 },
        { "address": "愛川", "city": "日高郡日高川町", "postcode": "6441213", "prefecture": "和歌山県", "id": 1354 },
        { "address": "姉子", "city": "日高郡日高川町", "postcode": "6441132", "prefecture": "和歌山県", "id": 1355 },
        { "address": "伊藤川", "city": "日高郡日高川町", "postcode": "6491313", "prefecture": "和歌山県", "id": 1356 },
        { "address": "弥谷", "city": "日高郡日高川町", "postcode": "6441211", "prefecture": "和歌山県", "id": 1357 },
        { "address": "初湯川", "city": "日高郡日高川町", "postcode": "6441231", "prefecture": "和歌山県", "id": 1358 },
        { "address": "江川", "city": "日高郡日高川町", "postcode": "6491442", "prefecture": "和歌山県", "id": 1359 },
        { "address": "老星", "city": "日高郡日高川町", "postcode": "6441162", "prefecture": "和歌山県", "id": 1360 },
        { "address": "大又", "city": "日高郡日高川町", "postcode": "6441163", "prefecture": "和歌山県", "id": 1361 },
        { "address": "皆瀬", "city": "日高郡日高川町", "postcode": "6441212", "prefecture": "和歌山県", "id": 1362 },
        { "address": "鐘巻", "city": "日高郡日高川町", "postcode": "6491331", "prefecture": "和歌山県", "id": 1363 },
        {
            "address": "上初湯川",
            "city": "日高郡日高川町",
            "postcode": "6441214",
            "prefecture": "和歌山県",
            "id": 1364
        },
        { "address": "上越方", "city": "日高郡日高川町", "postcode": "6441244", "prefecture": "和歌山県", "id": 1365 },
        { "address": "上田原", "city": "日高郡日高川町", "postcode": "6441141", "prefecture": "和歌山県", "id": 1366 },
        { "address": "川原河", "city": "日高郡日高川町", "postcode": "6441201", "prefecture": "和歌山県", "id": 1367 },
        { "address": "串本", "city": "日高郡日高川町", "postcode": "6441222", "prefecture": "和歌山県", "id": 1368 },
        { "address": "熊野川", "city": "日高郡日高川町", "postcode": "6441242", "prefecture": "和歌山県", "id": 1369 },
        { "address": "玄子", "city": "日高郡日高川町", "postcode": "6491315", "prefecture": "和歌山県", "id": 1370 },
        { "address": "小釜本", "city": "日高郡日高川町", "postcode": "6441143", "prefecture": "和歌山県", "id": 1371 },
        { "address": "小熊", "city": "日高郡日高川町", "postcode": "6491323", "prefecture": "和歌山県", "id": 1372 },
        { "address": "佐井", "city": "日高郡日高川町", "postcode": "6441164", "prefecture": "和歌山県", "id": 1373 },
        { "address": "坂野川", "city": "日高郡日高川町", "postcode": "6441161", "prefecture": "和歌山県", "id": 1374 },
        { "address": "山野", "city": "日高郡日高川町", "postcode": "6491441", "prefecture": "和歌山県", "id": 1375 },
        { "address": "下田原", "city": "日高郡日高川町", "postcode": "6441142", "prefecture": "和歌山県", "id": 1376 },
        { "address": "千津川", "city": "日高郡日高川町", "postcode": "6491332", "prefecture": "和歌山県", "id": 1377 },
        { "address": "寒川", "city": "日高郡日高川町", "postcode": "6441221", "prefecture": "和歌山県", "id": 1378 },
        { "address": "寒川", "city": "日高郡日高川町", "postcode": "6450551", "prefecture": "和歌山県", "id": 1379 },
        { "address": "高津尾", "city": "日高郡日高川町", "postcode": "6441122", "prefecture": "和歌山県", "id": 1380 },
        {
            "address": "高津尾川",
            "city": "日高郡日高川町",
            "postcode": "6441123",
            "prefecture": "和歌山県",
            "id": 1381
        },
        { "address": "滝頭", "city": "日高郡日高川町", "postcode": "6441241", "prefecture": "和歌山県", "id": 1382 },
        { "address": "田尻", "city": "日高郡日高川町", "postcode": "6441151", "prefecture": "和歌山県", "id": 1383 },
        { "address": "藤野川", "city": "日高郡日高川町", "postcode": "6441101", "prefecture": "和歌山県", "id": 1384 },
        { "address": "中津川", "city": "日高郡日高川町", "postcode": "6491325", "prefecture": "和歌山県", "id": 1385 },
        { "address": "西原", "city": "日高郡日高川町", "postcode": "6441121", "prefecture": "和歌山県", "id": 1386 },
        { "address": "入野", "city": "日高郡日高川町", "postcode": "6491321", "prefecture": "和歌山県", "id": 1387 },
        { "address": "早藤", "city": "日高郡日高川町", "postcode": "6491314", "prefecture": "和歌山県", "id": 1388 },
        { "address": "土生", "city": "日高郡日高川町", "postcode": "6491324", "prefecture": "和歌山県", "id": 1389 },
        { "address": "原日浦", "city": "日高郡日高川町", "postcode": "6441133", "prefecture": "和歌山県", "id": 1390 },
        { "address": "平川", "city": "日高郡日高川町", "postcode": "6491311", "prefecture": "和歌山県", "id": 1391 },
        { "address": "船津", "city": "日高郡日高川町", "postcode": "6441111", "prefecture": "和歌山県", "id": 1392 },
        { "address": "蛇尾", "city": "日高郡日高川町", "postcode": "6491316", "prefecture": "和歌山県", "id": 1393 },
        { "address": "松瀬", "city": "日高郡日高川町", "postcode": "6491444", "prefecture": "和歌山県", "id": 1394 },
        { "address": "三佐", "city": "日高郡日高川町", "postcode": "6441152", "prefecture": "和歌山県", "id": 1395 },
        {
            "address": "三十井川",
            "city": "日高郡日高川町",
            "postcode": "6441131",
            "prefecture": "和歌山県",
            "id": 1396
        },
        { "address": "三十木", "city": "日高郡日高川町", "postcode": "6441134", "prefecture": "和歌山県", "id": 1397 },
        { "address": "三百瀬", "city": "日高郡日高川町", "postcode": "6491312", "prefecture": "和歌山県", "id": 1398 },
        { "address": "若野", "city": "日高郡日高川町", "postcode": "6491322", "prefecture": "和歌山県", "id": 1399 },
        { "address": "和佐", "city": "日高郡日高川町", "postcode": "6491443", "prefecture": "和歌山県", "id": 1400 },
        { "city": "西牟婁郡白浜町", "postcode": "6492200", "prefecture": "和歌山県", "id": 1401 },
        { "city": "西牟婁郡白浜町", "postcode": "6492211", "prefecture": "和歌山県", "id": 1402 },
        { "address": "安居", "city": "西牟婁郡白浜町", "postcode": "6492532", "prefecture": "和歌山県", "id": 1403 },
        { "address": "安宅", "city": "西牟婁郡白浜町", "postcode": "6492524", "prefecture": "和歌山県", "id": 1404 },
        { "address": "市鹿野", "city": "西牟婁郡白浜町", "postcode": "6460301", "prefecture": "和歌山県", "id": 1405 },
        { "address": "内ノ川", "city": "西牟婁郡白浜町", "postcode": "6492322", "prefecture": "和歌山県", "id": 1406 },
        { "address": "宇津木", "city": "西牟婁郡白浜町", "postcode": "6492537", "prefecture": "和歌山県", "id": 1407 },
        { "address": "大", "city": "西牟婁郡白浜町", "postcode": "6460312", "prefecture": "和歌山県", "id": 1408 },
        { "address": "大瀬", "city": "西牟婁郡白浜町", "postcode": "6460303", "prefecture": "和歌山県", "id": 1409 },
        { "address": "大古", "city": "西牟婁郡白浜町", "postcode": "6492521", "prefecture": "和歌山県", "id": 1410 },
        { "address": "小房", "city": "西牟婁郡白浜町", "postcode": "6460311", "prefecture": "和歌山県", "id": 1411 },
        { "address": "堅田", "city": "西牟婁郡白浜町", "postcode": "6492201", "prefecture": "和歌山県", "id": 1412 },
        { "address": "北谷", "city": "西牟婁郡白浜町", "postcode": "6460305", "prefecture": "和歌山県", "id": 1413 },
        { "address": "口ケ谷", "city": "西牟婁郡白浜町", "postcode": "6492531", "prefecture": "和歌山県", "id": 1414 },
        { "address": "上露", "city": "西牟婁郡白浜町", "postcode": "6460302", "prefecture": "和歌山県", "id": 1415 },
        { "address": "小川", "city": "西牟婁郡白浜町", "postcode": "6492538", "prefecture": "和歌山県", "id": 1416 },
        { "address": "才野", "city": "西牟婁郡白浜町", "postcode": "6492334", "prefecture": "和歌山県", "id": 1417 },
        { "address": "栄", "city": "西牟婁郡白浜町", "postcode": "6492332", "prefecture": "和歌山県", "id": 1418 },
        { "address": "里谷", "city": "西牟婁郡白浜町", "postcode": "6460314", "prefecture": "和歌山県", "id": 1419 },
        { "address": "塩野", "city": "西牟婁郡白浜町", "postcode": "6492525", "prefecture": "和歌山県", "id": 1420 },
        { "address": "庄川", "city": "西牟婁郡白浜町", "postcode": "6492323", "prefecture": "和歌山県", "id": 1421 },
        { "address": "城", "city": "西牟婁郡白浜町", "postcode": "6492539", "prefecture": "和歌山県", "id": 1422 },
        { "address": "平", "city": "西牟婁郡白浜町", "postcode": "6492331", "prefecture": "和歌山県", "id": 1423 },
        { "address": "竹垣内", "city": "西牟婁郡白浜町", "postcode": "6460304", "prefecture": "和歌山県", "id": 1424 },
        { "address": "田野井", "city": "西牟婁郡白浜町", "postcode": "6492523", "prefecture": "和歌山県", "id": 1425 },
        { "address": "玉伝", "city": "西牟婁郡白浜町", "postcode": "6460313", "prefecture": "和歌山県", "id": 1426 },
        { "address": "十九渕", "city": "西牟婁郡白浜町", "postcode": "6492324", "prefecture": "和歌山県", "id": 1427 },
        { "address": "椿", "city": "西牟婁郡白浜町", "postcode": "6492326", "prefecture": "和歌山県", "id": 1428 },
        { "address": "寺山", "city": "西牟婁郡白浜町", "postcode": "6492534", "prefecture": "和歌山県", "id": 1429 },
        { "address": "富田", "city": "西牟婁郡白浜町", "postcode": "6492325", "prefecture": "和歌山県", "id": 1430 },
        { "address": "中", "city": "西牟婁郡白浜町", "postcode": "6492333", "prefecture": "和歌山県", "id": 1431 },
        { "address": "中嶋", "city": "西牟婁郡白浜町", "postcode": "6492533", "prefecture": "和歌山県", "id": 1432 },
        { "address": "日置", "city": "西牟婁郡白浜町", "postcode": "6492511", "prefecture": "和歌山県", "id": 1433 },
        { "address": "久木", "city": "西牟婁郡白浜町", "postcode": "6492536", "prefecture": "和歌山県", "id": 1434 },
        { "address": "保呂", "city": "西牟婁郡白浜町", "postcode": "6492321", "prefecture": "和歌山県", "id": 1435 },
        { "address": "向平", "city": "西牟婁郡白浜町", "postcode": "6492535", "prefecture": "和歌山県", "id": 1436 },
        { "address": "矢田", "city": "西牟婁郡白浜町", "postcode": "6492522", "prefecture": "和歌山県", "id": 1437 },
        { "city": "西牟婁郡上富田町", "postcode": "6492100", "prefecture": "和歌山県", "id": 1438 },
        { "address": "朝来", "city": "西牟婁郡上富田町", "postcode": "6492105", "prefecture": "和歌山県", "id": 1439 },
        { "address": "生馬", "city": "西牟婁郡上富田町", "postcode": "6492103", "prefecture": "和歌山県", "id": 1440 },
        {
            "address": "市ノ瀬",
            "city": "西牟婁郡上富田町",
            "postcode": "6492107",
            "prefecture": "和歌山県",
            "id": 1441
        },
        { "address": "岩崎", "city": "西牟婁郡上富田町", "postcode": "6492104", "prefecture": "和歌山県", "id": 1442 },
        { "address": "岩田", "city": "西牟婁郡上富田町", "postcode": "6492102", "prefecture": "和歌山県", "id": 1443 },
        { "address": "岡", "city": "西牟婁郡上富田町", "postcode": "6492101", "prefecture": "和歌山県", "id": 1444 },
        {
            "address": "下鮎川",
            "city": "西牟婁郡上富田町",
            "postcode": "6492108",
            "prefecture": "和歌山県",
            "id": 1445
        },
        {
            "address": "南紀の台",
            "city": "西牟婁郡上富田町",
            "postcode": "6492106",
            "prefecture": "和歌山県",
            "id": 1446
        },
        { "city": "西牟婁郡すさみ町", "postcode": "6492600", "prefecture": "和歌山県", "id": 1447 },
        { "address": "江住", "city": "西牟婁郡すさみ町", "postcode": "6493142", "prefecture": "和歌山県", "id": 1448 },
        { "address": "大鎌", "city": "西牟婁郡すさみ町", "postcode": "6493151", "prefecture": "和歌山県", "id": 1449 },
        { "address": "大谷", "city": "西牟婁郡すさみ町", "postcode": "6493153", "prefecture": "和歌山県", "id": 1450 },
        { "address": "大附", "city": "西牟婁郡すさみ町", "postcode": "6492602", "prefecture": "和歌山県", "id": 1451 },
        {
            "address": "小河内",
            "city": "西牟婁郡すさみ町",
            "postcode": "6492603",
            "prefecture": "和歌山県",
            "id": 1452
        },
        {
            "address": "口和深",
            "city": "西牟婁郡すさみ町",
            "postcode": "6492612",
            "prefecture": "和歌山県",
            "id": 1453
        },
        { "address": "小附", "city": "西牟婁郡すさみ町", "postcode": "6492601", "prefecture": "和歌山県", "id": 1454 },
        { "address": "里野", "city": "西牟婁郡すさみ町", "postcode": "6493143", "prefecture": "和歌山県", "id": 1455 },
        {
            "address": "佐本追川",
            "city": "西牟婁郡すさみ町",
            "postcode": "6493162",
            "prefecture": "和歌山県",
            "id": 1456
        },
        {
            "address": "佐本中",
            "city": "西牟婁郡すさみ町",
            "postcode": "6493161",
            "prefecture": "和歌山県",
            "id": 1457
        },
        {
            "address": "佐本中野",
            "city": "西牟婁郡すさみ町",
            "postcode": "6493165",
            "prefecture": "和歌山県",
            "id": 1458
        },
        {
            "address": "佐本西栗垣内",
            "city": "西牟婁郡すさみ町",
            "postcode": "6493163",
            "prefecture": "和歌山県",
            "id": 1459
        },
        {
            "address": "佐本西野川",
            "city": "西牟婁郡すさみ町",
            "postcode": "6493166",
            "prefecture": "和歌山県",
            "id": 1460
        },
        {
            "address": "佐本根倉",
            "city": "西牟婁郡すさみ町",
            "postcode": "6493168",
            "prefecture": "和歌山県",
            "id": 1461
        },
        {
            "address": "佐本東栗垣内",
            "city": "西牟婁郡すさみ町",
            "postcode": "6493164",
            "prefecture": "和歌山県",
            "id": 1462
        },
        {
            "address": "佐本平野",
            "city": "西牟婁郡すさみ町",
            "postcode": "6493167",
            "prefecture": "和歌山県",
            "id": 1463
        },
        {
            "address": "佐本深谷",
            "city": "西牟婁郡すさみ町",
            "postcode": "6493169",
            "prefecture": "和歌山県",
            "id": 1464
        },
        {
            "address": "周参見",
            "city": "西牟婁郡すさみ町",
            "postcode": "6492621",
            "prefecture": "和歌山県",
            "id": 1465
        },
        {
            "address": "太間川",
            "city": "西牟婁郡すさみ町",
            "postcode": "6492631",
            "prefecture": "和歌山県",
            "id": 1466
        },
        { "address": "防己", "city": "西牟婁郡すさみ町", "postcode": "6493152", "prefecture": "和歌山県", "id": 1467 },
        {
            "address": "見老津",
            "city": "西牟婁郡すさみ町",
            "postcode": "6493141",
            "prefecture": "和歌山県",
            "id": 1468
        },
        {
            "address": "矢野口",
            "city": "西牟婁郡すさみ町",
            "postcode": "6492604",
            "prefecture": "和歌山県",
            "id": 1469
        },
        {
            "address": "和深川",
            "city": "西牟婁郡すさみ町",
            "postcode": "6492611",
            "prefecture": "和歌山県",
            "id": 1470
        },
        { "city": "東牟婁郡那智勝浦町", "postcode": "6495300", "prefecture": "和歌山県", "id": 1471 },
        {
            "address": "朝日",
            "city": "東牟婁郡那智勝浦町",
            "postcode": "6495332",
            "prefecture": "和歌山県",
            "id": 1472
        },
        {
            "address": "井鹿",
            "city": "東牟婁郡那智勝浦町",
            "postcode": "6495133",
            "prefecture": "和歌山県",
            "id": 1473
        },
        {
            "address": "井関",
            "city": "東牟婁郡那智勝浦町",
            "postcode": "6495303",
            "prefecture": "和歌山県",
            "id": 1474
        },
        {
            "address": "市野々",
            "city": "東牟婁郡那智勝浦町",
            "postcode": "6495302",
            "prefecture": "和歌山県",
            "id": 1475
        },
        {
            "address": "市屋",
            "city": "東牟婁郡那智勝浦町",
            "postcode": "6495339",
            "prefecture": "和歌山県",
            "id": 1476
        },
        {
            "address": "市屋",
            "city": "東牟婁郡那智勝浦町",
            "postcode": "6495141",
            "prefecture": "和歌山県",
            "id": 1477
        },
        {
            "address": "宇久井",
            "city": "東牟婁郡那智勝浦町",
            "postcode": "6495312",
            "prefecture": "和歌山県",
            "id": 1478
        },
        {
            "address": "浦神",
            "city": "東牟婁郡那智勝浦町",
            "postcode": "6495145",
            "prefecture": "和歌山県",
            "id": 1479
        },
        {
            "address": "大野",
            "city": "東牟婁郡那智勝浦町",
            "postcode": "6495461",
            "prefecture": "和歌山県",
            "id": 1480
        },
        {
            "address": "樫原",
            "city": "東牟婁郡那智勝浦町",
            "postcode": "6495466",
            "prefecture": "和歌山県",
            "id": 1481
        },
        {
            "address": "勝浦",
            "city": "東牟婁郡那智勝浦町",
            "postcode": "6495334",
            "prefecture": "和歌山県",
            "id": 1482
        },
        {
            "address": "川関",
            "city": "東牟婁郡那智勝浦町",
            "postcode": "6495304",
            "prefecture": "和歌山県",
            "id": 1483
        },
        {
            "address": "北浜",
            "city": "東牟婁郡那智勝浦町",
            "postcode": "6495333",
            "prefecture": "和歌山県",
            "id": 1484
        },
        {
            "address": "狗子ノ川",
            "city": "東牟婁郡那智勝浦町",
            "postcode": "6495313",
            "prefecture": "和歌山県",
            "id": 1485
        },
        {
            "address": "口色川",
            "city": "東牟婁郡那智勝浦町",
            "postcode": "6495451",
            "prefecture": "和歌山県",
            "id": 1486
        },
        {
            "address": "熊瀬川",
            "city": "東牟婁郡那智勝浦町",
            "postcode": "6495454",
            "prefecture": "和歌山県",
            "id": 1487
        },
        {
            "address": "高津気",
            "city": "東牟婁郡那智勝浦町",
            "postcode": "6495311",
            "prefecture": "和歌山県",
            "id": 1488
        },
        {
            "address": "高遠井",
            "city": "東牟婁郡那智勝浦町",
            "postcode": "6495135",
            "prefecture": "和歌山県",
            "id": 1489
        },
        {
            "address": "小阪",
            "city": "東牟婁郡那智勝浦町",
            "postcode": "6495452",
            "prefecture": "和歌山県",
            "id": 1490
        },
        {
            "address": "小匠",
            "city": "東牟婁郡那智勝浦町",
            "postcode": "6495137",
            "prefecture": "和歌山県",
            "id": 1491
        },
        {
            "address": "粉白",
            "city": "東牟婁郡那智勝浦町",
            "postcode": "6495144",
            "prefecture": "和歌山県",
            "id": 1492
        },
        {
            "address": "坂足",
            "city": "東牟婁郡那智勝浦町",
            "postcode": "6495465",
            "prefecture": "和歌山県",
            "id": 1493
        },
        {
            "address": "下里",
            "city": "東牟婁郡那智勝浦町",
            "postcode": "6495142",
            "prefecture": "和歌山県",
            "id": 1494
        },
        {
            "address": "下和田",
            "city": "東牟婁郡那智勝浦町",
            "postcode": "6495148",
            "prefecture": "和歌山県",
            "id": 1495
        },
        { "address": "庄", "city": "東牟婁郡那智勝浦町", "postcode": "6495147", "prefecture": "和歌山県", "id": 1496 },
        {
            "address": "高野",
            "city": "東牟婁郡那智勝浦町",
            "postcode": "6495463",
            "prefecture": "和歌山県",
            "id": 1497
        },
        {
            "address": "田垣内",
            "city": "東牟婁郡那智勝浦町",
            "postcode": "6495462",
            "prefecture": "和歌山県",
            "id": 1498
        },
        {
            "address": "築地",
            "city": "東牟婁郡那智勝浦町",
            "postcode": "6495335",
            "prefecture": "和歌山県",
            "id": 1499
        },
        {
            "address": "天満",
            "city": "東牟婁郡那智勝浦町",
            "postcode": "6495331",
            "prefecture": "和歌山県",
            "id": 1500
        },
        {
            "address": "中里",
            "city": "東牟婁郡那智勝浦町",
            "postcode": "6495146",
            "prefecture": "和歌山県",
            "id": 1501
        },
        {
            "address": "中ノ川",
            "city": "東牟婁郡那智勝浦町",
            "postcode": "6495132",
            "prefecture": "和歌山県",
            "id": 1502
        },
        {
            "address": "長井",
            "city": "東牟婁郡那智勝浦町",
            "postcode": "6495136",
            "prefecture": "和歌山県",
            "id": 1503
        },
        {
            "address": "那智山",
            "city": "東牟婁郡那智勝浦町",
            "postcode": "6495301",
            "prefecture": "和歌山県",
            "id": 1504
        },
        {
            "address": "二河",
            "city": "東牟婁郡那智勝浦町",
            "postcode": "6495338",
            "prefecture": "和歌山県",
            "id": 1505
        },
        {
            "address": "西中野川",
            "city": "東牟婁郡那智勝浦町",
            "postcode": "6495131",
            "prefecture": "和歌山県",
            "id": 1506
        },
        {
            "address": "橋ノ川",
            "city": "東牟婁郡那智勝浦町",
            "postcode": "6495337",
            "prefecture": "和歌山県",
            "id": 1507
        },
        {
            "address": "浜ノ宮",
            "city": "東牟婁郡那智勝浦町",
            "postcode": "6495314",
            "prefecture": "和歌山県",
            "id": 1508
        },
        {
            "address": "直柱",
            "city": "東牟婁郡那智勝浦町",
            "postcode": "6495464",
            "prefecture": "和歌山県",
            "id": 1509
        },
        {
            "address": "南大居",
            "city": "東牟婁郡那智勝浦町",
            "postcode": "6495134",
            "prefecture": "和歌山県",
            "id": 1510
        },
        {
            "address": "南平野",
            "city": "東牟婁郡那智勝浦町",
            "postcode": "6495453",
            "prefecture": "和歌山県",
            "id": 1511
        },
        {
            "address": "八尺鏡野",
            "city": "東牟婁郡那智勝浦町",
            "postcode": "6495143",
            "prefecture": "和歌山県",
            "id": 1512
        },
        {
            "address": "湯川",
            "city": "東牟婁郡那智勝浦町",
            "postcode": "6495336",
            "prefecture": "和歌山県",
            "id": 1513
        },
        { "city": "東牟婁郡太地町", "postcode": "6495100", "prefecture": "和歌山県", "id": 1514 },
        { "address": "太地", "city": "東牟婁郡太地町", "postcode": "6495371", "prefecture": "和歌山県", "id": 1515 },
        { "address": "太地", "city": "東牟婁郡太地町", "postcode": "6495171", "prefecture": "和歌山県", "id": 1516 },
        { "address": "森浦", "city": "東牟婁郡太地町", "postcode": "6495172", "prefecture": "和歌山県", "id": 1517 },
        { "city": "東牟婁郡古座川町", "postcode": "6494100", "prefecture": "和歌山県", "id": 1518 },
        { "address": "相瀬", "city": "東牟婁郡古座川町", "postcode": "6494235", "prefecture": "和歌山県", "id": 1519 },
        {
            "address": "池野山",
            "city": "東牟婁郡古座川町",
            "postcode": "6494103",
            "prefecture": "和歌山県",
            "id": 1520
        },
        { "address": "一雨", "city": "東牟婁郡古座川町", "postcode": "6494232", "prefecture": "和歌山県", "id": 1521 },
        { "address": "洞尾", "city": "東牟婁郡古座川町", "postcode": "6494453", "prefecture": "和歌山県", "id": 1522 },
        {
            "address": "宇津木",
            "city": "東牟婁郡古座川町",
            "postcode": "6494105",
            "prefecture": "和歌山県",
            "id": 1523
        },
        {
            "address": "宇筒井",
            "city": "東牟婁郡古座川町",
            "postcode": "6494214",
            "prefecture": "和歌山県",
            "id": 1524
        },
        { "address": "潤野", "city": "東牟婁郡古座川町", "postcode": "6494225", "prefecture": "和歌山県", "id": 1525 },
        { "address": "大川", "city": "東牟婁郡古座川町", "postcode": "6494451", "prefecture": "和歌山県", "id": 1526 },
        { "address": "大桑", "city": "東牟婁郡古座川町", "postcode": "6494215", "prefecture": "和歌山県", "id": 1527 },
        { "address": "大柳", "city": "東牟婁郡古座川町", "postcode": "6494227", "prefecture": "和歌山県", "id": 1528 },
        { "address": "樫山", "city": "東牟婁郡古座川町", "postcode": "6494101", "prefecture": "和歌山県", "id": 1529 },
        { "address": "川口", "city": "東牟婁郡古座川町", "postcode": "6494223", "prefecture": "和歌山県", "id": 1530 },
        { "address": "楠", "city": "東牟婁郡古座川町", "postcode": "6494102", "prefecture": "和歌山県", "id": 1531 },
        { "address": "蔵土", "city": "東牟婁郡古座川町", "postcode": "6494452", "prefecture": "和歌山県", "id": 1532 },
        { "address": "小川", "city": "東牟婁郡古座川町", "postcode": "6494216", "prefecture": "和歌山県", "id": 1533 },
        {
            "address": "小森川",
            "city": "東牟婁郡古座川町",
            "postcode": "6494211",
            "prefecture": "和歌山県",
            "id": 1534
        },
        { "address": "佐田", "city": "東牟婁郡古座川町", "postcode": "6494442", "prefecture": "和歌山県", "id": 1535 },
        { "address": "下露", "city": "東牟婁郡古座川町", "postcode": "6494562", "prefecture": "和歌山県", "id": 1536 },
        {
            "address": "添野川",
            "city": "東牟婁郡古座川町",
            "postcode": "6494441",
            "prefecture": "和歌山県",
            "id": 1537
        },
        { "address": "高池", "city": "東牟婁郡古座川町", "postcode": "6494104", "prefecture": "和歌山県", "id": 1538 },
        { "address": "高瀬", "city": "東牟婁郡古座川町", "postcode": "6494224", "prefecture": "和歌山県", "id": 1539 },
        { "address": "田川", "city": "東牟婁郡古座川町", "postcode": "6494212", "prefecture": "和歌山県", "id": 1540 },
        { "address": "立合", "city": "東牟婁郡古座川町", "postcode": "6494233", "prefecture": "和歌山県", "id": 1541 },
        {
            "address": "立合川",
            "city": "東牟婁郡古座川町",
            "postcode": "6494236",
            "prefecture": "和歌山県",
            "id": 1542
        },
        {
            "address": "月野瀬",
            "city": "東牟婁郡古座川町",
            "postcode": "6494106",
            "prefecture": "和歌山県",
            "id": 1543
        },
        { "address": "鶴川", "city": "東牟婁郡古座川町", "postcode": "6494231", "prefecture": "和歌山県", "id": 1544 },
        { "address": "中崎", "city": "東牟婁郡古座川町", "postcode": "6494221", "prefecture": "和歌山県", "id": 1545 },
        { "address": "長追", "city": "東牟婁郡古座川町", "postcode": "6494444", "prefecture": "和歌山県", "id": 1546 },
        { "address": "南平", "city": "東牟婁郡古座川町", "postcode": "6494454", "prefecture": "和歌山県", "id": 1547 },
        { "address": "成川", "city": "東牟婁郡古座川町", "postcode": "6494565", "prefecture": "和歌山県", "id": 1548 },
        {
            "address": "西赤木",
            "city": "東牟婁郡古座川町",
            "postcode": "6494213",
            "prefecture": "和歌山県",
            "id": 1549
        },
        { "address": "西川", "city": "東牟婁郡古座川町", "postcode": "6494561", "prefecture": "和歌山県", "id": 1550 },
        { "address": "直見", "city": "東牟婁郡古座川町", "postcode": "6494222", "prefecture": "和歌山県", "id": 1551 },
        { "address": "平井", "city": "東牟婁郡古座川町", "postcode": "6494563", "prefecture": "和歌山県", "id": 1552 },
        { "address": "松根", "city": "東牟婁郡古座川町", "postcode": "6494564", "prefecture": "和歌山県", "id": 1553 },
        { "address": "真砂", "city": "東牟婁郡古座川町", "postcode": "6494443", "prefecture": "和歌山県", "id": 1554 },
        {
            "address": "三尾川",
            "city": "東牟婁郡古座川町",
            "postcode": "6494455",
            "prefecture": "和歌山県",
            "id": 1555
        },
        { "address": "峰", "city": "東牟婁郡古座川町", "postcode": "6494234", "prefecture": "和歌山県", "id": 1556 },
        { "address": "明神", "city": "東牟婁郡古座川町", "postcode": "6494226", "prefecture": "和歌山県", "id": 1557 },
        { "address": "山手", "city": "東牟婁郡古座川町", "postcode": "6494217", "prefecture": "和歌山県", "id": 1558 },
        { "city": "東牟婁郡北山村", "postcode": "6471600", "prefecture": "和歌山県", "id": 1559 },
        { "address": "大沼", "city": "東牟婁郡北山村", "postcode": "6471603", "prefecture": "和歌山県", "id": 1560 },
        { "address": "小松", "city": "東牟婁郡北山村", "postcode": "6471605", "prefecture": "和歌山県", "id": 1561 },
        { "address": "下尾井", "city": "東牟婁郡北山村", "postcode": "6471604", "prefecture": "和歌山県", "id": 1562 },
        { "address": "竹原", "city": "東牟婁郡北山村", "postcode": "6471602", "prefecture": "和歌山県", "id": 1563 },
        { "address": "七色", "city": "東牟婁郡北山村", "postcode": "6471601", "prefecture": "和歌山県", "id": 1564 },
        { "city": "東牟婁郡串本町", "postcode": "6493500", "prefecture": "和歌山県", "id": 1565 },
        { "address": "有田", "city": "東牟婁郡串本町", "postcode": "6493514", "prefecture": "和歌山県", "id": 1566 },
        { "address": "有田上", "city": "東牟婁郡串本町", "postcode": "6493518", "prefecture": "和歌山県", "id": 1567 },
        { "address": "伊串", "city": "東牟婁郡串本町", "postcode": "6494124", "prefecture": "和歌山県", "id": 1568 },
        { "address": "出雲", "city": "東牟婁郡串本町", "postcode": "6493501", "prefecture": "和歌山県", "id": 1569 },
        { "address": "上野山", "city": "東牟婁郡串本町", "postcode": "6494114", "prefecture": "和歌山県", "id": 1570 },
        { "address": "江田", "city": "東牟婁郡串本町", "postcode": "6493521", "prefecture": "和歌山県", "id": 1571 },
        { "address": "大島", "city": "東牟婁郡串本町", "postcode": "6493633", "prefecture": "和歌山県", "id": 1572 },
        { "address": "樫野", "city": "東牟婁郡串本町", "postcode": "6493631", "prefecture": "和歌山県", "id": 1573 },
        { "address": "上田原", "city": "東牟婁郡串本町", "postcode": "6494111", "prefecture": "和歌山県", "id": 1574 },
        { "address": "鬮野川", "city": "東牟婁郡串本町", "postcode": "6493511", "prefecture": "和歌山県", "id": 1575 },
        { "address": "串本", "city": "東牟婁郡串本町", "postcode": "6493503", "prefecture": "和歌山県", "id": 1576 },
        { "address": "古座", "city": "東牟婁郡串本町", "postcode": "6494115", "prefecture": "和歌山県", "id": 1577 },
        { "address": "神野川", "city": "東牟婁郡串本町", "postcode": "6494123", "prefecture": "和歌山県", "id": 1578 },
        { "address": "里川", "city": "東牟婁郡串本町", "postcode": "6493524", "prefecture": "和歌山県", "id": 1579 },
        { "address": "佐部", "city": "東牟婁郡串本町", "postcode": "6494117", "prefecture": "和歌山県", "id": 1580 },
        {
            "address": "サンゴ台",
            "city": "東牟婁郡串本町",
            "postcode": "6493510",
            "prefecture": "和歌山県",
            "id": 1581
        },
        { "address": "潮岬", "city": "東牟婁郡串本町", "postcode": "6493502", "prefecture": "和歌山県", "id": 1582 },
        { "address": "須江", "city": "東牟婁郡串本町", "postcode": "6493632", "prefecture": "和歌山県", "id": 1583 },
        { "address": "高富", "city": "東牟婁郡串本町", "postcode": "6493513", "prefecture": "和歌山県", "id": 1584 },
        { "address": "田子", "city": "東牟婁郡串本町", "postcode": "6493522", "prefecture": "和歌山県", "id": 1585 },
        { "address": "田並", "city": "東牟婁郡串本町", "postcode": "6493515", "prefecture": "和歌山県", "id": 1586 },
        { "address": "田並上", "city": "東牟婁郡串本町", "postcode": "6493516", "prefecture": "和歌山県", "id": 1587 },
        { "address": "田原", "city": "東牟婁郡串本町", "postcode": "6494112", "prefecture": "和歌山県", "id": 1588 },
        { "address": "津荷", "city": "東牟婁郡串本町", "postcode": "6494113", "prefecture": "和歌山県", "id": 1589 },
        { "address": "中湊", "city": "東牟婁郡串本町", "postcode": "6494116", "prefecture": "和歌山県", "id": 1590 },
        { "address": "二色", "city": "東牟婁郡串本町", "postcode": "6493512", "prefecture": "和歌山県", "id": 1591 },
        { "address": "西向", "city": "東牟婁郡串本町", "postcode": "6494122", "prefecture": "和歌山県", "id": 1592 },
        { "address": "吐生", "city": "東牟婁郡串本町", "postcode": "6493517", "prefecture": "和歌山県", "id": 1593 },
        { "address": "姫", "city": "東牟婁郡串本町", "postcode": "6494125", "prefecture": "和歌山県", "id": 1594 },
        { "address": "姫川", "city": "東牟婁郡串本町", "postcode": "6494126", "prefecture": "和歌山県", "id": 1595 },
        { "address": "古田", "city": "東牟婁郡串本町", "postcode": "6494121", "prefecture": "和歌山県", "id": 1596 },
        { "address": "和深", "city": "東牟婁郡串本町", "postcode": "6493523", "prefecture": "和歌山県", "id": 1597 }
    ]
}
