{
    "postcodes": [
        { "city": "大分市", "postcode": "8700100", "prefecture": "大分県", "id": 0 },
        { "address": "青崎", "city": "大分市", "postcode": "8700278", "prefecture": "大分県", "id": 1 },
        { "address": "青葉台", "city": "大分市", "postcode": "8700875", "prefecture": "大分県", "id": 2 },
        { "address": "青葉町", "city": "大分市", "postcode": "8700908", "prefecture": "大分県", "id": 3 },
        { "address": "丹川", "city": "大分市", "postcode": "8700317", "prefecture": "大分県", "id": 4 },
        { "address": "明磧", "city": "大分市", "postcode": "8700857", "prefecture": "大分県", "id": 5 },
        { "address": "明磧町", "city": "大分市", "postcode": "8700860", "prefecture": "大分県", "id": 6 },
        { "address": "明野高尾", "city": "大分市", "postcode": "8700162", "prefecture": "大分県", "id": 7 },
        { "address": "明野東", "city": "大分市", "postcode": "8700161", "prefecture": "大分県", "id": 8 },
        { "address": "明野西", "city": "大分市", "postcode": "8700164", "prefecture": "大分県", "id": 9 },
        { "address": "明野南", "city": "大分市", "postcode": "8700163", "prefecture": "大分県", "id": 10 },
        { "address": "明野北", "city": "大分市", "postcode": "8700165", "prefecture": "大分県", "id": 11 },
        { "address": "明野北町", "city": "大分市", "postcode": "8700166", "prefecture": "大分県", "id": 12 },
        { "address": "明野紅陽台", "city": "大分市", "postcode": "8700167", "prefecture": "大分県", "id": 13 },
        { "address": "明野ハイツ", "city": "大分市", "postcode": "8700168", "prefecture": "大分県", "id": 14 },
        { "address": "曙台", "city": "大分市", "postcode": "8700273", "prefecture": "大分県", "id": 15 },
        { "address": "旭町", "city": "大分市", "postcode": "8700884", "prefecture": "大分県", "id": 16 },
        { "address": "芦崎", "city": "大分市", "postcode": "8700014", "prefecture": "大分県", "id": 17 },
        { "address": "尼が瀬", "city": "大分市", "postcode": "8700858", "prefecture": "大分県", "id": 18 },
        { "address": "安藤", "city": "大分市", "postcode": "8797504", "prefecture": "大分県", "id": 19 },
        { "address": "家島", "city": "大分市", "postcode": "8700113", "prefecture": "大分県", "id": 20 },
        { "address": "生石", "city": "大分市", "postcode": "8700003", "prefecture": "大分県", "id": 21 },
        { "address": "生石港町", "city": "大分市", "postcode": "8700001", "prefecture": "大分県", "id": 22 },
        { "address": "泉町", "city": "大分市", "postcode": "8700041", "prefecture": "大分県", "id": 23 },
        { "address": "市", "city": "大分市", "postcode": "8701151", "prefecture": "大分県", "id": 24 },
        { "address": "一木", "city": "大分市", "postcode": "8700316", "prefecture": "大分県", "id": 25 },
        { "address": "市尾", "city": "大分市", "postcode": "8700312", "prefecture": "大分県", "id": 26 },
        { "address": "一の洲", "city": "大分市", "postcode": "8700112", "prefecture": "大分県", "id": 27 },
        { "address": "一尺屋", "city": "大分市", "postcode": "8792203", "prefecture": "大分県", "id": 28 },
        { "address": "猪野", "city": "大分市", "postcode": "8700134", "prefecture": "大分県", "id": 29 },
        { "address": "今市", "city": "大分市", "postcode": "8701223", "prefecture": "大分県", "id": 30 },
        { "address": "今津留", "city": "大分市", "postcode": "8700938", "prefecture": "大分県", "id": 31 },
        { "address": "入蔵", "city": "大分市", "postcode": "8701202", "prefecture": "大分県", "id": 32 },
        { "address": "岩田町", "city": "大分市", "postcode": "8700936", "prefecture": "大分県", "id": 33 },
        { "address": "上田町", "city": "大分市", "postcode": "8700886", "prefecture": "大分県", "id": 34 },
        { "address": "上野南", "city": "大分市", "postcode": "8700836", "prefecture": "大分県", "id": 35 },
        { "address": "上野丘", "city": "大分市", "postcode": "8700835", "prefecture": "大分県", "id": 36 },
        { "address": "上野丘東", "city": "大分市", "postcode": "8700833", "prefecture": "大分県", "id": 37 },
        { "address": "上野丘西", "city": "大分市", "postcode": "8700834", "prefecture": "大分県", "id": 38 },
        { "address": "上野町", "city": "大分市", "postcode": "8700832", "prefecture": "大分県", "id": 39 },
        { "address": "梅が丘", "city": "大分市", "postcode": "8797885", "prefecture": "大分県", "id": 40 },
        { "address": "裏川団地", "city": "大分市", "postcode": "8700956", "prefecture": "大分県", "id": 41 },
        { "address": "荏隈", "city": "大分市", "postcode": "8700889", "prefecture": "大分県", "id": 42 },
        { "address": "荏隈町", "city": "大分市", "postcode": "8700891", "prefecture": "大分県", "id": 43 },
        { "address": "恵比寿町", "city": "大分市", "postcode": "8700322", "prefecture": "大分県", "id": 44 },
        { "address": "王子新町", "city": "大分市", "postcode": "8700819", "prefecture": "大分県", "id": 45 },
        { "address": "王子中町", "city": "大分市", "postcode": "8700006", "prefecture": "大分県", "id": 46 },
        { "address": "王子港町", "city": "大分市", "postcode": "8700004", "prefecture": "大分県", "id": 47 },
        { "address": "王子西町", "city": "大分市", "postcode": "8700008", "prefecture": "大分県", "id": 48 },
        { "address": "王子南町", "city": "大分市", "postcode": "8700007", "prefecture": "大分県", "id": 49 },
        { "address": "王子北町", "city": "大分市", "postcode": "8700005", "prefecture": "大分県", "id": 50 },
        { "address": "王子山の手町", "city": "大分市", "postcode": "8700813", "prefecture": "大分県", "id": 51 },
        { "address": "王子町", "city": "大分市", "postcode": "8700009", "prefecture": "大分県", "id": 52 },
        { "address": "王ノ瀬", "city": "大分市", "postcode": "8700321", "prefecture": "大分県", "id": 53 },
        { "address": "大石町", "city": "大分市", "postcode": "8700851", "prefecture": "大分県", "id": 54 },
        { "address": "大分流通業務団地", "city": "大分市", "postcode": "8700319", "prefecture": "大分県", "id": 55 },
        { "address": "大久保", "city": "大分市", "postcode": "8700806", "prefecture": "大分県", "id": 56 },
        { "address": "大在", "city": "大分市", "postcode": "8700266", "prefecture": "大分県", "id": 57 },
        { "address": "大在北", "city": "大分市", "postcode": "8700245", "prefecture": "大分県", "id": 58 },
        { "address": "大在中央", "city": "大分市", "postcode": "8700251", "prefecture": "大分県", "id": 59 },
        { "address": "大在浜", "city": "大分市", "postcode": "8700252", "prefecture": "大分県", "id": 60 },
        { "address": "大州浜", "city": "大分市", "postcode": "8700906", "prefecture": "大分県", "id": 61 },
        { "address": "大園団地", "city": "大分市", "postcode": "8701125", "prefecture": "大分県", "id": 62 },
        { "address": "太田", "city": "大分市", "postcode": "8701214", "prefecture": "大分県", "id": 63 },
        { "address": "大津町", "city": "大分市", "postcode": "8700907", "prefecture": "大分県", "id": 64 },
        { "address": "大津留", "city": "大分市", "postcode": "8700123", "prefecture": "大分県", "id": 65 },
        { "address": "大手町", "city": "大分市", "postcode": "8700022", "prefecture": "大分県", "id": 66 },
        { "address": "大平", "city": "大分市", "postcode": "8792114", "prefecture": "大分県", "id": 67 },
        { "address": "大道町", "city": "大分市", "postcode": "8700822", "prefecture": "大分県", "id": 68 },
        { "address": "岡", "city": "大分市", "postcode": "8700158", "prefecture": "大分県", "id": 69 },
        { "address": "岡川", "city": "大分市", "postcode": "8701131", "prefecture": "大分県", "id": 70 },
        { "address": "岡新町", "city": "大分市", "postcode": "8700159", "prefecture": "大分県", "id": 71 },
        { "address": "雄城台", "city": "大分市", "postcode": "8701165", "prefecture": "大分県", "id": 72 },
        { "address": "雄城台中央", "city": "大分市", "postcode": "8701164", "prefecture": "大分県", "id": 73 },
        { "address": "奥", "city": "大分市", "postcode": "8797881", "prefecture": "大分県", "id": 74 },
        { "address": "鴛野", "city": "大分市", "postcode": "8701121", "prefecture": "大分県", "id": 75 },
        { "address": "乙津", "city": "大分市", "postcode": "8700144", "prefecture": "大分県", "id": 76 },
        { "address": "乙津町", "city": "大分市", "postcode": "8700145", "prefecture": "大分県", "id": 77 },
        { "address": "乙津港町", "city": "大分市", "postcode": "8700146", "prefecture": "大分県", "id": 78 },
        { "address": "小中島", "city": "大分市", "postcode": "8700114", "prefecture": "大分県", "id": 79 },
        { "address": "鬼崎", "city": "大分市", "postcode": "8701171", "prefecture": "大分県", "id": 80 },
        { "address": "小野鶴", "city": "大分市", "postcode": "8701153", "prefecture": "大分県", "id": 81 },
        { "address": "小野鶴新町", "city": "大分市", "postcode": "8701156", "prefecture": "大分県", "id": 82 },
        { "address": "小野鶴南", "city": "大分市", "postcode": "8701150", "prefecture": "大分県", "id": 83 },
        { "address": "海原", "city": "大分市", "postcode": "8700107", "prefecture": "大分県", "id": 84 },
        { "address": "賀来", "city": "大分市", "postcode": "8700877", "prefecture": "大分県", "id": 85 },
        { "address": "賀来北", "city": "大分市", "postcode": "8700848", "prefecture": "大分県", "id": 86 },
        { "address": "賀来新川", "city": "大分市", "postcode": "8700892", "prefecture": "大分県", "id": 87 },
        { "address": "賀来西", "city": "大分市", "postcode": "8700850", "prefecture": "大分県", "id": 88 },
        { "address": "賀来南", "city": "大分市", "postcode": "8700849", "prefecture": "大分県", "id": 89 },
        { "address": "春日浦", "city": "大分市", "postcode": "8700011", "prefecture": "大分県", "id": 90 },
        { "address": "片島", "city": "大分市", "postcode": "8700943", "prefecture": "大分県", "id": 91 },
        { "address": "かたしま台", "city": "大分市", "postcode": "8700949", "prefecture": "大分県", "id": 92 },
        { "address": "葛木", "city": "大分市", "postcode": "8700133", "prefecture": "大分県", "id": 93 },
        { "address": "金池町", "city": "大分市", "postcode": "8700026", "prefecture": "大分県", "id": 94 },
        { "address": "金池南", "city": "大分市", "postcode": "8700839", "prefecture": "大分県", "id": 95 },
        { "address": "要町", "city": "大分市", "postcode": "8700831", "prefecture": "大分県", "id": 96 },
        { "address": "金谷迫", "city": "大分市", "postcode": "8700879", "prefecture": "大分県", "id": 97 },
        { "address": "加納", "city": "大分市", "postcode": "8700926", "prefecture": "大分県", "id": 98 },
        { "address": "上春日町", "city": "大分市", "postcode": "8700817", "prefecture": "大分県", "id": 99 },
        { "address": "上白木", "city": "大分市", "postcode": "8700805", "prefecture": "大分県", "id": 100 },
        { "address": "上詰", "city": "大分市", "postcode": "8701215", "prefecture": "大分県", "id": 101 },
        { "address": "上判田", "city": "大分市", "postcode": "8701111", "prefecture": "大分県", "id": 102 },
        { "address": "上戸次", "city": "大分市", "postcode": "8797764", "prefecture": "大分県", "id": 103 },
        { "address": "上宗方", "city": "大分市", "postcode": "8701152", "prefecture": "大分県", "id": 104 },
        { "address": "上宗方南", "city": "大分市", "postcode": "8701167", "prefecture": "大分県", "id": 105 },
        { "address": "上八幡", "city": "大分市", "postcode": "8700808", "prefecture": "大分県", "id": 106 },
        { "address": "河原内", "city": "大分市", "postcode": "8797503", "prefecture": "大分県", "id": 107 },
        { "address": "木佐上", "city": "大分市", "postcode": "8792113", "prefecture": "大分県", "id": 108 },
        { "address": "北下郡", "city": "大分市", "postcode": "8700927", "prefecture": "大分県", "id": 109 },
        { "address": "北鶴崎", "city": "大分市", "postcode": "8700102", "prefecture": "大分県", "id": 110 },
        { "address": "木田", "city": "大分市", "postcode": "8700311", "prefecture": "大分県", "id": 111 },
        { "address": "机張原", "city": "大分市", "postcode": "8700809", "prefecture": "大分県", "id": 112 },
        { "address": "木上", "city": "大分市", "postcode": "8701161", "prefecture": "大分県", "id": 113 },
        { "address": "木上台", "city": "大分市", "postcode": "8701169", "prefecture": "大分県", "id": 114 },
        { "address": "季の坂", "city": "大分市", "postcode": "8700870", "prefecture": "大分県", "id": 115 },
        { "address": "希望が丘", "city": "大分市", "postcode": "8700959", "prefecture": "大分県", "id": 116 },
        { "address": "京が丘南", "city": "大分市", "postcode": "8700129", "prefecture": "大分県", "id": 117 },
        { "address": "口戸", "city": "大分市", "postcode": "8701162", "prefecture": "大分県", "id": 118 },
        { "address": "久土", "city": "大分市", "postcode": "8700314", "prefecture": "大分県", "id": 119 },
        { "address": "久原", "city": "大分市", "postcode": "8700304", "prefecture": "大分県", "id": 120 },
        { "address": "久原北", "city": "大分市", "postcode": "8700324", "prefecture": "大分県", "id": 121 },
        { "address": "久原中央", "city": "大分市", "postcode": "8700325", "prefecture": "大分県", "id": 122 },
        { "address": "久原南", "city": "大分市", "postcode": "8700326", "prefecture": "大分県", "id": 123 },
        { "address": "毛井", "city": "大分市", "postcode": "8700124", "prefecture": "大分県", "id": 124 },
        { "address": "けやき台", "city": "大分市", "postcode": "8797762", "prefecture": "大分県", "id": 125 },
        { "address": "顕徳町", "city": "大分市", "postcode": "8700025", "prefecture": "大分県", "id": 126 },
        { "address": "小池原", "city": "大分市", "postcode": "8700147", "prefecture": "大分県", "id": 127 },
        { "address": "公園通り", "city": "大分市", "postcode": "8700173", "prefecture": "大分県", "id": 128 },
        { "address": "公園通り西", "city": "大分市", "postcode": "8700174", "prefecture": "大分県", "id": 129 },
        { "address": "古ケ鶴", "city": "大分市", "postcode": "8700935", "prefecture": "大分県", "id": 130 },
        { "address": "国分", "city": "大分市", "postcode": "8700864", "prefecture": "大分県", "id": 131 },
        { "address": "国分新町", "city": "大分市", "postcode": "8700869", "prefecture": "大分県", "id": 132 },
        { "address": "国分台", "city": "大分市", "postcode": "8700863", "prefecture": "大分県", "id": 133 },
        { "address": "国分団地", "city": "大分市", "postcode": "8700865", "prefecture": "大分県", "id": 134 },
        { "address": "小佐井", "city": "大分市", "postcode": "8700327", "prefecture": "大分県", "id": 135 },
        { "address": "寿町", "city": "大分市", "postcode": "8700036", "prefecture": "大分県", "id": 136 },
        { "address": "小原団地", "city": "大分市", "postcode": "8701134", "prefecture": "大分県", "id": 137 },
        { "address": "坂ノ市", "city": "大分市", "postcode": "8700302", "prefecture": "大分県", "id": 138 },
        { "address": "坂ノ市中央", "city": "大分市", "postcode": "8700307", "prefecture": "大分県", "id": 139 },
        { "address": "坂ノ市西", "city": "大分市", "postcode": "8700309", "prefecture": "大分県", "id": 140 },
        { "address": "坂ノ市南", "city": "大分市", "postcode": "8700308", "prefecture": "大分県", "id": 141 },
        { "address": "佐賀関", "city": "大分市", "postcode": "8792201", "prefecture": "大分県", "id": 142 },
        { "address": "桜ケ丘", "city": "大分市", "postcode": "8700838", "prefecture": "大分県", "id": 143 },
        { "address": "迫", "city": "大分市", "postcode": "8700272", "prefecture": "大分県", "id": 144 },
        { "address": "里", "city": "大分市", "postcode": "8700303", "prefecture": "大分県", "id": 145 },
        { "address": "佐野", "city": "大分市", "postcode": "8700315", "prefecture": "大分県", "id": 146 },
        { "address": "沢田", "city": "大分市", "postcode": "8701212", "prefecture": "大分県", "id": 147 },
        { "address": "サンシャインしきど", "city": "大分市", "postcode": "8701120", "prefecture": "大分県", "id": 148 },
        { "address": "椎迫", "city": "大分市", "postcode": "8700829", "prefecture": "大分県", "id": 149 },
        { "address": "汐見", "city": "大分市", "postcode": "8700253", "prefecture": "大分県", "id": 150 },
        { "address": "敷戸", "city": "大分市", "postcode": "8701122", "prefecture": "大分県", "id": 151 },
        { "address": "敷戸駅北町", "city": "大分市", "postcode": "8701107", "prefecture": "大分県", "id": 152 },
        { "address": "敷戸新町", "city": "大分市", "postcode": "8701102", "prefecture": "大分県", "id": 153 },
        { "address": "敷戸台", "city": "大分市", "postcode": "8701106", "prefecture": "大分県", "id": 154 },
        { "address": "敷戸東町", "city": "大分市", "postcode": "8701104", "prefecture": "大分県", "id": 155 },
        { "address": "敷戸西町", "city": "大分市", "postcode": "8701103", "prefecture": "大分県", "id": 156 },
        { "address": "敷戸南町", "city": "大分市", "postcode": "8701105", "prefecture": "大分県", "id": 157 },
        { "address": "敷戸北町", "city": "大分市", "postcode": "8701101", "prefecture": "大分県", "id": 158 },
        { "address": "志津留", "city": "大分市", "postcode": "8797884", "prefecture": "大分県", "id": 159 },
        { "address": "志手", "city": "大分市", "postcode": "8700821", "prefecture": "大分県", "id": 160 },
        { "address": "志村", "city": "大分市", "postcode": "8700261", "prefecture": "大分県", "id": 161 },
        { "address": "下郡北", "city": "大分市", "postcode": "8700952", "prefecture": "大分県", "id": 162 },
        { "address": "下郡中央", "city": "大分市", "postcode": "8700954", "prefecture": "大分県", "id": 163 },
        { "address": "下郡東", "city": "大分市", "postcode": "8700953", "prefecture": "大分県", "id": 164 },
        { "address": "下郡南", "city": "大分市", "postcode": "8700955", "prefecture": "大分県", "id": 165 },
        { "address": "下郡山の手", "city": "大分市", "postcode": "8700961", "prefecture": "大分県", "id": 166 },
        { "address": "下郡", "city": "大分市", "postcode": "8700951", "prefecture": "大分県", "id": 167 },
        { "address": "下郡工業団地", "city": "大分市", "postcode": "8700941", "prefecture": "大分県", "id": 168 },
        { "address": "下白木", "city": "大分市", "postcode": "8700803", "prefecture": "大分県", "id": 169 },
        { "address": "下徳丸", "city": "大分市", "postcode": "8700118", "prefecture": "大分県", "id": 170 },
        { "address": "下原", "city": "大分市", "postcode": "8701213", "prefecture": "大分県", "id": 171 },
        { "address": "下判田", "city": "大分市", "postcode": "8701112", "prefecture": "大分県", "id": 172 },
        { "address": "下戸次", "city": "大分市", "postcode": "8797763", "prefecture": "大分県", "id": 173 },
        { "address": "下宗方", "city": "大分市", "postcode": "8701141", "prefecture": "大分県", "id": 174 },
        { "address": "下八幡", "city": "大分市", "postcode": "8700807", "prefecture": "大分県", "id": 175 },
        { "address": "志生木", "city": "大分市", "postcode": "8792115", "prefecture": "大分県", "id": 176 },
        { "address": "庄境", "city": "大分市", "postcode": "8700241", "prefecture": "大分県", "id": 177 },
        { "address": "城東町", "city": "大分市", "postcode": "8700922", "prefecture": "大分県", "id": 178 },
        { "address": "城東町", "city": "大分市", "postcode": "8700153", "prefecture": "大分県", "id": 179 },
        { "address": "城南北", "city": "大分市", "postcode": "8700827", "prefecture": "大分県", "id": 180 },
        { "address": "城南西", "city": "大分市", "postcode": "8700826", "prefecture": "大分県", "id": 181 },
        { "address": "城南東", "city": "大分市", "postcode": "8700824", "prefecture": "大分県", "id": 182 },
        { "address": "城南南", "city": "大分市", "postcode": "8700825", "prefecture": "大分県", "id": 183 },
        { "address": "城南山手台", "city": "大分市", "postcode": "8700828", "prefecture": "大分県", "id": 184 },
        { "address": "城原", "city": "大分市", "postcode": "8700267", "prefecture": "大分県", "id": 185 },
        { "address": "庄の原", "city": "大分市", "postcode": "8700876", "prefecture": "大分県", "id": 186 },
        { "address": "白木", "city": "大分市", "postcode": "8792202", "prefecture": "大分県", "id": 187 },
        { "address": "城崎町", "city": "大分市", "postcode": "8700045", "prefecture": "大分県", "id": 188 },
        { "address": "新春日町", "city": "大分市", "postcode": "8700818", "prefecture": "大分県", "id": 189 },
        { "address": "新川西", "city": "大分市", "postcode": "8700015", "prefecture": "大分県", "id": 190 },
        { "address": "新川町", "city": "大分市", "postcode": "8700016", "prefecture": "大分県", "id": 191 },
        { "address": "新貝", "city": "大分市", "postcode": "8700911", "prefecture": "大分県", "id": 192 },
        { "address": "新栄町", "city": "大分市", "postcode": "8700919", "prefecture": "大分県", "id": 193 },
        { "address": "新町", "city": "大分市", "postcode": "8700028", "prefecture": "大分県", "id": 194 },
        { "address": "新明治", "city": "大分市", "postcode": "8700172", "prefecture": "大分県", "id": 195 },
        { "address": "末広町", "city": "大分市", "postcode": "8700027", "prefecture": "大分県", "id": 196 },
        { "address": "須賀", "city": "大分市", "postcode": "8700244", "prefecture": "大分県", "id": 197 },
        { "address": "杉原", "city": "大分市", "postcode": "8797882", "prefecture": "大分県", "id": 198 },
        { "address": "住吉町", "city": "大分市", "postcode": "8700032", "prefecture": "大分県", "id": 199 },
        { "address": "勢家町", "city": "大分市", "postcode": "8700031", "prefecture": "大分県", "id": 200 },
        { "address": "星和台", "city": "大分市", "postcode": "8701114", "prefecture": "大分県", "id": 201 },
        { "address": "関園", "city": "大分市", "postcode": "8700115", "prefecture": "大分県", "id": 202 },
        { "address": "碩田町", "city": "大分市", "postcode": "8700048", "prefecture": "大分県", "id": 203 },
        { "address": "千歳", "city": "大分市", "postcode": "8700132", "prefecture": "大分県", "id": 204 },
        { "address": "寒田", "city": "大分市", "postcode": "8701123", "prefecture": "大分県", "id": 205 },
        { "address": "寒田北町", "city": "大分市", "postcode": "8701138", "prefecture": "大分県", "id": 206 },
        { "address": "寒田南町", "city": "大分市", "postcode": "8701139", "prefecture": "大分県", "id": 207 },
        { "address": "寒田わかば台", "city": "大分市", "postcode": "8701127", "prefecture": "大分県", "id": 208 },
        { "address": "太平町", "city": "大分市", "postcode": "8700837", "prefecture": "大分県", "id": 209 },
        { "address": "高江中央", "city": "大分市", "postcode": "8701116", "prefecture": "大分県", "id": 210 },
        { "address": "高江西", "city": "大分市", "postcode": "8701117", "prefecture": "大分県", "id": 211 },
        { "address": "高江南", "city": "大分市", "postcode": "8701118", "prefecture": "大分県", "id": 212 },
        { "address": "高江北", "city": "大分市", "postcode": "8701119", "prefecture": "大分県", "id": 213 },
        { "address": "高尾台", "city": "大分市", "postcode": "8700873", "prefecture": "大分県", "id": 214 },
        { "address": "高崎", "city": "大分市", "postcode": "8700872", "prefecture": "大分県", "id": 215 },
        { "address": "高砂町", "city": "大分市", "postcode": "8700029", "prefecture": "大分県", "id": 216 },
        { "address": "高城新町", "city": "大分市", "postcode": "8700156", "prefecture": "大分県", "id": 217 },
        { "address": "高城台", "city": "大分市", "postcode": "8700148", "prefecture": "大分県", "id": 218 },
        { "address": "高城団地", "city": "大分市", "postcode": "8700149", "prefecture": "大分県", "id": 219 },
        { "address": "高城西町", "city": "大分市", "postcode": "8700923", "prefecture": "大分県", "id": 220 },
        { "address": "高城西町", "city": "大分市", "postcode": "8700154", "prefecture": "大分県", "id": 221 },
        { "address": "高城本町", "city": "大分市", "postcode": "8700157", "prefecture": "大分県", "id": 222 },
        { "address": "高城南町", "city": "大分市", "postcode": "8700155", "prefecture": "大分県", "id": 223 },
        { "address": "高瀬", "city": "大分市", "postcode": "8701142", "prefecture": "大分県", "id": 224 },
        { "address": "高原", "city": "大分市", "postcode": "8701222", "prefecture": "大分県", "id": 225 },
        { "address": "高松", "city": "大分市", "postcode": "8700917", "prefecture": "大分県", "id": 226 },
        { "address": "高松東", "city": "大分市", "postcode": "8700916", "prefecture": "大分県", "id": 227 },
        { "address": "竹下", "city": "大分市", "postcode": "8700265", "prefecture": "大分県", "id": 228 },
        { "address": "竹中", "city": "大分市", "postcode": "8797501", "prefecture": "大分県", "id": 229 },
        { "address": "竹の上", "city": "大分市", "postcode": "8700882", "prefecture": "大分県", "id": 230 },
        { "address": "竹矢", "city": "大分市", "postcode": "8701211", "prefecture": "大分県", "id": 231 },
        { "address": "田尻", "city": "大分市", "postcode": "8701143", "prefecture": "大分県", "id": 232 },
        { "address": "田尻北", "city": "大分市", "postcode": "8701140", "prefecture": "大分県", "id": 233 },
        { "address": "田尻中央", "city": "大分市", "postcode": "8701130", "prefecture": "大分県", "id": 234 },
        { "address": "田尻西", "city": "大分市", "postcode": "8701144", "prefecture": "大分県", "id": 235 },
        { "address": "田尻東", "city": "大分市", "postcode": "8701149", "prefecture": "大分県", "id": 236 },
        { "address": "田尻南", "city": "大分市", "postcode": "8701145", "prefecture": "大分県", "id": 237 },
        { "address": "田中町", "city": "大分市", "postcode": "8700852", "prefecture": "大分県", "id": 238 },
        { "address": "種具", "city": "大分市", "postcode": "8700274", "prefecture": "大分県", "id": 239 },
        { "address": "田ノ浦", "city": "大分市", "postcode": "8700802", "prefecture": "大分県", "id": 240 },
        { "address": "田原", "city": "大分市", "postcode": "8701154", "prefecture": "大分県", "id": 241 },
        { "address": "玉沢", "city": "大分市", "postcode": "8701155", "prefecture": "大分県", "id": 242 },
        { "address": "田室町", "city": "大分市", "postcode": "8700816", "prefecture": "大分県", "id": 243 },
        { "address": "旦野原", "city": "大分市", "postcode": "8701124", "prefecture": "大分県", "id": 244 },
        { "address": "中央町", "city": "大分市", "postcode": "8700035", "prefecture": "大分県", "id": 245 },
        { "address": "千代町", "city": "大分市", "postcode": "8700033", "prefecture": "大分県", "id": 246 },
        { "address": "月形", "city": "大分市", "postcode": "8797872", "prefecture": "大分県", "id": 247 },
        { "address": "辻", "city": "大分市", "postcode": "8797871", "prefecture": "大分県", "id": 248 },
        { "address": "辻原", "city": "大分市", "postcode": "8701204", "prefecture": "大分県", "id": 249 },
        { "address": "常行", "city": "大分市", "postcode": "8700116", "prefecture": "大分県", "id": 250 },
        { "address": "角子原", "city": "大分市", "postcode": "8700271", "prefecture": "大分県", "id": 251 },
        { "address": "角子南", "city": "大分市", "postcode": "8700242", "prefecture": "大分県", "id": 252 },
        { "address": "椿が丘", "city": "大分市", "postcode": "8701166", "prefecture": "大分県", "id": 253 },
        { "address": "津守", "city": "大分市", "postcode": "8700945", "prefecture": "大分県", "id": 254 },
        { "address": "津留", "city": "大分市", "postcode": "8700930", "prefecture": "大分県", "id": 255 },
        { "address": "鶴崎", "city": "大分市", "postcode": "8700106", "prefecture": "大分県", "id": 256 },
        { "address": "鶴崎コスモス団地", "city": "大分市", "postcode": "8700120", "prefecture": "大分県", "id": 257 },
        { "address": "つるさき陽光台", "city": "大分市", "postcode": "8700279", "prefecture": "大分県", "id": 258 },
        { "address": "鶴瀬", "city": "大分市", "postcode": "8700121", "prefecture": "大分県", "id": 259 },
        { "address": "寺崎町", "city": "大分市", "postcode": "8700137", "prefecture": "大分県", "id": 260 },
        { "address": "天領ハイツ", "city": "大分市", "postcode": "8701148", "prefecture": "大分県", "id": 261 },
        { "address": "東院", "city": "大分市", "postcode": "8700861", "prefecture": "大分県", "id": 262 },
        { "address": "東野台", "city": "大分市", "postcode": "8700867", "prefecture": "大分県", "id": 263 },
        { "address": "徳島", "city": "大分市", "postcode": "8700109", "prefecture": "大分県", "id": 264 },
        { "address": "富岡", "city": "大分市", "postcode": "8700947", "prefecture": "大分県", "id": 265 },
        { "address": "豊海", "city": "大分市", "postcode": "8700018", "prefecture": "大分県", "id": 266 },
        { "address": "中尾", "city": "大分市", "postcode": "8700862", "prefecture": "大分県", "id": 267 },
        { "address": "中春日町", "city": "大分市", "postcode": "8700039", "prefecture": "大分県", "id": 268 },
        { "address": "中島中央", "city": "大分市", "postcode": "8700049", "prefecture": "大分県", "id": 269 },
        { "address": "中島東", "city": "大分市", "postcode": "8700043", "prefecture": "大分県", "id": 270 },
        { "address": "中島西", "city": "大分市", "postcode": "8700047", "prefecture": "大分県", "id": 271 },
        { "address": "中鶴崎", "city": "大分市", "postcode": "8700101", "prefecture": "大分県", "id": 272 },
        { "address": "中津留", "city": "大分市", "postcode": "8700939", "prefecture": "大分県", "id": 273 },
        { "address": "仲西町", "city": "大分市", "postcode": "8700135", "prefecture": "大分県", "id": 274 },
        { "address": "中ノ洲", "city": "大分市", "postcode": "8700111", "prefecture": "大分県", "id": 275 },
        { "address": "中の瀬町", "city": "大分市", "postcode": "8700859", "prefecture": "大分県", "id": 276 },
        { "address": "中判田", "city": "大分市", "postcode": "8701113", "prefecture": "大分県", "id": 277 },
        { "address": "中戸次", "city": "大分市", "postcode": "8797761", "prefecture": "大分県", "id": 278 },
        { "address": "長谷町", "city": "大分市", "postcode": "8700929", "prefecture": "大分県", "id": 279 },
        { "address": "長浜町", "city": "大分市", "postcode": "8700023", "prefecture": "大分県", "id": 280 },
        { "address": "鳴川", "city": "大分市", "postcode": "8700801", "prefecture": "大分県", "id": 281 },
        { "address": "荷揚町", "city": "大分市", "postcode": "8700046", "prefecture": "大分県", "id": 282 },
        { "address": "荷尾杵", "city": "大分市", "postcode": "8701221", "prefecture": "大分県", "id": 283 },
        { "address": "西大道", "city": "大分市", "postcode": "8700820", "prefecture": "大分県", "id": 284 },
        { "address": "西春日町", "city": "大分市", "postcode": "8700038", "prefecture": "大分県", "id": 285 },
        { "address": "錦町", "city": "大分市", "postcode": "8700024", "prefecture": "大分県", "id": 286 },
        { "address": "西新地", "city": "大分市", "postcode": "8700901", "prefecture": "大分県", "id": 287 },
        { "address": "西鶴崎", "city": "大分市", "postcode": "8700105", "prefecture": "大分県", "id": 288 },
        { "address": "西ノ洲", "city": "大分市", "postcode": "8700902", "prefecture": "大分県", "id": 289 },
        { "address": "西浜", "city": "大分市", "postcode": "8700931", "prefecture": "大分県", "id": 290 },
        { "address": "にじが丘", "city": "大分市", "postcode": "8700874", "prefecture": "大分県", "id": 291 },
        { "address": "丹生", "city": "大分市", "postcode": "8700318", "prefecture": "大分県", "id": 292 },
        { "address": "望みが丘", "city": "大分市", "postcode": "8700270", "prefecture": "大分県", "id": 293 },
        { "address": "野田", "city": "大分市", "postcode": "8700868", "prefecture": "大分県", "id": 294 },
        { "address": "野津原", "city": "大分市", "postcode": "8701203", "prefecture": "大分県", "id": 295 },
        { "address": "萩尾", "city": "大分市", "postcode": "8797883", "prefecture": "大分県", "id": 296 },
        { "address": "萩原", "city": "大分市", "postcode": "8700921", "prefecture": "大分県", "id": 297 },
        { "address": "畑中", "city": "大分市", "postcode": "8700856", "prefecture": "大分県", "id": 298 },
        { "address": "端登", "city": "大分市", "postcode": "8797502", "prefecture": "大分県", "id": 299 },
        { "address": "羽田", "city": "大分市", "postcode": "8700942", "prefecture": "大分県", "id": 300 },
        { "address": "花江川", "city": "大分市", "postcode": "8700243", "prefecture": "大分県", "id": 301 },
        { "address": "花園", "city": "大分市", "postcode": "8700846", "prefecture": "大分県", "id": 302 },
        { "address": "花高松", "city": "大分市", "postcode": "8700915", "prefecture": "大分県", "id": 303 },
        { "address": "花津留", "city": "大分市", "postcode": "8700933", "prefecture": "大分県", "id": 304 },
        { "address": "花の木坂", "city": "大分市", "postcode": "8701128", "prefecture": "大分県", "id": 305 },
        { "address": "はなの森", "city": "大分市", "postcode": "8700880", "prefecture": "大分県", "id": 306 },
        { "address": "馬場", "city": "大分市", "postcode": "8792112", "prefecture": "大分県", "id": 307 },
        { "address": "浜中", "city": "大分市", "postcode": "8700323", "prefecture": "大分県", "id": 308 },
        { "address": "浜の市", "city": "大分市", "postcode": "8700002", "prefecture": "大分県", "id": 309 },
        { "address": "浜町東", "city": "大分市", "postcode": "8700013", "prefecture": "大分県", "id": 310 },
        { "address": "浜町北", "city": "大分市", "postcode": "8700012", "prefecture": "大分県", "id": 311 },
        { "address": "羽屋", "city": "大分市", "postcode": "8700854", "prefecture": "大分県", "id": 312 },
        { "address": "羽屋新町", "city": "大分市", "postcode": "8700853", "prefecture": "大分県", "id": 313 },
        { "address": "原川", "city": "大分市", "postcode": "8700138", "prefecture": "大分県", "id": 314 },
        { "address": "原新町", "city": "大分市", "postcode": "8700912", "prefecture": "大分県", "id": 315 },
        { "address": "判田台", "city": "大分市", "postcode": "8701110", "prefecture": "大分県", "id": 316 },
        { "address": "判田台北", "city": "大分市", "postcode": "8701126", "prefecture": "大分県", "id": 317 },
        { "address": "判田台東", "city": "大分市", "postcode": "8701108", "prefecture": "大分県", "id": 318 },
        { "address": "判田台南", "city": "大分市", "postcode": "8701109", "prefecture": "大分県", "id": 319 },
        { "address": "日岡", "city": "大分市", "postcode": "8700914", "prefecture": "大分県", "id": 320 },
        { "address": "東明野", "city": "大分市", "postcode": "8700151", "prefecture": "大分県", "id": 321 },
        { "address": "東上野", "city": "大分市", "postcode": "8700306", "prefecture": "大分県", "id": 322 },
        { "address": "東大道", "city": "大分市", "postcode": "8700823", "prefecture": "大分県", "id": 323 },
        { "address": "東春日町", "city": "大分市", "postcode": "8700037", "prefecture": "大分県", "id": 324 },
        { "address": "東鶴崎", "city": "大分市", "postcode": "8700103", "prefecture": "大分県", "id": 325 },
        { "address": "東津留", "city": "大分市", "postcode": "8700934", "prefecture": "大分県", "id": 326 },
        { "address": "東浜", "city": "大分市", "postcode": "8700932", "prefecture": "大分県", "id": 327 },
        { "address": "東原", "city": "大分市", "postcode": "8700150", "prefecture": "大分県", "id": 328 },
        { "address": "東八幡", "city": "大分市", "postcode": "8700871", "prefecture": "大分県", "id": 329 },
        { "address": "ひばりケ丘", "city": "大分市", "postcode": "8701115", "prefecture": "大分県", "id": 330 },
        { "address": "日吉原", "city": "大分市", "postcode": "8700301", "prefecture": "大分県", "id": 331 },
        { "address": "日吉町", "city": "大分市", "postcode": "8700918", "prefecture": "大分県", "id": 332 },
        { "address": "平横瀬", "city": "大分市", "postcode": "8700866", "prefecture": "大分県", "id": 333 },
        { "address": "広内", "city": "大分市", "postcode": "8700277", "prefecture": "大分県", "id": 334 },
        { "address": "広瀬町", "city": "大分市", "postcode": "8700847", "prefecture": "大分県", "id": 335 },
        { "address": "深河内", "city": "大分市", "postcode": "8700881", "prefecture": "大分県", "id": 336 },
        { "address": "福宗", "city": "大分市", "postcode": "8701205", "prefecture": "大分県", "id": 337 },
        { "address": "福良", "city": "大分市", "postcode": "8797874", "prefecture": "大分県", "id": 338 },
        { "address": "ふじが丘", "city": "大分市", "postcode": "8701147", "prefecture": "大分県", "id": 339 },
        { "address": "ふじが丘北", "city": "大分市", "postcode": "8701181", "prefecture": "大分県", "id": 340 },
        { "address": "ふじが丘西", "city": "大分市", "postcode": "8701185", "prefecture": "大分県", "id": 341 },
        { "address": "ふじが丘東", "city": "大分市", "postcode": "8701182", "prefecture": "大分県", "id": 342 },
        { "address": "ふじが丘南", "city": "大分市", "postcode": "8701183", "prefecture": "大分県", "id": 343 },
        { "address": "ふじが丘山手", "city": "大分市", "postcode": "8701184", "prefecture": "大分県", "id": 344 },
        { "address": "藤の台", "city": "大分市", "postcode": "8700957", "prefecture": "大分県", "id": 345 },
        { "address": "富士見が丘東", "city": "大分市", "postcode": "8701176", "prefecture": "大分県", "id": 346 },
        { "address": "富士見が丘西", "city": "大分市", "postcode": "8701177", "prefecture": "大分県", "id": 347 },
        { "address": "二又町", "city": "大分市", "postcode": "8700887", "prefecture": "大分県", "id": 348 },
        { "address": "府内町", "city": "大分市", "postcode": "8700021", "prefecture": "大分県", "id": 349 },
        { "address": "豊饒", "city": "大分市", "postcode": "8700855", "prefecture": "大分県", "id": 350 },
        { "address": "古国府", "city": "大分市", "postcode": "8700844", "prefecture": "大分県", "id": 351 },
        { "address": "弁天", "city": "大分市", "postcode": "8700017", "prefecture": "大分県", "id": 352 },
        { "address": "芳河原台", "city": "大分市", "postcode": "8700948", "prefecture": "大分県", "id": 353 },
        { "address": "法勝台", "city": "大分市", "postcode": "8700171", "prefecture": "大分県", "id": 354 },
        { "address": "細", "city": "大分市", "postcode": "8700305", "prefecture": "大分県", "id": 355 },
        { "address": "本神崎", "city": "大分市", "postcode": "8792111", "prefecture": "大分県", "id": 356 },
        { "address": "舞鶴町", "city": "大分市", "postcode": "8700044", "prefecture": "大分県", "id": 357 },
        { "address": "曲", "city": "大分市", "postcode": "8701146", "prefecture": "大分県", "id": 358 },
        { "address": "曲", "city": "大分市", "postcode": "8700946", "prefecture": "大分県", "id": 359 },
        { "address": "牧", "city": "大分市", "postcode": "8700924", "prefecture": "大分県", "id": 360 },
        { "address": "牧", "city": "大分市", "postcode": "8700152", "prefecture": "大分県", "id": 361 },
        { "address": "牧上町", "city": "大分市", "postcode": "8700925", "prefecture": "大分県", "id": 362 },
        { "address": "松岡", "city": "大分市", "postcode": "8700125", "prefecture": "大分県", "id": 363 },
        { "address": "松が丘", "city": "大分市", "postcode": "8701168", "prefecture": "大分県", "id": 364 },
        { "address": "松原町", "city": "大分市", "postcode": "8700913", "prefecture": "大分県", "id": 365 },
        { "address": "政所", "city": "大分市", "postcode": "8700268", "prefecture": "大分県", "id": 366 },
        { "address": "丸亀", "city": "大分市", "postcode": "8700122", "prefecture": "大分県", "id": 367 },
        { "address": "三ケ田町", "city": "大分市", "postcode": "8700888", "prefecture": "大分県", "id": 368 },
        { "address": "三佐", "city": "大分市", "postcode": "8700108", "prefecture": "大分県", "id": 369 },
        { "address": "三川上", "city": "大分市", "postcode": "8700143", "prefecture": "大分県", "id": 370 },
        { "address": "三川下", "city": "大分市", "postcode": "8700142", "prefecture": "大分県", "id": 371 },
        { "address": "三川新町", "city": "大分市", "postcode": "8700141", "prefecture": "大分県", "id": 372 },
        { "address": "美園団地", "city": "大分市", "postcode": "8797765", "prefecture": "大分県", "id": 373 },
        { "address": "光吉", "city": "大分市", "postcode": "8701132", "prefecture": "大分県", "id": 374 },
        { "address": "光吉新町", "city": "大分市", "postcode": "8701135", "prefecture": "大分県", "id": 375 },
        { "address": "光吉台", "city": "大分市", "postcode": "8701136", "prefecture": "大分県", "id": 376 },
        { "address": "緑が丘", "city": "大分市", "postcode": "8701172", "prefecture": "大分県", "id": 377 },
        { "address": "皆春", "city": "大分市", "postcode": "8700131", "prefecture": "大分県", "id": 378 },
        { "address": "南", "city": "大分市", "postcode": "8700117", "prefecture": "大分県", "id": 379 },
        { "address": "南生石東", "city": "大分市", "postcode": "8700812", "prefecture": "大分県", "id": 380 },
        { "address": "南生石西", "city": "大分市", "postcode": "8700811", "prefecture": "大分県", "id": 381 },
        { "address": "南春日町", "city": "大分市", "postcode": "8700815", "prefecture": "大分県", "id": 382 },
        { "address": "南下郡", "city": "大分市", "postcode": "8700928", "prefecture": "大分県", "id": 383 },
        { "address": "南太平寺", "city": "大分市", "postcode": "8700885", "prefecture": "大分県", "id": 384 },
        { "address": "南鶴崎", "city": "大分市", "postcode": "8700104", "prefecture": "大分県", "id": 385 },
        { "address": "南津留", "city": "大分市", "postcode": "8700937", "prefecture": "大分県", "id": 386 },
        { "address": "宮尾", "city": "大分市", "postcode": "8797873", "prefecture": "大分県", "id": 387 },
        { "address": "宮河内", "city": "大分市", "postcode": "8700276", "prefecture": "大分県", "id": 388 },
        { "address": "宮河内ハイランド", "city": "大分市", "postcode": "8700275", "prefecture": "大分県", "id": 389 },
        { "address": "都町", "city": "大分市", "postcode": "8700034", "prefecture": "大分県", "id": 390 },
        { "address": "宮崎", "city": "大分市", "postcode": "8701133", "prefecture": "大分県", "id": 391 },
        { "address": "宮崎台", "city": "大分市", "postcode": "8701137", "prefecture": "大分県", "id": 392 },
        { "address": "宮苑", "city": "大分市", "postcode": "8700878", "prefecture": "大分県", "id": 393 },
        { "address": "御幸町", "city": "大分市", "postcode": "8700804", "prefecture": "大分県", "id": 394 },
        { "address": "三芳", "city": "大分市", "postcode": "8700030", "prefecture": "大分県", "id": 395 },
        { "address": "向原沖", "city": "大分市", "postcode": "8700903", "prefecture": "大分県", "id": 396 },
        { "address": "向原東", "city": "大分市", "postcode": "8700904", "prefecture": "大分県", "id": 397 },
        { "address": "向原西", "city": "大分市", "postcode": "8700905", "prefecture": "大分県", "id": 398 },
        { "address": "宗方台北", "city": "大分市", "postcode": "8701159", "prefecture": "大分県", "id": 399 },
        { "address": "宗方台西", "city": "大分市", "postcode": "8701158", "prefecture": "大分県", "id": 400 },
        { "address": "宗方台東", "city": "大分市", "postcode": "8701157", "prefecture": "大分県", "id": 401 },
        { "address": "廻栖野", "city": "大分市", "postcode": "8701163", "prefecture": "大分県", "id": 402 },
        { "address": "廻栖野", "city": "大分市", "postcode": "8701201", "prefecture": "大分県", "id": 403 },
        { "address": "米良", "city": "大分市", "postcode": "8700944", "prefecture": "大分県", "id": 404 },
        { "address": "萌葱台", "city": "大分市", "postcode": "8701174", "prefecture": "大分県", "id": 405 },
        { "address": "元町", "city": "大分市", "postcode": "8700843", "prefecture": "大分県", "id": 406 },
        { "address": "桃園団地", "city": "大分市", "postcode": "8700139", "prefecture": "大分県", "id": 407 },
        { "address": "森", "city": "大分市", "postcode": "8700128", "prefecture": "大分県", "id": 408 },
        { "address": "森町", "city": "大分市", "postcode": "8700127", "prefecture": "大分県", "id": 409 },
        { "address": "森町西", "city": "大分市", "postcode": "8700140", "prefecture": "大分県", "id": 410 },
        { "address": "山津町", "city": "大分市", "postcode": "8700136", "prefecture": "大分県", "id": 411 },
        { "address": "屋山", "city": "大分市", "postcode": "8700313", "prefecture": "大分県", "id": 412 },
        { "address": "豊町", "city": "大分市", "postcode": "8700042", "prefecture": "大分県", "id": 413 },
        { "address": "ゆめが丘", "city": "大分市", "postcode": "8700958", "prefecture": "大分県", "id": 414 },
        { "address": "横尾", "city": "大分市", "postcode": "8700126", "prefecture": "大分県", "id": 415 },
        { "address": "横尾東町", "city": "大分市", "postcode": "8700130", "prefecture": "大分県", "id": 416 },
        { "address": "横瀬", "city": "大分市", "postcode": "8701173", "prefecture": "大分県", "id": 417 },
        { "address": "横田", "city": "大分市", "postcode": "8700263", "prefecture": "大分県", "id": 418 },
        { "address": "横塚", "city": "大分市", "postcode": "8700254", "prefecture": "大分県", "id": 419 },
        { "address": "吉野原", "city": "大分市", "postcode": "8797875", "prefecture": "大分県", "id": 420 },
        { "address": "永興", "city": "大分市", "postcode": "8700883", "prefecture": "大分県", "id": 421 },
        { "address": "六坊南町", "city": "大分市", "postcode": "8700842", "prefecture": "大分県", "id": 422 },
        { "address": "六坊北町", "city": "大分市", "postcode": "8700841", "prefecture": "大分県", "id": 423 },
        { "city": "別府市", "postcode": "8740000", "prefecture": "大分県", "id": 424 },
        { "address": "青山町", "city": "別府市", "postcode": "8740902", "prefecture": "大分県", "id": 425 },
        { "address": "赤松", "city": "別府市", "postcode": "8740819", "prefecture": "大分県", "id": 426 },
        { "address": "秋葉町", "city": "別府市", "postcode": "8740937", "prefecture": "大分県", "id": 427 },
        { "address": "朝日ケ丘町", "city": "別府市", "postcode": "8740846", "prefecture": "大分県", "id": 428 },
        { "address": "朝見", "city": "別府市", "postcode": "8740812", "prefecture": "大分県", "id": 429 },
        { "address": "天間", "city": "別府市", "postcode": "8740005", "prefecture": "大分県", "id": 430 },
        { "address": "石垣東", "city": "別府市", "postcode": "8740919", "prefecture": "大分県", "id": 431 },
        { "address": "石垣西", "city": "別府市", "postcode": "8740910", "prefecture": "大分県", "id": 432 },
        { "address": "井田", "city": "別府市", "postcode": "8740043", "prefecture": "大分県", "id": 433 },
        { "address": "内竈", "city": "別府市", "postcode": "8740011", "prefecture": "大分県", "id": 434 },
        { "address": "内成", "city": "別府市", "postcode": "8795551", "prefecture": "大分県", "id": 435 },
        { "address": "浦田", "city": "別府市", "postcode": "8740814", "prefecture": "大分県", "id": 436 },
        { "address": "駅前町", "city": "別府市", "postcode": "8740935", "prefecture": "大分県", "id": 437 },
        { "address": "駅前本町", "city": "別府市", "postcode": "8740934", "prefecture": "大分県", "id": 438 },
        { "address": "枝郷", "city": "別府市", "postcode": "8740805", "prefecture": "大分県", "id": 439 },
        { "address": "扇山", "city": "別府市", "postcode": "8740849", "prefecture": "大分県", "id": 440 },
        { "address": "小倉", "city": "別府市", "postcode": "8740842", "prefecture": "大分県", "id": 441 },
        { "address": "小坂", "city": "別府市", "postcode": "8740001", "prefecture": "大分県", "id": 442 },
        { "address": "大所", "city": "別府市", "postcode": "8740003", "prefecture": "大分県", "id": 443 },
        { "address": "乙原", "city": "別府市", "postcode": "8740821", "prefecture": "大分県", "id": 444 },
        { "address": "大畑", "city": "別府市", "postcode": "8740848", "prefecture": "大分県", "id": 445 },
        { "address": "上田の湯町", "city": "別府市", "postcode": "8740908", "prefecture": "大分県", "id": 446 },
        { "address": "上野口町", "city": "別府市", "postcode": "8740905", "prefecture": "大分県", "id": 447 },
        { "address": "上原町", "city": "別府市", "postcode": "8740829", "prefecture": "大分県", "id": 448 },
        { "address": "上平田町", "city": "別府市", "postcode": "8740036", "prefecture": "大分県", "id": 449 },
        { "address": "亀川四の湯町", "city": "別府市", "postcode": "8740025", "prefecture": "大分県", "id": 450 },
        { "address": "亀川中央町", "city": "別府市", "postcode": "8740021", "prefecture": "大分県", "id": 451 },
        { "address": "亀川浜田町", "city": "別府市", "postcode": "8740014", "prefecture": "大分県", "id": 452 },
        { "address": "亀川東町", "city": "別府市", "postcode": "8740022", "prefecture": "大分県", "id": 453 },
        { "address": "観海寺", "city": "別府市", "postcode": "8740822", "prefecture": "大分県", "id": 454 },
        { "address": "鉄輪上", "city": "別府市", "postcode": "8740046", "prefecture": "大分県", "id": 455 },
        { "address": "鉄輪東", "city": "別府市", "postcode": "8740042", "prefecture": "大分県", "id": 456 },
        { "address": "城島", "city": "別府市", "postcode": "8740802", "prefecture": "大分県", "id": 457 },
        { "address": "北鉄輪", "city": "別府市", "postcode": "8740041", "prefecture": "大分県", "id": 458 },
        { "address": "北中", "city": "別府市", "postcode": "8740845", "prefecture": "大分県", "id": 459 },
        { "address": "北浜", "city": "別府市", "postcode": "8740920", "prefecture": "大分県", "id": 460 },
        { "address": "北的ケ浜町", "city": "別府市", "postcode": "8740928", "prefecture": "大分県", "id": 461 },
        { "address": "京町", "city": "別府市", "postcode": "8740926", "prefecture": "大分県", "id": 462 },
        { "address": "楠町", "city": "別府市", "postcode": "8740943", "prefecture": "大分県", "id": 463 },
        { "address": "国立", "city": "別府市", "postcode": "8740015", "prefecture": "大分県", "id": 464 },
        { "address": "河内", "city": "別府市", "postcode": "8740816", "prefecture": "大分県", "id": 465 },
        { "address": "古賀原", "city": "別府市", "postcode": "8795552", "prefecture": "大分県", "id": 466 },
        { "address": "幸町", "city": "別府市", "postcode": "8740907", "prefecture": "大分県", "id": 467 },
        { "address": "桜ケ丘", "city": "別府市", "postcode": "8740915", "prefecture": "大分県", "id": 468 },
        { "address": "汐見町", "city": "別府市", "postcode": "8740918", "prefecture": "大分県", "id": 469 },
        { "address": "実相寺", "city": "別府市", "postcode": "8740835", "prefecture": "大分県", "id": 470 },
        { "address": "上人仲町", "city": "別府市", "postcode": "8740034", "prefecture": "大分県", "id": 471 },
        { "address": "上人本町", "city": "別府市", "postcode": "8740032", "prefecture": "大分県", "id": 472 },
        { "address": "上人西", "city": "別府市", "postcode": "8740035", "prefecture": "大分県", "id": 473 },
        { "address": "上人南", "city": "別府市", "postcode": "8740033", "prefecture": "大分県", "id": 474 },
        { "address": "上人ケ浜町", "city": "別府市", "postcode": "8740023", "prefecture": "大分県", "id": 475 },
        { "address": "照波園町", "city": "別府市", "postcode": "8740031", "prefecture": "大分県", "id": 476 },
        { "address": "新別府", "city": "別府市", "postcode": "8740834", "prefecture": "大分県", "id": 477 },
        { "address": "新港町", "city": "別府市", "postcode": "8740923", "prefecture": "大分県", "id": 478 },
        { "address": "末広町", "city": "別府市", "postcode": "8740938", "prefecture": "大分県", "id": 479 },
        { "address": "スパランド豊海", "city": "別府市", "postcode": "8740012", "prefecture": "大分県", "id": 480 },
        { "address": "関の江新町", "city": "別府市", "postcode": "8740002", "prefecture": "大分県", "id": 481 },
        { "address": "荘園", "city": "別府市", "postcode": "8740838", "prefecture": "大分県", "id": 482 },
        { "address": "荘園北町", "city": "別府市", "postcode": "8740837", "prefecture": "大分県", "id": 483 },
        { "address": "大観山町", "city": "別府市", "postcode": "8740037", "prefecture": "大分県", "id": 484 },
        { "address": "竹の内", "city": "別府市", "postcode": "8740841", "prefecture": "大分県", "id": 485 },
        { "address": "立田町", "city": "別府市", "postcode": "8740939", "prefecture": "大分県", "id": 486 },
        { "address": "田の口", "city": "別府市", "postcode": "8740815", "prefecture": "大分県", "id": 487 },
        { "address": "田の湯町", "city": "別府市", "postcode": "8740909", "prefecture": "大分県", "id": 488 },
        { "address": "中央町", "city": "別府市", "postcode": "8740936", "prefecture": "大分県", "id": 489 },
        { "address": "千代町", "city": "別府市", "postcode": "8740942", "prefecture": "大分県", "id": 490 },
        { "address": "鶴見", "city": "別府市", "postcode": "8740840", "prefecture": "大分県", "id": 491 },
        { "address": "鶴見", "city": "別府市", "postcode": "8740833", "prefecture": "大分県", "id": 492 },
        { "address": "鶴見園町", "city": "別府市", "postcode": "8740826", "prefecture": "大分県", "id": 493 },
        { "address": "天満町", "city": "別府市", "postcode": "8740906", "prefecture": "大分県", "id": 494 },
        { "address": "鳥越", "city": "別府市", "postcode": "8740817", "prefecture": "大分県", "id": 495 },
        { "address": "中島町", "city": "別府市", "postcode": "8740901", "prefecture": "大分県", "id": 496 },
        { "address": "中須賀東町", "city": "別府市", "postcode": "8740917", "prefecture": "大分県", "id": 497 },
        { "address": "中須賀本町", "city": "別府市", "postcode": "8740916", "prefecture": "大分県", "id": 498 },
        { "address": "中須賀元町", "city": "別府市", "postcode": "8740914", "prefecture": "大分県", "id": 499 },
        { "address": "西野口町", "city": "別府市", "postcode": "8740931", "prefecture": "大分県", "id": 500 },
        { "address": "野口中町", "city": "別府市", "postcode": "8740932", "prefecture": "大分県", "id": 501 },
        { "address": "野口元町", "city": "別府市", "postcode": "8740933", "prefecture": "大分県", "id": 502 },
        { "address": "野口原", "city": "別府市", "postcode": "8740903", "prefecture": "大分県", "id": 503 },
        { "address": "野田", "city": "別府市", "postcode": "8740016", "prefecture": "大分県", "id": 504 },
        { "address": "馬場", "city": "別府市", "postcode": "8740847", "prefecture": "大分県", "id": 505 },
        { "address": "浜町", "city": "別府市", "postcode": "8740945", "prefecture": "大分県", "id": 506 },
        { "address": "浜脇", "city": "別府市", "postcode": "8740947", "prefecture": "大分県", "id": 507 },
        { "address": "原町", "city": "別府市", "postcode": "8740820", "prefecture": "大分県", "id": 508 },
        { "address": "春木", "city": "別府市", "postcode": "8740913", "prefecture": "大分県", "id": 509 },
        { "address": "光町", "city": "別府市", "postcode": "8740930", "prefecture": "大分県", "id": 510 },
        { "address": "東荘園", "city": "別府市", "postcode": "8740836", "prefecture": "大分県", "id": 511 },
        { "address": "東山一区", "city": "別府市", "postcode": "8740803", "prefecture": "大分県", "id": 512 },
        { "address": "東山二区", "city": "別府市", "postcode": "8740804", "prefecture": "大分県", "id": 513 },
        { "address": "平田町", "city": "別府市", "postcode": "8740024", "prefecture": "大分県", "id": 514 },
        { "address": "富士見町", "city": "別府市", "postcode": "8740921", "prefecture": "大分県", "id": 515 },
        { "address": "船小路町", "city": "別府市", "postcode": "8740922", "prefecture": "大分県", "id": 516 },
        { "address": "古市町", "city": "別府市", "postcode": "8740013", "prefecture": "大分県", "id": 517 },
        { "address": "風呂本", "city": "別府市", "postcode": "8740044", "prefecture": "大分県", "id": 518 },
        { "address": "火売", "city": "別府市", "postcode": "8740844", "prefecture": "大分県", "id": 519 },
        { "address": "堀田", "city": "別府市", "postcode": "8740831", "prefecture": "大分県", "id": 520 },
        { "address": "松原町", "city": "別府市", "postcode": "8740946", "prefecture": "大分県", "id": 521 },
        { "address": "緑丘町", "city": "別府市", "postcode": "8740911", "prefecture": "大分県", "id": 522 },
        { "address": "南須賀", "city": "別府市", "postcode": "8740912", "prefecture": "大分県", "id": 523 },
        { "address": "南荘園町", "city": "別府市", "postcode": "8740904", "prefecture": "大分県", "id": 524 },
        { "address": "南立石生目町", "city": "別府市", "postcode": "8740832", "prefecture": "大分県", "id": 525 },
        { "address": "南立石板地町", "city": "別府市", "postcode": "8740824", "prefecture": "大分県", "id": 526 },
        { "address": "南立石一区", "city": "別府市", "postcode": "8740839", "prefecture": "大分県", "id": 527 },
        { "address": "南立石二区", "city": "別府市", "postcode": "8740827", "prefecture": "大分県", "id": 528 },
        { "address": "南立石八幡町", "city": "別府市", "postcode": "8740825", "prefecture": "大分県", "id": 529 },
        { "address": "南立石本町", "city": "別府市", "postcode": "8740823", "prefecture": "大分県", "id": 530 },
        { "address": "南町", "city": "別府市", "postcode": "8740941", "prefecture": "大分県", "id": 531 },
        { "address": "南的ケ浜町", "city": "別府市", "postcode": "8740929", "prefecture": "大分県", "id": 532 },
        { "address": "御幸", "city": "別府市", "postcode": "8740045", "prefecture": "大分県", "id": 533 },
        { "address": "明礬", "city": "別府市", "postcode": "8740843", "prefecture": "大分県", "id": 534 },
        { "address": "餅ケ浜町", "city": "別府市", "postcode": "8740924", "prefecture": "大分県", "id": 535 },
        { "address": "元町", "city": "別府市", "postcode": "8740944", "prefecture": "大分県", "id": 536 },
        { "address": "柳", "city": "別府市", "postcode": "8740811", "prefecture": "大分県", "id": 537 },
        { "address": "山家", "city": "別府市", "postcode": "8740818", "prefecture": "大分県", "id": 538 },
        { "address": "山の口", "city": "別府市", "postcode": "8740801", "prefecture": "大分県", "id": 539 },
        { "address": "山の手町", "city": "別府市", "postcode": "8740828", "prefecture": "大分県", "id": 540 },
        { "address": "弓ケ浜町", "city": "別府市", "postcode": "8740927", "prefecture": "大分県", "id": 541 },
        { "address": "湯山", "city": "別府市", "postcode": "8740004", "prefecture": "大分県", "id": 542 },
        { "address": "両郡橋", "city": "別府市", "postcode": "8740813", "prefecture": "大分県", "id": 543 },
        { "address": "若草町", "city": "別府市", "postcode": "8740925", "prefecture": "大分県", "id": 544 },
        { "city": "中津市", "postcode": "8710000", "prefecture": "大分県", "id": 545 },
        { "city": "中津市", "postcode": "8710099", "prefecture": "大分県", "id": 546 },
        { "address": "相原", "city": "中津市", "postcode": "8710122", "prefecture": "大分県", "id": 547 },
        { "address": "相原", "city": "中津市", "postcode": "8710022", "prefecture": "大分県", "id": 548 },
        { "address": "赤迫", "city": "中津市", "postcode": "8790106", "prefecture": "大分県", "id": 549 },
        { "address": "市場", "city": "中津市", "postcode": "8710098", "prefecture": "大分県", "id": 550 },
        { "address": "伊藤田", "city": "中津市", "postcode": "8790111", "prefecture": "大分県", "id": 551 },
        { "address": "犬丸", "city": "中津市", "postcode": "8790105", "prefecture": "大分県", "id": 552 },
        { "address": "今津", "city": "中津市", "postcode": "8790101", "prefecture": "大分県", "id": 553 },
        { "address": "植野", "city": "中津市", "postcode": "8790103", "prefecture": "大分県", "id": 554 },
        { "address": "牛神", "city": "中津市", "postcode": "8710015", "prefecture": "大分県", "id": 555 },
        { "address": "牛神町", "city": "中津市", "postcode": "8710016", "prefecture": "大分県", "id": 556 },
        { "address": "浦町", "city": "中津市", "postcode": "8710093", "prefecture": "大分県", "id": 557 },
        { "address": "餌指町", "city": "中津市", "postcode": "8710064", "prefecture": "大分県", "id": 558 },
        { "address": "枝町", "city": "中津市", "postcode": "8710038", "prefecture": "大分県", "id": 559 },
        { "address": "蛭子町", "city": "中津市", "postcode": "8710065", "prefecture": "大分県", "id": 560 },
        { "address": "江三竹町", "city": "中津市", "postcode": "8710044", "prefecture": "大分県", "id": 561 },
        { "address": "合馬", "city": "中津市", "postcode": "8710005", "prefecture": "大分県", "id": 562 },
        { "address": "大貞", "city": "中津市", "postcode": "8710153", "prefecture": "大分県", "id": 563 },
        { "address": "大新田", "city": "中津市", "postcode": "8710001", "prefecture": "大分県", "id": 564 },
        { "address": "大塚", "city": "中津市", "postcode": "8710008", "prefecture": "大分県", "id": 565 },
        { "address": "沖代町", "city": "中津市", "postcode": "8710021", "prefecture": "大分県", "id": 566 },
        { "address": "萱津町", "city": "中津市", "postcode": "8710045", "prefecture": "大分県", "id": 567 },
        { "address": "蛎瀬", "city": "中津市", "postcode": "8710007", "prefecture": "大分県", "id": 568 },
        { "address": "加来", "city": "中津市", "postcode": "8710152", "prefecture": "大分県", "id": 569 },
        { "address": "水主町", "city": "中津市", "postcode": "8710082", "prefecture": "大分県", "id": 570 },
        { "address": "片端町", "city": "中津市", "postcode": "8710056", "prefecture": "大分県", "id": 571 },
        { "address": "金手", "city": "中津市", "postcode": "8710013", "prefecture": "大分県", "id": 572 },
        { "address": "金谷", "city": "中津市", "postcode": "8710046", "prefecture": "大分県", "id": 573 },
        { "address": "上池永", "city": "中津市", "postcode": "8710161", "prefecture": "大分県", "id": 574 },
        { "address": "上如水", "city": "中津市", "postcode": "8710004", "prefecture": "大分県", "id": 575 },
        { "address": "上博多町", "city": "中津市", "postcode": "8710042", "prefecture": "大分県", "id": 576 },
        { "address": "上宮永", "city": "中津市", "postcode": "8710027", "prefecture": "大分県", "id": 577 },
        { "address": "北稲堀", "city": "中津市", "postcode": "8710060", "prefecture": "大分県", "id": 578 },
        { "address": "北浦町", "city": "中津市", "postcode": "8710094", "prefecture": "大分県", "id": 579 },
        { "address": "北新地", "city": "中津市", "postcode": "8710090", "prefecture": "大分県", "id": 580 },
        { "address": "北原", "city": "中津市", "postcode": "8790113", "prefecture": "大分県", "id": 581 },
        { "address": "北堀川町", "city": "中津市", "postcode": "8710081", "prefecture": "大分県", "id": 582 },
        { "address": "北門通", "city": "中津市", "postcode": "8710079", "prefecture": "大分県", "id": 583 },
        { "address": "京町", "city": "中津市", "postcode": "8710054", "prefecture": "大分県", "id": 584 },
        { "address": "闇無町", "city": "中津市", "postcode": "8710091", "prefecture": "大分県", "id": 585 },
        { "address": "小祝", "city": "中津市", "postcode": "8710078", "prefecture": "大分県", "id": 586 },
        { "address": "小祝新町", "city": "中津市", "postcode": "8710080", "prefecture": "大分県", "id": 587 },
        { "address": "古城", "city": "中津市", "postcode": "8710154", "prefecture": "大分県", "id": 588 },
        { "address": "小堀", "city": "中津市", "postcode": "8710084", "prefecture": "大分県", "id": 589 },
        { "address": "米町", "city": "中津市", "postcode": "8710076", "prefecture": "大分県", "id": 590 },
        { "address": "是則", "city": "中津市", "postcode": "8710003", "prefecture": "大分県", "id": 591 },
        { "address": "栄町", "city": "中津市", "postcode": "8710043", "prefecture": "大分県", "id": 592 },
        { "address": "榊原町", "city": "中津市", "postcode": "8710156", "prefecture": "大分県", "id": 593 },
        { "address": "桜町", "city": "中津市", "postcode": "8710074", "prefecture": "大分県", "id": 594 },
        { "address": "定留", "city": "中津市", "postcode": "8790122", "prefecture": "大分県", "id": 595 },
        { "address": "三光諫山", "city": "中津市", "postcode": "8710104", "prefecture": "大分県", "id": 596 },
        { "address": "三光臼木", "city": "中津市", "postcode": "8710112", "prefecture": "大分県", "id": 597 },
        { "address": "三光小袋", "city": "中津市", "postcode": "8710114", "prefecture": "大分県", "id": 598 },
        { "address": "三光上深水", "city": "中津市", "postcode": "8790225", "prefecture": "大分県", "id": 599 },
        { "address": "三光上秣", "city": "中津市", "postcode": "8790221", "prefecture": "大分県", "id": 600 },
        { "address": "三光佐知", "city": "中津市", "postcode": "8710111", "prefecture": "大分県", "id": 601 },
        { "address": "三光下深水", "city": "中津市", "postcode": "8790224", "prefecture": "大分県", "id": 602 },
        { "address": "三光下秣", "city": "中津市", "postcode": "8790223", "prefecture": "大分県", "id": 603 },
        { "address": "三光田口", "city": "中津市", "postcode": "8710103", "prefecture": "大分県", "id": 604 },
        { "address": "三光土田", "city": "中津市", "postcode": "8710113", "prefecture": "大分県", "id": 605 },
        { "address": "三光成恒", "city": "中津市", "postcode": "8710102", "prefecture": "大分県", "id": 606 },
        { "address": "三光西秣", "city": "中津市", "postcode": "8790222", "prefecture": "大分県", "id": 607 },
        { "address": "三光原口", "city": "中津市", "postcode": "8710105", "prefecture": "大分県", "id": 608 },
        { "address": "三光森山", "city": "中津市", "postcode": "8710101", "prefecture": "大分県", "id": 609 },
        { "address": "三ノ丁", "city": "中津市", "postcode": "8710057", "prefecture": "大分県", "id": 610 },
        { "address": "塩町", "city": "中津市", "postcode": "8710073", "prefecture": "大分県", "id": 611 },
        { "address": "島田", "city": "中津市", "postcode": "8710033", "prefecture": "大分県", "id": 612 },
        { "address": "島田仲町", "city": "中津市", "postcode": "8710035", "prefecture": "大分県", "id": 613 },
        { "address": "島田本町", "city": "中津市", "postcode": "8710036", "prefecture": "大分県", "id": 614 },
        { "address": "下池永", "city": "中津市", "postcode": "8710011", "prefecture": "大分県", "id": 615 },
        { "address": "下正路", "city": "中津市", "postcode": "8710097", "prefecture": "大分県", "id": 616 },
        { "address": "下永添", "city": "中津市", "postcode": "8710164", "prefecture": "大分県", "id": 617 },
        { "address": "下宮永", "city": "中津市", "postcode": "8710029", "prefecture": "大分県", "id": 618 },
        { "address": "昭和新田", "city": "中津市", "postcode": "8790107", "prefecture": "大分県", "id": 619 },
        { "address": "新魚町", "city": "中津市", "postcode": "8710048", "prefecture": "大分県", "id": 620 },
        { "address": "新大塚町", "city": "中津市", "postcode": "8710009", "prefecture": "大分県", "id": 621 },
        { "address": "新天神町", "city": "中津市", "postcode": "8710039", "prefecture": "大分県", "id": 622 },
        { "address": "新博多町", "city": "中津市", "postcode": "8710041", "prefecture": "大分県", "id": 623 },
        { "address": "新堀", "city": "中津市", "postcode": "8710069", "prefecture": "大分県", "id": 624 },
        { "address": "船頭町", "city": "中津市", "postcode": "8710086", "prefecture": "大分県", "id": 625 },
        { "address": "全徳", "city": "中津市", "postcode": "8710002", "prefecture": "大分県", "id": 626 },
        { "address": "船場町", "city": "中津市", "postcode": "8710089", "prefecture": "大分県", "id": 627 },
        { "address": "外馬場", "city": "中津市", "postcode": "8710059", "prefecture": "大分県", "id": 628 },
        { "address": "大悟法", "city": "中津市", "postcode": "8710151", "prefecture": "大分県", "id": 629 },
        { "address": "鷹匠町", "city": "中津市", "postcode": "8710066", "prefecture": "大分県", "id": 630 },
        { "address": "高瀬", "city": "中津市", "postcode": "8710026", "prefecture": "大分県", "id": 631 },
        { "address": "鷹部屋", "city": "中津市", "postcode": "8710071", "prefecture": "大分県", "id": 632 },
        { "address": "田尻", "city": "中津市", "postcode": "8790123", "prefecture": "大分県", "id": 633 },
        { "address": "田尻崎", "city": "中津市", "postcode": "8790124", "prefecture": "大分県", "id": 634 },
        { "address": "中央町", "city": "中津市", "postcode": "8710024", "prefecture": "大分県", "id": 635 },
        { "address": "仲間町", "city": "中津市", "postcode": "8710067", "prefecture": "大分県", "id": 636 },
        { "address": "角木新町", "city": "中津市", "postcode": "8710095", "prefecture": "大分県", "id": 637 },
        { "address": "角木町", "city": "中津市", "postcode": "8710028", "prefecture": "大分県", "id": 638 },
        { "address": "寺町", "city": "中津市", "postcode": "8710075", "prefecture": "大分県", "id": 639 },
        { "address": "殿町", "city": "中津市", "postcode": "8710055", "prefecture": "大分県", "id": 640 },
        { "address": "豊田町", "city": "中津市", "postcode": "8710058", "prefecture": "大分県", "id": 641 },
        { "address": "中殿", "city": "中津市", "postcode": "8710031", "prefecture": "大分県", "id": 642 },
        { "address": "中殿町", "city": "中津市", "postcode": "8710030", "prefecture": "大分県", "id": 643 },
        { "address": "中原", "city": "中津市", "postcode": "8710157", "prefecture": "大分県", "id": 644 },
        { "address": "永添", "city": "中津市", "postcode": "8710162", "prefecture": "大分県", "id": 645 },
        { "address": "鍋島", "city": "中津市", "postcode": "8790102", "prefecture": "大分県", "id": 646 },
        { "address": "西永添", "city": "中津市", "postcode": "8710163", "prefecture": "大分県", "id": 647 },
        { "address": "二ノ丁", "city": "中津市", "postcode": "8710050", "prefecture": "大分県", "id": 648 },
        { "address": "野依", "city": "中津市", "postcode": "8790104", "prefecture": "大分県", "id": 649 },
        { "address": "八幡町", "city": "中津市", "postcode": "8710155", "prefecture": "大分県", "id": 650 },
        { "address": "東浜", "city": "中津市", "postcode": "8710006", "prefecture": "大分県", "id": 651 },
        { "address": "東本町", "city": "中津市", "postcode": "8710032", "prefecture": "大分県", "id": 652 },
        { "address": "一ツ松", "city": "中津市", "postcode": "8710014", "prefecture": "大分県", "id": 653 },
        { "address": "日ノ出町", "city": "中津市", "postcode": "8710034", "prefecture": "大分県", "id": 654 },
        { "address": "姫路町", "city": "中津市", "postcode": "8710077", "prefecture": "大分県", "id": 655 },
        { "address": "福島", "city": "中津市", "postcode": "8790112", "prefecture": "大分県", "id": 656 },
        { "address": "袋町", "city": "中津市", "postcode": "8710063", "prefecture": "大分県", "id": 657 },
        { "address": "船町", "city": "中津市", "postcode": "8710072", "prefecture": "大分県", "id": 658 },
        { "address": "古魚町", "city": "中津市", "postcode": "8710053", "prefecture": "大分県", "id": 659 },
        { "address": "古博多町", "city": "中津市", "postcode": "8710051", "prefecture": "大分県", "id": 660 },
        { "address": "豊後町", "city": "中津市", "postcode": "8710068", "prefecture": "大分県", "id": 661 },
        { "address": "本耶馬渓町跡田", "city": "中津市", "postcode": "8710311", "prefecture": "大分県", "id": 662 },
        { "address": "本耶馬渓町今行", "city": "中津市", "postcode": "8710206", "prefecture": "大分県", "id": 663 },
        { "address": "本耶馬渓町落合", "city": "中津市", "postcode": "8710313", "prefecture": "大分県", "id": 664 },
        { "address": "本耶馬渓町折元", "city": "中津市", "postcode": "8710312", "prefecture": "大分県", "id": 665 },
        { "address": "本耶馬渓町冠石野", "city": "中津市", "postcode": "8710204", "prefecture": "大分県", "id": 666 },
        { "address": "本耶馬渓町下屋形", "city": "中津市", "postcode": "8710205", "prefecture": "大分県", "id": 667 },
        { "address": "本耶馬渓町曽木", "city": "中津市", "postcode": "8710202", "prefecture": "大分県", "id": 668 },
        { "address": "本耶馬渓町多志田", "city": "中津市", "postcode": "8710203", "prefecture": "大分県", "id": 669 },
        { "address": "本耶馬渓町西谷", "city": "中津市", "postcode": "8710314", "prefecture": "大分県", "id": 670 },
        { "address": "本耶馬渓町西屋形", "city": "中津市", "postcode": "8710208", "prefecture": "大分県", "id": 671 },
        { "address": "本耶馬渓町東谷", "city": "中津市", "postcode": "8710315", "prefecture": "大分県", "id": 672 },
        { "address": "本耶馬渓町東屋形", "city": "中津市", "postcode": "8710207", "prefecture": "大分県", "id": 673 },
        { "address": "本耶馬渓町樋田", "city": "中津市", "postcode": "8710201", "prefecture": "大分県", "id": 674 },
        { "address": "丸山町", "city": "中津市", "postcode": "8710047", "prefecture": "大分県", "id": 675 },
        { "address": "万田", "city": "中津市", "postcode": "8710025", "prefecture": "大分県", "id": 676 },
        { "address": "南稲堀", "city": "中津市", "postcode": "8710061", "prefecture": "大分県", "id": 677 },
        { "address": "南新地", "city": "中津市", "postcode": "8710092", "prefecture": "大分県", "id": 678 },
        { "address": "南堀川町", "city": "中津市", "postcode": "8710087", "prefecture": "大分県", "id": 679 },
        { "address": "宮島町", "city": "中津市", "postcode": "8710037", "prefecture": "大分県", "id": 680 },
        { "address": "宮夫", "city": "中津市", "postcode": "8710012", "prefecture": "大分県", "id": 681 },
        { "address": "諸田", "city": "中津市", "postcode": "8790121", "prefecture": "大分県", "id": 682 },
        { "address": "諸町", "city": "中津市", "postcode": "8710049", "prefecture": "大分県", "id": 683 },
        { "address": "矢場", "city": "中津市", "postcode": "8710083", "prefecture": "大分県", "id": 684 },
        { "address": "耶馬溪町大島", "city": "中津市", "postcode": "8710431", "prefecture": "大分県", "id": 685 },
        { "address": "耶馬溪町大野", "city": "中津市", "postcode": "8710413", "prefecture": "大分県", "id": 686 },
        { "address": "耶馬溪町小友田", "city": "中津市", "postcode": "8710406", "prefecture": "大分県", "id": 687 },
        { "address": "耶馬溪町柿坂", "city": "中津市", "postcode": "8710405", "prefecture": "大分県", "id": 688 },
        { "address": "耶馬溪町金吉", "city": "中津市", "postcode": "8710432", "prefecture": "大分県", "id": 689 },
        { "address": "耶馬溪町冠石野", "city": "中津市", "postcode": "8710402", "prefecture": "大分県", "id": 690 },
        { "address": "耶馬溪町川原口", "city": "中津市", "postcode": "8710414", "prefecture": "大分県", "id": 691 },
        { "address": "耶馬溪町深耶馬", "city": "中津市", "postcode": "8710422", "prefecture": "大分県", "id": 692 },
        { "address": "耶馬溪町多志田", "city": "中津市", "postcode": "8710403", "prefecture": "大分県", "id": 693 },
        { "address": "耶馬溪町栃木", "city": "中津市", "postcode": "8710412", "prefecture": "大分県", "id": 694 },
        { "address": "耶馬溪町戸原", "city": "中津市", "postcode": "8710404", "prefecture": "大分県", "id": 695 },
        { "address": "耶馬溪町中畑", "city": "中津市", "postcode": "8710411", "prefecture": "大分県", "id": 696 },
        { "address": "耶馬溪町樋山路", "city": "中津市", "postcode": "8710434", "prefecture": "大分県", "id": 697 },
        { "address": "耶馬溪町平田", "city": "中津市", "postcode": "8710401", "prefecture": "大分県", "id": 698 },
        { "address": "耶馬溪町福土", "city": "中津市", "postcode": "8710408", "prefecture": "大分県", "id": 699 },
        { "address": "耶馬溪町三尾母", "city": "中津市", "postcode": "8710407", "prefecture": "大分県", "id": 700 },
        { "address": "耶馬溪町宮園", "city": "中津市", "postcode": "8710433", "prefecture": "大分県", "id": 701 },
        { "address": "耶馬溪町山移", "city": "中津市", "postcode": "8710421", "prefecture": "大分県", "id": 702 },
        { "address": "山国町宇曽", "city": "中津市", "postcode": "8710715", "prefecture": "大分県", "id": 703 },
        { "address": "山国町草本", "city": "中津市", "postcode": "8710702", "prefecture": "大分県", "id": 704 },
        { "address": "山国町小屋川", "city": "中津市", "postcode": "8710703", "prefecture": "大分県", "id": 705 },
        { "address": "山国町槻木", "city": "中津市", "postcode": "8710701", "prefecture": "大分県", "id": 706 },
        { "address": "山国町長尾野", "city": "中津市", "postcode": "8710714", "prefecture": "大分県", "id": 707 },
        { "address": "山国町中摩", "city": "中津市", "postcode": "8710716", "prefecture": "大分県", "id": 708 },
        { "address": "山国町平小野", "city": "中津市", "postcode": "8710711", "prefecture": "大分県", "id": 709 },
        { "address": "山国町藤野木", "city": "中津市", "postcode": "8710713", "prefecture": "大分県", "id": 710 },
        { "address": "山国町守実", "city": "中津市", "postcode": "8710712", "prefecture": "大分県", "id": 711 },
        { "address": "山国町吉野", "city": "中津市", "postcode": "8710704", "prefecture": "大分県", "id": 712 },
        { "address": "山下", "city": "中津市", "postcode": "8710062", "prefecture": "大分県", "id": 713 },
        { "address": "弓町", "city": "中津市", "postcode": "8710085", "prefecture": "大分県", "id": 714 },
        { "address": "湯屋", "city": "中津市", "postcode": "8710023", "prefecture": "大分県", "id": 715 },
        { "address": "竜王町", "city": "中津市", "postcode": "8710096", "prefecture": "大分県", "id": 716 },
        { "address": "留守居町", "city": "中津市", "postcode": "8710088", "prefecture": "大分県", "id": 717 },
        { "city": "日田市", "postcode": "8770000", "prefecture": "大分県", "id": 718 },
        { "address": "秋原町", "city": "日田市", "postcode": "8771224", "prefecture": "大分県", "id": 719 },
        { "address": "秋山町", "city": "日田市", "postcode": "8770001", "prefecture": "大分県", "id": 720 },
        { "address": "朝日ケ丘", "city": "日田市", "postcode": "8770084", "prefecture": "大分県", "id": 721 },
        { "address": "朝日町", "city": "日田市", "postcode": "8770085", "prefecture": "大分県", "id": 722 },
        { "address": "天瀬町赤岩", "city": "日田市", "postcode": "8794202", "prefecture": "大分県", "id": 723 },
        { "address": "天瀬町五馬市", "city": "日田市", "postcode": "8770111", "prefecture": "大分県", "id": 724 },
        { "address": "天瀬町出口", "city": "日田市", "postcode": "8770114", "prefecture": "大分県", "id": 725 },
        { "address": "天瀬町女子畑", "city": "日田市", "postcode": "8794123", "prefecture": "大分県", "id": 726 },
        { "address": "天瀬町合田", "city": "日田市", "postcode": "8794122", "prefecture": "大分県", "id": 727 },
        { "address": "天瀬町桜竹", "city": "日田市", "postcode": "8794201", "prefecture": "大分県", "id": 728 },
        { "address": "天瀬町塚田", "city": "日田市", "postcode": "8770113", "prefecture": "大分県", "id": 729 },
        { "address": "天瀬町本城", "city": "日田市", "postcode": "8770112", "prefecture": "大分県", "id": 730 },
        { "address": "天瀬町馬原", "city": "日田市", "postcode": "8794121", "prefecture": "大分県", "id": 731 },
        { "address": "天瀬町湯山", "city": "日田市", "postcode": "8794203", "prefecture": "大分県", "id": 732 },
        { "address": "あやめ台", "city": "日田市", "postcode": "8771366", "prefecture": "大分県", "id": 733 },
        { "address": "有田町", "city": "日田市", "postcode": "8771361", "prefecture": "大分県", "id": 734 },
        { "address": "池辺町", "city": "日田市", "postcode": "8771375", "prefecture": "大分県", "id": 735 },
        { "address": "石井", "city": "日田市", "postcode": "8770061", "prefecture": "大分県", "id": 736 },
        { "address": "石松町", "city": "日田市", "postcode": "8771352", "prefecture": "大分県", "id": 737 },
        { "address": "市ノ瀬町", "city": "日田市", "postcode": "8771223", "prefecture": "大分県", "id": 738 },
        { "address": "岩美町", "city": "日田市", "postcode": "8771383", "prefecture": "大分県", "id": 739 },
        { "address": "上野町", "city": "日田市", "postcode": "8770062", "prefecture": "大分県", "id": 740 },
        { "address": "内河町", "city": "日田市", "postcode": "8770068", "prefecture": "大分県", "id": 741 },
        { "address": "大鶴本町", "city": "日田市", "postcode": "8771104", "prefecture": "大分県", "id": 742 },
        { "address": "大鶴町", "city": "日田市", "postcode": "8771107", "prefecture": "大分県", "id": 743 },
        { "address": "大肥町", "city": "日田市", "postcode": "8771105", "prefecture": "大分県", "id": 744 },
        { "address": "大肥本町", "city": "日田市", "postcode": "8771106", "prefecture": "大分県", "id": 745 },
        { "address": "大部町", "city": "日田市", "postcode": "8770033", "prefecture": "大分県", "id": 746 },
        { "address": "大宮町", "city": "日田市", "postcode": "8770055", "prefecture": "大分県", "id": 747 },
        { "address": "大山町西大山", "city": "日田市", "postcode": "8770201", "prefecture": "大分県", "id": 748 },
        { "address": "大山町東大山", "city": "日田市", "postcode": "8770202", "prefecture": "大分県", "id": 749 },
        { "address": "小ケ瀬町", "city": "日田市", "postcode": "8770032", "prefecture": "大分県", "id": 750 },
        { "address": "小河内町", "city": "日田市", "postcode": "8771222", "prefecture": "大分県", "id": 751 },
        { "address": "小迫町", "city": "日田市", "postcode": "8770088", "prefecture": "大分県", "id": 752 },
        { "address": "尾当町", "city": "日田市", "postcode": "8771362", "prefecture": "大分県", "id": 753 },
        { "address": "小山町", "city": "日田市", "postcode": "8770064", "prefecture": "大分県", "id": 754 },
        { "address": "神来町", "city": "日田市", "postcode": "8770022", "prefecture": "大分県", "id": 755 },
        { "address": "上城内町", "city": "日田市", "postcode": "8770003", "prefecture": "大分県", "id": 756 },
        { "address": "上津江町上野田", "city": "日田市", "postcode": "8770312", "prefecture": "大分県", "id": 757 },
        { "address": "上津江町川原", "city": "日田市", "postcode": "8770311", "prefecture": "大分県", "id": 758 },
        { "address": "上諸留町", "city": "日田市", "postcode": "8771372", "prefecture": "大分県", "id": 759 },
        { "address": "亀川町", "city": "日田市", "postcode": "8770076", "prefecture": "大分県", "id": 760 },
        { "address": "川下", "city": "日田市", "postcode": "8770066", "prefecture": "大分県", "id": 761 },
        { "address": "川原町", "city": "日田市", "postcode": "8770043", "prefecture": "大分県", "id": 762 },
        { "address": "亀山町", "city": "日田市", "postcode": "8770045", "prefecture": "大分県", "id": 763 },
        { "address": "北友田", "city": "日田市", "postcode": "8770078", "prefecture": "大分県", "id": 764 },
        { "address": "君迫町", "city": "日田市", "postcode": "8770087", "prefecture": "大分県", "id": 765 },
        { "address": "京町", "city": "日田市", "postcode": "8770051", "prefecture": "大分県", "id": 766 },
        { "address": "串川町", "city": "日田市", "postcode": "8770063", "prefecture": "大分県", "id": 767 },
        { "address": "隈", "city": "日田市", "postcode": "8770044", "prefecture": "大分県", "id": 768 },
        { "address": "古金町", "city": "日田市", "postcode": "8770031", "prefecture": "大分県", "id": 769 },
        { "address": "琴平町", "city": "日田市", "postcode": "8770054", "prefecture": "大分県", "id": 770 },
        { "address": "財津町", "city": "日田市", "postcode": "8771231", "prefecture": "大分県", "id": 771 },
        { "address": "坂井町", "city": "日田市", "postcode": "8771354", "prefecture": "大分県", "id": 772 },
        { "address": "三ノ宮町", "city": "日田市", "postcode": "8771351", "prefecture": "大分県", "id": 773 },
        { "address": "三本松", "city": "日田市", "postcode": "8770016", "prefecture": "大分県", "id": 774 },
        { "address": "三本松新町", "city": "日田市", "postcode": "8770017", "prefecture": "大分県", "id": 775 },
        { "address": "清水町", "city": "日田市", "postcode": "8771232", "prefecture": "大分県", "id": 776 },
        { "address": "下井手町", "city": "日田市", "postcode": "8770038", "prefecture": "大分県", "id": 777 },
        { "address": "上宮町", "city": "日田市", "postcode": "8771102", "prefecture": "大分県", "id": 778 },
        { "address": "城内新町", "city": "日田市", "postcode": "8770002", "prefecture": "大分県", "id": 779 },
        { "address": "城町", "city": "日田市", "postcode": "8770004", "prefecture": "大分県", "id": 780 },
        { "address": "鈴連町", "city": "日田市", "postcode": "8771243", "prefecture": "大分県", "id": 781 },
        { "address": "清岸寺町", "city": "日田市", "postcode": "8770081", "prefecture": "大分県", "id": 782 },
        { "address": "誠和町", "city": "日田市", "postcode": "8770056", "prefecture": "大分県", "id": 783 },
        { "address": "銭渕町", "city": "日田市", "postcode": "8770052", "prefecture": "大分県", "id": 784 },
        { "address": "大日町", "city": "日田市", "postcode": "8770059", "prefecture": "大分県", "id": 785 },
        { "address": "高井町", "city": "日田市", "postcode": "8770067", "prefecture": "大分県", "id": 786 },
        { "address": "高瀬本町", "city": "日田市", "postcode": "8770053", "prefecture": "大分県", "id": 787 },
        { "address": "竹田新町", "city": "日田市", "postcode": "8770041", "prefecture": "大分県", "id": 788 },
        { "address": "田島", "city": "日田市", "postcode": "8770023", "prefecture": "大分県", "id": 789 },
        { "address": "田島", "city": "日田市", "postcode": "8770025", "prefecture": "大分県", "id": 790 },
        { "address": "田島本町", "city": "日田市", "postcode": "8770026", "prefecture": "大分県", "id": 791 },
        { "address": "玉川町", "city": "日田市", "postcode": "8770071", "prefecture": "大分県", "id": 792 },
        { "address": "淡窓", "city": "日田市", "postcode": "8770012", "prefecture": "大分県", "id": 793 },
        { "address": "中央", "city": "日田市", "postcode": "8770015", "prefecture": "大分県", "id": 794 },
        { "address": "月出町", "city": "日田市", "postcode": "8771373", "prefecture": "大分県", "id": 795 },
        { "address": "鶴河内町", "city": "日田市", "postcode": "8771103", "prefecture": "大分県", "id": 796 },
        { "address": "鶴城町", "city": "日田市", "postcode": "8771101", "prefecture": "大分県", "id": 797 },
        { "address": "天神町", "city": "日田市", "postcode": "8771234", "prefecture": "大分県", "id": 798 },
        { "address": "殿町", "city": "日田市", "postcode": "8771242", "prefecture": "大分県", "id": 799 },
        { "address": "中尾町", "city": "日田市", "postcode": "8771363", "prefecture": "大分県", "id": 800 },
        { "address": "中城町", "city": "日田市", "postcode": "8770011", "prefecture": "大分県", "id": 801 },
        { "address": "中津江村合瀬", "city": "日田市", "postcode": "8770302", "prefecture": "大分県", "id": 802 },
        { "address": "中津江村栃野", "city": "日田市", "postcode": "8770301", "prefecture": "大分県", "id": 803 },
        { "address": "中釣町", "city": "日田市", "postcode": "8770075", "prefecture": "大分県", "id": 804 },
        { "address": "中ノ島町", "city": "日田市", "postcode": "8770074", "prefecture": "大分県", "id": 805 },
        { "address": "中本町", "city": "日田市", "postcode": "8770047", "prefecture": "大分県", "id": 806 },
        { "address": "南部町", "city": "日田市", "postcode": "8770058", "prefecture": "大分県", "id": 807 },
        { "address": "新治町", "city": "日田市", "postcode": "8770072", "prefecture": "大分県", "id": 808 },
        { "address": "二串町", "city": "日田市", "postcode": "8770086", "prefecture": "大分県", "id": 809 },
        { "address": "上手町", "city": "日田市", "postcode": "8771353", "prefecture": "大分県", "id": 810 },
        { "address": "羽田町", "city": "日田市", "postcode": "8771384", "prefecture": "大分県", "id": 811 },
        { "address": "東羽田町", "city": "日田市", "postcode": "8771381", "prefecture": "大分県", "id": 812 },
        { "address": "東町", "city": "日田市", "postcode": "8770042", "prefecture": "大分県", "id": 813 },
        { "address": "日高町", "city": "日田市", "postcode": "8770035", "prefecture": "大分県", "id": 814 },
        { "address": "日ノ隈町", "city": "日田市", "postcode": "8770073", "prefecture": "大分県", "id": 815 },
        { "address": "日ノ出町", "city": "日田市", "postcode": "8770082", "prefecture": "大分県", "id": 816 },
        { "address": "日の本町", "city": "日田市", "postcode": "8771382", "prefecture": "大分県", "id": 817 },
        { "address": "吹上町", "city": "日田市", "postcode": "8770083", "prefecture": "大分県", "id": 818 },
        { "address": "伏木町", "city": "日田市", "postcode": "8771221", "prefecture": "大分県", "id": 819 },
        { "address": "藤山町", "city": "日田市", "postcode": "8771225", "prefecture": "大分県", "id": 820 },
        { "address": "本庄町", "city": "日田市", "postcode": "8770046", "prefecture": "大分県", "id": 821 },
        { "address": "本町", "city": "日田市", "postcode": "8770014", "prefecture": "大分県", "id": 822 },
        { "address": "前津江町赤石", "city": "日田市", "postcode": "8770211", "prefecture": "大分県", "id": 823 },
        { "address": "前津江町大野", "city": "日田市", "postcode": "8770212", "prefecture": "大分県", "id": 824 },
        { "address": "前津江町柚木", "city": "日田市", "postcode": "8391421", "prefecture": "大分県", "id": 825 },
        { "address": "前津江町柚木", "city": "日田市", "postcode": "8770221", "prefecture": "大分県", "id": 826 },
        { "address": "松野町", "city": "日田市", "postcode": "8771374", "prefecture": "大分県", "id": 827 },
        { "address": "豆田町", "city": "日田市", "postcode": "8770005", "prefecture": "大分県", "id": 828 },
        { "address": "丸の内町", "city": "日田市", "postcode": "8770007", "prefecture": "大分県", "id": 829 },
        { "address": "丸山", "city": "日田市", "postcode": "8770008", "prefecture": "大分県", "id": 830 },
        { "address": "三池町", "city": "日田市", "postcode": "8771364", "prefecture": "大分県", "id": 831 },
        { "address": "三河町", "city": "日田市", "postcode": "8771244", "prefecture": "大分県", "id": 832 },
        { "address": "水目町", "city": "日田市", "postcode": "8771365", "prefecture": "大分県", "id": 833 },
        { "address": "緑町", "city": "日田市", "postcode": "8770065", "prefecture": "大分県", "id": 834 },
        { "address": "港町", "city": "日田市", "postcode": "8770006", "prefecture": "大分県", "id": 835 },
        { "address": "南友田町", "city": "日田市", "postcode": "8770077", "prefecture": "大分県", "id": 836 },
        { "address": "南元町", "city": "日田市", "postcode": "8770024", "prefecture": "大分県", "id": 837 },
        { "address": "三芳小渕町", "city": "日田市", "postcode": "8770036", "prefecture": "大分県", "id": 838 },
        { "address": "三和団地", "city": "日田市", "postcode": "8771233", "prefecture": "大分県", "id": 839 },
        { "address": "元町", "city": "日田市", "postcode": "8770013", "prefecture": "大分県", "id": 840 },
        { "address": "源栄町", "city": "日田市", "postcode": "8771121", "prefecture": "大分県", "id": 841 },
        { "address": "源栄町", "city": "日田市", "postcode": "8771241", "prefecture": "大分県", "id": 842 },
        { "address": "求町", "city": "日田市", "postcode": "8770021", "prefecture": "大分県", "id": 843 },
        { "address": "桃山町", "city": "日田市", "postcode": "8770034", "prefecture": "大分県", "id": 844 },
        { "address": "諸留町", "city": "日田市", "postcode": "8771371", "prefecture": "大分県", "id": 845 },
        { "address": "八幡町", "city": "日田市", "postcode": "8770057", "prefecture": "大分県", "id": 846 },
        { "address": "山田町", "city": "日田市", "postcode": "8770089", "prefecture": "大分県", "id": 847 },
        { "address": "刃連町", "city": "日田市", "postcode": "8770039", "prefecture": "大分県", "id": 848 },
        { "address": "夜明上町", "city": "日田市", "postcode": "8771111", "prefecture": "大分県", "id": 849 },
        { "address": "夜明中町", "city": "日田市", "postcode": "8771112", "prefecture": "大分県", "id": 850 },
        { "address": "夜明関町", "city": "日田市", "postcode": "8771113", "prefecture": "大分県", "id": 851 },
        { "address": "若宮町", "city": "日田市", "postcode": "8770037", "prefecture": "大分県", "id": 852 },
        { "city": "佐伯市", "postcode": "8760000", "prefecture": "大分県", "id": 853 },
        { "address": "青山", "city": "佐伯市", "postcode": "8761513", "prefecture": "大分県", "id": 854 },
        { "address": "荒網代浦", "city": "佐伯市", "postcode": "8760004", "prefecture": "大分県", "id": 855 },
        { "address": "池田", "city": "佐伯市", "postcode": "8760025", "prefecture": "大分県", "id": 856 },
        { "address": "池船町", "city": "佐伯市", "postcode": "8760833", "prefecture": "大分県", "id": 857 },
        { "address": "石間浦", "city": "佐伯市", "postcode": "8760005", "prefecture": "大分県", "id": 858 },
        { "address": "稲垣", "city": "佐伯市", "postcode": "8760042", "prefecture": "大分県", "id": 859 },
        { "address": "臼坪", "city": "佐伯市", "postcode": "8760849", "prefecture": "大分県", "id": 860 },
        { "address": "内町", "city": "佐伯市", "postcode": "8760845", "prefecture": "大分県", "id": 861 },
        { "address": "宇目大平", "city": "佐伯市", "postcode": "8793201", "prefecture": "大分県", "id": 862 },
        { "address": "宇目小野市", "city": "佐伯市", "postcode": "8793301", "prefecture": "大分県", "id": 863 },
        { "address": "宇目河内", "city": "佐伯市", "postcode": "8793202", "prefecture": "大分県", "id": 864 },
        { "address": "宇目木浦内", "city": "佐伯市", "postcode": "8793402", "prefecture": "大分県", "id": 865 },
        { "address": "宇目木浦鉱山", "city": "佐伯市", "postcode": "8793401", "prefecture": "大分県", "id": 866 },
        { "address": "宇目塩見園", "city": "佐伯市", "postcode": "8793203", "prefecture": "大分県", "id": 867 },
        { "address": "宇目重岡", "city": "佐伯市", "postcode": "8793204", "prefecture": "大分県", "id": 868 },
        { "address": "宇目千束", "city": "佐伯市", "postcode": "8793205", "prefecture": "大分県", "id": 869 },
        { "address": "宇目南田原", "city": "佐伯市", "postcode": "8793302", "prefecture": "大分県", "id": 870 },
        { "address": "駅前", "city": "佐伯市", "postcode": "8760803", "prefecture": "大分県", "id": 871 },
        { "address": "王子丸", "city": "佐伯市", "postcode": "8760016", "prefecture": "大分県", "id": 872 },
        { "address": "大越", "city": "佐伯市", "postcode": "8760036", "prefecture": "大分県", "id": 873 },
        { "address": "大手町", "city": "佐伯市", "postcode": "8760831", "prefecture": "大分県", "id": 874 },
        { "address": "海崎", "city": "佐伯市", "postcode": "8761105", "prefecture": "大分県", "id": 875 },
        { "address": "樫野", "city": "佐伯市", "postcode": "8760043", "prefecture": "大分県", "id": 876 },
        { "address": "春日町", "city": "佐伯市", "postcode": "8760806", "prefecture": "大分県", "id": 877 },
        { "address": "霞ケ浦", "city": "佐伯市", "postcode": "8761104", "prefecture": "大分県", "id": 878 },
        { "address": "片神浦", "city": "佐伯市", "postcode": "8760008", "prefecture": "大分県", "id": 879 },
        { "address": "堅田", "city": "佐伯市", "postcode": "8761512", "prefecture": "大分県", "id": 880 },
        { "address": "葛港", "city": "佐伯市", "postcode": "8760801", "prefecture": "大分県", "id": 881 },
        { "address": "蒲江猪串浦", "city": "佐伯市", "postcode": "8762402", "prefecture": "大分県", "id": 882 },
        { "address": "蒲江尾浦", "city": "佐伯市", "postcode": "8762202", "prefecture": "大分県", "id": 883 },
        { "address": "蒲江葛原浦", "city": "佐伯市", "postcode": "8762406", "prefecture": "大分県", "id": 884 },
        { "address": "蒲江蒲江浦", "city": "佐伯市", "postcode": "8762401", "prefecture": "大分県", "id": 885 },
        { "address": "蒲江楠本浦", "city": "佐伯市", "postcode": "8762203", "prefecture": "大分県", "id": 886 },
        { "address": "蒲江竹野浦河内", "city": "佐伯市", "postcode": "8762301", "prefecture": "大分県", "id": 887 },
        { "address": "蒲江西野浦", "city": "佐伯市", "postcode": "8762302", "prefecture": "大分県", "id": 888 },
        { "address": "蒲江野々河内浦", "city": "佐伯市", "postcode": "8762403", "prefecture": "大分県", "id": 889 },
        { "address": "蒲江畑野浦", "city": "佐伯市", "postcode": "8762201", "prefecture": "大分県", "id": 890 },
        { "address": "蒲江波当津浦", "city": "佐伯市", "postcode": "8762407", "prefecture": "大分県", "id": 891 },
        { "address": "蒲江丸市尾浦", "city": "佐伯市", "postcode": "8762405", "prefecture": "大分県", "id": 892 },
        { "address": "蒲江森崎浦", "city": "佐伯市", "postcode": "8762404", "prefecture": "大分県", "id": 893 },
        { "address": "上浦浅海井浦", "city": "佐伯市", "postcode": "8792601", "prefecture": "大分県", "id": 894 },
        { "address": "上浦津井浦", "city": "佐伯市", "postcode": "8792602", "prefecture": "大分県", "id": 895 },
        { "address": "上浦最勝海浦", "city": "佐伯市", "postcode": "8792603", "prefecture": "大分県", "id": 896 },
        { "address": "上岡", "city": "佐伯市", "postcode": "8760045", "prefecture": "大分県", "id": 897 },
        { "address": "上久部", "city": "佐伯市", "postcode": "8760027", "prefecture": "大分県", "id": 898 },
        { "address": "上城", "city": "佐伯市", "postcode": "8760034", "prefecture": "大分県", "id": 899 },
        { "address": "上灘", "city": "佐伯市", "postcode": "8760022", "prefecture": "大分県", "id": 900 },
        { "address": "狩生", "city": "佐伯市", "postcode": "8761101", "prefecture": "大分県", "id": 901 },
        { "address": "川原", "city": "佐伯市", "postcode": "8760031", "prefecture": "大分県", "id": 902 },
        { "address": "蟹田", "city": "佐伯市", "postcode": "8760804", "prefecture": "大分県", "id": 903 },
        { "address": "岸河内", "city": "佐伯市", "postcode": "8760035", "prefecture": "大分県", "id": 904 },
        { "address": "木立", "city": "佐伯市", "postcode": "8762121", "prefecture": "大分県", "id": 905 },
        { "address": "久保浦", "city": "佐伯市", "postcode": "8760007", "prefecture": "大分県", "id": 906 },
        { "address": "来島町", "city": "佐伯市", "postcode": "8760841", "prefecture": "大分県", "id": 907 },
        { "address": "坂の浦", "city": "佐伯市", "postcode": "8760011", "prefecture": "大分県", "id": 908 },
        { "address": "坂山", "city": "佐伯市", "postcode": "8760052", "prefecture": "大分県", "id": 909 },
        { "address": "塩内浦", "city": "佐伯市", "postcode": "8760003", "prefecture": "大分県", "id": 910 },
        { "address": "下久部", "city": "佐伯市", "postcode": "8760024", "prefecture": "大分県", "id": 911 },
        { "address": "下城", "city": "佐伯市", "postcode": "8760033", "prefecture": "大分県", "id": 912 },
        { "address": "城下東町", "city": "佐伯市", "postcode": "8760848", "prefecture": "大分県", "id": 913 },
        { "address": "城下西町", "city": "佐伯市", "postcode": "8760847", "prefecture": "大分県", "id": 914 },
        { "address": "城西区", "city": "佐伯市", "postcode": "8760063", "prefecture": "大分県", "id": 915 },
        { "address": "城東町", "city": "佐伯市", "postcode": "8760846", "prefecture": "大分県", "id": 916 },
        { "address": "城南町", "city": "佐伯市", "postcode": "8760834", "prefecture": "大分県", "id": 917 },
        { "address": "匠南", "city": "佐伯市", "postcode": "8760026", "prefecture": "大分県", "id": 918 },
        { "address": "白方", "city": "佐伯市", "postcode": "8760014", "prefecture": "大分県", "id": 919 },
        { "address": "新女島", "city": "佐伯市", "postcode": "8760824", "prefecture": "大分県", "id": 920 },
        { "address": "船頭町", "city": "佐伯市", "postcode": "8760832", "prefecture": "大分県", "id": 921 },
        { "address": "高畠", "city": "佐伯市", "postcode": "8760044", "prefecture": "大分県", "id": 922 },
        { "address": "高畑", "city": "佐伯市", "postcode": "8760053", "prefecture": "大分県", "id": 923 },
        { "address": "高松浦", "city": "佐伯市", "postcode": "8760001", "prefecture": "大分県", "id": 924 },
        { "address": "田の浦町", "city": "佐伯市", "postcode": "8760807", "prefecture": "大分県", "id": 925 },
        { "address": "鶴岡西町", "city": "佐伯市", "postcode": "8760047", "prefecture": "大分県", "id": 926 },
        { "address": "鶴岡町", "city": "佐伯市", "postcode": "8760835", "prefecture": "大分県", "id": 927 },
        { "address": "鶴望", "city": "佐伯市", "postcode": "8760012", "prefecture": "大分県", "id": 928 },
        { "address": "鶴見有明浦", "city": "佐伯市", "postcode": "8761204", "prefecture": "大分県", "id": 929 },
        { "address": "鶴見大島", "city": "佐伯市", "postcode": "8761313", "prefecture": "大分県", "id": 930 },
        { "address": "鶴見沖松浦", "city": "佐伯市", "postcode": "8761203", "prefecture": "大分県", "id": 931 },
        { "address": "鶴見梶寄浦", "city": "佐伯市", "postcode": "8761312", "prefecture": "大分県", "id": 932 },
        { "address": "鶴見地松浦", "city": "佐伯市", "postcode": "8761202", "prefecture": "大分県", "id": 933 },
        { "address": "鶴見丹賀浦", "city": "佐伯市", "postcode": "8761311", "prefecture": "大分県", "id": 934 },
        { "address": "鶴見中越浦", "city": "佐伯市", "postcode": "8761306", "prefecture": "大分県", "id": 935 },
        { "address": "鶴見中越浦", "city": "佐伯市", "postcode": "8761206", "prefecture": "大分県", "id": 936 },
        { "address": "鶴見羽出浦", "city": "佐伯市", "postcode": "8761205", "prefecture": "大分県", "id": 937 },
        { "address": "鶴見吹浦", "city": "佐伯市", "postcode": "8761201", "prefecture": "大分県", "id": 938 },
        { "address": "鶴谷町", "city": "佐伯市", "postcode": "8760811", "prefecture": "大分県", "id": 939 },
        { "address": "寺田", "city": "佐伯市", "postcode": "8760051", "prefecture": "大分県", "id": 940 },
        { "address": "常盤東町", "city": "佐伯市", "postcode": "8760851", "prefecture": "大分県", "id": 941 },
        { "address": "常盤西町", "city": "佐伯市", "postcode": "8760857", "prefecture": "大分県", "id": 942 },
        { "address": "常盤南町", "city": "佐伯市", "postcode": "8760852", "prefecture": "大分県", "id": 943 },
        { "address": "直川赤木", "city": "佐伯市", "postcode": "8793101", "prefecture": "大分県", "id": 944 },
        { "address": "直川上直見", "city": "佐伯市", "postcode": "8793102", "prefecture": "大分県", "id": 945 },
        { "address": "直川下直見", "city": "佐伯市", "postcode": "8793103", "prefecture": "大分県", "id": 946 },
        { "address": "直川仁田原", "city": "佐伯市", "postcode": "8793104", "prefecture": "大分県", "id": 947 },
        { "address": "直川横川", "city": "佐伯市", "postcode": "8793105", "prefecture": "大分県", "id": 948 },
        { "address": "中江町", "city": "佐伯市", "postcode": "8760812", "prefecture": "大分県", "id": 949 },
        { "address": "中の島", "city": "佐伯市", "postcode": "8760843", "prefecture": "大分県", "id": 950 },
        { "address": "中ノ島東町", "city": "佐伯市", "postcode": "8760842", "prefecture": "大分県", "id": 951 },
        { "address": "中村東町", "city": "佐伯市", "postcode": "8760853", "prefecture": "大分県", "id": 952 },
        { "address": "中村西町", "city": "佐伯市", "postcode": "8760855", "prefecture": "大分県", "id": 953 },
        { "address": "中村南町", "city": "佐伯市", "postcode": "8760854", "prefecture": "大分県", "id": 954 },
        { "address": "中村北町", "city": "佐伯市", "postcode": "8760856", "prefecture": "大分県", "id": 955 },
        { "address": "中山", "city": "佐伯市", "postcode": "8760032", "prefecture": "大分県", "id": 956 },
        { "address": "長島町", "city": "佐伯市", "postcode": "8760813", "prefecture": "大分県", "id": 957 },
        { "address": "長瀬", "city": "佐伯市", "postcode": "8760041", "prefecture": "大分県", "id": 958 },
        { "address": "長良", "city": "佐伯市", "postcode": "8761511", "prefecture": "大分県", "id": 959 },
        { "address": "西谷町", "city": "佐伯市", "postcode": "8760836", "prefecture": "大分県", "id": 960 },
        { "address": "西浜", "city": "佐伯市", "postcode": "8760822", "prefecture": "大分県", "id": 961 },
        { "address": "野岡町", "city": "佐伯市", "postcode": "8760815", "prefecture": "大分県", "id": 962 },
        { "address": "野口", "city": "佐伯市", "postcode": "8760017", "prefecture": "大分県", "id": 963 },
        { "address": "長谷", "city": "佐伯市", "postcode": "8760037", "prefecture": "大分県", "id": 964 },
        { "address": "戸穴", "city": "佐伯市", "postcode": "8761106", "prefecture": "大分県", "id": 965 },
        { "address": "東灘", "city": "佐伯市", "postcode": "8760021", "prefecture": "大分県", "id": 966 },
        { "address": "東浜", "city": "佐伯市", "postcode": "8760821", "prefecture": "大分県", "id": 967 },
        { "address": "東町", "city": "佐伯市", "postcode": "8760814", "prefecture": "大分県", "id": 968 },
        { "address": "日の出町", "city": "佐伯市", "postcode": "8760802", "prefecture": "大分県", "id": 969 },
        { "address": "日向泊浦", "city": "佐伯市", "postcode": "8760002", "prefecture": "大分県", "id": 970 },
        { "address": "平", "city": "佐伯市", "postcode": "8760018", "prefecture": "大分県", "id": 971 },
        { "address": "平野町", "city": "佐伯市", "postcode": "8760805", "prefecture": "大分県", "id": 972 },
        { "address": "二栄", "city": "佐伯市", "postcode": "8761102", "prefecture": "大分県", "id": 973 },
        { "address": "古市", "city": "佐伯市", "postcode": "8760062", "prefecture": "大分県", "id": 974 },
        { "address": "蛇崎", "city": "佐伯市", "postcode": "8760023", "prefecture": "大分県", "id": 975 },
        { "address": "向島", "city": "佐伯市", "postcode": "8760844", "prefecture": "大分県", "id": 976 },
        { "address": "本匠井ノ上", "city": "佐伯市", "postcode": "8760211", "prefecture": "大分県", "id": 977 },
        { "address": "本匠因尾", "city": "佐伯市", "postcode": "8760212", "prefecture": "大分県", "id": 978 },
        { "address": "本匠宇津々", "city": "佐伯市", "postcode": "8760204", "prefecture": "大分県", "id": 979 },
        { "address": "本匠小川", "city": "佐伯市", "postcode": "8760206", "prefecture": "大分県", "id": 980 },
        { "address": "本匠小半", "city": "佐伯市", "postcode": "8760215", "prefecture": "大分県", "id": 981 },
        { "address": "本匠笠掛", "city": "佐伯市", "postcode": "8760202", "prefecture": "大分県", "id": 982 },
        { "address": "本匠風戸", "city": "佐伯市", "postcode": "8760201", "prefecture": "大分県", "id": 983 },
        { "address": "本匠上津川", "city": "佐伯市", "postcode": "8760214", "prefecture": "大分県", "id": 984 },
        { "address": "本匠堂ノ間", "city": "佐伯市", "postcode": "8760213", "prefecture": "大分県", "id": 985 },
        { "address": "本匠波寄", "city": "佐伯市", "postcode": "8760205", "prefecture": "大分県", "id": 986 },
        { "address": "本匠三股", "city": "佐伯市", "postcode": "8760203", "prefecture": "大分県", "id": 987 },
        { "address": "本匠山部", "city": "佐伯市", "postcode": "8760216", "prefecture": "大分県", "id": 988 },
        { "address": "女島", "city": "佐伯市", "postcode": "8760823", "prefecture": "大分県", "id": 989 },
        { "address": "女島団地", "city": "佐伯市", "postcode": "8760825", "prefecture": "大分県", "id": 990 },
        { "address": "百谷", "city": "佐伯市", "postcode": "8760015", "prefecture": "大分県", "id": 991 },
        { "address": "護江", "city": "佐伯市", "postcode": "8761103", "prefecture": "大分県", "id": 992 },
        { "address": "守後浦", "city": "佐伯市", "postcode": "8760006", "prefecture": "大分県", "id": 993 },
        { "address": "門前", "city": "佐伯市", "postcode": "8760061", "prefecture": "大分県", "id": 994 },
        { "address": "八迫区", "city": "佐伯市", "postcode": "8760064", "prefecture": "大分県", "id": 995 },
        { "address": "弥生井崎", "city": "佐伯市", "postcode": "8760111", "prefecture": "大分県", "id": 996 },
        { "address": "弥生江良", "city": "佐伯市", "postcode": "8760125", "prefecture": "大分県", "id": 997 },
        { "address": "弥生大坂本", "city": "佐伯市", "postcode": "8760101", "prefecture": "大分県", "id": 998 },
        { "address": "弥生上小倉", "city": "佐伯市", "postcode": "8760112", "prefecture": "大分県", "id": 999 },
        { "address": "弥生門田", "city": "佐伯市", "postcode": "8760122", "prefecture": "大分県", "id": 1000 },
        { "address": "弥生小田", "city": "佐伯市", "postcode": "8760121", "prefecture": "大分県", "id": 1001 },
        { "address": "弥生細田", "city": "佐伯市", "postcode": "8760124", "prefecture": "大分県", "id": 1002 },
        { "address": "弥生尺間", "city": "佐伯市", "postcode": "8760102", "prefecture": "大分県", "id": 1003 },
        { "address": "弥生提内", "city": "佐伯市", "postcode": "8760126", "prefecture": "大分県", "id": 1004 },
        { "address": "弥生平井", "city": "佐伯市", "postcode": "8760123", "prefecture": "大分県", "id": 1005 },
        { "address": "弥生山梨子", "city": "佐伯市", "postcode": "8760113", "prefecture": "大分県", "id": 1006 },
        { "address": "弥生床木", "city": "佐伯市", "postcode": "8760103", "prefecture": "大分県", "id": 1007 },
        { "address": "米水津色利浦", "city": "佐伯市", "postcode": "8761402", "prefecture": "大分県", "id": 1008 },
        { "address": "米水津浦代浦", "city": "佐伯市", "postcode": "8761401", "prefecture": "大分県", "id": 1009 },
        { "address": "米水津浦代浦", "city": "佐伯市", "postcode": "8761301", "prefecture": "大分県", "id": 1010 },
        { "address": "米水津小浦", "city": "佐伯市", "postcode": "8761404", "prefecture": "大分県", "id": 1011 },
        { "address": "米水津竹野浦", "city": "佐伯市", "postcode": "8761405", "prefecture": "大分県", "id": 1012 },
        { "address": "米水津宮野浦", "city": "佐伯市", "postcode": "8761403", "prefecture": "大分県", "id": 1013 },
        { "address": "若宮町", "city": "佐伯市", "postcode": "8760013", "prefecture": "大分県", "id": 1014 },
        { "address": "脇", "city": "佐伯市", "postcode": "8760046", "prefecture": "大分県", "id": 1015 },
        { "city": "臼杵市", "postcode": "8750000", "prefecture": "大分県", "id": 1016 },
        { "address": "家野", "city": "臼杵市", "postcode": "8750065", "prefecture": "大分県", "id": 1017 },
        { "address": "板知屋", "city": "臼杵市", "postcode": "8750034", "prefecture": "大分県", "id": 1018 },
        { "address": "市浜", "city": "臼杵市", "postcode": "8750052", "prefecture": "大分県", "id": 1019 },
        { "address": "稲田", "city": "臼杵市", "postcode": "8750082", "prefecture": "大分県", "id": 1020 },
        { "address": "井村", "city": "臼杵市", "postcode": "8750083", "prefecture": "大分県", "id": 1021 },
        { "address": "臼杵", "city": "臼杵市", "postcode": "8750041", "prefecture": "大分県", "id": 1022 },
        { "address": "江無田", "city": "臼杵市", "postcode": "8750023", "prefecture": "大分県", "id": 1023 },
        { "address": "大泊", "city": "臼杵市", "postcode": "8750033", "prefecture": "大分県", "id": 1024 },
        { "address": "大野", "city": "臼杵市", "postcode": "8750004", "prefecture": "大分県", "id": 1025 },
        { "address": "大浜", "city": "臼杵市", "postcode": "8750012", "prefecture": "大分県", "id": 1026 },
        { "address": "乙見", "city": "臼杵市", "postcode": "8750077", "prefecture": "大分県", "id": 1027 },
        { "address": "海添", "city": "臼杵市", "postcode": "8750042", "prefecture": "大分県", "id": 1028 },
        { "address": "掻懐", "city": "臼杵市", "postcode": "8750073", "prefecture": "大分県", "id": 1029 },
        { "address": "風成", "city": "臼杵市", "postcode": "8750032", "prefecture": "大分県", "id": 1030 },
        { "address": "久木小野", "city": "臼杵市", "postcode": "8750070", "prefecture": "大分県", "id": 1031 },
        { "address": "佐志生", "city": "臼杵市", "postcode": "8750001", "prefecture": "大分県", "id": 1032 },
        { "address": "左津留", "city": "臼杵市", "postcode": "8750074", "prefecture": "大分県", "id": 1033 },
        { "address": "下ノ江", "city": "臼杵市", "postcode": "8750002", "prefecture": "大分県", "id": 1034 },
        { "address": "末広", "city": "臼杵市", "postcode": "8750022", "prefecture": "大分県", "id": 1035 },
        { "address": "諏訪", "city": "臼杵市", "postcode": "8750011", "prefecture": "大分県", "id": 1036 },
        { "address": "田井", "city": "臼杵市", "postcode": "8750003", "prefecture": "大分県", "id": 1037 },
        { "address": "高山", "city": "臼杵市", "postcode": "8750078", "prefecture": "大分県", "id": 1038 },
        { "address": "岳谷", "city": "臼杵市", "postcode": "8750084", "prefecture": "大分県", "id": 1039 },
        { "address": "武山", "city": "臼杵市", "postcode": "8750079", "prefecture": "大分県", "id": 1040 },
        { "address": "田尻", "city": "臼杵市", "postcode": "8750021", "prefecture": "大分県", "id": 1041 },
        { "address": "戸室", "city": "臼杵市", "postcode": "8750051", "prefecture": "大分県", "id": 1042 },
        { "address": "中臼杵", "city": "臼杵市", "postcode": "8750072", "prefecture": "大分県", "id": 1043 },
        { "address": "中尾", "city": "臼杵市", "postcode": "8750075", "prefecture": "大分県", "id": 1044 },
        { "address": "中津浦", "city": "臼杵市", "postcode": "8750013", "prefecture": "大分県", "id": 1045 },
        { "address": "二王座", "city": "臼杵市", "postcode": "8750043", "prefecture": "大分県", "id": 1046 },
        { "address": "野田", "city": "臼杵市", "postcode": "8750062", "prefecture": "大分県", "id": 1047 },
        { "address": "野津町秋山", "city": "臼杵市", "postcode": "8750221", "prefecture": "大分県", "id": 1048 },
        { "address": "野津町岩屋", "city": "臼杵市", "postcode": "8750343", "prefecture": "大分県", "id": 1049 },
        { "address": "野津町烏嶽", "city": "臼杵市", "postcode": "8750232", "prefecture": "大分県", "id": 1050 },
        { "address": "野津町老松", "city": "臼杵市", "postcode": "8750212", "prefecture": "大分県", "id": 1051 },
        { "address": "野津町王子", "city": "臼杵市", "postcode": "8750215", "prefecture": "大分県", "id": 1052 },
        { "address": "野津町落谷", "city": "臼杵市", "postcode": "8750342", "prefecture": "大分県", "id": 1053 },
        { "address": "野津町垣河内", "city": "臼杵市", "postcode": "8750352", "prefecture": "大分県", "id": 1054 },
        { "address": "野津町亀甲", "city": "臼杵市", "postcode": "8750216", "prefecture": "大分県", "id": 1055 },
        { "address": "野津町西寒田", "city": "臼杵市", "postcode": "8750237", "prefecture": "大分県", "id": 1056 },
        { "address": "野津町白岩", "city": "臼杵市", "postcode": "8750344", "prefecture": "大分県", "id": 1057 },
        { "address": "野津町清水原", "city": "臼杵市", "postcode": "8750341", "prefecture": "大分県", "id": 1058 },
        { "address": "野津町千塚", "city": "臼杵市", "postcode": "8750231", "prefecture": "大分県", "id": 1059 },
        { "address": "野津町泊", "city": "臼杵市", "postcode": "8750351", "prefecture": "大分県", "id": 1060 },
        { "address": "野津町西神野", "city": "臼杵市", "postcode": "8750353", "prefecture": "大分県", "id": 1061 },
        { "address": "野津町西畑", "city": "臼杵市", "postcode": "8750224", "prefecture": "大分県", "id": 1062 },
        { "address": "野津町野津市", "city": "臼杵市", "postcode": "8750201", "prefecture": "大分県", "id": 1063 },
        { "address": "野津町八里合", "city": "臼杵市", "postcode": "8750213", "prefecture": "大分県", "id": 1064 },
        { "address": "野津町原", "city": "臼杵市", "postcode": "8750234", "prefecture": "大分県", "id": 1065 },
        { "address": "野津町東谷", "city": "臼杵市", "postcode": "8750323", "prefecture": "大分県", "id": 1066 },
        { "address": "野津町東谷", "city": "臼杵市", "postcode": "8750223", "prefecture": "大分県", "id": 1067 },
        { "address": "野津町福良木", "city": "臼杵市", "postcode": "8750214", "prefecture": "大分県", "id": 1068 },
        { "address": "野津町藤小野", "city": "臼杵市", "postcode": "8750235", "prefecture": "大分県", "id": 1069 },
        { "address": "野津町前河内", "city": "臼杵市", "postcode": "8750203", "prefecture": "大分県", "id": 1070 },
        { "address": "野津町都原", "city": "臼杵市", "postcode": "8750211", "prefecture": "大分県", "id": 1071 },
        { "address": "野津町宮原", "city": "臼杵市", "postcode": "8750233", "prefecture": "大分県", "id": 1072 },
        { "address": "野津町山頭", "city": "臼杵市", "postcode": "8750202", "prefecture": "大分県", "id": 1073 },
        { "address": "野津町柚野木", "city": "臼杵市", "postcode": "8750236", "prefecture": "大分県", "id": 1074 },
        { "address": "野津町吉田", "city": "臼杵市", "postcode": "8750222", "prefecture": "大分県", "id": 1075 },
        { "address": "東神野", "city": "臼杵市", "postcode": "8750076", "prefecture": "大分県", "id": 1076 },
        { "address": "深江", "city": "臼杵市", "postcode": "8750031", "prefecture": "大分県", "id": 1077 },
        { "address": "深田", "city": "臼杵市", "postcode": "8750064", "prefecture": "大分県", "id": 1078 },
        { "address": "福良", "city": "臼杵市", "postcode": "8750053", "prefecture": "大分県", "id": 1079 },
        { "address": "藤河内", "city": "臼杵市", "postcode": "8750081", "prefecture": "大分県", "id": 1080 },
        { "address": "前田", "city": "臼杵市", "postcode": "8750061", "prefecture": "大分県", "id": 1081 },
        { "address": "望月", "city": "臼杵市", "postcode": "8750063", "prefecture": "大分県", "id": 1082 },
        { "address": "吉小野", "city": "臼杵市", "postcode": "8750071", "prefecture": "大分県", "id": 1083 },
        { "city": "津久見市", "postcode": "8792400", "prefecture": "大分県", "id": 1084 },
        { "address": "網代", "city": "津久見市", "postcode": "8792682", "prefecture": "大分県", "id": 1085 },
        { "address": "井無田町", "city": "津久見市", "postcode": "8792445", "prefecture": "大分県", "id": 1086 },
        { "address": "入船東町", "city": "津久見市", "postcode": "8792459", "prefecture": "大分県", "id": 1087 },
        { "address": "入船西町", "city": "津久見市", "postcode": "8792458", "prefecture": "大分県", "id": 1088 },
        { "address": "岩屋町", "city": "津久見市", "postcode": "8792411", "prefecture": "大分県", "id": 1089 },
        { "address": "大友町", "city": "津久見市", "postcode": "8792431", "prefecture": "大分県", "id": 1090 },
        { "address": "岡町", "city": "津久見市", "postcode": "8792455", "prefecture": "大分県", "id": 1091 },
        { "address": "堅浦", "city": "津久見市", "postcode": "8792475", "prefecture": "大分県", "id": 1092 },
        { "address": "上青江", "city": "津久見市", "postcode": "8792461", "prefecture": "大分県", "id": 1093 },
        { "address": "上宮本町", "city": "津久見市", "postcode": "8792436", "prefecture": "大分県", "id": 1094 },
        { "address": "合ノ元町", "city": "津久見市", "postcode": "8792471", "prefecture": "大分県", "id": 1095 },
        { "address": "小園町", "city": "津久見市", "postcode": "8792453", "prefecture": "大分県", "id": 1096 },
        { "address": "地蔵町", "city": "津久見市", "postcode": "8792454", "prefecture": "大分県", "id": 1097 },
        { "address": "志手町", "city": "津久見市", "postcode": "8792457", "prefecture": "大分県", "id": 1098 },
        { "address": "下青江", "city": "津久見市", "postcode": "8792446", "prefecture": "大分県", "id": 1099 },
        { "address": "新町", "city": "津久見市", "postcode": "8792451", "prefecture": "大分県", "id": 1100 },
        { "address": "セメント町", "city": "津久見市", "postcode": "8792443", "prefecture": "大分県", "id": 1101 },
        { "address": "高洲町", "city": "津久見市", "postcode": "8792412", "prefecture": "大分県", "id": 1102 },
        { "address": "立花町", "city": "津久見市", "postcode": "8792434", "prefecture": "大分県", "id": 1103 },
        { "address": "千怒", "city": "津久見市", "postcode": "8792401", "prefecture": "大分県", "id": 1104 },
        { "address": "中央町", "city": "津久見市", "postcode": "8792441", "prefecture": "大分県", "id": 1105 },
        { "address": "津久見", "city": "津久見市", "postcode": "8792421", "prefecture": "大分県", "id": 1106 },
        { "address": "津久見浦", "city": "津久見市", "postcode": "8792413", "prefecture": "大分県", "id": 1107 },
        { "address": "徳浦", "city": "津久見市", "postcode": "8792474", "prefecture": "大分県", "id": 1108 },
        { "address": "徳浦本町", "city": "津久見市", "postcode": "8792472", "prefecture": "大分県", "id": 1109 },
        { "address": "徳浦宮町", "city": "津久見市", "postcode": "8792473", "prefecture": "大分県", "id": 1110 },
        { "address": "中田町", "city": "津久見市", "postcode": "8792433", "prefecture": "大分県", "id": 1111 },
        { "address": "中町", "city": "津久見市", "postcode": "8792452", "prefecture": "大分県", "id": 1112 },
        { "address": "長目", "city": "津久見市", "postcode": "8792476", "prefecture": "大分県", "id": 1113 },
        { "address": "日見", "city": "津久見市", "postcode": "8792681", "prefecture": "大分県", "id": 1114 },
        { "address": "文京町", "city": "津久見市", "postcode": "8792432", "prefecture": "大分県", "id": 1115 },
        { "address": "保戸島", "city": "津久見市", "postcode": "8792501", "prefecture": "大分県", "id": 1116 },
        { "address": "港町", "city": "津久見市", "postcode": "8792442", "prefecture": "大分県", "id": 1117 },
        { "address": "宮本町", "city": "津久見市", "postcode": "8792435", "prefecture": "大分県", "id": 1118 },
        { "address": "元町", "city": "津久見市", "postcode": "8792444", "prefecture": "大分県", "id": 1119 },
        { "address": "門前町", "city": "津久見市", "postcode": "8792456", "prefecture": "大分県", "id": 1120 },
        { "address": "八戸", "city": "津久見市", "postcode": "8792422", "prefecture": "大分県", "id": 1121 },
        { "address": "四浦", "city": "津久見市", "postcode": "8792683", "prefecture": "大分県", "id": 1122 },
        { "city": "竹田市", "postcode": "8780000", "prefecture": "大分県", "id": 1123 },
        { "address": "会々", "city": "竹田市", "postcode": "8780011", "prefecture": "大分県", "id": 1124 },
        { "address": "穴井迫", "city": "竹田市", "postcode": "8780021", "prefecture": "大分県", "id": 1125 },
        { "address": "市用", "city": "竹田市", "postcode": "8780153", "prefecture": "大分県", "id": 1126 },
        { "address": "今", "city": "竹田市", "postcode": "8796182", "prefecture": "大分県", "id": 1127 },
        { "address": "岩瀬", "city": "竹田市", "postcode": "8780022", "prefecture": "大分県", "id": 1128 },
        { "address": "岩本", "city": "竹田市", "postcode": "8780031", "prefecture": "大分県", "id": 1129 },
        { "address": "植木", "city": "竹田市", "postcode": "8780001", "prefecture": "大分県", "id": 1130 },
        { "address": "枝", "city": "竹田市", "postcode": "8780002", "prefecture": "大分県", "id": 1131 },
        { "address": "太田", "city": "竹田市", "postcode": "8780032", "prefecture": "大分県", "id": 1132 },
        { "address": "小川", "city": "竹田市", "postcode": "8780141", "prefecture": "大分県", "id": 1133 },
        { "address": "荻町瓜作", "city": "竹田市", "postcode": "8796134", "prefecture": "大分県", "id": 1134 },
        { "address": "荻町恵良原", "city": "竹田市", "postcode": "8796113", "prefecture": "大分県", "id": 1135 },
        { "address": "荻町大平", "city": "竹田市", "postcode": "8796126", "prefecture": "大分県", "id": 1136 },
        { "address": "荻町柏原", "city": "竹田市", "postcode": "8796122", "prefecture": "大分県", "id": 1137 },
        { "address": "荻町叶野", "city": "竹田市", "postcode": "8796127", "prefecture": "大分県", "id": 1138 },
        { "address": "荻町北原", "city": "竹田市", "postcode": "8796135", "prefecture": "大分県", "id": 1139 },
        { "address": "荻町木下", "city": "竹田市", "postcode": "8796101", "prefecture": "大分県", "id": 1140 },
        { "address": "荻町桑木", "city": "竹田市", "postcode": "8796121", "prefecture": "大分県", "id": 1141 },
        { "address": "荻町西福寺", "city": "竹田市", "postcode": "8796132", "prefecture": "大分県", "id": 1142 },
        { "address": "荻町鴫田", "city": "竹田市", "postcode": "8796131", "prefecture": "大分県", "id": 1143 },
        { "address": "荻町新藤", "city": "竹田市", "postcode": "8796103", "prefecture": "大分県", "id": 1144 },
        { "address": "荻町高城", "city": "竹田市", "postcode": "8796116", "prefecture": "大分県", "id": 1145 },
        { "address": "荻町高練木", "city": "竹田市", "postcode": "8796128", "prefecture": "大分県", "id": 1146 },
        { "address": "荻町田代", "city": "竹田市", "postcode": "8796133", "prefecture": "大分県", "id": 1147 },
        { "address": "荻町馬場", "city": "竹田市", "postcode": "8796115", "prefecture": "大分県", "id": 1148 },
        { "address": "荻町陽目", "city": "竹田市", "postcode": "8796124", "prefecture": "大分県", "id": 1149 },
        { "address": "荻町藤渡", "city": "竹田市", "postcode": "8796104", "prefecture": "大分県", "id": 1150 },
        { "address": "荻町仏面", "city": "竹田市", "postcode": "8796125", "prefecture": "大分県", "id": 1151 },
        { "address": "荻町馬背野", "city": "竹田市", "postcode": "8796112", "prefecture": "大分県", "id": 1152 },
        { "address": "荻町政所", "city": "竹田市", "postcode": "8796102", "prefecture": "大分県", "id": 1153 },
        { "address": "荻町南河内", "city": "竹田市", "postcode": "8796111", "prefecture": "大分県", "id": 1154 },
        { "address": "荻町宮平", "city": "竹田市", "postcode": "8796123", "prefecture": "大分県", "id": 1155 },
        { "address": "小塚", "city": "竹田市", "postcode": "8796181", "prefecture": "大分県", "id": 1156 },
        { "address": "片ケ瀬", "city": "竹田市", "postcode": "8780003", "prefecture": "大分県", "id": 1157 },
        { "address": "上坂田", "city": "竹田市", "postcode": "8780161", "prefecture": "大分県", "id": 1158 },
        { "address": "上畑", "city": "竹田市", "postcode": "8780163", "prefecture": "大分県", "id": 1159 },
        { "address": "刈小野", "city": "竹田市", "postcode": "8780164", "prefecture": "大分県", "id": 1160 },
        { "address": "川床", "city": "竹田市", "postcode": "8780154", "prefecture": "大分県", "id": 1161 },
        { "address": "城原", "city": "竹田市", "postcode": "8780143", "prefecture": "大分県", "id": 1162 },
        { "address": "君ケ園", "city": "竹田市", "postcode": "8780023", "prefecture": "大分県", "id": 1163 },
        { "address": "九重野", "city": "竹田市", "postcode": "8780572", "prefecture": "大分県", "id": 1164 },
        { "address": "久住町有氏", "city": "竹田市", "postcode": "8780202", "prefecture": "大分県", "id": 1165 },
        { "address": "久住町栢木", "city": "竹田市", "postcode": "8780204", "prefecture": "大分県", "id": 1166 },
        { "address": "久住町久住", "city": "竹田市", "postcode": "8780201", "prefecture": "大分県", "id": 1167 },
        { "address": "久住町白丹", "city": "竹田市", "postcode": "8780205", "prefecture": "大分県", "id": 1168 },
        { "address": "久住町添ケ津留", "city": "竹田市", "postcode": "8780206", "prefecture": "大分県", "id": 1169 },
        { "address": "久住町仏原", "city": "竹田市", "postcode": "8780203", "prefecture": "大分県", "id": 1170 },
        { "address": "久保", "city": "竹田市", "postcode": "8780256", "prefecture": "大分県", "id": 1171 },
        { "address": "久保", "city": "竹田市", "postcode": "8780156", "prefecture": "大分県", "id": 1172 },
        { "address": "倉木", "city": "竹田市", "postcode": "8780576", "prefecture": "大分県", "id": 1173 },
        { "address": "神原", "city": "竹田市", "postcode": "8780574", "prefecture": "大分県", "id": 1174 },
        { "address": "志土知", "city": "竹田市", "postcode": "8780155", "prefecture": "大分県", "id": 1175 },
        { "address": "下坂田", "city": "竹田市", "postcode": "8780151", "prefecture": "大分県", "id": 1176 },
        { "address": "下志土知", "city": "竹田市", "postcode": "8780152", "prefecture": "大分県", "id": 1177 },
        { "address": "菅生", "city": "竹田市", "postcode": "8796184", "prefecture": "大分県", "id": 1178 },
        { "address": "炭竈", "city": "竹田市", "postcode": "8780162", "prefecture": "大分県", "id": 1179 },
        { "address": "田井", "city": "竹田市", "postcode": "8780575", "prefecture": "大分県", "id": 1180 },
        { "address": "高伏", "city": "竹田市", "postcode": "8780144", "prefecture": "大分県", "id": 1181 },
        { "address": "竹田", "city": "竹田市", "postcode": "8780013", "prefecture": "大分県", "id": 1182 },
        { "address": "竹田町", "city": "竹田市", "postcode": "8780012", "prefecture": "大分県", "id": 1183 },
        { "address": "玉来", "city": "竹田市", "postcode": "8780024", "prefecture": "大分県", "id": 1184 },
        { "address": "次倉", "city": "竹田市", "postcode": "8780571", "prefecture": "大分県", "id": 1185 },
        { "address": "戸上", "city": "竹田市", "postcode": "8796183", "prefecture": "大分県", "id": 1186 },
        { "address": "直入町上田北", "city": "竹田市", "postcode": "8780403", "prefecture": "大分県", "id": 1187 },
        { "address": "直入町神堤", "city": "竹田市", "postcode": "8780401", "prefecture": "大分県", "id": 1188 },
        { "address": "直入町下田北", "city": "竹田市", "postcode": "8780404", "prefecture": "大分県", "id": 1189 },
        { "address": "直入町長湯", "city": "竹田市", "postcode": "8780402", "prefecture": "大分県", "id": 1190 },
        { "address": "中", "city": "竹田市", "postcode": "8780004", "prefecture": "大分県", "id": 1191 },
        { "address": "中角", "city": "竹田市", "postcode": "8780573", "prefecture": "大分県", "id": 1192 },
        { "address": "入田", "city": "竹田市", "postcode": "8780033", "prefecture": "大分県", "id": 1193 },
        { "address": "拝田原", "city": "竹田市", "postcode": "8780025", "prefecture": "大分県", "id": 1194 },
        { "address": "挾田", "city": "竹田市", "postcode": "8780005", "prefecture": "大分県", "id": 1195 },
        { "address": "飛田川", "city": "竹田市", "postcode": "8780026", "prefecture": "大分県", "id": 1196 },
        { "address": "平田", "city": "竹田市", "postcode": "8780006", "prefecture": "大分県", "id": 1197 },
        { "address": "福原", "city": "竹田市", "postcode": "8780142", "prefecture": "大分県", "id": 1198 },
        { "address": "古園", "city": "竹田市", "postcode": "8780146", "prefecture": "大分県", "id": 1199 },
        { "address": "三宅", "city": "竹田市", "postcode": "8780007", "prefecture": "大分県", "id": 1200 },
        { "address": "向山田", "city": "竹田市", "postcode": "8780027", "prefecture": "大分県", "id": 1201 },
        { "address": "門田", "city": "竹田市", "postcode": "8780034", "prefecture": "大分県", "id": 1202 },
        { "address": "吉田", "city": "竹田市", "postcode": "8780035", "prefecture": "大分県", "id": 1203 },
        { "address": "米納", "city": "竹田市", "postcode": "8780145", "prefecture": "大分県", "id": 1204 },
        { "address": "渡瀬", "city": "竹田市", "postcode": "8780028", "prefecture": "大分県", "id": 1205 },
        { "city": "豊後高田市", "postcode": "8790600", "prefecture": "大分県", "id": 1206 },
        { "address": "荒尾", "city": "豊後高田市", "postcode": "8790733", "prefecture": "大分県", "id": 1207 },
        { "address": "一畑", "city": "豊後高田市", "postcode": "8790722", "prefecture": "大分県", "id": 1208 },
        { "address": "今町", "city": "豊後高田市", "postcode": "8790626", "prefecture": "大分県", "id": 1209 },
        { "address": "臼野", "city": "豊後高田市", "postcode": "8721107", "prefecture": "大分県", "id": 1210 },
        { "address": "梅ノ木", "city": "豊後高田市", "postcode": "8790723", "prefecture": "大分県", "id": 1211 },
        { "address": "夷", "city": "豊後高田市", "postcode": "8721201", "prefecture": "大分県", "id": 1212 },
        { "address": "大岩屋", "city": "豊後高田市", "postcode": "8721102", "prefecture": "大分県", "id": 1213 },
        { "address": "大平", "city": "豊後高田市", "postcode": "8721106", "prefecture": "大分県", "id": 1214 },
        { "address": "御玉", "city": "豊後高田市", "postcode": "8790605", "prefecture": "大分県", "id": 1215 },
        { "address": "香々地", "city": "豊後高田市", "postcode": "8721202", "prefecture": "大分県", "id": 1216 },
        { "address": "鍛治屋町", "city": "豊後高田市", "postcode": "8790622", "prefecture": "大分県", "id": 1217 },
        { "address": "堅来", "city": "豊後高田市", "postcode": "8721203", "prefecture": "大分県", "id": 1218 },
        { "address": "鼎", "city": "豊後高田市", "postcode": "8790603", "prefecture": "大分県", "id": 1219 },
        { "address": "金谷町", "city": "豊後高田市", "postcode": "8790623", "prefecture": "大分県", "id": 1220 },
        { "address": "上香々地", "city": "豊後高田市", "postcode": "8721204", "prefecture": "大分県", "id": 1221 },
        { "address": "加礼川", "city": "豊後高田市", "postcode": "8790721", "prefecture": "大分県", "id": 1222 },
        { "address": "草地", "city": "豊後高田市", "postcode": "8790601", "prefecture": "大分県", "id": 1223 },
        { "address": "来縄", "city": "豊後高田市", "postcode": "8790614", "prefecture": "大分県", "id": 1224 },
        { "address": "呉崎", "city": "豊後高田市", "postcode": "8790608", "prefecture": "大分県", "id": 1225 },
        { "address": "黒土", "city": "豊後高田市", "postcode": "8721103", "prefecture": "大分県", "id": 1226 },
        { "address": "小田原", "city": "豊後高田市", "postcode": "8790613", "prefecture": "大分県", "id": 1227 },
        { "address": "小畑", "city": "豊後高田市", "postcode": "8721205", "prefecture": "大分県", "id": 1228 },
        { "address": "是永町", "city": "豊後高田市", "postcode": "8790621", "prefecture": "大分県", "id": 1229 },
        { "address": "界", "city": "豊後高田市", "postcode": "8790615", "prefecture": "大分県", "id": 1230 },
        { "address": "佐野", "city": "豊後高田市", "postcode": "8790612", "prefecture": "大分県", "id": 1231 },
        { "address": "城前", "city": "豊後高田市", "postcode": "8721104", "prefecture": "大分県", "id": 1232 },
        { "address": "城台", "city": "豊後高田市", "postcode": "8790609", "prefecture": "大分県", "id": 1233 },
        { "address": "新栄", "city": "豊後高田市", "postcode": "8790607", "prefecture": "大分県", "id": 1234 },
        { "address": "新城", "city": "豊後高田市", "postcode": "8790724", "prefecture": "大分県", "id": 1235 },
        { "address": "新地", "city": "豊後高田市", "postcode": "8790627", "prefecture": "大分県", "id": 1236 },
        { "address": "新町", "city": "豊後高田市", "postcode": "8790628", "prefecture": "大分県", "id": 1237 },
        { "address": "大力", "city": "豊後高田市", "postcode": "8790732", "prefecture": "大分県", "id": 1238 },
        { "address": "高田", "city": "豊後高田市", "postcode": "8790617", "prefecture": "大分県", "id": 1239 },
        { "address": "田染相原", "city": "豊後高田市", "postcode": "8790843", "prefecture": "大分県", "id": 1240 },
        { "address": "田染池部", "city": "豊後高田市", "postcode": "8790842", "prefecture": "大分県", "id": 1241 },
        { "address": "田染上野", "city": "豊後高田市", "postcode": "8790844", "prefecture": "大分県", "id": 1242 },
        { "address": "田染小崎", "city": "豊後高田市", "postcode": "8790854", "prefecture": "大分県", "id": 1243 },
        { "address": "田染平野", "city": "豊後高田市", "postcode": "8790853", "prefecture": "大分県", "id": 1244 },
        { "address": "田染蕗", "city": "豊後高田市", "postcode": "8790841", "prefecture": "大分県", "id": 1245 },
        { "address": "田染真木", "city": "豊後高田市", "postcode": "8790855", "prefecture": "大分県", "id": 1246 },
        { "address": "田染真中", "city": "豊後高田市", "postcode": "8790852", "prefecture": "大分県", "id": 1247 },
        { "address": "田染横嶺", "city": "豊後高田市", "postcode": "8790851", "prefecture": "大分県", "id": 1248 },
        { "address": "玉津", "city": "豊後高田市", "postcode": "8790606", "prefecture": "大分県", "id": 1249 },
        { "address": "中央通", "city": "豊後高田市", "postcode": "8790618", "prefecture": "大分県", "id": 1250 },
        { "address": "築地", "city": "豊後高田市", "postcode": "8790734", "prefecture": "大分県", "id": 1251 },
        { "address": "長岩屋", "city": "豊後高田市", "postcode": "8790731", "prefecture": "大分県", "id": 1252 },
        { "address": "中真玉", "city": "豊後高田市", "postcode": "8721101", "prefecture": "大分県", "id": 1253 },
        { "address": "西真玉", "city": "豊後高田市", "postcode": "8721105", "prefecture": "大分県", "id": 1254 },
        { "address": "浜町", "city": "豊後高田市", "postcode": "8790619", "prefecture": "大分県", "id": 1255 },
        { "address": "羽根", "city": "豊後高田市", "postcode": "8721206", "prefecture": "大分県", "id": 1256 },
        { "address": "払田", "city": "豊後高田市", "postcode": "8790602", "prefecture": "大分県", "id": 1257 },
        { "address": "本町", "city": "豊後高田市", "postcode": "8790624", "prefecture": "大分県", "id": 1258 },
        { "address": "松行", "city": "豊後高田市", "postcode": "8790735", "prefecture": "大分県", "id": 1259 },
        { "address": "水崎", "city": "豊後高田市", "postcode": "8790616", "prefecture": "大分県", "id": 1260 },
        { "address": "水取", "city": "豊後高田市", "postcode": "8790625", "prefecture": "大分県", "id": 1261 },
        { "address": "見目", "city": "豊後高田市", "postcode": "8721207", "prefecture": "大分県", "id": 1262 },
        { "address": "美和", "city": "豊後高田市", "postcode": "8790604", "prefecture": "大分県", "id": 1263 },
        { "address": "森", "city": "豊後高田市", "postcode": "8790611", "prefecture": "大分県", "id": 1264 },
        { "city": "杵築市", "postcode": "8730000", "prefecture": "大分県", "id": 1265 },
        { "address": "相原", "city": "杵築市", "postcode": "8730011", "prefecture": "大分県", "id": 1266 },
        { "address": "猪尾", "city": "杵築市", "postcode": "8730005", "prefecture": "大分県", "id": 1267 },
        { "address": "岩谷", "city": "杵築市", "postcode": "8730021", "prefecture": "大分県", "id": 1268 },
        { "address": "大内", "city": "杵築市", "postcode": "8730006", "prefecture": "大分県", "id": 1269 },
        { "address": "大片平", "city": "杵築市", "postcode": "8730022", "prefecture": "大分県", "id": 1270 },
        { "address": "大田石丸", "city": "杵築市", "postcode": "8790901", "prefecture": "大分県", "id": 1271 },
        { "address": "大田小野", "city": "杵築市", "postcode": "8790904", "prefecture": "大分県", "id": 1272 },
        { "address": "大田沓掛", "city": "杵築市", "postcode": "8790902", "prefecture": "大分県", "id": 1273 },
        { "address": "大田白木原", "city": "杵築市", "postcode": "8790912", "prefecture": "大分県", "id": 1274 },
        { "address": "大田永松", "city": "杵築市", "postcode": "8790903", "prefecture": "大分県", "id": 1275 },
        { "address": "大田波多方", "city": "杵築市", "postcode": "8790911", "prefecture": "大分県", "id": 1276 },
        { "address": "大田俣水", "city": "杵築市", "postcode": "8730041", "prefecture": "大分県", "id": 1277 },
        { "address": "大田俣水", "city": "杵築市", "postcode": "8790941", "prefecture": "大分県", "id": 1278 },
        { "address": "片野", "city": "杵築市", "postcode": "8730007", "prefecture": "大分県", "id": 1279 },
        { "address": "鴨川", "city": "杵築市", "postcode": "8730023", "prefecture": "大分県", "id": 1280 },
        { "address": "狩宿", "city": "杵築市", "postcode": "8730031", "prefecture": "大分県", "id": 1281 },
        { "address": "杵築", "city": "杵築市", "postcode": "8730001", "prefecture": "大分県", "id": 1282 },
        { "address": "熊野", "city": "杵築市", "postcode": "8730008", "prefecture": "大分県", "id": 1283 },
        { "address": "中", "city": "杵築市", "postcode": "8730012", "prefecture": "大分県", "id": 1284 },
        { "address": "奈多", "city": "杵築市", "postcode": "8730032", "prefecture": "大分県", "id": 1285 },
        { "address": "馬場尾", "city": "杵築市", "postcode": "8730003", "prefecture": "大分県", "id": 1286 },
        { "address": "日野", "city": "杵築市", "postcode": "8730013", "prefecture": "大分県", "id": 1287 },
        { "address": "船部", "city": "杵築市", "postcode": "8730024", "prefecture": "大分県", "id": 1288 },
        { "address": "本庄", "city": "杵築市", "postcode": "8730014", "prefecture": "大分県", "id": 1289 },
        { "address": "溝井", "city": "杵築市", "postcode": "8730025", "prefecture": "大分県", "id": 1290 },
        { "address": "南杵築", "city": "杵築市", "postcode": "8730002", "prefecture": "大分県", "id": 1291 },
        { "address": "宮司", "city": "杵築市", "postcode": "8730004", "prefecture": "大分県", "id": 1292 },
        { "address": "守江", "city": "杵築市", "postcode": "8730033", "prefecture": "大分県", "id": 1293 },
        { "address": "八坂", "city": "杵築市", "postcode": "8730015", "prefecture": "大分県", "id": 1294 },
        { "address": "山香町内河野", "city": "杵築市", "postcode": "8791311", "prefecture": "大分県", "id": 1295 },
        { "address": "山香町小武", "city": "杵築市", "postcode": "8791304", "prefecture": "大分県", "id": 1296 },
        { "address": "山香町久木野尾", "city": "杵築市", "postcode": "8791313", "prefecture": "大分県", "id": 1297 },
        { "address": "山香町倉成", "city": "杵築市", "postcode": "8791305", "prefecture": "大分県", "id": 1298 },
        { "address": "山香町下", "city": "杵築市", "postcode": "8791303", "prefecture": "大分県", "id": 1299 },
        { "address": "山香町立石", "city": "杵築市", "postcode": "8791302", "prefecture": "大分県", "id": 1300 },
        { "address": "山香町野原", "city": "杵築市", "postcode": "8791307", "prefecture": "大分県", "id": 1301 },
        { "address": "山香町日指", "city": "杵築市", "postcode": "8791312", "prefecture": "大分県", "id": 1302 },
        { "address": "山香町広瀬", "city": "杵築市", "postcode": "8791306", "prefecture": "大分県", "id": 1303 },
        { "address": "山香町南畑", "city": "杵築市", "postcode": "8791314", "prefecture": "大分県", "id": 1304 },
        { "address": "山香町向野", "city": "杵築市", "postcode": "8791301", "prefecture": "大分県", "id": 1305 },
        { "address": "山香町山浦", "city": "杵築市", "postcode": "8791315", "prefecture": "大分県", "id": 1306 },
        { "address": "山香町吉野渡", "city": "杵築市", "postcode": "8791316", "prefecture": "大分県", "id": 1307 },
        { "address": "横城", "city": "杵築市", "postcode": "8730034", "prefecture": "大分県", "id": 1308 },
        { "city": "宇佐市", "postcode": "8720000", "prefecture": "大分県", "id": 1309 },
        { "address": "青森", "city": "宇佐市", "postcode": "8791138", "prefecture": "大分県", "id": 1310 },
        { "address": "赤尾", "city": "宇佐市", "postcode": "8790233", "prefecture": "大分県", "id": 1311 },
        { "address": "安心院町板場", "city": "宇佐市", "postcode": "8720732", "prefecture": "大分県", "id": 1312 },
        { "address": "安心院町今井", "city": "宇佐市", "postcode": "8720518", "prefecture": "大分県", "id": 1313 },
        { "address": "安心院町筌ノ口", "city": "宇佐市", "postcode": "8720843", "prefecture": "大分県", "id": 1314 },
        { "address": "安心院町内川野", "city": "宇佐市", "postcode": "8720654", "prefecture": "大分県", "id": 1315 },
        { "address": "安心院町有徳原", "city": "宇佐市", "postcode": "8720510", "prefecture": "大分県", "id": 1316 },
        { "address": "安心院町大見尾", "city": "宇佐市", "postcode": "8720663", "prefecture": "大分県", "id": 1317 },
        { "address": "安心院町折敷田", "city": "宇佐市", "postcode": "8720522", "prefecture": "大分県", "id": 1318 },
        { "address": "安心院町尾立", "city": "宇佐市", "postcode": "8720703", "prefecture": "大分県", "id": 1319 },
        { "address": "安心院町且尾", "city": "宇佐市", "postcode": "8720671", "prefecture": "大分県", "id": 1320 },
        { "address": "安心院町上市", "city": "宇佐市", "postcode": "8720511", "prefecture": "大分県", "id": 1321 },
        { "address": "安心院町上内河野", "city": "宇佐市", "postcode": "8720852", "prefecture": "大分県", "id": 1322 },
        { "address": "安心院町萱籠", "city": "宇佐市", "postcode": "8720723", "prefecture": "大分県", "id": 1323 },
        { "address": "安心院町川崎", "city": "宇佐市", "postcode": "8720731", "prefecture": "大分県", "id": 1324 },
        { "address": "安心院町川底", "city": "宇佐市", "postcode": "8720862", "prefecture": "大分県", "id": 1325 },
        { "address": "安心院町木裳", "city": "宇佐市", "postcode": "8720507", "prefecture": "大分県", "id": 1326 },
        { "address": "安心院町久井田", "city": "宇佐市", "postcode": "8720674", "prefecture": "大分県", "id": 1327 },
        { "address": "安心院町口ノ坪", "city": "宇佐市", "postcode": "8720673", "prefecture": "大分県", "id": 1328 },
        { "address": "安心院町熊", "city": "宇佐市", "postcode": "8720541", "prefecture": "大分県", "id": 1329 },
        { "address": "安心院町五郎丸", "city": "宇佐市", "postcode": "8720712", "prefecture": "大分県", "id": 1330 },
        { "address": "安心院町境ノ坪", "city": "宇佐市", "postcode": "8720861", "prefecture": "大分県", "id": 1331 },
        { "address": "安心院町笹ケ平", "city": "宇佐市", "postcode": "8720661", "prefecture": "大分県", "id": 1332 },
        { "address": "安心院町佐田", "city": "宇佐市", "postcode": "8720651", "prefecture": "大分県", "id": 1333 },
        { "address": "安心院町下内河野", "city": "宇佐市", "postcode": "8720842", "prefecture": "大分県", "id": 1334 },
        { "address": "安心院町下毛", "city": "宇佐市", "postcode": "8720521", "prefecture": "大分県", "id": 1335 },
        { "address": "安心院町荘", "city": "宇佐市", "postcode": "8720504", "prefecture": "大分県", "id": 1336 },
        { "address": "安心院町正覚寺", "city": "宇佐市", "postcode": "8720542", "prefecture": "大分県", "id": 1337 },
        { "address": "安心院町新貝", "city": "宇佐市", "postcode": "8720873", "prefecture": "大分県", "id": 1338 },
        { "address": "安心院町寒水", "city": "宇佐市", "postcode": "8720854", "prefecture": "大分県", "id": 1339 },
        { "address": "安心院町村部", "city": "宇佐市", "postcode": "8720863", "prefecture": "大分県", "id": 1340 },
        { "address": "安心院町大", "city": "宇佐市", "postcode": "8720517", "prefecture": "大分県", "id": 1341 },
        { "address": "安心院町大佛", "city": "宇佐市", "postcode": "8720523", "prefecture": "大分県", "id": 1342 },
        { "address": "安心院町畳石", "city": "宇佐市", "postcode": "8720857", "prefecture": "大分県", "id": 1343 },
        { "address": "安心院町田ノ口", "city": "宇佐市", "postcode": "8720526", "prefecture": "大分県", "id": 1344 },
        { "address": "安心院町辻", "city": "宇佐市", "postcode": "8720527", "prefecture": "大分県", "id": 1345 },
        { "address": "安心院町恒松", "city": "宇佐市", "postcode": "8720524", "prefecture": "大分県", "id": 1346 },
        { "address": "安心院町妻垣", "city": "宇佐市", "postcode": "8720506", "prefecture": "大分県", "id": 1347 },
        { "address": "安心院町塔尾", "city": "宇佐市", "postcode": "8720664", "prefecture": "大分県", "id": 1348 },
        { "address": "安心院町戸方", "city": "宇佐市", "postcode": "8720505", "prefecture": "大分県", "id": 1349 },
        { "address": "安心院町鳥越", "city": "宇佐市", "postcode": "8720514", "prefecture": "大分県", "id": 1350 },
        { "address": "安心院町中山", "city": "宇佐市", "postcode": "8720525", "prefecture": "大分県", "id": 1351 },
        { "address": "安心院町楢本", "city": "宇佐市", "postcode": "8720701", "prefecture": "大分県", "id": 1352 },
        { "address": "安心院町新原", "city": "宇佐市", "postcode": "8720503", "prefecture": "大分県", "id": 1353 },
        { "address": "安心院町西衲", "city": "宇佐市", "postcode": "8720519", "prefecture": "大分県", "id": 1354 },
        { "address": "安心院町野山", "city": "宇佐市", "postcode": "8720515", "prefecture": "大分県", "id": 1355 },
        { "address": "安心院町原", "city": "宇佐市", "postcode": "8720501", "prefecture": "大分県", "id": 1356 },
        { "address": "安心院町番木", "city": "宇佐市", "postcode": "8720864", "prefecture": "大分県", "id": 1357 },
        { "address": "安心院町飯田", "city": "宇佐市", "postcode": "8720502", "prefecture": "大分県", "id": 1358 },
        { "address": "安心院町東恵良", "city": "宇佐市", "postcode": "8720702", "prefecture": "大分県", "id": 1359 },
        { "address": "安心院町東椎屋", "city": "宇佐市", "postcode": "8720724", "prefecture": "大分県", "id": 1360 },
        { "address": "安心院町平ケ倉", "city": "宇佐市", "postcode": "8720543", "prefecture": "大分県", "id": 1361 },
        { "address": "安心院町平山", "city": "宇佐市", "postcode": "8720871", "prefecture": "大分県", "id": 1362 },
        { "address": "安心院町広谷", "city": "宇佐市", "postcode": "8720672", "prefecture": "大分県", "id": 1363 },
        { "address": "安心院町広連", "city": "宇佐市", "postcode": "8720851", "prefecture": "大分県", "id": 1364 },
        { "address": "安心院町福貴野", "city": "宇佐市", "postcode": "8720855", "prefecture": "大分県", "id": 1365 },
        { "address": "安心院町舟板", "city": "宇佐市", "postcode": "8720872", "prefecture": "大分県", "id": 1366 },
        { "address": "安心院町古市", "city": "宇佐市", "postcode": "8720512", "prefecture": "大分県", "id": 1367 },
        { "address": "安心院町古川", "city": "宇佐市", "postcode": "8720655", "prefecture": "大分県", "id": 1368 },
        { "address": "安心院町房ケ畑", "city": "宇佐市", "postcode": "8720653", "prefecture": "大分県", "id": 1369 },
        { "address": "安心院町佛木", "city": "宇佐市", "postcode": "8720865", "prefecture": "大分県", "id": 1370 },
        { "address": "安心院町松本", "city": "宇佐市", "postcode": "8720733", "prefecture": "大分県", "id": 1371 },
        { "address": "安心院町水車", "city": "宇佐市", "postcode": "8720858", "prefecture": "大分県", "id": 1372 },
        { "address": "安心院町南畑", "city": "宇佐市", "postcode": "8720722", "prefecture": "大分県", "id": 1373 },
        { "address": "安心院町元", "city": "宇佐市", "postcode": "8720853", "prefecture": "大分県", "id": 1374 },
        { "address": "安心院町森", "city": "宇佐市", "postcode": "8720516", "prefecture": "大分県", "id": 1375 },
        { "address": "安心院町矢崎", "city": "宇佐市", "postcode": "8720675", "prefecture": "大分県", "id": 1376 },
        { "address": "安心院町矢津", "city": "宇佐市", "postcode": "8720662", "prefecture": "大分県", "id": 1377 },
        { "address": "安心院町矢畑", "city": "宇佐市", "postcode": "8720841", "prefecture": "大分県", "id": 1378 },
        { "address": "安心院町山蔵", "city": "宇佐市", "postcode": "8720652", "prefecture": "大分県", "id": 1379 },
        { "address": "安心院町山ノ口", "city": "宇佐市", "postcode": "8720856", "prefecture": "大分県", "id": 1380 },
        { "address": "安心院町龍王", "city": "宇佐市", "postcode": "8720513", "prefecture": "大分県", "id": 1381 },
        { "address": "安心院町六郎丸", "city": "宇佐市", "postcode": "8720711", "prefecture": "大分県", "id": 1382 },
        { "address": "安心院町若林", "city": "宇佐市", "postcode": "8720721", "prefecture": "大分県", "id": 1383 },
        { "address": "麻生", "city": "宇佐市", "postcode": "8790501", "prefecture": "大分県", "id": 1384 },
        { "address": "荒木", "city": "宇佐市", "postcode": "8790312", "prefecture": "大分県", "id": 1385 },
        { "address": "石田", "city": "宇佐市", "postcode": "8790444", "prefecture": "大分県", "id": 1386 },
        { "address": "出光", "city": "宇佐市", "postcode": "8791131", "prefecture": "大分県", "id": 1387 },
        { "address": "今成", "city": "宇佐市", "postcode": "8790514", "prefecture": "大分県", "id": 1388 },
        { "address": "今仁", "city": "宇佐市", "postcode": "8790234", "prefecture": "大分県", "id": 1389 },
        { "address": "岩崎", "city": "宇佐市", "postcode": "8791132", "prefecture": "大分県", "id": 1390 },
        { "address": "岩保新田", "city": "宇佐市", "postcode": "8720011", "prefecture": "大分県", "id": 1391 },
        { "address": "院内町大重見", "city": "宇佐市", "postcode": "8720323", "prefecture": "大分県", "id": 1392 },
        { "address": "院内町大副", "city": "宇佐市", "postcode": "8720331", "prefecture": "大分県", "id": 1393 },
        { "address": "院内町大坪", "city": "宇佐市", "postcode": "8720458", "prefecture": "大分県", "id": 1394 },
        { "address": "院内町岡", "city": "宇佐市", "postcode": "8720457", "prefecture": "大分県", "id": 1395 },
        { "address": "院内町沖", "city": "宇佐市", "postcode": "8720314", "prefecture": "大分県", "id": 1396 },
        { "address": "院内町荻迫", "city": "宇佐市", "postcode": "8720482", "prefecture": "大分県", "id": 1397 },
        { "address": "院内町小坂", "city": "宇佐市", "postcode": "8720316", "prefecture": "大分県", "id": 1398 },
        { "address": "院内町落狩倉", "city": "宇佐市", "postcode": "8720334", "prefecture": "大分県", "id": 1399 },
        { "address": "院内町小野川内", "city": "宇佐市", "postcode": "8720324", "prefecture": "大分県", "id": 1400 },
        { "address": "院内町景平", "city": "宇佐市", "postcode": "8720342", "prefecture": "大分県", "id": 1401 },
        { "address": "院内町上余", "city": "宇佐市", "postcode": "8720459", "prefecture": "大分県", "id": 1402 },
        { "address": "院内町上恵良", "city": "宇佐市", "postcode": "8720484", "prefecture": "大分県", "id": 1403 },
        { "address": "院内町上納持", "city": "宇佐市", "postcode": "8720452", "prefecture": "大分県", "id": 1404 },
        { "address": "院内町上船木", "city": "宇佐市", "postcode": "8720326", "prefecture": "大分県", "id": 1405 },
        { "address": "院内町北山", "city": "宇佐市", "postcode": "8720315", "prefecture": "大分県", "id": 1406 },
        { "address": "院内町櫛野", "city": "宇佐市", "postcode": "8720312", "prefecture": "大分県", "id": 1407 },
        { "address": "院内町来鉢", "city": "宇佐市", "postcode": "8720466", "prefecture": "大分県", "id": 1408 },
        { "address": "院内町栗山", "city": "宇佐市", "postcode": "8720456", "prefecture": "大分県", "id": 1409 },
        { "address": "院内町小稲", "city": "宇佐市", "postcode": "8720325", "prefecture": "大分県", "id": 1410 },
        { "address": "院内町香下", "city": "宇佐市", "postcode": "8720311", "prefecture": "大分県", "id": 1411 },
        { "address": "院内町小平", "city": "宇佐市", "postcode": "8720455", "prefecture": "大分県", "id": 1412 },
        { "address": "院内町五名", "city": "宇佐市", "postcode": "8720321", "prefecture": "大分県", "id": 1413 },
        { "address": "院内町斎藤", "city": "宇佐市", "postcode": "8720341", "prefecture": "大分県", "id": 1414 },
        { "address": "院内町下余", "city": "宇佐市", "postcode": "8720451", "prefecture": "大分県", "id": 1415 },
        { "address": "院内町下恵良", "city": "宇佐市", "postcode": "8720481", "prefecture": "大分県", "id": 1416 },
        { "address": "院内町下船木", "city": "宇佐市", "postcode": "8720327", "prefecture": "大分県", "id": 1417 },
        { "address": "院内町定別当", "city": "宇佐市", "postcode": "8720346", "prefecture": "大分県", "id": 1418 },
        { "address": "院内町新洞", "city": "宇佐市", "postcode": "8720313", "prefecture": "大分県", "id": 1419 },
        { "address": "院内町副", "city": "宇佐市", "postcode": "8720318", "prefecture": "大分県", "id": 1420 },
        { "address": "院内町台", "city": "宇佐市", "postcode": "8720461", "prefecture": "大分県", "id": 1421 },
        { "address": "院内町大門", "city": "宇佐市", "postcode": "8720344", "prefecture": "大分県", "id": 1422 },
        { "address": "院内町高並", "city": "宇佐市", "postcode": "8720328", "prefecture": "大分県", "id": 1423 },
        { "address": "院内町滝貞", "city": "宇佐市", "postcode": "8720454", "prefecture": "大分県", "id": 1424 },
        { "address": "院内町田所", "city": "宇佐市", "postcode": "8720473", "prefecture": "大分県", "id": 1425 },
        { "address": "院内町田平", "city": "宇佐市", "postcode": "8720465", "prefecture": "大分県", "id": 1426 },
        { "address": "院内町月俣", "city": "宇佐市", "postcode": "8720345", "prefecture": "大分県", "id": 1427 },
        { "address": "院内町土岩屋", "city": "宇佐市", "postcode": "8720483", "prefecture": "大分県", "id": 1428 },
        { "address": "院内町西椎屋", "city": "宇佐市", "postcode": "8720464", "prefecture": "大分県", "id": 1429 },
        { "address": "院内町温見", "city": "宇佐市", "postcode": "8720471", "prefecture": "大分県", "id": 1430 },
        { "address": "院内町野地", "city": "宇佐市", "postcode": "8720472", "prefecture": "大分県", "id": 1431 },
        { "address": "院内町羽馬礼", "city": "宇佐市", "postcode": "8720462", "prefecture": "大分県", "id": 1432 },
        { "address": "院内町原口", "city": "宇佐市", "postcode": "8720333", "prefecture": "大分県", "id": 1433 },
        { "address": "院内町日岳", "city": "宇佐市", "postcode": "8720322", "prefecture": "大分県", "id": 1434 },
        { "address": "院内町平原", "city": "宇佐市", "postcode": "8720453", "prefecture": "大分県", "id": 1435 },
        { "address": "院内町広瀬", "city": "宇佐市", "postcode": "8720317", "prefecture": "大分県", "id": 1436 },
        { "address": "院内町二日市", "city": "宇佐市", "postcode": "8720302", "prefecture": "大分県", "id": 1437 },
        { "address": "院内町御沓", "city": "宇佐市", "postcode": "8720301", "prefecture": "大分県", "id": 1438 },
        { "address": "院内町宮原", "city": "宇佐市", "postcode": "8720343", "prefecture": "大分県", "id": 1439 },
        { "address": "院内町山城", "city": "宇佐市", "postcode": "8720332", "prefecture": "大分県", "id": 1440 },
        { "address": "院内町和田", "city": "宇佐市", "postcode": "8720463", "prefecture": "大分県", "id": 1441 },
        { "address": "上田", "city": "宇佐市", "postcode": "8790453", "prefecture": "大分県", "id": 1442 },
        { "address": "江熊", "city": "宇佐市", "postcode": "8791126", "prefecture": "大分県", "id": 1443 },
        { "address": "江須賀", "city": "宇佐市", "postcode": "8720032", "prefecture": "大分県", "id": 1444 },
        { "address": "大塚", "city": "宇佐市", "postcode": "8790464", "prefecture": "大分県", "id": 1445 },
        { "address": "大根川", "city": "宇佐市", "postcode": "8790232", "prefecture": "大分県", "id": 1446 },
        { "address": "沖須町", "city": "宇佐市", "postcode": "8720031", "prefecture": "大分県", "id": 1447 },
        { "address": "乙女新田", "city": "宇佐市", "postcode": "8790301", "prefecture": "大分県", "id": 1448 },
        { "address": "尾永井", "city": "宇佐市", "postcode": "8790304", "prefecture": "大分県", "id": 1449 },
        { "address": "金丸", "city": "宇佐市", "postcode": "8791128", "prefecture": "大分県", "id": 1450 },
        { "address": "金屋", "city": "宇佐市", "postcode": "8720021", "prefecture": "大分県", "id": 1451 },
        { "address": "上乙女", "city": "宇佐市", "postcode": "8790303", "prefecture": "大分県", "id": 1452 },
        { "address": "上敷田", "city": "宇佐市", "postcode": "8790163", "prefecture": "大分県", "id": 1453 },
        { "address": "上庄", "city": "宇佐市", "postcode": "8790153", "prefecture": "大分県", "id": 1454 },
        { "address": "上高", "city": "宇佐市", "postcode": "8790313", "prefecture": "大分県", "id": 1455 },
        { "address": "上高家", "city": "宇佐市", "postcode": "8790305", "prefecture": "大分県", "id": 1456 },
        { "address": "上時枝", "city": "宇佐市", "postcode": "8790315", "prefecture": "大分県", "id": 1457 },
        { "address": "上拝田", "city": "宇佐市", "postcode": "8720366", "prefecture": "大分県", "id": 1458 },
        { "address": "上拝田", "city": "宇佐市", "postcode": "8790466", "prefecture": "大分県", "id": 1459 },
        { "address": "上元重", "city": "宇佐市", "postcode": "8790472", "prefecture": "大分県", "id": 1460 },
        { "address": "上矢部", "city": "宇佐市", "postcode": "8720112", "prefecture": "大分県", "id": 1461 },
        { "address": "辛島", "city": "宇佐市", "postcode": "8790456", "prefecture": "大分県", "id": 1462 },
        { "address": "苅宇田", "city": "宇佐市", "postcode": "8791137", "prefecture": "大分県", "id": 1463 },
        { "address": "川部", "city": "宇佐市", "postcode": "8790452", "prefecture": "大分県", "id": 1464 },
        { "address": "北宇佐", "city": "宇佐市", "postcode": "8720103", "prefecture": "大分県", "id": 1465 },
        { "address": "北鶴田新田", "city": "宇佐市", "postcode": "8720013", "prefecture": "大分県", "id": 1466 },
        { "address": "木内", "city": "宇佐市", "postcode": "8790516", "prefecture": "大分県", "id": 1467 },
        { "address": "貴船町", "city": "宇佐市", "postcode": "8720042", "prefecture": "大分県", "id": 1468 },
        { "address": "木部", "city": "宇佐市", "postcode": "8790235", "prefecture": "大分県", "id": 1469 },
        { "address": "久兵衛新田", "city": "宇佐市", "postcode": "8720012", "prefecture": "大分県", "id": 1470 },
        { "address": "葛原", "city": "宇佐市", "postcode": "8790443", "prefecture": "大分県", "id": 1471 },
        { "address": "熊", "city": "宇佐市", "postcode": "8720114", "prefecture": "大分県", "id": 1472 },
        { "address": "黒", "city": "宇佐市", "postcode": "8790512", "prefecture": "大分県", "id": 1473 },
        { "address": "郡中新田", "city": "宇佐市", "postcode": "8720045", "prefecture": "大分県", "id": 1474 },
        { "address": "閤", "city": "宇佐市", "postcode": "8790455", "prefecture": "大分県", "id": 1475 },
        { "address": "小向野", "city": "宇佐市", "postcode": "8720104", "prefecture": "大分県", "id": 1476 },
        { "address": "子安町", "city": "宇佐市", "postcode": "8720043", "prefecture": "大分県", "id": 1477 },
        { "address": "西木", "city": "宇佐市", "postcode": "8791136", "prefecture": "大分県", "id": 1478 },
        { "address": "佐々礼", "city": "宇佐市", "postcode": "8720016", "prefecture": "大分県", "id": 1479 },
        { "address": "佐野", "city": "宇佐市", "postcode": "8790237", "prefecture": "大分県", "id": 1480 },
        { "address": "猿渡", "city": "宇佐市", "postcode": "8790314", "prefecture": "大分県", "id": 1481 },
        { "address": "芝原", "city": "宇佐市", "postcode": "8790457", "prefecture": "大分県", "id": 1482 },
        { "address": "清水", "city": "宇佐市", "postcode": "8790236", "prefecture": "大分県", "id": 1483 },
        { "address": "下乙女", "city": "宇佐市", "postcode": "8790302", "prefecture": "大分県", "id": 1484 },
        { "address": "下敷田", "city": "宇佐市", "postcode": "8790161", "prefecture": "大分県", "id": 1485 },
        { "address": "下庄", "city": "宇佐市", "postcode": "8790152", "prefecture": "大分県", "id": 1486 },
        { "address": "下高", "city": "宇佐市", "postcode": "8790317", "prefecture": "大分県", "id": 1487 },
        { "address": "下高家", "city": "宇佐市", "postcode": "8790308", "prefecture": "大分県", "id": 1488 },
        { "address": "下時枝", "city": "宇佐市", "postcode": "8790316", "prefecture": "大分県", "id": 1489 },
        { "address": "下拝田", "city": "宇佐市", "postcode": "8790465", "prefecture": "大分県", "id": 1490 },
        { "address": "下元重", "city": "宇佐市", "postcode": "8790473", "prefecture": "大分県", "id": 1491 },
        { "address": "下矢部", "city": "宇佐市", "postcode": "8720111", "prefecture": "大分県", "id": 1492 },
        { "address": "順風新田", "city": "宇佐市", "postcode": "8720047", "prefecture": "大分県", "id": 1493 },
        { "address": "城井", "city": "宇佐市", "postcode": "8790442", "prefecture": "大分県", "id": 1494 },
        { "address": "正覚寺", "city": "宇佐市", "postcode": "8720113", "prefecture": "大分県", "id": 1495 },
        { "address": "末", "city": "宇佐市", "postcode": "8790515", "prefecture": "大分県", "id": 1496 },
        { "address": "住江", "city": "宇佐市", "postcode": "8720044", "prefecture": "大分県", "id": 1497 },
        { "address": "住吉町", "city": "宇佐市", "postcode": "8720033", "prefecture": "大分県", "id": 1498 },
        { "address": "高砂新田", "city": "宇佐市", "postcode": "8720046", "prefecture": "大分県", "id": 1499 },
        { "address": "高森", "city": "宇佐市", "postcode": "8720101", "prefecture": "大分県", "id": 1500 },
        { "address": "岳ノ首", "city": "宇佐市", "postcode": "8790502", "prefecture": "大分県", "id": 1501 },
        { "address": "立石", "city": "宇佐市", "postcode": "8791123", "prefecture": "大分県", "id": 1502 },
        { "address": "富山", "city": "宇佐市", "postcode": "8790164", "prefecture": "大分県", "id": 1503 },
        { "address": "中", "city": "宇佐市", "postcode": "8790513", "prefecture": "大分県", "id": 1504 },
        { "address": "中敷田", "city": "宇佐市", "postcode": "8790162", "prefecture": "大分県", "id": 1505 },
        { "address": "中原", "city": "宇佐市", "postcode": "8790463", "prefecture": "大分県", "id": 1506 },
        { "address": "長洲", "city": "宇佐市", "postcode": "8720001", "prefecture": "大分県", "id": 1507 },
        { "address": "灘", "city": "宇佐市", "postcode": "8790503", "prefecture": "大分県", "id": 1508 },
        { "address": "西大堀", "city": "宇佐市", "postcode": "8720022", "prefecture": "大分県", "id": 1509 },
        { "address": "西高家", "city": "宇佐市", "postcode": "8790306", "prefecture": "大分県", "id": 1510 },
        { "address": "西屋敷", "city": "宇佐市", "postcode": "8791127", "prefecture": "大分県", "id": 1511 },
        { "address": "蜷木", "city": "宇佐市", "postcode": "8720023", "prefecture": "大分県", "id": 1512 },
        { "address": "橋津", "city": "宇佐市", "postcode": "8791134", "prefecture": "大分県", "id": 1513 },
        { "address": "畑田", "city": "宇佐市", "postcode": "8790451", "prefecture": "大分県", "id": 1514 },
        { "address": "浜高家", "city": "宇佐市", "postcode": "8790307", "prefecture": "大分県", "id": 1515 },
        { "address": "日足", "city": "宇佐市", "postcode": "8791133", "prefecture": "大分県", "id": 1516 },
        { "address": "東大堀", "city": "宇佐市", "postcode": "8791121", "prefecture": "大分県", "id": 1517 },
        { "address": "東高家", "city": "宇佐市", "postcode": "8790309", "prefecture": "大分県", "id": 1518 },
        { "address": "樋田", "city": "宇佐市", "postcode": "8790461", "prefecture": "大分県", "id": 1519 },
        { "address": "別府", "city": "宇佐市", "postcode": "8790462", "prefecture": "大分県", "id": 1520 },
        { "address": "法鏡寺", "city": "宇佐市", "postcode": "8790454", "prefecture": "大分県", "id": 1521 },
        { "address": "松崎", "city": "宇佐市", "postcode": "8720015", "prefecture": "大分県", "id": 1522 },
        { "address": "神子山新田", "city": "宇佐市", "postcode": "8720041", "prefecture": "大分県", "id": 1523 },
        { "address": "南宇佐", "city": "宇佐市", "postcode": "8720102", "prefecture": "大分県", "id": 1524 },
        { "address": "南敷田", "city": "宇佐市", "postcode": "8790231", "prefecture": "大分県", "id": 1525 },
        { "address": "南鶴田新田", "city": "宇佐市", "postcode": "8720014", "prefecture": "大分県", "id": 1526 },
        { "address": "宮熊", "city": "宇佐市", "postcode": "8790151", "prefecture": "大分県", "id": 1527 },
        { "address": "森山", "city": "宇佐市", "postcode": "8790311", "prefecture": "大分県", "id": 1528 },
        { "address": "山", "city": "宇佐市", "postcode": "8791124", "prefecture": "大分県", "id": 1529 },
        { "address": "山口", "city": "宇佐市", "postcode": "8790504", "prefecture": "大分県", "id": 1530 },
        { "address": "山下", "city": "宇佐市", "postcode": "8790474", "prefecture": "大分県", "id": 1531 },
        { "address": "山袋", "city": "宇佐市", "postcode": "8790511", "prefecture": "大分県", "id": 1532 },
        { "address": "山本", "city": "宇佐市", "postcode": "8790467", "prefecture": "大分県", "id": 1533 },
        { "address": "横田", "city": "宇佐市", "postcode": "8791122", "prefecture": "大分県", "id": 1534 },
        { "address": "吉松", "city": "宇佐市", "postcode": "8790441", "prefecture": "大分県", "id": 1535 },
        { "address": "四日市", "city": "宇佐市", "postcode": "8790471", "prefecture": "大分県", "id": 1536 },
        { "address": "両戒", "city": "宇佐市", "postcode": "8791125", "prefecture": "大分県", "id": 1537 },
        { "address": "和気", "city": "宇佐市", "postcode": "8791135", "prefecture": "大分県", "id": 1538 },
        { "city": "豊後大野市", "postcode": "8797100", "prefecture": "大分県", "id": 1539 },
        { "address": "朝地町朝地", "city": "豊後大野市", "postcode": "8796222", "prefecture": "大分県", "id": 1540 },
        { "address": "朝地町池田", "city": "豊後大野市", "postcode": "8796224", "prefecture": "大分県", "id": 1541 },
        { "address": "朝地町板井迫", "city": "豊後大野市", "postcode": "8796223", "prefecture": "大分県", "id": 1542 },
        { "address": "朝地町市万田", "city": "豊後大野市", "postcode": "8796201", "prefecture": "大分県", "id": 1543 },
        { "address": "朝地町上尾塚", "city": "豊後大野市", "postcode": "8796213", "prefecture": "大分県", "id": 1544 },
        { "address": "朝地町栗林", "city": "豊後大野市", "postcode": "8796333", "prefecture": "大分県", "id": 1545 },
        { "address": "朝地町志賀", "city": "豊後大野市", "postcode": "8796212", "prefecture": "大分県", "id": 1546 },
        { "address": "朝地町下野", "city": "豊後大野市", "postcode": "8796202", "prefecture": "大分県", "id": 1547 },
        { "address": "朝地町坪泉", "city": "豊後大野市", "postcode": "8796221", "prefecture": "大分県", "id": 1548 },
        { "address": "朝地町鳥田", "city": "豊後大野市", "postcode": "8796331", "prefecture": "大分県", "id": 1549 },
        { "address": "朝地町梨小", "city": "豊後大野市", "postcode": "8796334", "prefecture": "大分県", "id": 1550 },
        { "address": "朝地町宮生", "city": "豊後大野市", "postcode": "8796211", "prefecture": "大分県", "id": 1551 },
        { "address": "朝地町綿田", "city": "豊後大野市", "postcode": "8796332", "prefecture": "大分県", "id": 1552 },
        { "address": "犬飼町犬飼", "city": "豊後大野市", "postcode": "8797301", "prefecture": "大分県", "id": 1553 },
        { "address": "犬飼町大寒", "city": "豊後大野市", "postcode": "8797304", "prefecture": "大分県", "id": 1554 },
        { "address": "犬飼町久原", "city": "豊後大野市", "postcode": "8797302", "prefecture": "大分県", "id": 1555 },
        { "address": "犬飼町栗ケ畑", "city": "豊後大野市", "postcode": "8797314", "prefecture": "大分県", "id": 1556 },
        { "address": "犬飼町黒松", "city": "豊後大野市", "postcode": "8797313", "prefecture": "大分県", "id": 1557 },
        { "address": "犬飼町高津原", "city": "豊後大野市", "postcode": "8797312", "prefecture": "大分県", "id": 1558 },
        { "address": "犬飼町西寒田", "city": "豊後大野市", "postcode": "8797307", "prefecture": "大分県", "id": 1559 },
        { "address": "犬飼町柴北", "city": "豊後大野市", "postcode": "8797311", "prefecture": "大分県", "id": 1560 },
        { "address": "犬飼町下津尾", "city": "豊後大野市", "postcode": "8797306", "prefecture": "大分県", "id": 1561 },
        { "address": "犬飼町田原", "city": "豊後大野市", "postcode": "8797305", "prefecture": "大分県", "id": 1562 },
        { "address": "犬飼町長畑", "city": "豊後大野市", "postcode": "8797316", "prefecture": "大分県", "id": 1563 },
        { "address": "犬飼町山内", "city": "豊後大野市", "postcode": "8797315", "prefecture": "大分県", "id": 1564 },
        { "address": "犬飼町柚野木", "city": "豊後大野市", "postcode": "8797303", "prefecture": "大分県", "id": 1565 },
        { "address": "大野町安藤", "city": "豊後大野市", "postcode": "8796401", "prefecture": "大分県", "id": 1566 },
        { "address": "大野町後田", "city": "豊後大野市", "postcode": "8796404", "prefecture": "大分県", "id": 1567 },
        { "address": "大野町大原", "city": "豊後大野市", "postcode": "8796433", "prefecture": "大分県", "id": 1568 },
        { "address": "大野町片島", "city": "豊後大野市", "postcode": "8796445", "prefecture": "大分県", "id": 1569 },
        { "address": "大野町北園", "city": "豊後大野市", "postcode": "8796435", "prefecture": "大分県", "id": 1570 },
        { "address": "大野町桑原", "city": "豊後大野市", "postcode": "8796434", "prefecture": "大分県", "id": 1571 },
        { "address": "大野町郡山", "city": "豊後大野市", "postcode": "8796426", "prefecture": "大分県", "id": 1572 },
        { "address": "大野町小倉木", "city": "豊後大野市", "postcode": "8796422", "prefecture": "大分県", "id": 1573 },
        { "address": "大野町酒井寺", "city": "豊後大野市", "postcode": "8796431", "prefecture": "大分県", "id": 1574 },
        { "address": "大野町沢田", "city": "豊後大野市", "postcode": "8796408", "prefecture": "大分県", "id": 1575 },
        { "address": "大野町杉園", "city": "豊後大野市", "postcode": "8796406", "prefecture": "大分県", "id": 1576 },
        { "address": "大野町代三五", "city": "豊後大野市", "postcode": "8796405", "prefecture": "大分県", "id": 1577 },
        { "address": "大野町田代", "city": "豊後大野市", "postcode": "8796444", "prefecture": "大分県", "id": 1578 },
        { "address": "大野町田中", "city": "豊後大野市", "postcode": "8796441", "prefecture": "大分県", "id": 1579 },
        { "address": "大野町十時", "city": "豊後大野市", "postcode": "8796407", "prefecture": "大分県", "id": 1580 },
        { "address": "大野町中土師", "city": "豊後大野市", "postcode": "8796402", "prefecture": "大分県", "id": 1581 },
        { "address": "大野町長畑", "city": "豊後大野市", "postcode": "8796403", "prefecture": "大分県", "id": 1582 },
        { "address": "大野町中原", "city": "豊後大野市", "postcode": "8796421", "prefecture": "大分県", "id": 1583 },
        { "address": "大野町夏足", "city": "豊後大野市", "postcode": "8796424", "prefecture": "大分県", "id": 1584 },
        { "address": "大野町藤北", "city": "豊後大野市", "postcode": "8796442", "prefecture": "大分県", "id": 1585 },
        { "address": "大野町宮迫", "city": "豊後大野市", "postcode": "8796443", "prefecture": "大分県", "id": 1586 },
        { "address": "大野町矢田", "city": "豊後大野市", "postcode": "8796423", "prefecture": "大分県", "id": 1587 },
        { "address": "大野町屋原", "city": "豊後大野市", "postcode": "8796432", "prefecture": "大分県", "id": 1588 },
        { "address": "大野町両家", "city": "豊後大野市", "postcode": "8796425", "prefecture": "大分県", "id": 1589 },
        { "address": "緒方町井上", "city": "豊後大野市", "postcode": "8796613", "prefecture": "大分県", "id": 1590 },
        { "address": "緒方町上畑", "city": "豊後大野市", "postcode": "8796864", "prefecture": "大分県", "id": 1591 },
        { "address": "緒方町小宛", "city": "豊後大野市", "postcode": "8796633", "prefecture": "大分県", "id": 1592 },
        { "address": "緒方町大石", "city": "豊後大野市", "postcode": "8796759", "prefecture": "大分県", "id": 1593 },
        { "address": "緒方町小原", "city": "豊後大野市", "postcode": "8796861", "prefecture": "大分県", "id": 1594 },
        {
            "address": "緒方町尾平鉱山",
            "city": "豊後大野市",
            "postcode": "8796865",
            "prefecture": "大分県",
            "id": 1595
        },
        { "address": "緒方町上犬塚", "city": "豊後大野市", "postcode": "8796625", "prefecture": "大分県", "id": 1596 },
        { "address": "緒方町上自在", "city": "豊後大野市", "postcode": "8796642", "prefecture": "大分県", "id": 1597 },
        { "address": "緒方町上年野", "city": "豊後大野市", "postcode": "8796751", "prefecture": "大分県", "id": 1598 },
        { "address": "緒方町上冬原", "city": "豊後大野市", "postcode": "8796755", "prefecture": "大分県", "id": 1599 },
        { "address": "緒方町木野", "city": "豊後大野市", "postcode": "8796757", "prefecture": "大分県", "id": 1600 },
        { "address": "緒方町草深野", "city": "豊後大野市", "postcode": "8796641", "prefecture": "大分県", "id": 1601 },
        { "address": "緒方町久土知", "city": "豊後大野市", "postcode": "8796616", "prefecture": "大分県", "id": 1602 },
        { "address": "緒方町栗生", "city": "豊後大野市", "postcode": "8796862", "prefecture": "大分県", "id": 1603 },
        { "address": "緒方町越生", "city": "豊後大野市", "postcode": "8796612", "prefecture": "大分県", "id": 1604 },
        { "address": "緒方町志賀", "city": "豊後大野市", "postcode": "8796602", "prefecture": "大分県", "id": 1605 },
        { "address": "緒方町軸丸", "city": "豊後大野市", "postcode": "8796635", "prefecture": "大分県", "id": 1606 },
        { "address": "緒方町下自在", "city": "豊後大野市", "postcode": "8796643", "prefecture": "大分県", "id": 1607 },
        { "address": "緒方町下徳田", "city": "豊後大野市", "postcode": "8796753", "prefecture": "大分県", "id": 1608 },
        { "address": "緒方町大化", "city": "豊後大野市", "postcode": "8796626", "prefecture": "大分県", "id": 1609 },
        { "address": "緒方町滞迫", "city": "豊後大野市", "postcode": "8796863", "prefecture": "大分県", "id": 1610 },
        { "address": "緒方町知田", "city": "豊後大野市", "postcode": "8796614", "prefecture": "大分県", "id": 1611 },
        { "address": "緒方町辻", "city": "豊後大野市", "postcode": "8796632", "prefecture": "大分県", "id": 1612 },
        { "address": "緒方町寺原", "city": "豊後大野市", "postcode": "8796634", "prefecture": "大分県", "id": 1613 },
        { "address": "緒方町天神", "city": "豊後大野市", "postcode": "8796622", "prefecture": "大分県", "id": 1614 },
        { "address": "緒方町徳田", "city": "豊後大野市", "postcode": "8796756", "prefecture": "大分県", "id": 1615 },
        { "address": "緒方町中野", "city": "豊後大野市", "postcode": "8796758", "prefecture": "大分県", "id": 1616 },
        { "address": "緒方町夏足", "city": "豊後大野市", "postcode": "8796611", "prefecture": "大分県", "id": 1617 },
        { "address": "緒方町野尻", "city": "豊後大野市", "postcode": "8796621", "prefecture": "大分県", "id": 1618 },
        { "address": "緒方町馬場", "city": "豊後大野市", "postcode": "8796601", "prefecture": "大分県", "id": 1619 },
        { "address": "緒方町原尻", "city": "豊後大野市", "postcode": "8796631", "prefecture": "大分県", "id": 1620 },
        { "address": "緒方町平石", "city": "豊後大野市", "postcode": "8796624", "prefecture": "大分県", "id": 1621 },
        { "address": "緒方町鮒川", "city": "豊後大野市", "postcode": "8796615", "prefecture": "大分県", "id": 1622 },
        { "address": "緒方町冬原", "city": "豊後大野市", "postcode": "8796754", "prefecture": "大分県", "id": 1623 },
        { "address": "緒方町馬背畑", "city": "豊後大野市", "postcode": "8796623", "prefecture": "大分県", "id": 1624 },
        { "address": "緒方町柚木", "city": "豊後大野市", "postcode": "8796752", "prefecture": "大分県", "id": 1625 },
        { "address": "清川町雨堤", "city": "豊後大野市", "postcode": "8796902", "prefecture": "大分県", "id": 1626 },
        { "address": "清川町臼尾", "city": "豊後大野市", "postcode": "8796901", "prefecture": "大分県", "id": 1627 },
        { "address": "清川町宇田枝", "city": "豊後大野市", "postcode": "8796911", "prefecture": "大分県", "id": 1628 },
        { "address": "清川町大白谷", "city": "豊後大野市", "postcode": "8796922", "prefecture": "大分県", "id": 1629 },
        { "address": "清川町砂田", "city": "豊後大野市", "postcode": "8796903", "prefecture": "大分県", "id": 1630 },
        { "address": "清川町左右知", "city": "豊後大野市", "postcode": "8796914", "prefecture": "大分県", "id": 1631 },
        { "address": "清川町天神", "city": "豊後大野市", "postcode": "8796904", "prefecture": "大分県", "id": 1632 },
        { "address": "清川町平石", "city": "豊後大野市", "postcode": "8796913", "prefecture": "大分県", "id": 1633 },
        { "address": "清川町伏野", "city": "豊後大野市", "postcode": "8796921", "prefecture": "大分県", "id": 1634 },
        { "address": "清川町三玉", "city": "豊後大野市", "postcode": "8796905", "prefecture": "大分県", "id": 1635 },
        { "address": "清川町六種", "city": "豊後大野市", "postcode": "8796912", "prefecture": "大分県", "id": 1636 },
        { "address": "千歳町石田", "city": "豊後大野市", "postcode": "8797403", "prefecture": "大分県", "id": 1637 },
        { "address": "千歳町柴山", "city": "豊後大野市", "postcode": "8797411", "prefecture": "大分県", "id": 1638 },
        { "address": "千歳町下山", "city": "豊後大野市", "postcode": "8797413", "prefecture": "大分県", "id": 1639 },
        { "address": "千歳町高畑", "city": "豊後大野市", "postcode": "8797412", "prefecture": "大分県", "id": 1640 },
        { "address": "千歳町長峰", "city": "豊後大野市", "postcode": "8797404", "prefecture": "大分県", "id": 1641 },
        { "address": "千歳町新殿", "city": "豊後大野市", "postcode": "8797401", "prefecture": "大分県", "id": 1642 },
        { "address": "千歳町船田", "city": "豊後大野市", "postcode": "8797402", "prefecture": "大分県", "id": 1643 },
        { "address": "千歳町前田", "city": "豊後大野市", "postcode": "8797414", "prefecture": "大分県", "id": 1644 },
        { "address": "三重町赤嶺", "city": "豊後大野市", "postcode": "8797111", "prefecture": "大分県", "id": 1645 },
        { "address": "三重町秋葉", "city": "豊後大野市", "postcode": "8797141", "prefecture": "大分県", "id": 1646 },
        { "address": "三重町浅瀬", "city": "豊後大野市", "postcode": "8797108", "prefecture": "大分県", "id": 1647 },
        { "address": "三重町芦刈", "city": "豊後大野市", "postcode": "8797105", "prefecture": "大分県", "id": 1648 },
        { "address": "三重町井迫", "city": "豊後大野市", "postcode": "8797106", "prefecture": "大分県", "id": 1649 },
        { "address": "三重町市場", "city": "豊後大野市", "postcode": "8797131", "prefecture": "大分県", "id": 1650 },
        { "address": "三重町内田", "city": "豊後大野市", "postcode": "8797125", "prefecture": "大分県", "id": 1651 },
        { "address": "三重町内山", "city": "豊後大野市", "postcode": "8797124", "prefecture": "大分県", "id": 1652 },
        { "address": "三重町大白谷", "city": "豊後大野市", "postcode": "8797264", "prefecture": "大分県", "id": 1653 },
        { "address": "三重町奥畑", "city": "豊後大野市", "postcode": "8797262", "prefecture": "大分県", "id": 1654 },
        { "address": "三重町小坂", "city": "豊後大野市", "postcode": "8797104", "prefecture": "大分県", "id": 1655 },
        { "address": "三重町小田", "city": "豊後大野市", "postcode": "8797142", "prefecture": "大分県", "id": 1656 },
        { "address": "三重町上田原", "city": "豊後大野市", "postcode": "8797107", "prefecture": "大分県", "id": 1657 },
        { "address": "三重町川辺", "city": "豊後大野市", "postcode": "8797154", "prefecture": "大分県", "id": 1658 },
        { "address": "三重町菅生", "city": "豊後大野市", "postcode": "8797102", "prefecture": "大分県", "id": 1659 },
        { "address": "三重町玉田", "city": "豊後大野市", "postcode": "8797153", "prefecture": "大分県", "id": 1660 },
        { "address": "三重町中津留", "city": "豊後大野市", "postcode": "8797263", "prefecture": "大分県", "id": 1661 },
        { "address": "三重町西泉", "city": "豊後大野市", "postcode": "8797151", "prefecture": "大分県", "id": 1662 },
        { "address": "三重町西畑", "city": "豊後大野市", "postcode": "8797103", "prefecture": "大分県", "id": 1663 },
        { "address": "三重町久田", "city": "豊後大野市", "postcode": "8797143", "prefecture": "大分県", "id": 1664 },
        { "address": "三重町伏野", "city": "豊後大野市", "postcode": "8797261", "prefecture": "大分県", "id": 1665 },
        { "address": "三重町本城", "city": "豊後大野市", "postcode": "8797144", "prefecture": "大分県", "id": 1666 },
        { "address": "三重町松尾", "city": "豊後大野市", "postcode": "8797123", "prefecture": "大分県", "id": 1667 },
        { "address": "三重町宮野", "city": "豊後大野市", "postcode": "8797101", "prefecture": "大分県", "id": 1668 },
        { "address": "三重町向野", "city": "豊後大野市", "postcode": "8797155", "prefecture": "大分県", "id": 1669 },
        { "address": "三重町百枝", "city": "豊後大野市", "postcode": "8797152", "prefecture": "大分県", "id": 1670 },
        { "address": "三重町山部", "city": "豊後大野市", "postcode": "8797121", "prefecture": "大分県", "id": 1671 },
        { "address": "三重町鷲谷", "city": "豊後大野市", "postcode": "8797122", "prefecture": "大分県", "id": 1672 },
        { "city": "由布市", "postcode": "8795400", "prefecture": "大分県", "id": 1673 },
        { "address": "庄内町阿蘇野", "city": "由布市", "postcode": "8795423", "prefecture": "大分県", "id": 1674 },
        { "address": "庄内町櫟木", "city": "由布市", "postcode": "8795404", "prefecture": "大分県", "id": 1675 },
        { "address": "庄内町大龍", "city": "由布市", "postcode": "8795413", "prefecture": "大分県", "id": 1676 },
        { "address": "庄内町小挾間", "city": "由布市", "postcode": "8795402", "prefecture": "大分県", "id": 1677 },
        { "address": "庄内町柿原", "city": "由布市", "postcode": "8795421", "prefecture": "大分県", "id": 1678 },
        { "address": "庄内町北大津留", "city": "由布市", "postcode": "8795401", "prefecture": "大分県", "id": 1679 },
        { "address": "庄内町五ケ瀬", "city": "由布市", "postcode": "8795412", "prefecture": "大分県", "id": 1680 },
        { "address": "庄内町庄内原", "city": "由布市", "postcode": "8795434", "prefecture": "大分県", "id": 1681 },
        { "address": "庄内町高岡", "city": "由布市", "postcode": "8795433", "prefecture": "大分県", "id": 1682 },
        { "address": "庄内町龍原", "city": "由布市", "postcode": "8795411", "prefecture": "大分県", "id": 1683 },
        { "address": "庄内町直野内山", "city": "由布市", "postcode": "8795424", "prefecture": "大分県", "id": 1684 },
        { "address": "庄内町中", "city": "由布市", "postcode": "8795435", "prefecture": "大分県", "id": 1685 },
        { "address": "庄内町長野", "city": "由布市", "postcode": "8795431", "prefecture": "大分県", "id": 1686 },
        { "address": "庄内町西", "city": "由布市", "postcode": "8795436", "prefecture": "大分県", "id": 1687 },
        { "address": "庄内町西大津留", "city": "由布市", "postcode": "8795408", "prefecture": "大分県", "id": 1688 },
        { "address": "庄内町西長宝", "city": "由布市", "postcode": "8795406", "prefecture": "大分県", "id": 1689 },
        { "address": "庄内町野畑", "city": "由布市", "postcode": "8795422", "prefecture": "大分県", "id": 1690 },
        { "address": "庄内町畑田", "city": "由布市", "postcode": "8795432", "prefecture": "大分県", "id": 1691 },
        { "address": "庄内町東大津留", "city": "由布市", "postcode": "8795403", "prefecture": "大分県", "id": 1692 },
        { "address": "庄内町東長宝", "city": "由布市", "postcode": "8795405", "prefecture": "大分県", "id": 1693 },
        { "address": "庄内町平石", "city": "由布市", "postcode": "8795437", "prefecture": "大分県", "id": 1694 },
        { "address": "庄内町渕", "city": "由布市", "postcode": "8795425", "prefecture": "大分県", "id": 1695 },
        { "address": "庄内町南大津留", "city": "由布市", "postcode": "8795407", "prefecture": "大分県", "id": 1696 },
        { "address": "挾間町赤野", "city": "由布市", "postcode": "8795516", "prefecture": "大分県", "id": 1697 },
        { "address": "挾間町医大ケ丘", "city": "由布市", "postcode": "8795503", "prefecture": "大分県", "id": 1698 },
        { "address": "挾間町内成", "city": "由布市", "postcode": "8795517", "prefecture": "大分県", "id": 1699 },
        { "address": "挾間町鬼瀬", "city": "由布市", "postcode": "8795521", "prefecture": "大分県", "id": 1700 },
        { "address": "挾間町鬼崎", "city": "由布市", "postcode": "8795501", "prefecture": "大分県", "id": 1701 },
        { "address": "挾間町小野", "city": "由布市", "postcode": "8795522", "prefecture": "大分県", "id": 1702 },
        { "address": "挾間町北方", "city": "由布市", "postcode": "8795518", "prefecture": "大分県", "id": 1703 },
        { "address": "挾間町来鉢", "city": "由布市", "postcode": "8795512", "prefecture": "大分県", "id": 1704 },
        { "address": "挾間町篠原", "city": "由布市", "postcode": "8795523", "prefecture": "大分県", "id": 1705 },
        { "address": "挾間町下市", "city": "由布市", "postcode": "8795504", "prefecture": "大分県", "id": 1706 },
        { "address": "挾間町高崎", "city": "由布市", "postcode": "8795513", "prefecture": "大分県", "id": 1707 },
        { "address": "挾間町田代", "city": "由布市", "postcode": "8795519", "prefecture": "大分県", "id": 1708 },
        { "address": "挾間町谷", "city": "由布市", "postcode": "8795531", "prefecture": "大分県", "id": 1709 },
        { "address": "挾間町筒口", "city": "由布市", "postcode": "8795532", "prefecture": "大分県", "id": 1710 },
        { "address": "挾間町東院", "city": "由布市", "postcode": "8795510", "prefecture": "大分県", "id": 1711 },
        { "address": "挾間町時松", "city": "由布市", "postcode": "8795524", "prefecture": "大分県", "id": 1712 },
        { "address": "挾間町七蔵司", "city": "由布市", "postcode": "8795514", "prefecture": "大分県", "id": 1713 },
        { "address": "挾間町挾間", "city": "由布市", "postcode": "8795506", "prefecture": "大分県", "id": 1714 },
        { "address": "挾間町古野", "city": "由布市", "postcode": "8795511", "prefecture": "大分県", "id": 1715 },
        { "address": "挾間町朴木", "city": "由布市", "postcode": "8795525", "prefecture": "大分県", "id": 1716 },
        { "address": "挾間町三船", "city": "由布市", "postcode": "8795515", "prefecture": "大分県", "id": 1717 },
        { "address": "挾間町向原", "city": "由布市", "postcode": "8795502", "prefecture": "大分県", "id": 1718 },
        { "address": "湯布院町川上", "city": "由布市", "postcode": "8795102", "prefecture": "大分県", "id": 1719 },
        { "address": "湯布院町川北", "city": "由布市", "postcode": "8795114", "prefecture": "大分県", "id": 1720 },
        { "address": "湯布院町川西", "city": "由布市", "postcode": "8795113", "prefecture": "大分県", "id": 1721 },
        { "address": "湯布院町川南", "city": "由布市", "postcode": "8795103", "prefecture": "大分県", "id": 1722 },
        { "address": "湯布院町下湯平", "city": "由布市", "postcode": "8795111", "prefecture": "大分県", "id": 1723 },
        { "address": "湯布院町塚原", "city": "由布市", "postcode": "8795101", "prefecture": "大分県", "id": 1724 },
        { "address": "湯布院町中川", "city": "由布市", "postcode": "8795104", "prefecture": "大分県", "id": 1725 },
        { "address": "湯布院町湯平", "city": "由布市", "postcode": "8795112", "prefecture": "大分県", "id": 1726 },
        { "city": "国東市", "postcode": "8730500", "prefecture": "大分県", "id": 1727 },
        { "address": "安岐町朝来", "city": "国東市", "postcode": "8730351", "prefecture": "大分県", "id": 1728 },
        { "address": "安岐町糸永", "city": "国東市", "postcode": "8730354", "prefecture": "大分県", "id": 1729 },
        { "address": "安岐町大添", "city": "国東市", "postcode": "8730223", "prefecture": "大分県", "id": 1730 },
        { "address": "安岐町掛樋", "city": "国東市", "postcode": "8730205", "prefecture": "大分県", "id": 1731 },
        { "address": "安岐町向陽台", "city": "国東市", "postcode": "8730232", "prefecture": "大分県", "id": 1732 },
        { "address": "安岐町塩屋", "city": "国東市", "postcode": "8730212", "prefecture": "大分県", "id": 1733 },
        { "address": "安岐町下原", "city": "国東市", "postcode": "8730231", "prefecture": "大分県", "id": 1734 },
        { "address": "安岐町下山口", "city": "国東市", "postcode": "8730222", "prefecture": "大分県", "id": 1735 },
        { "address": "安岐町瀬戸田", "city": "国東市", "postcode": "8730202", "prefecture": "大分県", "id": 1736 },
        { "address": "安岐町富清", "city": "国東市", "postcode": "8730355", "prefecture": "大分県", "id": 1737 },
        { "address": "安岐町中園", "city": "国東市", "postcode": "8730203", "prefecture": "大分県", "id": 1738 },
        { "address": "安岐町成久", "city": "国東市", "postcode": "8730204", "prefecture": "大分県", "id": 1739 },
        { "address": "安岐町西本", "city": "国東市", "postcode": "8730221", "prefecture": "大分県", "id": 1740 },
        { "address": "安岐町馬場", "city": "国東市", "postcode": "8730211", "prefecture": "大分県", "id": 1741 },
        { "address": "安岐町両子", "city": "国東市", "postcode": "8730356", "prefecture": "大分県", "id": 1742 },
        { "address": "安岐町明治", "city": "国東市", "postcode": "8730352", "prefecture": "大分県", "id": 1743 },
        { "address": "安岐町矢川", "city": "国東市", "postcode": "8730053", "prefecture": "大分県", "id": 1744 },
        { "address": "安岐町矢川", "city": "国東市", "postcode": "8730353", "prefecture": "大分県", "id": 1745 },
        { "address": "安岐町山浦", "city": "国東市", "postcode": "8730206", "prefecture": "大分県", "id": 1746 },
        { "address": "安岐町山口", "city": "国東市", "postcode": "8730224", "prefecture": "大分県", "id": 1747 },
        { "address": "安岐町油留木", "city": "国東市", "postcode": "8730207", "prefecture": "大分県", "id": 1748 },
        { "address": "安岐町吉松", "city": "国東市", "postcode": "8730201", "prefecture": "大分県", "id": 1749 },
        { "address": "国東町赤松", "city": "国東市", "postcode": "8730523", "prefecture": "大分県", "id": 1750 },
        { "address": "国東町安国寺", "city": "国東市", "postcode": "8730504", "prefecture": "大分県", "id": 1751 },
        { "address": "国東町岩戸寺", "city": "国東市", "postcode": "8721653", "prefecture": "大分県", "id": 1752 },
        { "address": "国東町岩屋", "city": "国東市", "postcode": "8730522", "prefecture": "大分県", "id": 1753 },
        { "address": "国東町小原", "city": "国東市", "postcode": "8730511", "prefecture": "大分県", "id": 1754 },
        { "address": "国東町川原", "city": "国東市", "postcode": "8730531", "prefecture": "大分県", "id": 1755 },
        { "address": "国東町北江", "city": "国東市", "postcode": "8730501", "prefecture": "大分県", "id": 1756 },
        { "address": "国東町来浦", "city": "国東市", "postcode": "8721652", "prefecture": "大分県", "id": 1757 },
        { "address": "国東町見地", "city": "国東市", "postcode": "8730533", "prefecture": "大分県", "id": 1758 },
        { "address": "国東町重藤", "city": "国東市", "postcode": "8730514", "prefecture": "大分県", "id": 1759 },
        { "address": "国東町下成仏", "city": "国東市", "postcode": "8730534", "prefecture": "大分県", "id": 1760 },
        { "address": "国東町成仏", "city": "国東市", "postcode": "8730535", "prefecture": "大分県", "id": 1761 },
        { "address": "国東町治郎丸", "city": "国東市", "postcode": "8730512", "prefecture": "大分県", "id": 1762 },
        { "address": "国東町大恩寺", "city": "国東市", "postcode": "8730646", "prefecture": "大分県", "id": 1763 },
        { "address": "国東町田深", "city": "国東市", "postcode": "8730502", "prefecture": "大分県", "id": 1764 },
        { "address": "国東町綱井", "city": "国東市", "postcode": "8730513", "prefecture": "大分県", "id": 1765 },
        { "address": "国東町鶴川", "city": "国東市", "postcode": "8730503", "prefecture": "大分県", "id": 1766 },
        { "address": "国東町富来", "city": "国東市", "postcode": "8730645", "prefecture": "大分県", "id": 1767 },
        { "address": "国東町富来浦", "city": "国東市", "postcode": "8730643", "prefecture": "大分県", "id": 1768 },
        { "address": "国東町中田", "city": "国東市", "postcode": "8730532", "prefecture": "大分県", "id": 1769 },
        { "address": "国東町浜", "city": "国東市", "postcode": "8721651", "prefecture": "大分県", "id": 1770 },
        { "address": "国東町浜崎", "city": "国東市", "postcode": "8730644", "prefecture": "大分県", "id": 1771 },
        { "address": "国東町原", "city": "国東市", "postcode": "8730521", "prefecture": "大分県", "id": 1772 },
        { "address": "国東町東堅来", "city": "国東市", "postcode": "8730642", "prefecture": "大分県", "id": 1773 },
        { "address": "国東町深江", "city": "国東市", "postcode": "8730641", "prefecture": "大分県", "id": 1774 },
        { "address": "国東町横手", "city": "国東市", "postcode": "8730524", "prefecture": "大分県", "id": 1775 },
        { "address": "国見町赤根", "city": "国東市", "postcode": "8721405", "prefecture": "大分県", "id": 1776 },
        { "address": "国見町伊美", "city": "国東市", "postcode": "8721401", "prefecture": "大分県", "id": 1777 },
        { "address": "国見町大熊毛", "city": "国東市", "postcode": "8721612", "prefecture": "大分県", "id": 1778 },
        { "address": "国見町鬼籠", "city": "国東市", "postcode": "8721323", "prefecture": "大分県", "id": 1779 },
        { "address": "国見町岐部", "city": "国東市", "postcode": "8721614", "prefecture": "大分県", "id": 1780 },
        { "address": "国見町櫛来", "city": "国東市", "postcode": "8721406", "prefecture": "大分県", "id": 1781 },
        { "address": "国見町櫛海", "city": "国東市", "postcode": "8721324", "prefecture": "大分県", "id": 1782 },
        { "address": "国見町小熊毛", "city": "国東市", "postcode": "8721613", "prefecture": "大分県", "id": 1783 },
        { "address": "国見町西方寺", "city": "国東市", "postcode": "8721322", "prefecture": "大分県", "id": 1784 },
        { "address": "国見町千燈", "city": "国東市", "postcode": "8721404", "prefecture": "大分県", "id": 1785 },
        { "address": "国見町竹田津", "city": "国東市", "postcode": "8721321", "prefecture": "大分県", "id": 1786 },
        { "address": "国見町中", "city": "国東市", "postcode": "8721402", "prefecture": "大分県", "id": 1787 },
        { "address": "国見町野田", "city": "国東市", "postcode": "8721403", "prefecture": "大分県", "id": 1788 },
        { "address": "国見町向田", "city": "国東市", "postcode": "8721611", "prefecture": "大分県", "id": 1789 },
        { "address": "武蔵町麻田", "city": "国東市", "postcode": "8730405", "prefecture": "大分県", "id": 1790 },
        { "address": "武蔵町池ノ内", "city": "国東市", "postcode": "8730401", "prefecture": "大分県", "id": 1791 },
        { "address": "武蔵町糸原", "city": "国東市", "postcode": "8730421", "prefecture": "大分県", "id": 1792 },
        { "address": "武蔵町内田", "city": "国東市", "postcode": "8730402", "prefecture": "大分県", "id": 1793 },
        { "address": "武蔵町小城", "city": "国東市", "postcode": "8730422", "prefecture": "大分県", "id": 1794 },
        { "address": "武蔵町向陽台", "city": "国東市", "postcode": "8730432", "prefecture": "大分県", "id": 1795 },
        { "address": "武蔵町志和利", "city": "国東市", "postcode": "8730424", "prefecture": "大分県", "id": 1796 },
        { "address": "武蔵町手野", "city": "国東市", "postcode": "8730414", "prefecture": "大分県", "id": 1797 },
        { "address": "武蔵町成吉", "city": "国東市", "postcode": "8730404", "prefecture": "大分県", "id": 1798 },
        { "address": "武蔵町狭間", "city": "国東市", "postcode": "8730407", "prefecture": "大分県", "id": 1799 },
        { "address": "武蔵町古市", "city": "国東市", "postcode": "8730412", "prefecture": "大分県", "id": 1800 },
        { "address": "武蔵町丸小野", "city": "国東市", "postcode": "8730406", "prefecture": "大分県", "id": 1801 },
        { "address": "武蔵町三井寺", "city": "国東市", "postcode": "8730423", "prefecture": "大分県", "id": 1802 },
        { "address": "武蔵町吉広", "city": "国東市", "postcode": "8730415", "prefecture": "大分県", "id": 1803 },
        { "city": "東国東郡姫島村", "postcode": "8721501", "prefecture": "大分県", "id": 1804 },
        { "city": "速見郡日出町", "postcode": "8791500", "prefecture": "大分県", "id": 1805 },
        { "city": "速見郡日出町", "postcode": "8791506", "prefecture": "大分県", "id": 1806 },
        { "address": "大神", "city": "速見郡日出町", "postcode": "8791504", "prefecture": "大分県", "id": 1807 },
        { "address": "川崎", "city": "速見郡日出町", "postcode": "8791505", "prefecture": "大分県", "id": 1808 },
        { "address": "豊岡", "city": "速見郡日出町", "postcode": "8791507", "prefecture": "大分県", "id": 1809 },
        { "address": "平道", "city": "速見郡日出町", "postcode": "8791508", "prefecture": "大分県", "id": 1810 },
        { "address": "広瀬", "city": "速見郡日出町", "postcode": "8791501", "prefecture": "大分県", "id": 1811 },
        { "address": "藤原", "city": "速見郡日出町", "postcode": "8791502", "prefecture": "大分県", "id": 1812 },
        { "address": "真那井", "city": "速見郡日出町", "postcode": "8791503", "prefecture": "大分県", "id": 1813 },
        { "address": "南畑", "city": "速見郡日出町", "postcode": "8791509", "prefecture": "大分県", "id": 1814 },
        { "city": "玖珠郡九重町", "postcode": "8794800", "prefecture": "大分県", "id": 1815 },
        { "address": "粟野", "city": "玖珠郡九重町", "postcode": "8794721", "prefecture": "大分県", "id": 1816 },
        { "address": "後野上", "city": "玖珠郡九重町", "postcode": "8794803", "prefecture": "大分県", "id": 1817 },
        { "address": "恵良", "city": "玖珠郡九重町", "postcode": "8794631", "prefecture": "大分県", "id": 1818 },
        { "address": "菅原", "city": "玖珠郡九重町", "postcode": "8794724", "prefecture": "大分県", "id": 1819 },
        { "address": "田野", "city": "玖珠郡九重町", "postcode": "8794911", "prefecture": "大分県", "id": 1820 },
        { "address": "野上", "city": "玖珠郡九重町", "postcode": "8794802", "prefecture": "大分県", "id": 1821 },
        { "address": "引治", "city": "玖珠郡九重町", "postcode": "8794722", "prefecture": "大分県", "id": 1822 },
        { "address": "町田", "city": "玖珠郡九重町", "postcode": "8794723", "prefecture": "大分県", "id": 1823 },
        { "address": "松木", "city": "玖珠郡九重町", "postcode": "8794632", "prefecture": "大分県", "id": 1824 },
        { "address": "右田", "city": "玖珠郡九重町", "postcode": "8794801", "prefecture": "大分県", "id": 1825 },
        { "address": "右田", "city": "玖珠郡九重町", "postcode": "8794601", "prefecture": "大分県", "id": 1826 },
        { "address": "湯坪", "city": "玖珠郡九重町", "postcode": "8794912", "prefecture": "大分県", "id": 1827 },
        { "city": "玖珠郡玖珠町", "postcode": "8794400", "prefecture": "大分県", "id": 1828 },
        { "address": "綾垣", "city": "玖珠郡玖珠町", "postcode": "8794402", "prefecture": "大分県", "id": 1829 },
        { "address": "岩室", "city": "玖珠郡玖珠町", "postcode": "8794405", "prefecture": "大分県", "id": 1830 },
        { "address": "大隈", "city": "玖珠郡玖珠町", "postcode": "8794414", "prefecture": "大分県", "id": 1831 },
        { "address": "太田", "city": "玖珠郡玖珠町", "postcode": "8794521", "prefecture": "大分県", "id": 1832 },
        { "address": "小田", "city": "玖珠郡玖珠町", "postcode": "8794411", "prefecture": "大分県", "id": 1833 },
        { "address": "古後", "city": "玖珠郡玖珠町", "postcode": "8794523", "prefecture": "大分県", "id": 1834 },
        { "address": "塚脇", "city": "玖珠郡玖珠町", "postcode": "8794413", "prefecture": "大分県", "id": 1835 },
        { "address": "戸畑", "city": "玖珠郡玖珠町", "postcode": "8794331", "prefecture": "大分県", "id": 1836 },
        { "address": "日出生", "city": "玖珠郡玖珠町", "postcode": "8794406", "prefecture": "大分県", "id": 1837 },
        { "address": "帆足", "city": "玖珠郡玖珠町", "postcode": "8794403", "prefecture": "大分県", "id": 1838 },
        { "address": "森", "city": "玖珠郡玖珠町", "postcode": "8794404", "prefecture": "大分県", "id": 1839 },
        { "address": "山浦", "city": "玖珠郡玖珠町", "postcode": "8794332", "prefecture": "大分県", "id": 1840 },
        { "address": "山浦", "city": "玖珠郡玖珠町", "postcode": "8794732", "prefecture": "大分県", "id": 1841 },
        { "address": "山下", "city": "玖珠郡玖珠町", "postcode": "8794522", "prefecture": "大分県", "id": 1842 },
        { "address": "山田", "city": "玖珠郡玖珠町", "postcode": "8794412", "prefecture": "大分県", "id": 1843 },
        { "address": "四日市", "city": "玖珠郡玖珠町", "postcode": "8794401", "prefecture": "大分県", "id": 1844 },
        { "address": "四日市", "city": "玖珠郡玖珠町", "postcode": "8794301", "prefecture": "大分県", "id": 1845 }
    ]
}
