{
    "postcodes": [
        { "city": "宮崎市", "postcode": "8800000", "prefecture": "宮崎県", "id": 0 },
        { "address": "青島", "city": "宮崎市", "postcode": "8892162", "prefecture": "宮崎県", "id": 1 },
        { "address": "青島西", "city": "宮崎市", "postcode": "8892163", "prefecture": "宮崎県", "id": 2 },
        { "address": "青葉町", "city": "宮崎市", "postcode": "8800842", "prefecture": "宮崎県", "id": 3 },
        { "address": "赤江", "city": "宮崎市", "postcode": "8800912", "prefecture": "宮崎県", "id": 4 },
        { "address": "旭", "city": "宮崎市", "postcode": "8800803", "prefecture": "宮崎県", "id": 5 },
        { "address": "吾妻町", "city": "宮崎市", "postcode": "8800864", "prefecture": "宮崎県", "id": 6 },
        { "address": "跡江", "city": "宮崎市", "postcode": "8802101", "prefecture": "宮崎県", "id": 7 },
        { "address": "有田", "city": "宮崎市", "postcode": "8802102", "prefecture": "宮崎県", "id": 8 },
        { "address": "阿波岐原町", "city": "宮崎市", "postcode": "8800835", "prefecture": "宮崎県", "id": 9 },
        { "address": "生目", "city": "宮崎市", "postcode": "8802103", "prefecture": "宮崎県", "id": 10 },
        { "address": "生目台東", "city": "宮崎市", "postcode": "8800942", "prefecture": "宮崎県", "id": 11 },
        { "address": "生目台西", "city": "宮崎市", "postcode": "8800943", "prefecture": "宮崎県", "id": 12 },
        { "address": "池内町", "city": "宮崎市", "postcode": "8800041", "prefecture": "宮崎県", "id": 13 },
        { "address": "一の宮町", "city": "宮崎市", "postcode": "8800854", "prefecture": "宮崎県", "id": 14 },
        { "address": "糸原", "city": "宮崎市", "postcode": "8802231", "prefecture": "宮崎県", "id": 15 },
        { "address": "浮田", "city": "宮崎市", "postcode": "8802104", "prefecture": "宮崎県", "id": 16 },
        { "address": "浮城町", "city": "宮崎市", "postcode": "8800821", "prefecture": "宮崎県", "id": 17 },
        { "address": "内海", "city": "宮崎市", "postcode": "8892301", "prefecture": "宮崎県", "id": 18 },
        { "address": "瓜生野", "city": "宮崎市", "postcode": "8800344", "prefecture": "宮崎県", "id": 19 },
        { "address": "瓜生野", "city": "宮崎市", "postcode": "8800044", "prefecture": "宮崎県", "id": 20 },
        { "address": "永楽町", "city": "宮崎市", "postcode": "8800872", "prefecture": "宮崎県", "id": 21 },
        { "address": "江平中町", "city": "宮崎市", "postcode": "8800814", "prefecture": "宮崎県", "id": 22 },
        { "address": "江平東町", "city": "宮崎市", "postcode": "8800817", "prefecture": "宮崎県", "id": 23 },
        { "address": "江平東", "city": "宮崎市", "postcode": "8800816", "prefecture": "宮崎県", "id": 24 },
        { "address": "江平西", "city": "宮崎市", "postcode": "8800051", "prefecture": "宮崎県", "id": 25 },
        { "address": "江平町", "city": "宮崎市", "postcode": "8800815", "prefecture": "宮崎県", "id": 26 },
        { "address": "老松", "city": "宮崎市", "postcode": "8800801", "prefecture": "宮崎県", "id": 27 },
        { "address": "大島町", "city": "宮崎市", "postcode": "8800824", "prefecture": "宮崎県", "id": 28 },
        { "address": "大瀬町", "city": "宮崎市", "postcode": "8800345", "prefecture": "宮崎県", "id": 29 },
        { "address": "大瀬町", "city": "宮崎市", "postcode": "8800045", "prefecture": "宮崎県", "id": 30 },
        { "address": "太田", "city": "宮崎市", "postcode": "8800903", "prefecture": "宮崎県", "id": 31 },
        { "address": "大塚台東", "city": "宮崎市", "postcode": "8800952", "prefecture": "宮崎県", "id": 32 },
        { "address": "大塚台西", "city": "宮崎市", "postcode": "8802105", "prefecture": "宮崎県", "id": 33 },
        { "address": "大塚町", "city": "宮崎市", "postcode": "8800951", "prefecture": "宮崎県", "id": 34 },
        { "address": "大坪町", "city": "宮崎市", "postcode": "8800933", "prefecture": "宮崎県", "id": 35 },
        { "address": "大坪東", "city": "宮崎市", "postcode": "8800934", "prefecture": "宮崎県", "id": 36 },
        { "address": "大坪西", "city": "宮崎市", "postcode": "8800932", "prefecture": "宮崎県", "id": 37 },
        { "address": "大橋", "city": "宮崎市", "postcode": "8800022", "prefecture": "宮崎県", "id": 38 },
        { "address": "大淀", "city": "宮崎市", "postcode": "8800902", "prefecture": "宮崎県", "id": 39 },
        { "address": "小戸町", "city": "宮崎市", "postcode": "8800857", "prefecture": "宮崎県", "id": 40 },
        { "address": "折生迫", "city": "宮崎市", "postcode": "8892164", "prefecture": "宮崎県", "id": 41 },
        { "address": "加江田", "city": "宮崎市", "postcode": "8892161", "prefecture": "宮崎県", "id": 42 },
        { "address": "薫る坂", "city": "宮崎市", "postcode": "8800947", "prefecture": "宮崎県", "id": 43 },
        { "address": "鏡洲", "city": "宮崎市", "postcode": "8892156", "prefecture": "宮崎県", "id": 44 },
        { "address": "学園木花台桜", "city": "宮崎市", "postcode": "8892154", "prefecture": "宮崎県", "id": 45 },
        { "address": "学園木花台西", "city": "宮崎市", "postcode": "8892155", "prefecture": "宮崎県", "id": 46 },
        { "address": "学園木花台南", "city": "宮崎市", "postcode": "8892153", "prefecture": "宮崎県", "id": 47 },
        { "address": "学園木花台北", "city": "宮崎市", "postcode": "8892152", "prefecture": "宮崎県", "id": 48 },
        { "address": "柏原", "city": "宮崎市", "postcode": "8802111", "prefecture": "宮崎県", "id": 49 },
        { "address": "金崎", "city": "宮崎市", "postcode": "8802234", "prefecture": "宮崎県", "id": 50 },
        { "address": "上北方", "city": "宮崎市", "postcode": "8800043", "prefecture": "宮崎県", "id": 51 },
        { "address": "上野町", "city": "宮崎市", "postcode": "8800011", "prefecture": "宮崎県", "id": 52 },
        { "address": "川原町", "city": "宮崎市", "postcode": "8800866", "prefecture": "宮崎県", "id": 53 },
        { "address": "祇園", "city": "宮崎市", "postcode": "8800024", "prefecture": "宮崎県", "id": 54 },
        { "address": "北川内町", "city": "宮崎市", "postcode": "8800941", "prefecture": "宮崎県", "id": 55 },
        { "address": "北権現町", "city": "宮崎市", "postcode": "8800823", "prefecture": "宮崎県", "id": 56 },
        { "address": "北高松町", "city": "宮崎市", "postcode": "8800017", "prefecture": "宮崎県", "id": 57 },
        { "address": "希望ケ丘", "city": "宮崎市", "postcode": "8800923", "prefecture": "宮崎県", "id": 58 },
        { "address": "京塚", "city": "宮崎市", "postcode": "8800937", "prefecture": "宮崎県", "id": 59 },
        { "address": "京塚町", "city": "宮崎市", "postcode": "8800938", "prefecture": "宮崎県", "id": 60 },
        { "address": "清武町あさひ", "city": "宮崎市", "postcode": "8891609", "prefecture": "宮崎県", "id": 61 },
        { "address": "清武町池田台", "city": "宮崎市", "postcode": "8891606", "prefecture": "宮崎県", "id": 62 },
        { "address": "清武町池田台北", "city": "宮崎市", "postcode": "8891608", "prefecture": "宮崎県", "id": 63 },
        { "address": "清武町今泉", "city": "宮崎市", "postcode": "8891602", "prefecture": "宮崎県", "id": 64 },
        { "address": "清武町岡", "city": "宮崎市", "postcode": "8891612", "prefecture": "宮崎県", "id": 65 },
        { "address": "清武町加納", "city": "宮崎市", "postcode": "8891607", "prefecture": "宮崎県", "id": 66 },
        { "address": "清武町加納", "city": "宮崎市", "postcode": "8891605", "prefecture": "宮崎県", "id": 67 },
        { "address": "清武町木原", "city": "宮崎市", "postcode": "8891601", "prefecture": "宮崎県", "id": 68 },
        { "address": "清武町正手", "city": "宮崎市", "postcode": "8891603", "prefecture": "宮崎県", "id": 69 },
        { "address": "清武町新町", "city": "宮崎市", "postcode": "8891611", "prefecture": "宮崎県", "id": 70 },
        { "address": "清武町西新町", "city": "宮崎市", "postcode": "8891613", "prefecture": "宮崎県", "id": 71 },
        { "address": "清武町船引", "city": "宮崎市", "postcode": "8891604", "prefecture": "宮崎県", "id": 72 },
        { "address": "霧島", "city": "宮崎市", "postcode": "8800032", "prefecture": "宮崎県", "id": 73 },
        { "address": "郡司分", "city": "宮崎市", "postcode": "8800924", "prefecture": "宮崎県", "id": 74 },
        { "address": "熊野", "city": "宮崎市", "postcode": "8892151", "prefecture": "宮崎県", "id": 75 },
        { "address": "源藤町", "city": "宮崎市", "postcode": "8800927", "prefecture": "宮崎県", "id": 76 },
        { "address": "江南", "city": "宮崎市", "postcode": "8800944", "prefecture": "宮崎県", "id": 77 },
        { "address": "小松", "city": "宮崎市", "postcode": "8802112", "prefecture": "宮崎県", "id": 78 },
        { "address": "小松台北町", "city": "宮崎市", "postcode": "8802113", "prefecture": "宮崎県", "id": 79 },
        { "address": "小松台西", "city": "宮崎市", "postcode": "8800954", "prefecture": "宮崎県", "id": 80 },
        { "address": "小松台東", "city": "宮崎市", "postcode": "8800953", "prefecture": "宮崎県", "id": 81 },
        { "address": "小松台南町", "city": "宮崎市", "postcode": "8800956", "prefecture": "宮崎県", "id": 82 },
        { "address": "権現町", "city": "宮崎市", "postcode": "8800822", "prefecture": "宮崎県", "id": 83 },
        { "address": "桜ケ丘町", "city": "宮崎市", "postcode": "8800955", "prefecture": "宮崎県", "id": 84 },
        { "address": "桜町", "city": "宮崎市", "postcode": "8800057", "prefecture": "宮崎県", "id": 85 },
        { "address": "佐土原町石崎", "city": "宮崎市", "postcode": "8800213", "prefecture": "宮崎県", "id": 86 },
        { "address": "佐土原町上田島", "city": "宮崎市", "postcode": "8800301", "prefecture": "宮崎県", "id": 87 },
        { "address": "佐土原町下田島", "city": "宮崎市", "postcode": "8800211", "prefecture": "宮崎県", "id": 88 },
        { "address": "佐土原町下富田", "city": "宮崎市", "postcode": "8800204", "prefecture": "宮崎県", "id": 89 },
        { "address": "佐土原町下那珂", "city": "宮崎市", "postcode": "8800212", "prefecture": "宮崎県", "id": 90 },
        { "address": "佐土原町西上那珂", "city": "宮崎市", "postcode": "8800302", "prefecture": "宮崎県", "id": 91 },
        { "address": "佐土原町東上那珂", "city": "宮崎市", "postcode": "8800303", "prefecture": "宮崎県", "id": 92 },
        { "address": "佐土原町松小路", "city": "宮崎市", "postcode": "8800214", "prefecture": "宮崎県", "id": 93 },
        { "address": "塩路", "city": "宮崎市", "postcode": "8800122", "prefecture": "宮崎県", "id": 94 },
        { "address": "潮見町", "city": "宮崎市", "postcode": "8800862", "prefecture": "宮崎県", "id": 95 },
        { "address": "島之内", "city": "宮崎市", "postcode": "8800121", "prefecture": "宮崎県", "id": 96 },
        { "address": "清水", "city": "宮崎市", "postcode": "8800021", "prefecture": "宮崎県", "id": 97 },
        { "address": "下北方町", "city": "宮崎市", "postcode": "8800035", "prefecture": "宮崎県", "id": 98 },
        { "address": "下原町", "city": "宮崎市", "postcode": "8800843", "prefecture": "宮崎県", "id": 99 },
        { "address": "昭栄町", "city": "宮崎市", "postcode": "8800833", "prefecture": "宮崎県", "id": 100 },
        { "address": "城ケ崎", "city": "宮崎市", "postcode": "8800917", "prefecture": "宮崎県", "id": 101 },
        { "address": "浄土江町", "city": "宮崎市", "postcode": "8800876", "prefecture": "宮崎県", "id": 102 },
        { "address": "昭和町", "city": "宮崎市", "postcode": "8800874", "prefecture": "宮崎県", "id": 103 },
        { "address": "新栄町", "city": "宮崎市", "postcode": "8800831", "prefecture": "宮崎県", "id": 104 },
        { "address": "神宮", "city": "宮崎市", "postcode": "8800053", "prefecture": "宮崎県", "id": 105 },
        { "address": "神宮西", "city": "宮崎市", "postcode": "8800033", "prefecture": "宮崎県", "id": 106 },
        { "address": "神宮東", "city": "宮崎市", "postcode": "8800056", "prefecture": "宮崎県", "id": 107 },
        { "address": "神宮町", "city": "宮崎市", "postcode": "8800054", "prefecture": "宮崎県", "id": 108 },
        { "address": "新城町", "city": "宮崎市", "postcode": "8800845", "prefecture": "宮崎県", "id": 109 },
        { "address": "新別府町", "city": "宮崎市", "postcode": "8800834", "prefecture": "宮崎県", "id": 110 },
        { "address": "末広", "city": "宮崎市", "postcode": "8800012", "prefecture": "宮崎県", "id": 111 },
        { "address": "瀬頭", "city": "宮崎市", "postcode": "8800867", "prefecture": "宮崎県", "id": 112 },
        { "address": "瀬頭町", "city": "宮崎市", "postcode": "8800868", "prefecture": "宮崎県", "id": 113 },
        { "address": "曽師町", "city": "宮崎市", "postcode": "8800875", "prefecture": "宮崎県", "id": 114 },
        { "address": "大王町", "city": "宮崎市", "postcode": "8800871", "prefecture": "宮崎県", "id": 115 },
        { "address": "大工", "city": "宮崎市", "postcode": "8800015", "prefecture": "宮崎県", "id": 116 },
        { "address": "高岡町飯田", "city": "宮崎市", "postcode": "8802224", "prefecture": "宮崎県", "id": 117 },
        { "address": "高岡町内山", "city": "宮崎市", "postcode": "8802221", "prefecture": "宮崎県", "id": 118 },
        { "address": "高岡町内山", "city": "宮崎市", "postcode": "8802321", "prefecture": "宮崎県", "id": 119 },
        { "address": "高岡町浦之名", "city": "宮崎市", "postcode": "8802223", "prefecture": "宮崎県", "id": 120 },
        { "address": "高岡町浦之名", "city": "宮崎市", "postcode": "8802323", "prefecture": "宮崎県", "id": 121 },
        { "address": "高岡町小山田", "city": "宮崎市", "postcode": "8802214", "prefecture": "宮崎県", "id": 122 },
        { "address": "高岡町上倉永", "city": "宮崎市", "postcode": "8891713", "prefecture": "宮崎県", "id": 123 },
        { "address": "高岡町上倉永", "city": "宮崎市", "postcode": "8802213", "prefecture": "宮崎県", "id": 124 },
        { "address": "高岡町紙屋", "city": "宮崎市", "postcode": "8802325", "prefecture": "宮崎県", "id": 125 },
        { "address": "高岡町五町", "city": "宮崎市", "postcode": "8802222", "prefecture": "宮崎県", "id": 126 },
        { "address": "高岡町五町", "city": "宮崎市", "postcode": "8802322", "prefecture": "宮崎県", "id": 127 },
        { "address": "高岡町下倉永", "city": "宮崎市", "postcode": "8802212", "prefecture": "宮崎県", "id": 128 },
        { "address": "高岡町高浜", "city": "宮崎市", "postcode": "8802215", "prefecture": "宮崎県", "id": 129 },
        { "address": "高岡町花見", "city": "宮崎市", "postcode": "8802211", "prefecture": "宮崎県", "id": 130 },
        { "address": "高洲町", "city": "宮崎市", "postcode": "8800852", "prefecture": "宮崎県", "id": 131 },
        { "address": "高千穂通", "city": "宮崎市", "postcode": "8800812", "prefecture": "宮崎県", "id": 132 },
        { "address": "高松町", "city": "宮崎市", "postcode": "8800003", "prefecture": "宮崎県", "id": 133 },
        { "address": "田代町", "city": "宮崎市", "postcode": "8800855", "prefecture": "宮崎県", "id": 134 },
        { "address": "橘通西", "city": "宮崎市", "postcode": "8800001", "prefecture": "宮崎県", "id": 135 },
        { "address": "橘通東", "city": "宮崎市", "postcode": "8800805", "prefecture": "宮崎県", "id": 136 },
        { "address": "谷川", "city": "宮崎市", "postcode": "8800908", "prefecture": "宮崎県", "id": 137 },
        { "address": "谷川町", "city": "宮崎市", "postcode": "8800909", "prefecture": "宮崎県", "id": 138 },
        { "address": "田野町あけぼの", "city": "宮崎市", "postcode": "8891703", "prefecture": "宮崎県", "id": 139 },
        { "address": "田野町乙", "city": "宮崎市", "postcode": "8891702", "prefecture": "宮崎県", "id": 140 },
        { "address": "田野町甲", "city": "宮崎市", "postcode": "8891701", "prefecture": "宮崎県", "id": 141 },
        { "address": "田野町南原", "city": "宮崎市", "postcode": "8891704", "prefecture": "宮崎県", "id": 142 },
        { "address": "田吉", "city": "宮崎市", "postcode": "8800911", "prefecture": "宮崎県", "id": 143 },
        { "address": "千草町", "city": "宮崎市", "postcode": "8800006", "prefecture": "宮崎県", "id": 144 },
        { "address": "中央通", "city": "宮崎市", "postcode": "8800002", "prefecture": "宮崎県", "id": 145 },
        { "address": "月見ケ丘", "city": "宮崎市", "postcode": "8800926", "prefecture": "宮崎県", "id": 146 },
        { "address": "堤内", "city": "宮崎市", "postcode": "8802232", "prefecture": "宮崎県", "id": 147 },
        { "address": "恒久", "city": "宮崎市", "postcode": "8800913", "prefecture": "宮崎県", "id": 148 },
        { "address": "恒久", "city": "宮崎市", "postcode": "8800916", "prefecture": "宮崎県", "id": 149 },
        { "address": "恒久南", "city": "宮崎市", "postcode": "8800915", "prefecture": "宮崎県", "id": 150 },
        { "address": "鶴島", "city": "宮崎市", "postcode": "8800014", "prefecture": "宮崎県", "id": 151 },
        { "address": "出来島町", "city": "宮崎市", "postcode": "8800861", "prefecture": "宮崎県", "id": 152 },
        { "address": "天満", "city": "宮崎市", "postcode": "8800936", "prefecture": "宮崎県", "id": 153 },
        { "address": "天満町", "city": "宮崎市", "postcode": "8800935", "prefecture": "宮崎県", "id": 154 },
        { "address": "東宮", "city": "宮崎市", "postcode": "8800928", "prefecture": "宮崎県", "id": 155 },
        { "address": "富吉", "city": "宮崎市", "postcode": "8802114", "prefecture": "宮崎県", "id": 156 },
        { "address": "中津瀬町", "city": "宮崎市", "postcode": "8800025", "prefecture": "宮崎県", "id": 157 },
        { "address": "中西町", "city": "宮崎市", "postcode": "8800853", "prefecture": "宮崎県", "id": 158 },
        { "address": "中村東", "city": "宮崎市", "postcode": "8800904", "prefecture": "宮崎県", "id": 159 },
        { "address": "中村西", "city": "宮崎市", "postcode": "8800905", "prefecture": "宮崎県", "id": 160 },
        { "address": "長嶺", "city": "宮崎市", "postcode": "8802115", "prefecture": "宮崎県", "id": 161 },
        { "address": "波島", "city": "宮崎市", "postcode": "8800826", "prefecture": "宮崎県", "id": 162 },
        { "address": "新名爪", "city": "宮崎市", "postcode": "8800124", "prefecture": "宮崎県", "id": 163 },
        { "address": "西池町", "city": "宮崎市", "postcode": "8800027", "prefecture": "宮崎県", "id": 164 },
        { "address": "錦本町", "city": "宮崎市", "postcode": "8800818", "prefecture": "宮崎県", "id": 165 },
        { "address": "錦町", "city": "宮崎市", "postcode": "8800811", "prefecture": "宮崎県", "id": 166 },
        { "address": "西高松町", "city": "宮崎市", "postcode": "8800016", "prefecture": "宮崎県", "id": 167 },
        { "address": "花ケ島町", "city": "宮崎市", "postcode": "8800036", "prefecture": "宮崎県", "id": 168 },
        { "address": "花殿町", "city": "宮崎市", "postcode": "8800026", "prefecture": "宮崎県", "id": 169 },
        { "address": "花山手西", "city": "宮崎市", "postcode": "8800939", "prefecture": "宮崎県", "id": 170 },
        { "address": "花山手東", "city": "宮崎市", "postcode": "8800930", "prefecture": "宮崎県", "id": 171 },
        { "address": "原町", "city": "宮崎市", "postcode": "8800007", "prefecture": "宮崎県", "id": 172 },
        { "address": "稗原町", "city": "宮崎市", "postcode": "8800832", "prefecture": "宮崎県", "id": 173 },
        { "address": "東大宮", "city": "宮崎市", "postcode": "8800825", "prefecture": "宮崎県", "id": 174 },
        { "address": "東大淀", "city": "宮崎市", "postcode": "8800901", "prefecture": "宮崎県", "id": 175 },
        { "address": "日ノ出町", "city": "宮崎市", "postcode": "8800856", "prefecture": "宮崎県", "id": 176 },
        { "address": "広島", "city": "宮崎市", "postcode": "8800806", "prefecture": "宮崎県", "id": 177 },
        { "address": "広原", "city": "宮崎市", "postcode": "8800125", "prefecture": "宮崎県", "id": 178 },
        { "address": "福島町", "city": "宮崎市", "postcode": "8800946", "prefecture": "宮崎県", "id": 179 },
        { "address": "福島町", "city": "宮崎市", "postcode": "8800945", "prefecture": "宮崎県", "id": 180 },
        { "address": "船塚", "city": "宮崎市", "postcode": "8800031", "prefecture": "宮崎県", "id": 181 },
        { "address": "古城町", "city": "宮崎市", "postcode": "8800931", "prefecture": "宮崎県", "id": 182 },
        { "address": "平和が丘北町", "city": "宮崎市", "postcode": "8800046", "prefecture": "宮崎県", "id": 183 },
        { "address": "平和が丘西町", "city": "宮崎市", "postcode": "8800047", "prefecture": "宮崎県", "id": 184 },
        { "address": "平和が丘東町", "city": "宮崎市", "postcode": "8800042", "prefecture": "宮崎県", "id": 185 },
        { "address": "別府町", "city": "宮崎市", "postcode": "8800802", "prefecture": "宮崎県", "id": 186 },
        { "address": "芳士", "city": "宮崎市", "postcode": "8800123", "prefecture": "宮崎県", "id": 187 },
        { "address": "細江", "city": "宮崎市", "postcode": "8891716", "prefecture": "宮崎県", "id": 188 },
        { "address": "細江", "city": "宮崎市", "postcode": "8802116", "prefecture": "宮崎県", "id": 189 },
        { "address": "堀川町", "city": "宮崎市", "postcode": "8800873", "prefecture": "宮崎県", "id": 190 },
        { "address": "本郷", "city": "宮崎市", "postcode": "8800922", "prefecture": "宮崎県", "id": 191 },
        { "address": "本郷北方", "city": "宮崎市", "postcode": "8800925", "prefecture": "宮崎県", "id": 192 },
        { "address": "本郷南方", "city": "宮崎市", "postcode": "8800921", "prefecture": "宮崎県", "id": 193 },
        { "address": "前原町", "city": "宮崎市", "postcode": "8800863", "prefecture": "宮崎県", "id": 194 },
        { "address": "松橋", "city": "宮崎市", "postcode": "8800013", "prefecture": "宮崎県", "id": 195 },
        { "address": "松山", "city": "宮崎市", "postcode": "8800865", "prefecture": "宮崎県", "id": 196 },
        { "address": "まなび野", "city": "宮崎市", "postcode": "8800929", "prefecture": "宮崎県", "id": 197 },
        { "address": "丸島町", "city": "宮崎市", "postcode": "8800813", "prefecture": "宮崎県", "id": 198 },
        { "address": "丸山", "city": "宮崎市", "postcode": "8800052", "prefecture": "宮崎県", "id": 199 },
        { "address": "港", "city": "宮崎市", "postcode": "8800858", "prefecture": "宮崎県", "id": 200 },
        { "address": "港東", "city": "宮崎市", "postcode": "8800851", "prefecture": "宮崎県", "id": 201 },
        { "address": "南方町", "city": "宮崎市", "postcode": "8800037", "prefecture": "宮崎県", "id": 202 },
        { "address": "南高松町", "city": "宮崎市", "postcode": "8800005", "prefecture": "宮崎県", "id": 203 },
        { "address": "南花ケ島町", "city": "宮崎市", "postcode": "8800055", "prefecture": "宮崎県", "id": 204 },
        { "address": "南町", "city": "宮崎市", "postcode": "8800906", "prefecture": "宮崎県", "id": 205 },
        { "address": "宮崎駅東", "city": "宮崎市", "postcode": "8800879", "prefecture": "宮崎県", "id": 206 },
        { "address": "宮田町", "city": "宮崎市", "postcode": "8800804", "prefecture": "宮崎県", "id": 207 },
        { "address": "宮の元町", "city": "宮崎市", "postcode": "8800914", "prefecture": "宮崎県", "id": 208 },
        { "address": "宮脇町", "city": "宮崎市", "postcode": "8800877", "prefecture": "宮崎県", "id": 209 },
        { "address": "村角町", "city": "宮崎市", "postcode": "8800837", "prefecture": "宮崎県", "id": 210 },
        { "address": "元宮町", "city": "宮崎市", "postcode": "8800004", "prefecture": "宮崎県", "id": 211 },
        { "address": "柳丸町", "city": "宮崎市", "postcode": "8800844", "prefecture": "宮崎県", "id": 212 },
        { "address": "矢の先町", "city": "宮崎市", "postcode": "8800034", "prefecture": "宮崎県", "id": 213 },
        { "address": "山崎町", "city": "宮崎市", "postcode": "8800836", "prefecture": "宮崎県", "id": 214 },
        { "address": "大和町", "city": "宮崎市", "postcode": "8800878", "prefecture": "宮崎県", "id": 215 },
        { "address": "吉野", "city": "宮崎市", "postcode": "8802233", "prefecture": "宮崎県", "id": 216 },
        { "address": "吉村町", "city": "宮崎市", "postcode": "8800841", "prefecture": "宮崎県", "id": 217 },
        { "address": "淀川", "city": "宮崎市", "postcode": "8800907", "prefecture": "宮崎県", "id": 218 },
        { "address": "和知川原", "city": "宮崎市", "postcode": "8800023", "prefecture": "宮崎県", "id": 219 },
        { "city": "都城市", "postcode": "8850000", "prefecture": "宮崎県", "id": 220 },
        { "address": "菖蒲原町", "city": "都城市", "postcode": "8850034", "prefecture": "宮崎県", "id": 221 },
        { "address": "一万城町", "city": "都城市", "postcode": "8850041", "prefecture": "宮崎県", "id": 222 },
        { "address": "今町", "city": "都城市", "postcode": "8850064", "prefecture": "宮崎県", "id": 223 },
        { "address": "岩満町", "city": "都城市", "postcode": "8851101", "prefecture": "宮崎県", "id": 224 },
        { "address": "祝吉", "city": "都城市", "postcode": "8850019", "prefecture": "宮崎県", "id": 225 },
        { "address": "祝吉町", "city": "都城市", "postcode": "8850014", "prefecture": "宮崎県", "id": 226 },
        { "address": "梅北町", "city": "都城市", "postcode": "8850063", "prefecture": "宮崎県", "id": 227 },
        { "address": "大岩田町", "city": "都城市", "postcode": "8850062", "prefecture": "宮崎県", "id": 228 },
        { "address": "乙房町", "city": "都城市", "postcode": "8850112", "prefecture": "宮崎県", "id": 229 },
        { "address": "甲斐元町", "city": "都城市", "postcode": "8850074", "prefecture": "宮崎県", "id": 230 },
        { "address": "菓子野町", "city": "都城市", "postcode": "8850111", "prefecture": "宮崎県", "id": 231 },
        { "address": "金田町", "city": "都城市", "postcode": "8850001", "prefecture": "宮崎県", "id": 232 },
        { "address": "上川東", "city": "都城市", "postcode": "8850012", "prefecture": "宮崎県", "id": 233 },
        { "address": "上水流町", "city": "都城市", "postcode": "8851103", "prefecture": "宮崎県", "id": 234 },
        { "address": "上長飯町", "city": "都城市", "postcode": "8850042", "prefecture": "宮崎県", "id": 235 },
        { "address": "上東町", "city": "都城市", "postcode": "8850053", "prefecture": "宮崎県", "id": 236 },
        { "address": "上町", "city": "都城市", "postcode": "8850072", "prefecture": "宮崎県", "id": 237 },
        { "address": "北原町", "city": "都城市", "postcode": "8850024", "prefecture": "宮崎県", "id": 238 },
        { "address": "久保原町", "city": "都城市", "postcode": "8850086", "prefecture": "宮崎県", "id": 239 },
        { "address": "蔵原町", "city": "都城市", "postcode": "8850051", "prefecture": "宮崎県", "id": 240 },
        { "address": "郡元", "city": "都城市", "postcode": "8850018", "prefecture": "宮崎県", "id": 241 },
        { "address": "郡元町", "city": "都城市", "postcode": "8850013", "prefecture": "宮崎県", "id": 242 },
        { "address": "五十町", "city": "都城市", "postcode": "8850084", "prefecture": "宮崎県", "id": 243 },
        { "address": "小松原町", "city": "都城市", "postcode": "8850022", "prefecture": "宮崎県", "id": 244 },
        { "address": "栄町", "city": "都城市", "postcode": "8850023", "prefecture": "宮崎県", "id": 245 },
        { "address": "志比田町", "city": "都城市", "postcode": "8850093", "prefecture": "宮崎県", "id": 246 },
        { "address": "下川東", "city": "都城市", "postcode": "8850011", "prefecture": "宮崎県", "id": 247 },
        { "address": "下水流町", "city": "都城市", "postcode": "8851102", "prefecture": "宮崎県", "id": 248 },
        { "address": "下長飯町", "city": "都城市", "postcode": "8850061", "prefecture": "宮崎県", "id": 249 },
        { "address": "庄内町", "city": "都城市", "postcode": "8850114", "prefecture": "宮崎県", "id": 250 },
        { "address": "神之山町", "city": "都城市", "postcode": "8850005", "prefecture": "宮崎県", "id": 251 },
        { "address": "関之尾町", "city": "都城市", "postcode": "8850113", "prefecture": "宮崎県", "id": 252 },
        { "address": "千町", "city": "都城市", "postcode": "8850015", "prefecture": "宮崎県", "id": 253 },
        { "address": "大王町", "city": "都城市", "postcode": "8850026", "prefecture": "宮崎県", "id": 254 },
        { "address": "鷹尾", "city": "都城市", "postcode": "8850081", "prefecture": "宮崎県", "id": 255 },
        { "address": "高木町", "city": "都城市", "postcode": "8850003", "prefecture": "宮崎県", "id": 256 },
        { "address": "高崎町江平", "city": "都城市", "postcode": "8894502", "prefecture": "宮崎県", "id": 257 },
        { "address": "高崎町大牟田", "city": "都城市", "postcode": "8894505", "prefecture": "宮崎県", "id": 258 },
        { "address": "高崎町東霧島", "city": "都城市", "postcode": "8894504", "prefecture": "宮崎県", "id": 259 },
        { "address": "高崎町縄瀬", "city": "都城市", "postcode": "8894503", "prefecture": "宮崎県", "id": 260 },
        { "address": "高崎町笛水", "city": "都城市", "postcode": "8894501", "prefecture": "宮崎県", "id": 261 },
        { "address": "高崎町前田", "city": "都城市", "postcode": "8894506", "prefecture": "宮崎県", "id": 262 },
        { "address": "高城町有水", "city": "都城市", "postcode": "8851311", "prefecture": "宮崎県", "id": 263 },
        { "address": "高城町石山", "city": "都城市", "postcode": "8851205", "prefecture": "宮崎県", "id": 264 },
        { "address": "高城町大井手", "city": "都城市", "postcode": "8851203", "prefecture": "宮崎県", "id": 265 },
        { "address": "高城町桜木", "city": "都城市", "postcode": "8851204", "prefecture": "宮崎県", "id": 266 },
        { "address": "高城町四家", "city": "都城市", "postcode": "8851312", "prefecture": "宮崎県", "id": 267 },
        { "address": "高城町高城", "city": "都城市", "postcode": "8851201", "prefecture": "宮崎県", "id": 268 },
        { "address": "高城町穂満坊", "city": "都城市", "postcode": "8851202", "prefecture": "宮崎県", "id": 269 },
        { "address": "高野町", "city": "都城市", "postcode": "8850221", "prefecture": "宮崎県", "id": 270 },
        { "address": "立野町", "city": "都城市", "postcode": "8850035", "prefecture": "宮崎県", "id": 271 },
        { "address": "太郎坊町", "city": "都城市", "postcode": "8850002", "prefecture": "宮崎県", "id": 272 },
        { "address": "妻ケ丘町", "city": "都城市", "postcode": "8850033", "prefecture": "宮崎県", "id": 273 },
        { "address": "天神町", "city": "都城市", "postcode": "8850031", "prefecture": "宮崎県", "id": 274 },
        { "address": "年見町", "city": "都城市", "postcode": "8850017", "prefecture": "宮崎県", "id": 275 },
        { "address": "都北町", "city": "都城市", "postcode": "8850004", "prefecture": "宮崎県", "id": 276 },
        { "address": "豊満町", "city": "都城市", "postcode": "8850043", "prefecture": "宮崎県", "id": 277 },
        { "address": "中原町", "city": "都城市", "postcode": "8850032", "prefecture": "宮崎県", "id": 278 },
        { "address": "中町", "city": "都城市", "postcode": "8850071", "prefecture": "宮崎県", "id": 279 },
        { "address": "夏尾町", "city": "都城市", "postcode": "8850225", "prefecture": "宮崎県", "id": 280 },
        { "address": "西町", "city": "都城市", "postcode": "8850076", "prefecture": "宮崎県", "id": 281 },
        { "address": "野々美谷町", "city": "都城市", "postcode": "8851104", "prefecture": "宮崎県", "id": 282 },
        { "address": "八幡町", "city": "都城市", "postcode": "8850075", "prefecture": "宮崎県", "id": 283 },
        { "address": "花繰町", "city": "都城市", "postcode": "8850037", "prefecture": "宮崎県", "id": 284 },
        { "address": "早鈴町", "city": "都城市", "postcode": "8850055", "prefecture": "宮崎県", "id": 285 },
        { "address": "早水町", "city": "都城市", "postcode": "8850016", "prefecture": "宮崎県", "id": 286 },
        { "address": "東町", "city": "都城市", "postcode": "8850052", "prefecture": "宮崎県", "id": 287 },
        { "address": "姫城町", "city": "都城市", "postcode": "8850073", "prefecture": "宮崎県", "id": 288 },
        { "address": "平江町", "city": "都城市", "postcode": "8850021", "prefecture": "宮崎県", "id": 289 },
        { "address": "平塚町", "city": "都城市", "postcode": "8850085", "prefecture": "宮崎県", "id": 290 },
        { "address": "広原町", "city": "都城市", "postcode": "8850036", "prefecture": "宮崎県", "id": 291 },
        { "address": "前田町", "city": "都城市", "postcode": "8850025", "prefecture": "宮崎県", "id": 292 },
        { "address": "松元町", "city": "都城市", "postcode": "8850077", "prefecture": "宮崎県", "id": 293 },
        { "address": "丸谷町", "city": "都城市", "postcode": "8851105", "prefecture": "宮崎県", "id": 294 },
        { "address": "御池町", "city": "都城市", "postcode": "8850224", "prefecture": "宮崎県", "id": 295 },
        { "address": "美川町", "city": "都城市", "postcode": "8850222", "prefecture": "宮崎県", "id": 296 },
        { "address": "南鷹尾町", "city": "都城市", "postcode": "8850082", "prefecture": "宮崎県", "id": 297 },
        { "address": "南横市町", "city": "都城市", "postcode": "8850092", "prefecture": "宮崎県", "id": 298 },
        { "address": "蓑原町", "city": "都城市", "postcode": "8850095", "prefecture": "宮崎県", "id": 299 },
        { "address": "都島町", "city": "都城市", "postcode": "8850083", "prefecture": "宮崎県", "id": 300 },
        { "address": "都原町", "city": "都城市", "postcode": "8850094", "prefecture": "宮崎県", "id": 301 },
        { "address": "宮丸町", "city": "都城市", "postcode": "8850078", "prefecture": "宮崎県", "id": 302 },
        { "address": "牟田町", "city": "都城市", "postcode": "8850079", "prefecture": "宮崎県", "id": 303 },
        { "address": "安久町", "city": "都城市", "postcode": "8850044", "prefecture": "宮崎県", "id": 304 },
        { "address": "山田町中霧島", "city": "都城市", "postcode": "8894602", "prefecture": "宮崎県", "id": 305 },
        { "address": "山田町山田", "city": "都城市", "postcode": "8894601", "prefecture": "宮崎県", "id": 306 },
        { "address": "山之口町富吉", "city": "都城市", "postcode": "8891801", "prefecture": "宮崎県", "id": 307 },
        { "address": "山之口町花木", "city": "都城市", "postcode": "8891802", "prefecture": "宮崎県", "id": 308 },
        { "address": "山之口町山之口", "city": "都城市", "postcode": "8802303", "prefecture": "宮崎県", "id": 309 },
        { "address": "山之口町山之口", "city": "都城市", "postcode": "8891803", "prefecture": "宮崎県", "id": 310 },
        { "address": "横市町", "city": "都城市", "postcode": "8850091", "prefecture": "宮崎県", "id": 311 },
        { "address": "吉尾町", "city": "都城市", "postcode": "8850006", "prefecture": "宮崎県", "id": 312 },
        { "address": "吉之元町", "city": "都城市", "postcode": "8850223", "prefecture": "宮崎県", "id": 313 },
        { "address": "若葉町", "city": "都城市", "postcode": "8850054", "prefecture": "宮崎県", "id": 314 },
        { "city": "延岡市", "postcode": "8820000", "prefecture": "宮崎県", "id": 315 },
        { "address": "赤水町", "city": "延岡市", "postcode": "8890517", "prefecture": "宮崎県", "id": 316 },
        { "address": "安賀多町", "city": "延岡市", "postcode": "8820845", "prefecture": "宮崎県", "id": 317 },
        { "address": "旭ケ丘", "city": "延岡市", "postcode": "8890507", "prefecture": "宮崎県", "id": 318 },
        { "address": "旭町", "city": "延岡市", "postcode": "8820847", "prefecture": "宮崎県", "id": 319 },
        { "address": "愛宕町", "city": "延岡市", "postcode": "8820872", "prefecture": "宮崎県", "id": 320 },
        { "address": "愛宕山", "city": "延岡市", "postcode": "8820871", "prefecture": "宮崎県", "id": 321 },
        { "address": "天下町", "city": "延岡市", "postcode": "8820071", "prefecture": "宮崎県", "id": 322 },
        { "address": "粟野名町", "city": "延岡市", "postcode": "8820025", "prefecture": "宮崎県", "id": 323 },
        { "address": "伊形町", "city": "延岡市", "postcode": "8890503", "prefecture": "宮崎県", "id": 324 },
        { "address": "石田町", "city": "延岡市", "postcode": "8890501", "prefecture": "宮崎県", "id": 325 },
        { "address": "出口町", "city": "延岡市", "postcode": "8820831", "prefecture": "宮崎県", "id": 326 },
        { "address": "出北", "city": "延岡市", "postcode": "8820856", "prefecture": "宮崎県", "id": 327 },
        { "address": "稲葉崎町", "city": "延岡市", "postcode": "8820003", "prefecture": "宮崎県", "id": 328 },
        { "address": "浦城町", "city": "延岡市", "postcode": "8820095", "prefecture": "宮崎県", "id": 329 },
        { "address": "宇和田町", "city": "延岡市", "postcode": "8820084", "prefecture": "宮崎県", "id": 330 },
        { "address": "恵比須町", "city": "延岡市", "postcode": "8820046", "prefecture": "宮崎県", "id": 331 },
        { "address": "追内町", "city": "延岡市", "postcode": "8820013", "prefecture": "宮崎県", "id": 332 },
        { "address": "大峡町", "city": "延岡市", "postcode": "8820001", "prefecture": "宮崎県", "id": 333 },
        { "address": "大門町", "city": "延岡市", "postcode": "8820027", "prefecture": "宮崎県", "id": 334 },
        { "address": "大瀬町", "city": "延岡市", "postcode": "8820841", "prefecture": "宮崎県", "id": 335 },
        { "address": "大武町", "city": "延岡市", "postcode": "8820024", "prefecture": "宮崎県", "id": 336 },
        { "address": "大貫町", "city": "延岡市", "postcode": "8820803", "prefecture": "宮崎県", "id": 337 },
        { "address": "大野町", "city": "延岡市", "postcode": "8820086", "prefecture": "宮崎県", "id": 338 },
        { "address": "岡富町", "city": "延岡市", "postcode": "8820056", "prefecture": "宮崎県", "id": 339 },
        { "address": "岡富山", "city": "延岡市", "postcode": "8820057", "prefecture": "宮崎県", "id": 340 },
        { "address": "岡元町", "city": "延岡市", "postcode": "8820075", "prefecture": "宮崎県", "id": 341 },
        { "address": "沖田町", "city": "延岡市", "postcode": "8820876", "prefecture": "宮崎県", "id": 342 },
        { "address": "尾崎町", "city": "延岡市", "postcode": "8820006", "prefecture": "宮崎県", "id": 343 },
        { "address": "卸本町", "city": "延岡市", "postcode": "8820855", "prefecture": "宮崎県", "id": 344 },
        { "address": "貝の畑町", "city": "延岡市", "postcode": "8820073", "prefecture": "宮崎県", "id": 345 },
        { "address": "鹿狩瀬町", "city": "延岡市", "postcode": "8820085", "prefecture": "宮崎県", "id": 346 },
        { "address": "樫山町", "city": "延岡市", "postcode": "8820004", "prefecture": "宮崎県", "id": 347 },
        { "address": "鹿小路", "city": "延岡市", "postcode": "8820012", "prefecture": "宮崎県", "id": 348 },
        { "address": "春日町", "city": "延岡市", "postcode": "8820844", "prefecture": "宮崎県", "id": 349 },
        { "address": "片田町", "city": "延岡市", "postcode": "8820877", "prefecture": "宮崎県", "id": 350 },
        { "address": "構口町", "city": "延岡市", "postcode": "8820867", "prefecture": "宮崎県", "id": 351 },
        { "address": "上伊形町", "city": "延岡市", "postcode": "8890502", "prefecture": "宮崎県", "id": 352 },
        { "address": "上大瀬町", "city": "延岡市", "postcode": "8820833", "prefecture": "宮崎県", "id": 353 },
        { "address": "上三輪町", "city": "延岡市", "postcode": "8820885", "prefecture": "宮崎県", "id": 354 },
        { "address": "川島町", "city": "延岡市", "postcode": "8820017", "prefecture": "宮崎県", "id": 355 },
        { "address": "川原崎町", "city": "延岡市", "postcode": "8820033", "prefecture": "宮崎県", "id": 356 },
        { "address": "祗園町", "city": "延岡市", "postcode": "8820043", "prefecture": "宮崎県", "id": 357 },
        { "address": "北浦町市振", "city": "延岡市", "postcode": "8890302", "prefecture": "宮崎県", "id": 358 },
        { "address": "北浦町古江", "city": "延岡市", "postcode": "8890301", "prefecture": "宮崎県", "id": 359 },
        { "address": "北浦町三川内", "city": "延岡市", "postcode": "8890304", "prefecture": "宮崎県", "id": 360 },
        { "address": "北浦町宮野浦", "city": "延岡市", "postcode": "8890303", "prefecture": "宮崎県", "id": 361 },
        { "address": "北方町板上", "city": "延岡市", "postcode": "8820121", "prefecture": "宮崎県", "id": 362 },
        { "address": "北方町板下", "city": "延岡市", "postcode": "8820122", "prefecture": "宮崎県", "id": 363 },
        { "address": "北方町うそ越", "city": "延岡市", "postcode": "8820123", "prefecture": "宮崎県", "id": 364 },
        { "address": "北方町笠下", "city": "延岡市", "postcode": "8820106", "prefecture": "宮崎県", "id": 365 },
        { "address": "北方町上崎", "city": "延岡市", "postcode": "8820126", "prefecture": "宮崎県", "id": 366 },
        { "address": "北方町上鹿川", "city": "延岡市", "postcode": "8820231", "prefecture": "宮崎県", "id": 367 },
        { "address": "北方町川水流", "city": "延岡市", "postcode": "8820125", "prefecture": "宮崎県", "id": 368 },
        { "address": "北方町北久保山", "city": "延岡市", "postcode": "8820129", "prefecture": "宮崎県", "id": 369 },
        { "address": "北方町蔵田", "city": "延岡市", "postcode": "8820127", "prefecture": "宮崎県", "id": 370 },
        { "address": "北方町三ケ村", "city": "延岡市", "postcode": "8820241", "prefecture": "宮崎県", "id": 371 },
        { "address": "北方町椎畑", "city": "延岡市", "postcode": "8820237", "prefecture": "宮崎県", "id": 372 },
        { "address": "北方町下鹿川", "city": "延岡市", "postcode": "8820232", "prefecture": "宮崎県", "id": 373 },
        { "address": "北方町菅原", "city": "延岡市", "postcode": "8820233", "prefecture": "宮崎県", "id": 374 },
        { "address": "北方町曽木", "city": "延岡市", "postcode": "8820124", "prefecture": "宮崎県", "id": 375 },
        { "address": "北方町滝下", "city": "延岡市", "postcode": "8820238", "prefecture": "宮崎県", "id": 376 },
        { "address": "北方町角田", "city": "延岡市", "postcode": "8820104", "prefecture": "宮崎県", "id": 377 },
        { "address": "北方町早上", "city": "延岡市", "postcode": "8820245", "prefecture": "宮崎県", "id": 378 },
        { "address": "北方町早中", "city": "延岡市", "postcode": "8820244", "prefecture": "宮崎県", "id": 379 },
        { "address": "北方町早日渡", "city": "延岡市", "postcode": "8820243", "prefecture": "宮崎県", "id": 380 },
        { "address": "北方町日平", "city": "延岡市", "postcode": "8820236", "prefecture": "宮崎県", "id": 381 },
        { "address": "北方町藤の木", "city": "延岡市", "postcode": "8820107", "prefecture": "宮崎県", "id": 382 },
        { "address": "北方町二股", "city": "延岡市", "postcode": "8820101", "prefecture": "宮崎県", "id": 383 },
        { "address": "北方町槇峰", "city": "延岡市", "postcode": "8820235", "prefecture": "宮崎県", "id": 384 },
        { "address": "北方町南久保山", "city": "延岡市", "postcode": "8820128", "prefecture": "宮崎県", "id": 385 },
        { "address": "北方町美々地", "city": "延岡市", "postcode": "8820234", "prefecture": "宮崎県", "id": 386 },
        { "address": "北方町八峡", "city": "延岡市", "postcode": "8820242", "prefecture": "宮崎県", "id": 387 },
        { "address": "北川町川内名", "city": "延岡市", "postcode": "8820097", "prefecture": "宮崎県", "id": 388 },
        { "address": "北川町川内名", "city": "延岡市", "postcode": "8890101", "prefecture": "宮崎県", "id": 389 },
        { "address": "北川町長井", "city": "延岡市", "postcode": "8890102", "prefecture": "宮崎県", "id": 390 },
        { "address": "北小路", "city": "延岡市", "postcode": "8820041", "prefecture": "宮崎県", "id": 391 },
        { "address": "北新小路", "city": "延岡市", "postcode": "8820834", "prefecture": "宮崎県", "id": 392 },
        { "address": "北一ケ岡", "city": "延岡市", "postcode": "8890505", "prefecture": "宮崎県", "id": 393 },
        { "address": "北町", "city": "延岡市", "postcode": "8820814", "prefecture": "宮崎県", "id": 394 },
        { "address": "共栄町", "city": "延岡市", "postcode": "8820873", "prefecture": "宮崎県", "id": 395 },
        { "address": "櫛津町", "city": "延岡市", "postcode": "8890514", "prefecture": "宮崎県", "id": 396 },
        { "address": "熊野江町", "city": "延岡市", "postcode": "8890322", "prefecture": "宮崎県", "id": 397 },
        { "address": "桑平町", "city": "延岡市", "postcode": "8820091", "prefecture": "宮崎県", "id": 398 },
        { "address": "神戸町", "city": "延岡市", "postcode": "8820093", "prefecture": "宮崎県", "id": 399 },
        { "address": "小川町", "city": "延岡市", "postcode": "8820076", "prefecture": "宮崎県", "id": 400 },
        { "address": "小野町", "city": "延岡市", "postcode": "8820882", "prefecture": "宮崎県", "id": 401 },
        { "address": "小峰町", "city": "延岡市", "postcode": "8820061", "prefecture": "宮崎県", "id": 402 },
        { "address": "紺屋町", "city": "延岡市", "postcode": "8820047", "prefecture": "宮崎県", "id": 403 },
        { "address": "西小路", "city": "延岡市", "postcode": "8820832", "prefecture": "宮崎県", "id": 404 },
        { "address": "幸町", "city": "延岡市", "postcode": "8820053", "prefecture": "宮崎県", "id": 405 },
        { "address": "栄町", "city": "延岡市", "postcode": "8820054", "prefecture": "宮崎県", "id": 406 },
        { "address": "桜ケ丘", "city": "延岡市", "postcode": "8820007", "prefecture": "宮崎県", "id": 407 },
        { "address": "桜小路", "city": "延岡市", "postcode": "8820816", "prefecture": "宮崎県", "id": 408 },
        { "address": "桜園町", "city": "延岡市", "postcode": "8820036", "prefecture": "宮崎県", "id": 409 },
        { "address": "差木野町", "city": "延岡市", "postcode": "8820002", "prefecture": "宮崎県", "id": 410 },
        { "address": "佐野町", "city": "延岡市", "postcode": "8820081", "prefecture": "宮崎県", "id": 411 },
        { "address": "塩浜町", "city": "延岡市", "postcode": "8820864", "prefecture": "宮崎県", "id": 412 },
        { "address": "島浦町", "city": "延岡市", "postcode": "8820096", "prefecture": "宮崎県", "id": 413 },
        { "address": "下伊形町", "city": "延岡市", "postcode": "8890504", "prefecture": "宮崎県", "id": 414 },
        { "address": "下三輪町", "city": "延岡市", "postcode": "8820883", "prefecture": "宮崎県", "id": 415 },
        { "address": "昭和町", "city": "延岡市", "postcode": "8820034", "prefecture": "宮崎県", "id": 416 },
        { "address": "白石町", "city": "延岡市", "postcode": "8820014", "prefecture": "宮崎県", "id": 417 },
        { "address": "新小路", "city": "延岡市", "postcode": "8820835", "prefecture": "宮崎県", "id": 418 },
        { "address": "新浜町", "city": "延岡市", "postcode": "8890512", "prefecture": "宮崎県", "id": 419 },
        { "address": "新町", "city": "延岡市", "postcode": "8820827", "prefecture": "宮崎県", "id": 420 },
        { "address": "須佐町", "city": "延岡市", "postcode": "8820011", "prefecture": "宮崎県", "id": 421 },
        { "address": "須崎町", "city": "延岡市", "postcode": "8820825", "prefecture": "宮崎県", "id": 422 },
        { "address": "須美江町", "city": "延岡市", "postcode": "8890321", "prefecture": "宮崎県", "id": 423 },
        { "address": "瀬之口町", "city": "延岡市", "postcode": "8820045", "prefecture": "宮崎県", "id": 424 },
        { "address": "惣領町", "city": "延岡市", "postcode": "8820857", "prefecture": "宮崎県", "id": 425 },
        { "address": "鯛名町", "city": "延岡市", "postcode": "8890516", "prefecture": "宮崎県", "id": 426 },
        { "address": "高千穂通", "city": "延岡市", "postcode": "8820042", "prefecture": "宮崎県", "id": 427 },
        { "address": "高野町", "city": "延岡市", "postcode": "8820064", "prefecture": "宮崎県", "id": 428 },
        { "address": "伊達町", "city": "延岡市", "postcode": "8820874", "prefecture": "宮崎県", "id": 429 },
        { "address": "中央通", "city": "延岡市", "postcode": "8820824", "prefecture": "宮崎県", "id": 430 },
        { "address": "恒富町", "city": "延岡市", "postcode": "8820836", "prefecture": "宮崎県", "id": 431 },
        { "address": "鶴ケ丘", "city": "延岡市", "postcode": "8820865", "prefecture": "宮崎県", "id": 432 },
        { "address": "天神小路", "city": "延岡市", "postcode": "8820811", "prefecture": "宮崎県", "id": 433 },
        { "address": "東海町", "city": "延岡市", "postcode": "8820016", "prefecture": "宮崎県", "id": 434 },
        { "address": "土々呂町", "city": "延岡市", "postcode": "8890513", "prefecture": "宮崎県", "id": 435 },
        { "address": "富美山町", "city": "延岡市", "postcode": "8820051", "prefecture": "宮崎県", "id": 436 },
        { "address": "中川原町", "city": "延岡市", "postcode": "8820031", "prefecture": "宮崎県", "id": 437 },
        { "address": "中島町", "city": "延岡市", "postcode": "8820846", "prefecture": "宮崎県", "id": 438 },
        { "address": "中の瀬町", "city": "延岡市", "postcode": "8820032", "prefecture": "宮崎県", "id": 439 },
        { "address": "中町", "city": "延岡市", "postcode": "8820823", "prefecture": "宮崎県", "id": 440 },
        { "address": "中三輪町", "city": "延岡市", "postcode": "8820884", "prefecture": "宮崎県", "id": 441 },
        { "address": "永池町", "city": "延岡市", "postcode": "8820843", "prefecture": "宮崎県", "id": 442 },
        { "address": "長浜町", "city": "延岡市", "postcode": "8820854", "prefecture": "宮崎県", "id": 443 },
        { "address": "夏田町", "city": "延岡市", "postcode": "8820005", "prefecture": "宮崎県", "id": 444 },
        { "address": "西階町", "city": "延岡市", "postcode": "8820804", "prefecture": "宮崎県", "id": 445 },
        { "address": "野地町", "city": "延岡市", "postcode": "8820802", "prefecture": "宮崎県", "id": 446 },
        { "address": "野田", "city": "延岡市", "postcode": "8820805", "prefecture": "宮崎県", "id": 447 },
        { "address": "野田町", "city": "延岡市", "postcode": "8820801", "prefecture": "宮崎県", "id": 448 },
        { "address": "萩町", "city": "延岡市", "postcode": "8820052", "prefecture": "宮崎県", "id": 449 },
        { "address": "博労町", "city": "延岡市", "postcode": "8820044", "prefecture": "宮崎県", "id": 450 },
        { "address": "浜砂", "city": "延岡市", "postcode": "8820851", "prefecture": "宮崎県", "id": 451 },
        { "address": "浜町", "city": "延岡市", "postcode": "8820862", "prefecture": "宮崎県", "id": 452 },
        { "address": "東浜砂町", "city": "延岡市", "postcode": "8820852", "prefecture": "宮崎県", "id": 453 },
        { "address": "東本小路", "city": "延岡市", "postcode": "8820813", "prefecture": "宮崎県", "id": 454 },
        { "address": "日の出町", "city": "延岡市", "postcode": "8820035", "prefecture": "宮崎県", "id": 455 },
        { "address": "別府町", "city": "延岡市", "postcode": "8820861", "prefecture": "宮崎県", "id": 456 },
        { "address": "平田町", "city": "延岡市", "postcode": "8820065", "prefecture": "宮崎県", "id": 457 },
        { "address": "平原町", "city": "延岡市", "postcode": "8820866", "prefecture": "宮崎県", "id": 458 },
        { "address": "二ツ島町", "city": "延岡市", "postcode": "8820022", "prefecture": "宮崎県", "id": 459 },
        { "address": "船倉町", "city": "延岡市", "postcode": "8820826", "prefecture": "宮崎県", "id": 460 },
        { "address": "古川町", "city": "延岡市", "postcode": "8820063", "prefecture": "宮崎県", "id": 461 },
        { "address": "古城町", "city": "延岡市", "postcode": "8820837", "prefecture": "宮崎県", "id": 462 },
        { "address": "方財町", "city": "延岡市", "postcode": "8820853", "prefecture": "宮崎県", "id": 463 },
        { "address": "祝子町", "city": "延岡市", "postcode": "8820082", "prefecture": "宮崎県", "id": 464 },
        { "address": "細見町", "city": "延岡市", "postcode": "8820074", "prefecture": "宮崎県", "id": 465 },
        { "address": "本小路", "city": "延岡市", "postcode": "8820812", "prefecture": "宮崎県", "id": 466 },
        { "address": "本町", "city": "延岡市", "postcode": "8820821", "prefecture": "宮崎県", "id": 467 },
        { "address": "舞野町", "city": "延岡市", "postcode": "8820066", "prefecture": "宮崎県", "id": 468 },
        { "address": "牧町", "city": "延岡市", "postcode": "8820023", "prefecture": "宮崎県", "id": 469 },
        { "address": "松原町", "city": "延岡市", "postcode": "8890511", "prefecture": "宮崎県", "id": 470 },
        { "address": "松山町", "city": "延岡市", "postcode": "8820062", "prefecture": "宮崎県", "id": 471 },
        { "address": "三須町", "city": "延岡市", "postcode": "8820881", "prefecture": "宮崎県", "id": 472 },
        { "address": "水尻町", "city": "延岡市", "postcode": "8820015", "prefecture": "宮崎県", "id": 473 },
        { "address": "三ツ瀬町", "city": "延岡市", "postcode": "8820842", "prefecture": "宮崎県", "id": 474 },
        { "address": "緑ケ丘", "city": "延岡市", "postcode": "8820863", "prefecture": "宮崎県", "id": 475 },
        { "address": "南一ケ岡", "city": "延岡市", "postcode": "8890506", "prefecture": "宮崎県", "id": 476 },
        { "address": "南町", "city": "延岡市", "postcode": "8820822", "prefecture": "宮崎県", "id": 477 },
        { "address": "宮長町", "city": "延岡市", "postcode": "8820092", "prefecture": "宮崎県", "id": 478 },
        { "address": "妙見町", "city": "延岡市", "postcode": "8890515", "prefecture": "宮崎県", "id": 479 },
        { "address": "妙町", "city": "延岡市", "postcode": "8820087", "prefecture": "宮崎県", "id": 480 },
        { "address": "行縢町", "city": "延岡市", "postcode": "8820077", "prefecture": "宮崎県", "id": 481 },
        { "address": "無鹿町", "city": "延岡市", "postcode": "8820021", "prefecture": "宮崎県", "id": 482 },
        { "address": "安井町", "city": "延岡市", "postcode": "8820094", "prefecture": "宮崎県", "id": 483 },
        { "address": "柳沢町", "city": "延岡市", "postcode": "8820815", "prefecture": "宮崎県", "id": 484 },
        { "address": "山下町", "city": "延岡市", "postcode": "8820055", "prefecture": "宮崎県", "id": 485 },
        { "address": "山月町", "city": "延岡市", "postcode": "8820037", "prefecture": "宮崎県", "id": 486 },
        { "address": "柚木町", "city": "延岡市", "postcode": "8820083", "prefecture": "宮崎県", "id": 487 },
        { "address": "柚の木田町", "city": "延岡市", "postcode": "8820026", "prefecture": "宮崎県", "id": 488 },
        { "address": "吉野町", "city": "延岡市", "postcode": "8820072", "prefecture": "宮崎県", "id": 489 },
        { "address": "若葉町", "city": "延岡市", "postcode": "8820875", "prefecture": "宮崎県", "id": 490 },
        { "city": "日南市", "postcode": "8870000", "prefecture": "宮崎県", "id": 491 },
        { "address": "吾田東", "city": "日南市", "postcode": "8870041", "prefecture": "宮崎県", "id": 492 },
        { "address": "吾田東", "city": "日南市", "postcode": "8892541", "prefecture": "宮崎県", "id": 493 },
        { "address": "吾田西", "city": "日南市", "postcode": "8892536", "prefecture": "宮崎県", "id": 494 },
        { "address": "油津", "city": "日南市", "postcode": "8870001", "prefecture": "宮崎県", "id": 495 },
        { "address": "板敷", "city": "日南市", "postcode": "8892532", "prefecture": "宮崎県", "id": 496 },
        { "address": "伊比井", "city": "日南市", "postcode": "8870111", "prefecture": "宮崎県", "id": 497 },
        { "address": "今町", "city": "日南市", "postcode": "8892525", "prefecture": "宮崎県", "id": 498 },
        { "address": "岩崎", "city": "日南市", "postcode": "8870014", "prefecture": "宮崎県", "id": 499 },
        { "address": "梅ケ浜", "city": "日南市", "postcode": "8870017", "prefecture": "宮崎県", "id": 500 },
        { "address": "大窪", "city": "日南市", "postcode": "8893156", "prefecture": "宮崎県", "id": 501 },
        { "address": "大堂津", "city": "日南市", "postcode": "8893141", "prefecture": "宮崎県", "id": 502 },
        { "address": "乙姫町", "city": "日南市", "postcode": "8870007", "prefecture": "宮崎県", "id": 503 },
        { "address": "飫肥", "city": "日南市", "postcode": "8892535", "prefecture": "宮崎県", "id": 504 },
        { "address": "春日町", "city": "日南市", "postcode": "8870006", "prefecture": "宮崎県", "id": 505 },
        { "address": "風田", "city": "日南市", "postcode": "8870034", "prefecture": "宮崎県", "id": 506 },
        { "address": "上方", "city": "日南市", "postcode": "8893151", "prefecture": "宮崎県", "id": 507 },
        { "address": "上平野町", "city": "日南市", "postcode": "8870022", "prefecture": "宮崎県", "id": 508 },
        { "address": "北郷町大藤", "city": "日南市", "postcode": "8892401", "prefecture": "宮崎県", "id": 509 },
        { "address": "北郷町北河内", "city": "日南市", "postcode": "8892403", "prefecture": "宮崎県", "id": 510 },
        { "address": "北郷町郷之原", "city": "日南市", "postcode": "8892402", "prefecture": "宮崎県", "id": 511 },
        { "address": "木山", "city": "日南市", "postcode": "8870013", "prefecture": "宮崎県", "id": 512 },
        { "address": "楠原", "city": "日南市", "postcode": "8892514", "prefecture": "宮崎県", "id": 513 },
        { "address": "隈谷", "city": "日南市", "postcode": "8870023", "prefecture": "宮崎県", "id": 514 },
        { "address": "毛吉田", "city": "日南市", "postcode": "8893152", "prefecture": "宮崎県", "id": 515 },
        { "address": "材木町", "city": "日南市", "postcode": "8870005", "prefecture": "宮崎県", "id": 516 },
        { "address": "酒谷甲", "city": "日南市", "postcode": "8892512", "prefecture": "宮崎県", "id": 517 },
        { "address": "酒谷乙", "city": "日南市", "postcode": "8892511", "prefecture": "宮崎県", "id": 518 },
        { "address": "塩鶴", "city": "日南市", "postcode": "8893142", "prefecture": "宮崎県", "id": 519 },
        { "address": "下方", "city": "日南市", "postcode": "8893143", "prefecture": "宮崎県", "id": 520 },
        { "address": "瀬貝", "city": "日南市", "postcode": "8870011", "prefecture": "宮崎県", "id": 521 },
        { "address": "瀬西", "city": "日南市", "postcode": "8870003", "prefecture": "宮崎県", "id": 522 },
        { "address": "園田", "city": "日南市", "postcode": "8870012", "prefecture": "宮崎県", "id": 523 },
        { "address": "中央通", "city": "日南市", "postcode": "8870021", "prefecture": "宮崎県", "id": 524 },
        { "address": "塚田甲", "city": "日南市", "postcode": "8893154", "prefecture": "宮崎県", "id": 525 },
        { "address": "塚田乙", "city": "日南市", "postcode": "8893155", "prefecture": "宮崎県", "id": 526 },
        { "address": "天福", "city": "日南市", "postcode": "8870004", "prefecture": "宮崎県", "id": 527 },
        { "address": "時任町", "city": "日南市", "postcode": "8892534", "prefecture": "宮崎県", "id": 528 },
        { "address": "戸高", "city": "日南市", "postcode": "8870031", "prefecture": "宮崎県", "id": 529 },
        { "address": "殿所", "city": "日南市", "postcode": "8892524", "prefecture": "宮崎県", "id": 530 },
        { "address": "中平野", "city": "日南市", "postcode": "8870016", "prefecture": "宮崎県", "id": 531 },
        { "address": "南郷町潟上", "city": "日南市", "postcode": "8893213", "prefecture": "宮崎県", "id": 532 },
        { "address": "南郷町谷之口", "city": "日南市", "postcode": "8893203", "prefecture": "宮崎県", "id": 533 },
        { "address": "南郷町津屋野", "city": "日南市", "postcode": "8893201", "prefecture": "宮崎県", "id": 534 },
        { "address": "南郷町中村甲", "city": "日南市", "postcode": "8893202", "prefecture": "宮崎県", "id": 535 },
        { "address": "南郷町中村乙", "city": "日南市", "postcode": "8893204", "prefecture": "宮崎県", "id": 536 },
        { "address": "南郷町贄波", "city": "日南市", "postcode": "8893211", "prefecture": "宮崎県", "id": 537 },
        { "address": "南郷町西町", "city": "日南市", "postcode": "8893205", "prefecture": "宮崎県", "id": 538 },
        { "address": "南郷町東町", "city": "日南市", "postcode": "8893207", "prefecture": "宮崎県", "id": 539 },
        { "address": "南郷町南町", "city": "日南市", "postcode": "8893206", "prefecture": "宮崎県", "id": 540 },
        { "address": "南郷町榎原", "city": "日南市", "postcode": "8893214", "prefecture": "宮崎県", "id": 541 },
        { "address": "南郷町榎原甲", "city": "日南市", "postcode": "8893215", "prefecture": "宮崎県", "id": 542 },
        { "address": "南郷町榎原乙", "city": "日南市", "postcode": "8893216", "prefecture": "宮崎県", "id": 543 },
        { "address": "南郷町榎原丙", "city": "日南市", "postcode": "8893217", "prefecture": "宮崎県", "id": 544 },
        { "address": "南郷町脇本", "city": "日南市", "postcode": "8893212", "prefecture": "宮崎県", "id": 545 },
        { "address": "西弁分", "city": "日南市", "postcode": "8870024", "prefecture": "宮崎県", "id": 546 },
        { "address": "西町", "city": "日南市", "postcode": "8870002", "prefecture": "宮崎県", "id": 547 },
        { "address": "萩之嶺", "city": "日南市", "postcode": "8893153", "prefecture": "宮崎県", "id": 548 },
        { "address": "東弁分乙", "city": "日南市", "postcode": "8892521", "prefecture": "宮崎県", "id": 549 },
        { "address": "東弁分甲", "city": "日南市", "postcode": "8892522", "prefecture": "宮崎県", "id": 550 },
        { "address": "平野", "city": "日南市", "postcode": "8870015", "prefecture": "宮崎県", "id": 551 },
        { "address": "平山", "city": "日南市", "postcode": "8870033", "prefecture": "宮崎県", "id": 552 },
        { "address": "富土", "city": "日南市", "postcode": "8870102", "prefecture": "宮崎県", "id": 553 },
        { "address": "星倉", "city": "日南市", "postcode": "8892533", "prefecture": "宮崎県", "id": 554 },
        { "address": "本町", "city": "日南市", "postcode": "8892531", "prefecture": "宮崎県", "id": 555 },
        { "address": "益安", "city": "日南市", "postcode": "8870032", "prefecture": "宮崎県", "id": 556 },
        { "address": "松永", "city": "日南市", "postcode": "8892523", "prefecture": "宮崎県", "id": 557 },
        { "address": "宮浦", "city": "日南市", "postcode": "8870101", "prefecture": "宮崎県", "id": 558 },
        { "address": "吉野方", "city": "日南市", "postcode": "8892513", "prefecture": "宮崎県", "id": 559 },
        { "city": "小林市", "postcode": "8860000", "prefecture": "宮崎県", "id": 560 },
        { "address": "駅南", "city": "小林市", "postcode": "8860009", "prefecture": "宮崎県", "id": 561 },
        { "address": "北西方", "city": "小林市", "postcode": "8860006", "prefecture": "宮崎県", "id": 562 },
        { "address": "須木内山", "city": "小林市", "postcode": "8860115", "prefecture": "宮崎県", "id": 563 },
        { "address": "須木下田", "city": "小林市", "postcode": "8860112", "prefecture": "宮崎県", "id": 564 },
        { "address": "須木鳥田町", "city": "小林市", "postcode": "8860113", "prefecture": "宮崎県", "id": 565 },
        { "address": "須木中原", "city": "小林市", "postcode": "8860111", "prefecture": "宮崎県", "id": 566 },
        { "address": "須木奈佐木", "city": "小林市", "postcode": "8860114", "prefecture": "宮崎県", "id": 567 },
        { "address": "堤", "city": "小林市", "postcode": "8860003", "prefecture": "宮崎県", "id": 568 },
        { "address": "水流迫", "city": "小林市", "postcode": "8860002", "prefecture": "宮崎県", "id": 569 },
        { "address": "野尻町紙屋", "city": "小林市", "postcode": "8860211", "prefecture": "宮崎県", "id": 570 },
        { "address": "野尻町東麓", "city": "小林市", "postcode": "8860212", "prefecture": "宮崎県", "id": 571 },
        { "address": "野尻町三ケ野山", "city": "小林市", "postcode": "8860213", "prefecture": "宮崎県", "id": 572 },
        { "address": "東方", "city": "小林市", "postcode": "8860101", "prefecture": "宮崎県", "id": 573 },
        { "address": "東方", "city": "小林市", "postcode": "8860001", "prefecture": "宮崎県", "id": 574 },
        { "address": "細野", "city": "小林市", "postcode": "8860004", "prefecture": "宮崎県", "id": 575 },
        { "address": "本町", "city": "小林市", "postcode": "8860008", "prefecture": "宮崎県", "id": 576 },
        { "address": "真方", "city": "小林市", "postcode": "8860007", "prefecture": "宮崎県", "id": 577 },
        { "address": "南西方", "city": "小林市", "postcode": "8860005", "prefecture": "宮崎県", "id": 578 },
        { "city": "日向市", "postcode": "8830000", "prefecture": "宮崎県", "id": 579 },
        { "address": "伊勢ケ浜", "city": "日向市", "postcode": "8830003", "prefecture": "宮崎県", "id": 580 },
        { "address": "上町", "city": "日向市", "postcode": "8830044", "prefecture": "宮崎県", "id": 581 },
        { "address": "江良町", "city": "日向市", "postcode": "8830012", "prefecture": "宮崎県", "id": 582 },
        { "address": "梶木町", "city": "日向市", "postcode": "8830053", "prefecture": "宮崎県", "id": 583 },
        { "address": "亀崎", "city": "日向市", "postcode": "8830066", "prefecture": "宮崎県", "id": 584 },
        { "address": "亀崎西", "city": "日向市", "postcode": "8830068", "prefecture": "宮崎県", "id": 585 },
        { "address": "亀崎東", "city": "日向市", "postcode": "8830067", "prefecture": "宮崎県", "id": 586 },
        { "address": "北町", "city": "日向市", "postcode": "8830041", "prefecture": "宮崎県", "id": 587 },
        { "address": "迎洋園", "city": "日向市", "postcode": "8830038", "prefecture": "宮崎県", "id": 588 },
        { "address": "財光寺", "city": "日向市", "postcode": "8830021", "prefecture": "宮崎県", "id": 589 },
        { "address": "財光寺往還町", "city": "日向市", "postcode": "8830024", "prefecture": "宮崎県", "id": 590 },
        { "address": "財光寺沖町", "city": "日向市", "postcode": "8830023", "prefecture": "宮崎県", "id": 591 },
        { "address": "幸脇", "city": "日向市", "postcode": "8891112", "prefecture": "宮崎県", "id": 592 },
        { "address": "塩見", "city": "日向市", "postcode": "8830033", "prefecture": "宮崎県", "id": 593 },
        { "address": "新生町", "city": "日向市", "postcode": "8830013", "prefecture": "宮崎県", "id": 594 },
        { "address": "曽根町", "city": "日向市", "postcode": "8830011", "prefecture": "宮崎県", "id": 595 },
        { "address": "大王町", "city": "日向市", "postcode": "8830061", "prefecture": "宮崎県", "id": 596 },
        { "address": "高砂町", "city": "日向市", "postcode": "8830042", "prefecture": "宮崎県", "id": 597 },
        { "address": "竹島町", "city": "日向市", "postcode": "8830063", "prefecture": "宮崎県", "id": 598 },
        { "address": "鶴町", "city": "日向市", "postcode": "8830052", "prefecture": "宮崎県", "id": 599 },
        { "address": "東郷町迫野内", "city": "日向市", "postcode": "8830111", "prefecture": "宮崎県", "id": 600 },
        { "address": "東郷町下三ケ", "city": "日向市", "postcode": "8830213", "prefecture": "宮崎県", "id": 601 },
        { "address": "東郷町坪谷", "city": "日向市", "postcode": "8830211", "prefecture": "宮崎県", "id": 602 },
        { "address": "東郷町八重原", "city": "日向市", "postcode": "8830108", "prefecture": "宮崎県", "id": 603 },
        { "address": "東郷町山陰", "city": "日向市", "postcode": "8830109", "prefecture": "宮崎県", "id": 604 },
        { "address": "東郷町山陰乙", "city": "日向市", "postcode": "8891101", "prefecture": "宮崎県", "id": 605 },
        { "address": "東郷町山陰乙", "city": "日向市", "postcode": "8830101", "prefecture": "宮崎県", "id": 606 },
        { "address": "東郷町山陰己", "city": "日向市", "postcode": "8830105", "prefecture": "宮崎県", "id": 607 },
        { "address": "東郷町山陰甲", "city": "日向市", "postcode": "8891121", "prefecture": "宮崎県", "id": 608 },
        { "address": "東郷町山陰庚", "city": "日向市", "postcode": "8830107", "prefecture": "宮崎県", "id": 609 },
        { "address": "東郷町山陰辛", "city": "日向市", "postcode": "8830106", "prefecture": "宮崎県", "id": 610 },
        { "address": "東郷町山陰丁", "city": "日向市", "postcode": "8830103", "prefecture": "宮崎県", "id": 611 },
        { "address": "東郷町山陰丙", "city": "日向市", "postcode": "8830102", "prefecture": "宮崎県", "id": 612 },
        { "address": "東郷町山陰戊", "city": "日向市", "postcode": "8830104", "prefecture": "宮崎県", "id": 613 },
        { "address": "東郷町山陰戊", "city": "日向市", "postcode": "8830212", "prefecture": "宮崎県", "id": 614 },
        { "address": "富高", "city": "日向市", "postcode": "8830034", "prefecture": "宮崎県", "id": 615 },
        { "address": "中堀町", "city": "日向市", "postcode": "8830005", "prefecture": "宮崎県", "id": 616 },
        { "address": "中町", "city": "日向市", "postcode": "8830046", "prefecture": "宮崎県", "id": 617 },
        { "address": "永江町", "city": "日向市", "postcode": "8830015", "prefecture": "宮崎県", "id": 618 },
        { "address": "浜町", "city": "日向市", "postcode": "8830004", "prefecture": "宮崎県", "id": 619 },
        { "address": "原町", "city": "日向市", "postcode": "8830014", "prefecture": "宮崎県", "id": 620 },
        { "address": "春原町", "city": "日向市", "postcode": "8830035", "prefecture": "宮崎県", "id": 621 },
        { "address": "日知屋", "city": "日向市", "postcode": "8830062", "prefecture": "宮崎県", "id": 622 },
        { "address": "日知屋古田町", "city": "日向市", "postcode": "8830064", "prefecture": "宮崎県", "id": 623 },
        { "address": "平岩", "city": "日向市", "postcode": "8830022", "prefecture": "宮崎県", "id": 624 },
        { "address": "比良町", "city": "日向市", "postcode": "8830031", "prefecture": "宮崎県", "id": 625 },
        { "address": "平野町", "city": "日向市", "postcode": "8830002", "prefecture": "宮崎県", "id": 626 },
        { "address": "不動寺", "city": "日向市", "postcode": "8830037", "prefecture": "宮崎県", "id": 627 },
        { "address": "船場町", "city": "日向市", "postcode": "8830065", "prefecture": "宮崎県", "id": 628 },
        { "address": "細島", "city": "日向市", "postcode": "8830001", "prefecture": "宮崎県", "id": 629 },
        { "address": "本町", "city": "日向市", "postcode": "8830045", "prefecture": "宮崎県", "id": 630 },
        { "address": "南町", "city": "日向市", "postcode": "8830036", "prefecture": "宮崎県", "id": 631 },
        { "address": "美々津町", "city": "日向市", "postcode": "8891111", "prefecture": "宮崎県", "id": 632 },
        { "address": "都町", "city": "日向市", "postcode": "8830043", "prefecture": "宮崎県", "id": 633 },
        { "address": "向江町", "city": "日向市", "postcode": "8830051", "prefecture": "宮崎県", "id": 634 },
        { "address": "山下町", "city": "日向市", "postcode": "8830032", "prefecture": "宮崎県", "id": 635 },
        { "address": "山手町", "city": "日向市", "postcode": "8830006", "prefecture": "宮崎県", "id": 636 },
        { "city": "串間市", "postcode": "8880000", "prefecture": "宮崎県", "id": 637 },
        { "address": "秋山", "city": "串間市", "postcode": "8880006", "prefecture": "宮崎県", "id": 638 },
        { "address": "一氏", "city": "串間市", "postcode": "8893533", "prefecture": "宮崎県", "id": 639 },
        { "address": "市木", "city": "串間市", "postcode": "8893311", "prefecture": "宮崎県", "id": 640 },
        { "address": "大納", "city": "串間市", "postcode": "8880221", "prefecture": "宮崎県", "id": 641 },
        { "address": "大平", "city": "串間市", "postcode": "8893532", "prefecture": "宮崎県", "id": 642 },
        { "address": "大矢取", "city": "串間市", "postcode": "8893534", "prefecture": "宮崎県", "id": 643 },
        { "address": "北方", "city": "串間市", "postcode": "8880005", "prefecture": "宮崎県", "id": 644 },
        { "address": "串間", "city": "串間市", "postcode": "8880004", "prefecture": "宮崎県", "id": 645 },
        { "address": "崎田", "city": "串間市", "postcode": "8880009", "prefecture": "宮崎県", "id": 646 },
        { "address": "高松", "city": "串間市", "postcode": "8880002", "prefecture": "宮崎県", "id": 647 },
        { "address": "寺里", "city": "串間市", "postcode": "8880011", "prefecture": "宮崎県", "id": 648 },
        { "address": "都井", "city": "串間市", "postcode": "8880222", "prefecture": "宮崎県", "id": 649 },
        { "address": "奈留", "city": "串間市", "postcode": "8893531", "prefecture": "宮崎県", "id": 650 },
        { "address": "西方", "city": "串間市", "postcode": "8880001", "prefecture": "宮崎県", "id": 651 },
        { "address": "西浜", "city": "串間市", "postcode": "8880012", "prefecture": "宮崎県", "id": 652 },
        { "address": "奴久見", "city": "串間市", "postcode": "8880003", "prefecture": "宮崎県", "id": 653 },
        { "address": "東町", "city": "串間市", "postcode": "8880013", "prefecture": "宮崎県", "id": 654 },
        { "address": "本城", "city": "串間市", "postcode": "8880008", "prefecture": "宮崎県", "id": 655 },
        { "address": "南方", "city": "串間市", "postcode": "8880007", "prefecture": "宮崎県", "id": 656 },
        { "city": "西都市", "postcode": "8810000", "prefecture": "宮崎県", "id": 657 },
        { "address": "旭", "city": "西都市", "postcode": "8810031", "prefecture": "宮崎県", "id": 658 },
        { "address": "荒武", "city": "西都市", "postcode": "8810111", "prefecture": "宮崎県", "id": 659 },
        { "address": "有吉町", "city": "西都市", "postcode": "8810011", "prefecture": "宮崎県", "id": 660 },
        { "address": "岩爪", "city": "西都市", "postcode": "8810106", "prefecture": "宮崎県", "id": 661 },
        { "address": "岡富", "city": "西都市", "postcode": "8810001", "prefecture": "宮崎県", "id": 662 },
        { "address": "小野崎", "city": "西都市", "postcode": "8810012", "prefecture": "宮崎県", "id": 663 },
        { "address": "小野崎町", "city": "西都市", "postcode": "8810013", "prefecture": "宮崎県", "id": 664 },
        { "address": "尾八重", "city": "西都市", "postcode": "8811121", "prefecture": "宮崎県", "id": 665 },
        { "address": "加勢", "city": "西都市", "postcode": "8810103", "prefecture": "宮崎県", "id": 666 },
        { "address": "片内", "city": "西都市", "postcode": "8811122", "prefecture": "宮崎県", "id": 667 },
        { "address": "鹿野田", "city": "西都市", "postcode": "8810104", "prefecture": "宮崎県", "id": 668 },
        { "address": "上揚", "city": "西都市", "postcode": "8811231", "prefecture": "宮崎県", "id": 669 },
        { "address": "上三財", "city": "西都市", "postcode": "8810115", "prefecture": "宮崎県", "id": 670 },
        { "address": "上町", "city": "西都市", "postcode": "8810021", "prefecture": "宮崎県", "id": 671 },
        { "address": "清水", "city": "西都市", "postcode": "8810004", "prefecture": "宮崎県", "id": 672 },
        { "address": "黒生野", "city": "西都市", "postcode": "8810002", "prefecture": "宮崎県", "id": 673 },
        { "address": "現王島", "city": "西都市", "postcode": "8800341", "prefecture": "宮崎県", "id": 674 },
        { "address": "桜川町", "city": "西都市", "postcode": "8810022", "prefecture": "宮崎県", "id": 675 },
        { "address": "寒川", "city": "西都市", "postcode": "8810116", "prefecture": "宮崎県", "id": 676 },
        { "address": "下三財", "city": "西都市", "postcode": "8810113", "prefecture": "宮崎県", "id": 677 },
        { "address": "下妻", "city": "西都市", "postcode": "8810014", "prefecture": "宮崎県", "id": 678 },
        { "address": "白馬町", "city": "西都市", "postcode": "8810032", "prefecture": "宮崎県", "id": 679 },
        { "address": "銀鏡", "city": "西都市", "postcode": "8811232", "prefecture": "宮崎県", "id": 680 },
        { "address": "新町", "city": "西都市", "postcode": "8810006", "prefecture": "宮崎県", "id": 681 },
        { "address": "聖陵町", "city": "西都市", "postcode": "8810015", "prefecture": "宮崎県", "id": 682 },
        { "address": "茶臼原", "city": "西都市", "postcode": "8810037", "prefecture": "宮崎県", "id": 683 },
        { "address": "中央町", "city": "西都市", "postcode": "8810035", "prefecture": "宮崎県", "id": 684 },
        { "address": "調殿", "city": "西都市", "postcode": "8810023", "prefecture": "宮崎県", "id": 685 },
        { "address": "妻", "city": "西都市", "postcode": "8810033", "prefecture": "宮崎県", "id": 686 },
        { "address": "妻町", "city": "西都市", "postcode": "8810034", "prefecture": "宮崎県", "id": 687 },
        { "address": "水流崎町", "city": "西都市", "postcode": "8810036", "prefecture": "宮崎県", "id": 688 },
        { "address": "童子丸", "city": "西都市", "postcode": "8810025", "prefecture": "宮崎県", "id": 689 },
        { "address": "藤田", "city": "西都市", "postcode": "8810114", "prefecture": "宮崎県", "id": 690 },
        { "address": "都於郡町", "city": "西都市", "postcode": "8810105", "prefecture": "宮崎県", "id": 691 },
        { "address": "中尾", "city": "西都市", "postcode": "8811123", "prefecture": "宮崎県", "id": 692 },
        { "address": "中妻", "city": "西都市", "postcode": "8810024", "prefecture": "宮崎県", "id": 693 },
        { "address": "八重", "city": "西都市", "postcode": "8811233", "prefecture": "宮崎県", "id": 694 },
        { "address": "平郡", "city": "西都市", "postcode": "8810102", "prefecture": "宮崎県", "id": 695 },
        { "address": "穂北", "city": "西都市", "postcode": "8810026", "prefecture": "宮崎県", "id": 696 },
        { "address": "右松", "city": "西都市", "postcode": "8810003", "prefecture": "宮崎県", "id": 697 },
        { "address": "南方", "city": "西都市", "postcode": "8810027", "prefecture": "宮崎県", "id": 698 },
        { "address": "三納", "city": "西都市", "postcode": "8810101", "prefecture": "宮崎県", "id": 699 },
        { "address": "御舟町", "city": "西都市", "postcode": "8810016", "prefecture": "宮崎県", "id": 700 },
        { "address": "三宅", "city": "西都市", "postcode": "8810005", "prefecture": "宮崎県", "id": 701 },
        { "address": "山田", "city": "西都市", "postcode": "8810112", "prefecture": "宮崎県", "id": 702 },
        { "city": "えびの市", "postcode": "8894300", "prefecture": "宮崎県", "id": 703 },
        { "address": "池島", "city": "えびの市", "postcode": "8894303", "prefecture": "宮崎県", "id": 704 },
        { "address": "今西", "city": "えびの市", "postcode": "8894306", "prefecture": "宮崎県", "id": 705 },
        { "address": "内竪", "city": "えびの市", "postcode": "8894162", "prefecture": "宮崎県", "id": 706 },
        { "address": "浦", "city": "えびの市", "postcode": "8894153", "prefecture": "宮崎県", "id": 707 },
        { "address": "上江", "city": "えびの市", "postcode": "8894304", "prefecture": "宮崎県", "id": 708 },
        { "address": "榎田", "city": "えびの市", "postcode": "8894243", "prefecture": "宮崎県", "id": 709 },
        { "address": "大河平", "city": "えびの市", "postcode": "8894314", "prefecture": "宮崎県", "id": 710 },
        { "address": "岡松", "city": "えびの市", "postcode": "8894161", "prefecture": "宮崎県", "id": 711 },
        { "address": "小田", "city": "えびの市", "postcode": "8894222", "prefecture": "宮崎県", "id": 712 },
        { "address": "亀沢", "city": "えびの市", "postcode": "8894155", "prefecture": "宮崎県", "id": 713 },
        { "address": "栗下", "city": "えびの市", "postcode": "8894221", "prefecture": "宮崎県", "id": 714 },
        { "address": "西郷", "city": "えびの市", "postcode": "8894241", "prefecture": "宮崎県", "id": 715 },
        { "address": "坂元", "city": "えびの市", "postcode": "8894312", "prefecture": "宮崎県", "id": 716 },
        { "address": "島内", "city": "えびの市", "postcode": "8894152", "prefecture": "宮崎県", "id": 717 },
        { "address": "昌明寺", "city": "えびの市", "postcode": "8894164", "prefecture": "宮崎県", "id": 718 },
        { "address": "末永", "city": "えびの市", "postcode": "8894302", "prefecture": "宮崎県", "id": 719 },
        { "address": "杉水流", "city": "えびの市", "postcode": "8894313", "prefecture": "宮崎県", "id": 720 },
        { "address": "大明司", "city": "えびの市", "postcode": "8894311", "prefecture": "宮崎県", "id": 721 },
        { "address": "水流", "city": "えびの市", "postcode": "8894163", "prefecture": "宮崎県", "id": 722 },
        { "address": "永山", "city": "えびの市", "postcode": "8894234", "prefecture": "宮崎県", "id": 723 },
        { "address": "西川北", "city": "えびの市", "postcode": "8894165", "prefecture": "宮崎県", "id": 724 },
        { "address": "西長江浦", "city": "えびの市", "postcode": "8894232", "prefecture": "宮崎県", "id": 725 },
        { "address": "灰塚", "city": "えびの市", "postcode": "8894233", "prefecture": "宮崎県", "id": 726 },
        { "address": "原田", "city": "えびの市", "postcode": "8894301", "prefecture": "宮崎県", "id": 727 },
        { "address": "東川北", "city": "えびの市", "postcode": "8894244", "prefecture": "宮崎県", "id": 728 },
        { "address": "東長江浦", "city": "えびの市", "postcode": "8894231", "prefecture": "宮崎県", "id": 729 },
        { "address": "前田", "city": "えびの市", "postcode": "8894305", "prefecture": "宮崎県", "id": 730 },
        { "address": "向江", "city": "えびの市", "postcode": "8894151", "prefecture": "宮崎県", "id": 731 },
        { "address": "柳水流", "city": "えびの市", "postcode": "8894154", "prefecture": "宮崎県", "id": 732 },
        { "address": "湯田", "city": "えびの市", "postcode": "8894242", "prefecture": "宮崎県", "id": 733 },
        { "city": "北諸県郡三股町", "postcode": "8891900", "prefecture": "宮崎県", "id": 734 },
        { "address": "今市", "city": "北諸県郡三股町", "postcode": "8891905", "prefecture": "宮崎県", "id": 735 },
        { "address": "樺山", "city": "北諸県郡三股町", "postcode": "8891901", "prefecture": "宮崎県", "id": 736 },
        { "address": "五本松", "city": "北諸県郡三股町", "postcode": "8891902", "prefecture": "宮崎県", "id": 737 },
        { "address": "新馬場", "city": "北諸県郡三股町", "postcode": "8891904", "prefecture": "宮崎県", "id": 738 },
        { "address": "蓼池", "city": "北諸県郡三股町", "postcode": "8891914", "prefecture": "宮崎県", "id": 739 },
        { "address": "中原", "city": "北諸県郡三股町", "postcode": "8891906", "prefecture": "宮崎県", "id": 740 },
        { "address": "長田", "city": "北諸県郡三股町", "postcode": "8891911", "prefecture": "宮崎県", "id": 741 },
        { "address": "花見原", "city": "北諸県郡三股町", "postcode": "8891907", "prefecture": "宮崎県", "id": 742 },
        { "address": "稗田", "city": "北諸県郡三股町", "postcode": "8891903", "prefecture": "宮崎県", "id": 743 },
        { "address": "宮村", "city": "北諸県郡三股町", "postcode": "8891912", "prefecture": "宮崎県", "id": 744 },
        { "address": "餅原", "city": "北諸県郡三股町", "postcode": "8891913", "prefecture": "宮崎県", "id": 745 },
        { "city": "西諸県郡高原町", "postcode": "8894400", "prefecture": "宮崎県", "id": 746 },
        { "address": "後川内", "city": "西諸県郡高原町", "postcode": "8894413", "prefecture": "宮崎県", "id": 747 },
        { "address": "蒲牟田", "city": "西諸県郡高原町", "postcode": "8894414", "prefecture": "宮崎県", "id": 748 },
        { "address": "西麓", "city": "西諸県郡高原町", "postcode": "8894412", "prefecture": "宮崎県", "id": 749 },
        { "address": "広原", "city": "西諸県郡高原町", "postcode": "8894411", "prefecture": "宮崎県", "id": 750 },
        { "city": "東諸県郡国富町", "postcode": "8801100", "prefecture": "宮崎県", "id": 751 },
        { "address": "嵐田", "city": "東諸県郡国富町", "postcode": "8801103", "prefecture": "宮崎県", "id": 752 },
        { "address": "伊左生", "city": "東諸県郡国富町", "postcode": "8801121", "prefecture": "宮崎県", "id": 753 },
        { "address": "伊左生", "city": "東諸県郡国富町", "postcode": "8801221", "prefecture": "宮崎県", "id": 754 },
        { "address": "岩知野", "city": "東諸県郡国富町", "postcode": "8801111", "prefecture": "宮崎県", "id": 755 },
        { "address": "木脇", "city": "東諸県郡国富町", "postcode": "8801113", "prefecture": "宮崎県", "id": 756 },
        { "address": "三名", "city": "東諸県郡国富町", "postcode": "8801114", "prefecture": "宮崎県", "id": 757 },
        { "address": "須志田", "city": "東諸県郡国富町", "postcode": "8801108", "prefecture": "宮崎県", "id": 758 },
        { "address": "竹田", "city": "東諸県郡国富町", "postcode": "8801107", "prefecture": "宮崎県", "id": 759 },
        { "address": "田尻", "city": "東諸県郡国富町", "postcode": "8801104", "prefecture": "宮崎県", "id": 760 },
        { "address": "塚原", "city": "東諸県郡国富町", "postcode": "8801112", "prefecture": "宮崎県", "id": 761 },
        { "address": "深年", "city": "東諸県郡国富町", "postcode": "8801224", "prefecture": "宮崎県", "id": 762 },
        { "address": "本庄", "city": "東諸県郡国富町", "postcode": "8801101", "prefecture": "宮崎県", "id": 763 },
        { "address": "宮王丸", "city": "東諸県郡国富町", "postcode": "8801102", "prefecture": "宮崎県", "id": 764 },
        { "address": "向高", "city": "東諸県郡国富町", "postcode": "8801105", "prefecture": "宮崎県", "id": 765 },
        { "address": "森永", "city": "東諸県郡国富町", "postcode": "8801106", "prefecture": "宮崎県", "id": 766 },
        { "address": "八代北俣", "city": "東諸県郡国富町", "postcode": "8801222", "prefecture": "宮崎県", "id": 767 },
        { "address": "八代南俣", "city": "東諸県郡国富町", "postcode": "8801223", "prefecture": "宮崎県", "id": 768 },
        { "city": "東諸県郡綾町", "postcode": "8801300", "prefecture": "宮崎県", "id": 769 },
        { "address": "入野", "city": "東諸県郡綾町", "postcode": "8801301", "prefecture": "宮崎県", "id": 770 },
        { "address": "北俣", "city": "東諸県郡綾町", "postcode": "8801302", "prefecture": "宮崎県", "id": 771 },
        { "address": "南俣", "city": "東諸県郡綾町", "postcode": "8801303", "prefecture": "宮崎県", "id": 772 },
        { "city": "児湯郡高鍋町", "postcode": "8840000", "prefecture": "宮崎県", "id": 773 },
        { "address": "上江", "city": "児湯郡高鍋町", "postcode": "8840006", "prefecture": "宮崎県", "id": 774 },
        { "address": "蚊口浦", "city": "児湯郡高鍋町", "postcode": "8840004", "prefecture": "宮崎県", "id": 775 },
        { "address": "北高鍋", "city": "児湯郡高鍋町", "postcode": "8840002", "prefecture": "宮崎県", "id": 776 },
        { "address": "高鍋町", "city": "児湯郡高鍋町", "postcode": "8840001", "prefecture": "宮崎県", "id": 777 },
        { "address": "南高鍋", "city": "児湯郡高鍋町", "postcode": "8840003", "prefecture": "宮崎県", "id": 778 },
        { "address": "持田", "city": "児湯郡高鍋町", "postcode": "8840005", "prefecture": "宮崎県", "id": 779 },
        { "city": "児湯郡新富町", "postcode": "8891400", "prefecture": "宮崎県", "id": 780 },
        { "address": "伊倉", "city": "児湯郡新富町", "postcode": "8891405", "prefecture": "宮崎県", "id": 781 },
        { "address": "上富田", "city": "児湯郡新富町", "postcode": "8891403", "prefecture": "宮崎県", "id": 782 },
        { "address": "下富田", "city": "児湯郡新富町", "postcode": "8891404", "prefecture": "宮崎県", "id": 783 },
        { "address": "富田", "city": "児湯郡新富町", "postcode": "8891411", "prefecture": "宮崎県", "id": 784 },
        { "address": "富田北", "city": "児湯郡新富町", "postcode": "8891415", "prefecture": "宮崎県", "id": 785 },
        { "address": "富田東", "city": "児湯郡新富町", "postcode": "8891412", "prefecture": "宮崎県", "id": 786 },
        { "address": "富田西", "city": "児湯郡新富町", "postcode": "8891413", "prefecture": "宮崎県", "id": 787 },
        { "address": "富田南", "city": "児湯郡新富町", "postcode": "8891414", "prefecture": "宮崎県", "id": 788 },
        { "address": "新田", "city": "児湯郡新富町", "postcode": "8891406", "prefecture": "宮崎県", "id": 789 },
        { "address": "日置", "city": "児湯郡新富町", "postcode": "8891401", "prefecture": "宮崎県", "id": 790 },
        { "address": "三納代", "city": "児湯郡新富町", "postcode": "8891402", "prefecture": "宮崎県", "id": 791 },
        { "city": "児湯郡西米良村", "postcode": "8811400", "prefecture": "宮崎県", "id": 792 },
        { "address": "板谷", "city": "児湯郡西米良村", "postcode": "8811412", "prefecture": "宮崎県", "id": 793 },
        { "address": "小川", "city": "児湯郡西米良村", "postcode": "8811302", "prefecture": "宮崎県", "id": 794 },
        { "address": "上米良", "city": "児湯郡西米良村", "postcode": "8811413", "prefecture": "宮崎県", "id": 795 },
        { "address": "越野尾", "city": "児湯郡西米良村", "postcode": "8811301", "prefecture": "宮崎県", "id": 796 },
        { "address": "竹原", "city": "児湯郡西米良村", "postcode": "8811414", "prefecture": "宮崎県", "id": 797 },
        { "address": "村所", "city": "児湯郡西米良村", "postcode": "8811411", "prefecture": "宮崎県", "id": 798 },
        { "address": "横野", "city": "児湯郡西米良村", "postcode": "8811303", "prefecture": "宮崎県", "id": 799 },
        { "city": "児湯郡木城町", "postcode": "8840100", "prefecture": "宮崎県", "id": 800 },
        { "address": "石河内", "city": "児湯郡木城町", "postcode": "8840104", "prefecture": "宮崎県", "id": 801 },
        { "address": "川原", "city": "児湯郡木城町", "postcode": "8840103", "prefecture": "宮崎県", "id": 802 },
        { "address": "椎木", "city": "児湯郡木城町", "postcode": "8840102", "prefecture": "宮崎県", "id": 803 },
        { "address": "高城", "city": "児湯郡木城町", "postcode": "8840101", "prefecture": "宮崎県", "id": 804 },
        { "address": "中之又", "city": "児湯郡木城町", "postcode": "8840105", "prefecture": "宮崎県", "id": 805 },
        { "city": "児湯郡川南町", "postcode": "8891300", "prefecture": "宮崎県", "id": 806 },
        { "address": "川南", "city": "児湯郡川南町", "postcode": "8891301", "prefecture": "宮崎県", "id": 807 },
        { "address": "平田", "city": "児湯郡川南町", "postcode": "8891302", "prefecture": "宮崎県", "id": 808 },
        { "city": "児湯郡都農町", "postcode": "8891200", "prefecture": "宮崎県", "id": 809 },
        { "address": "川北", "city": "児湯郡都農町", "postcode": "8891201", "prefecture": "宮崎県", "id": 810 },
        { "city": "東臼杵郡門川町", "postcode": "8890600", "prefecture": "宮崎県", "id": 811 },
        { "address": "庵川", "city": "東臼杵郡門川町", "postcode": "8890602", "prefecture": "宮崎県", "id": 812 },
        { "address": "庵川西", "city": "東臼杵郡門川町", "postcode": "8890605", "prefecture": "宮崎県", "id": 813 },
        { "address": "加草", "city": "東臼杵郡門川町", "postcode": "8890603", "prefecture": "宮崎県", "id": 814 },
        { "address": "門川尾末", "city": "東臼杵郡門川町", "postcode": "8890611", "prefecture": "宮崎県", "id": 815 },
        { "address": "上町", "city": "東臼杵郡門川町", "postcode": "8890614", "prefecture": "宮崎県", "id": 816 },
        { "address": "川内", "city": "東臼杵郡門川町", "postcode": "8890604", "prefecture": "宮崎県", "id": 817 },
        { "address": "栄ケ丘", "city": "東臼杵郡門川町", "postcode": "8890615", "prefecture": "宮崎県", "id": 818 },
        { "address": "城ケ丘", "city": "東臼杵郡門川町", "postcode": "8890624", "prefecture": "宮崎県", "id": 819 },
        { "address": "須賀崎", "city": "東臼杵郡門川町", "postcode": "8890601", "prefecture": "宮崎県", "id": 820 },
        { "address": "中須", "city": "東臼杵郡門川町", "postcode": "8890612", "prefecture": "宮崎県", "id": 821 },
        { "address": "西栄町", "city": "東臼杵郡門川町", "postcode": "8890622", "prefecture": "宮崎県", "id": 822 },
        { "address": "東栄町", "city": "東臼杵郡門川町", "postcode": "8890621", "prefecture": "宮崎県", "id": 823 },
        { "address": "平城西", "city": "東臼杵郡門川町", "postcode": "8890626", "prefecture": "宮崎県", "id": 824 },
        { "address": "平城東", "city": "東臼杵郡門川町", "postcode": "8890625", "prefecture": "宮崎県", "id": 825 },
        { "address": "本町", "city": "東臼杵郡門川町", "postcode": "8890613", "prefecture": "宮崎県", "id": 826 },
        { "address": "南ケ丘", "city": "東臼杵郡門川町", "postcode": "8890617", "prefecture": "宮崎県", "id": 827 },
        { "address": "南町", "city": "東臼杵郡門川町", "postcode": "8890616", "prefecture": "宮崎県", "id": 828 },
        { "address": "宮ケ原", "city": "東臼杵郡門川町", "postcode": "8890623", "prefecture": "宮崎県", "id": 829 },
        { "city": "東臼杵郡諸塚村", "postcode": "8831300", "prefecture": "宮崎県", "id": 830 },
        { "address": "家代", "city": "東臼杵郡諸塚村", "postcode": "8831301", "prefecture": "宮崎県", "id": 831 },
        { "address": "七ツ山", "city": "東臼杵郡諸塚村", "postcode": "8831402", "prefecture": "宮崎県", "id": 832 },
        { "address": "七ツ山", "city": "東臼杵郡諸塚村", "postcode": "8831302", "prefecture": "宮崎県", "id": 833 },
        { "city": "東臼杵郡椎葉村", "postcode": "8831600", "prefecture": "宮崎県", "id": 834 },
        { "address": "大河内", "city": "東臼杵郡椎葉村", "postcode": "8830402", "prefecture": "宮崎県", "id": 835 },
        { "address": "大河内", "city": "東臼杵郡椎葉村", "postcode": "8831602", "prefecture": "宮崎県", "id": 836 },
        { "address": "下福良", "city": "東臼杵郡椎葉村", "postcode": "8831601", "prefecture": "宮崎県", "id": 837 },
        { "address": "不土野", "city": "東臼杵郡椎葉村", "postcode": "8831603", "prefecture": "宮崎県", "id": 838 },
        { "address": "松尾", "city": "東臼杵郡椎葉村", "postcode": "8831604", "prefecture": "宮崎県", "id": 839 },
        { "city": "東臼杵郡美郷町", "postcode": "8831100", "prefecture": "宮崎県", "id": 840 },
        { "address": "北郷宇納間", "city": "東臼杵郡美郷町", "postcode": "8890901", "prefecture": "宮崎県", "id": 841 },
        { "address": "北郷黒木", "city": "東臼杵郡美郷町", "postcode": "8890903", "prefecture": "宮崎県", "id": 842 },
        { "address": "北郷入下", "city": "東臼杵郡美郷町", "postcode": "8890902", "prefecture": "宮崎県", "id": 843 },
        { "address": "西郷小原", "city": "東臼杵郡美郷町", "postcode": "8831212", "prefecture": "宮崎県", "id": 844 },
        { "address": "西郷田代", "city": "東臼杵郡美郷町", "postcode": "8831101", "prefecture": "宮崎県", "id": 845 },
        { "address": "西郷立石", "city": "東臼杵郡美郷町", "postcode": "8831102", "prefecture": "宮崎県", "id": 846 },
        { "address": "西郷山三ヶ", "city": "東臼杵郡美郷町", "postcode": "8831211", "prefecture": "宮崎県", "id": 847 },
        { "address": "南郷上渡川", "city": "東臼杵郡美郷町", "postcode": "8830303", "prefecture": "宮崎県", "id": 848 },
        { "address": "南郷鬼神野", "city": "東臼杵郡美郷町", "postcode": "8830304", "prefecture": "宮崎県", "id": 849 },
        { "address": "南郷中渡川", "city": "東臼杵郡美郷町", "postcode": "8830302", "prefecture": "宮崎県", "id": 850 },
        { "address": "南郷神門", "city": "東臼杵郡美郷町", "postcode": "8830306", "prefecture": "宮崎県", "id": 851 },
        { "address": "南郷水清谷", "city": "東臼杵郡美郷町", "postcode": "8830301", "prefecture": "宮崎県", "id": 852 },
        { "address": "南郷山三ヶ", "city": "東臼杵郡美郷町", "postcode": "8830305", "prefecture": "宮崎県", "id": 853 },
        { "city": "西臼杵郡高千穂町", "postcode": "8821100", "prefecture": "宮崎県", "id": 854 },
        { "address": "岩戸", "city": "西臼杵郡高千穂町", "postcode": "8821621", "prefecture": "宮崎県", "id": 855 },
        { "address": "押方", "city": "西臼杵郡高千穂町", "postcode": "8821102", "prefecture": "宮崎県", "id": 856 },
        { "address": "上岩戸", "city": "西臼杵郡高千穂町", "postcode": "8821622", "prefecture": "宮崎県", "id": 857 },
        { "address": "上野", "city": "西臼杵郡高千穂町", "postcode": "8821411", "prefecture": "宮崎県", "id": 858 },
        { "address": "河内", "city": "西臼杵郡高千穂町", "postcode": "8821414", "prefecture": "宮崎県", "id": 859 },
        { "address": "五ケ所", "city": "西臼杵郡高千穂町", "postcode": "8821415", "prefecture": "宮崎県", "id": 860 },
        { "address": "下野", "city": "西臼杵郡高千穂町", "postcode": "8821412", "prefecture": "宮崎県", "id": 861 },
        { "address": "田原", "city": "西臼杵郡高千穂町", "postcode": "8821413", "prefecture": "宮崎県", "id": 862 },
        { "address": "三田井", "city": "西臼杵郡高千穂町", "postcode": "8821101", "prefecture": "宮崎県", "id": 863 },
        { "address": "向山", "city": "西臼杵郡高千穂町", "postcode": "8821103", "prefecture": "宮崎県", "id": 864 },
        { "city": "西臼杵郡日之影町", "postcode": "8820400", "prefecture": "宮崎県", "id": 865 },
        { "address": "岩井川", "city": "西臼杵郡日之影町", "postcode": "8820302", "prefecture": "宮崎県", "id": 866 },
        { "address": "岩井川", "city": "西臼杵郡日之影町", "postcode": "8820402", "prefecture": "宮崎県", "id": 867 },
        { "address": "七折", "city": "西臼杵郡日之影町", "postcode": "8820301", "prefecture": "宮崎県", "id": 868 },
        { "address": "七折", "city": "西臼杵郡日之影町", "postcode": "8820401", "prefecture": "宮崎県", "id": 869 },
        { "address": "見立", "city": "西臼杵郡日之影町", "postcode": "8820403", "prefecture": "宮崎県", "id": 870 },
        { "address": "分城", "city": "西臼杵郡日之影町", "postcode": "8820304", "prefecture": "宮崎県", "id": 871 },
        { "city": "西臼杵郡五ヶ瀬町", "postcode": "8821200", "prefecture": "宮崎県", "id": 872 },
        { "address": "鞍岡", "city": "西臼杵郡五ヶ瀬町", "postcode": "8821201", "prefecture": "宮崎県", "id": 873 },
        { "address": "桑野内", "city": "西臼杵郡五ヶ瀬町", "postcode": "8821202", "prefecture": "宮崎県", "id": 874 },
        { "address": "三ヶ所", "city": "西臼杵郡五ヶ瀬町", "postcode": "8821203", "prefecture": "宮崎県", "id": 875 }
    ]
}
