{
    "postcodes": [
        { "city": "山形市", "postcode": "9900000", "prefecture": "山形県", "id": 0 },
        { "address": "相生町", "city": "山形市", "postcode": "9900055", "prefecture": "山形県", "id": 1 },
        { "address": "青田", "city": "山形市", "postcode": "9902435", "prefecture": "山形県", "id": 2 },
        { "address": "青田南", "city": "山形市", "postcode": "9902324", "prefecture": "山形県", "id": 3 },
        { "address": "青野", "city": "山形市", "postcode": "9902222", "prefecture": "山形県", "id": 4 },
        { "address": "青柳", "city": "山形市", "postcode": "9902214", "prefecture": "山形県", "id": 5 },
        { "address": "明石堂", "city": "山形市", "postcode": "9902353", "prefecture": "山形県", "id": 6 },
        { "address": "あかねケ丘", "city": "山形市", "postcode": "9902481", "prefecture": "山形県", "id": 7 },
        { "address": "あけぼの", "city": "山形市", "postcode": "9902162", "prefecture": "山形県", "id": 8 },
        { "address": "あこや町", "city": "山形市", "postcode": "9900025", "prefecture": "山形県", "id": 9 },
        { "address": "旭が丘", "city": "山形市", "postcode": "9902434", "prefecture": "山形県", "id": 10 },
        { "address": "あさひ町", "city": "山形市", "postcode": "9900024", "prefecture": "山形県", "id": 11 },
        { "address": "あずま町", "city": "山形市", "postcode": "9902491", "prefecture": "山形県", "id": 12 },
        { "address": "荒楯町", "city": "山形市", "postcode": "9902432", "prefecture": "山形県", "id": 13 },
        { "address": "飯沢", "city": "山形市", "postcode": "9902476", "prefecture": "山形県", "id": 14 },
        { "address": "飯田", "city": "山形市", "postcode": "9902332", "prefecture": "山形県", "id": 15 },
        { "address": "飯田西", "city": "山形市", "postcode": "9902331", "prefecture": "山形県", "id": 16 },
        { "address": "飯塚口", "city": "山形市", "postcode": "9900841", "prefecture": "山形県", "id": 17 },
        { "address": "飯塚町", "city": "山形市", "postcode": "9900845", "prefecture": "山形県", "id": 18 },
        { "address": "石関", "city": "山形市", "postcode": "9900842", "prefecture": "山形県", "id": 19 },
        { "address": "五十鈴", "city": "山形市", "postcode": "9900061", "prefecture": "山形県", "id": 20 },
        { "address": "泉町", "city": "山形市", "postcode": "9900068", "prefecture": "山形県", "id": 21 },
        { "address": "五日町", "city": "山形市", "postcode": "9900829", "prefecture": "山形県", "id": 22 },
        { "address": "今塚", "city": "山形市", "postcode": "9900817", "prefecture": "山形県", "id": 23 },
        { "address": "鋳物町", "city": "山形市", "postcode": "9902351", "prefecture": "山形県", "id": 24 },
        { "address": "岩波", "city": "山形市", "postcode": "9902403", "prefecture": "山形県", "id": 25 },
        { "address": "印役町", "city": "山形市", "postcode": "9900066", "prefecture": "山形県", "id": 26 },
        { "address": "内表", "city": "山形市", "postcode": "9900877", "prefecture": "山形県", "id": 27 },
        { "address": "内表東", "city": "山形市", "postcode": "9900878", "prefecture": "山形県", "id": 28 },
        { "address": "梅野木前", "city": "山形市", "postcode": "9900874", "prefecture": "山形県", "id": 29 },
        { "address": "漆山", "city": "山形市", "postcode": "9902161", "prefecture": "山形県", "id": 30 },
        { "address": "上町", "city": "山形市", "postcode": "9902483", "prefecture": "山形県", "id": 31 },
        { "address": "江俣", "city": "山形市", "postcode": "9900861", "prefecture": "山形県", "id": 32 },
        { "address": "円応寺町", "city": "山形市", "postcode": "9900052", "prefecture": "山形県", "id": 33 },
        { "address": "大手町", "city": "山形市", "postcode": "9900046", "prefecture": "山形県", "id": 34 },
        { "address": "大道端", "city": "山形市", "postcode": "9902344", "prefecture": "山形県", "id": 35 },
        { "address": "大森", "city": "山形市", "postcode": "9902231", "prefecture": "山形県", "id": 36 },
        { "address": "沖町", "city": "山形市", "postcode": "9900818", "prefecture": "山形県", "id": 37 },
        { "address": "小立", "city": "山形市", "postcode": "9902402", "prefecture": "山形県", "id": 38 },
        { "address": "落合町", "city": "山形市", "postcode": "9900075", "prefecture": "山形県", "id": 39 },
        { "address": "御手作", "city": "山形市", "postcode": "9902365", "prefecture": "山形県", "id": 40 },
        { "address": "表蔵王", "city": "山形市", "postcode": "9902307", "prefecture": "山形県", "id": 41 },
        { "address": "篭田", "city": "山形市", "postcode": "9902484", "prefecture": "山形県", "id": 42 },
        { "address": "風間", "city": "山形市", "postcode": "9902221", "prefecture": "山形県", "id": 43 },
        { "address": "柏倉", "city": "山形市", "postcode": "9902341", "prefecture": "山形県", "id": 44 },
        { "address": "霞城町", "city": "山形市", "postcode": "9900826", "prefecture": "山形県", "id": 45 },
        { "address": "春日町", "city": "山形市", "postcode": "9900833", "prefecture": "山形県", "id": 46 },
        { "address": "香澄町", "city": "山形市", "postcode": "9900039", "prefecture": "山形県", "id": 47 },
        { "address": "片谷地", "city": "山形市", "postcode": "9902316", "prefecture": "山形県", "id": 48 },
        { "address": "金石田", "city": "山形市", "postcode": "9900856", "prefecture": "山形県", "id": 49 },
        { "address": "上椹沢", "city": "山形市", "postcode": "9900851", "prefecture": "山形県", "id": 50 },
        { "address": "上桜田", "city": "山形市", "postcode": "9902421", "prefecture": "山形県", "id": 51 },
        { "address": "上反田", "city": "山形市", "postcode": "9902384", "prefecture": "山形県", "id": 52 },
        { "address": "上東山", "city": "山形市", "postcode": "9902241", "prefecture": "山形県", "id": 53 },
        { "address": "上宝沢", "city": "山形市", "postcode": "9900017", "prefecture": "山形県", "id": 54 },
        { "address": "上柳", "city": "山形市", "postcode": "9902212", "prefecture": "山形県", "id": 55 },
        { "address": "上山家町", "city": "山形市", "postcode": "9900004", "prefecture": "山形県", "id": 56 },
        { "address": "神尾", "city": "山形市", "postcode": "9902406", "prefecture": "山形県", "id": 57 },
        { "address": "北江俣", "city": "山形市", "postcode": "9900875", "prefecture": "山形県", "id": 58 },
        { "address": "北田", "city": "山形市", "postcode": "9900896", "prefecture": "山形県", "id": 59 },
        { "address": "北町", "city": "山形市", "postcode": "9900821", "prefecture": "山形県", "id": 60 },
        { "address": "北山形", "city": "山形市", "postcode": "9900822", "prefecture": "山形県", "id": 61 },
        { "address": "木の実町", "city": "山形市", "postcode": "9900044", "prefecture": "山形県", "id": 62 },
        { "address": "木ノ目田", "city": "山形市", "postcode": "9902475", "prefecture": "山形県", "id": 63 },
        { "address": "行才", "city": "山形市", "postcode": "9900876", "prefecture": "山形県", "id": 64 },
        { "address": "清住町", "city": "山形市", "postcode": "9900834", "prefecture": "山形県", "id": 65 },
        { "address": "切畑", "city": "山形市", "postcode": "9902233", "prefecture": "山形県", "id": 66 },
        { "address": "くぬぎざわ西", "city": "山形市", "postcode": "9900850", "prefecture": "山形県", "id": 67 },
        { "address": "久保田", "city": "山形市", "postcode": "9902482", "prefecture": "山形県", "id": 68 },
        { "address": "黒沢", "city": "山形市", "postcode": "9902311", "prefecture": "山形県", "id": 69 },
        { "address": "江南", "city": "山形市", "postcode": "9900863", "prefecture": "山形県", "id": 70 },
        { "address": "黄金", "city": "山形市", "postcode": "9900852", "prefecture": "山形県", "id": 71 },
        { "address": "小姓町", "city": "山形市", "postcode": "9900032", "prefecture": "山形県", "id": 72 },
        { "address": "小白川町", "city": "山形市", "postcode": "9900021", "prefecture": "山形県", "id": 73 },
        { "address": "寿町", "city": "山形市", "postcode": "9902414", "prefecture": "山形県", "id": 74 },
        { "address": "小荷駄町", "city": "山形市", "postcode": "9900035", "prefecture": "山形県", "id": 75 },
        { "address": "こも石", "city": "山形市", "postcode": "9902234", "prefecture": "山形県", "id": 76 },
        { "address": "幸町", "city": "山形市", "postcode": "9900038", "prefecture": "山形県", "id": 77 },
        { "address": "蔵王飯田", "city": "山形市", "postcode": "9902333", "prefecture": "山形県", "id": 78 },
        { "address": "蔵王上野", "city": "山形市", "postcode": "9902303", "prefecture": "山形県", "id": 79 },
        { "address": "蔵王温泉", "city": "山形市", "postcode": "9902301", "prefecture": "山形県", "id": 80 },
        { "address": "蔵王成沢", "city": "山形市", "postcode": "9902334", "prefecture": "山形県", "id": 81 },
        { "address": "蔵王半郷", "city": "山形市", "postcode": "9902305", "prefecture": "山形県", "id": 82 },
        { "address": "蔵王堀田", "city": "山形市", "postcode": "9902302", "prefecture": "山形県", "id": 83 },
        { "address": "蔵王松ケ丘", "city": "山形市", "postcode": "9902338", "prefecture": "山形県", "id": 84 },
        { "address": "蔵王西成沢", "city": "山形市", "postcode": "9902337", "prefecture": "山形県", "id": 85 },
        { "address": "蔵王南成沢", "city": "山形市", "postcode": "9902335", "prefecture": "山形県", "id": 86 },
        { "address": "蔵王山田", "city": "山形市", "postcode": "9902304", "prefecture": "山形県", "id": 87 },
        { "address": "早乙女", "city": "山形市", "postcode": "9900003", "prefecture": "山形県", "id": 88 },
        { "address": "境田町", "city": "山形市", "postcode": "9900819", "prefecture": "山形県", "id": 89 },
        { "address": "栄原", "city": "山形市", "postcode": "9900077", "prefecture": "山形県", "id": 90 },
        { "address": "肴町", "city": "山形市", "postcode": "9900824", "prefecture": "山形県", "id": 91 },
        { "address": "桜ケ丘", "city": "山形市", "postcode": "9902376", "prefecture": "山形県", "id": 92 },
        { "address": "桜田東", "city": "山形市", "postcode": "9902323", "prefecture": "山形県", "id": 93 },
        { "address": "桜田西", "city": "山形市", "postcode": "9902321", "prefecture": "山形県", "id": 94 },
        { "address": "桜田南", "city": "山形市", "postcode": "9902322", "prefecture": "山形県", "id": 95 },
        { "address": "桜町", "city": "山形市", "postcode": "9900045", "prefecture": "山形県", "id": 96 },
        { "address": "三社", "city": "山形市", "postcode": "9900898", "prefecture": "山形県", "id": 97 },
        { "address": "志鎌", "city": "山形市", "postcode": "9900846", "prefecture": "山形県", "id": 98 },
        { "address": "志戸田", "city": "山形市", "postcode": "9900868", "prefecture": "山形県", "id": 99 },
        { "address": "渋江", "city": "山形市", "postcode": "9902173", "prefecture": "山形県", "id": 100 },
        { "address": "島", "city": "山形市", "postcode": "9900870", "prefecture": "山形県", "id": 101 },
        { "address": "嶋北", "city": "山形市", "postcode": "9900885", "prefecture": "山形県", "id": 102 },
        { "address": "嶋南", "city": "山形市", "postcode": "9900886", "prefecture": "山形県", "id": 103 },
        { "address": "下椹沢", "city": "山形市", "postcode": "9900858", "prefecture": "山形県", "id": 104 },
        { "address": "下条町", "city": "山形市", "postcode": "9900823", "prefecture": "山形県", "id": 105 },
        { "address": "下反田", "city": "山形市", "postcode": "9902385", "prefecture": "山形県", "id": 106 },
        { "address": "下田", "city": "山形市", "postcode": "9900809", "prefecture": "山形県", "id": 107 },
        { "address": "下東山", "city": "山形市", "postcode": "9902232", "prefecture": "山形県", "id": 108 },
        { "address": "下宝沢", "city": "山形市", "postcode": "9900018", "prefecture": "山形県", "id": 109 },
        { "address": "下柳", "city": "山形市", "postcode": "9902215", "prefecture": "山形県", "id": 110 },
        { "address": "下山家町", "city": "山形市", "postcode": "9900005", "prefecture": "山形県", "id": 111 },
        { "address": "釈迦堂", "city": "山形市", "postcode": "9900012", "prefecture": "山形県", "id": 112 },
        { "address": "十文字", "city": "山形市", "postcode": "9902211", "prefecture": "山形県", "id": 113 },
        { "address": "城南町", "city": "山形市", "postcode": "9900827", "prefecture": "山形県", "id": 114 },
        { "address": "城北町", "city": "山形市", "postcode": "9900825", "prefecture": "山形県", "id": 115 },
        { "address": "常明寺", "city": "山形市", "postcode": "9902381", "prefecture": "山形県", "id": 116 },
        { "address": "白川", "city": "山形市", "postcode": "9900807", "prefecture": "山形県", "id": 117 },
        { "address": "城西町", "city": "山形市", "postcode": "9900832", "prefecture": "山形県", "id": 118 },
        { "address": "城森", "city": "山形市", "postcode": "9902343", "prefecture": "山形県", "id": 119 },
        { "address": "新開", "city": "山形市", "postcode": "9902164", "prefecture": "山形県", "id": 120 },
        { "address": "陣場", "city": "山形市", "postcode": "9900864", "prefecture": "山形県", "id": 121 },
        { "address": "陣場新田", "city": "山形市", "postcode": "9900882", "prefecture": "山形県", "id": 122 },
        { "address": "陣場南", "city": "山形市", "postcode": "9900860", "prefecture": "山形県", "id": 123 },
        { "address": "末広町", "city": "山形市", "postcode": "9902494", "prefecture": "山形県", "id": 124 },
        { "address": "菅沢", "city": "山形市", "postcode": "9902362", "prefecture": "山形県", "id": 125 },
        { "address": "すげさわの丘", "city": "山形市", "postcode": "9902367", "prefecture": "山形県", "id": 126 },
        { "address": "鮨洗", "city": "山形市", "postcode": "9900884", "prefecture": "山形県", "id": 127 },
        { "address": "鈴川町", "city": "山形市", "postcode": "9900062", "prefecture": "山形県", "id": 128 },
        { "address": "砂田", "city": "山形市", "postcode": "9900847", "prefecture": "山形県", "id": 129 },
        { "address": "砂塚", "city": "山形市", "postcode": "9900854", "prefecture": "山形県", "id": 130 },
        { "address": "諏訪町", "city": "山形市", "postcode": "9900033", "prefecture": "山形県", "id": 131 },
        { "address": "関沢", "city": "山形市", "postcode": "9900016", "prefecture": "山形県", "id": 132 },
        { "address": "瀬波", "city": "山形市", "postcode": "9900881", "prefecture": "山形県", "id": 133 },
        { "address": "千刈", "city": "山形市", "postcode": "9902216", "prefecture": "山形県", "id": 134 },
        { "address": "千石", "city": "山形市", "postcode": "9902227", "prefecture": "山形県", "id": 135 },
        { "address": "千手堂", "city": "山形市", "postcode": "9902172", "prefecture": "山形県", "id": 136 },
        { "address": "双月新町", "city": "山形市", "postcode": "9900008", "prefecture": "山形県", "id": 137 },
        { "address": "双月町", "city": "山形市", "postcode": "9900065", "prefecture": "山形県", "id": 138 },
        { "address": "反町", "city": "山形市", "postcode": "9902378", "prefecture": "山形県", "id": 139 },
        { "address": "大師堂", "city": "山形市", "postcode": "9902364", "prefecture": "山形県", "id": 140 },
        { "address": "大野目", "city": "山形市", "postcode": "9900073", "prefecture": "山形県", "id": 141 },
        { "address": "高木", "city": "山形市", "postcode": "9902346", "prefecture": "山形県", "id": 142 },
        { "address": "高沢", "city": "山形市", "postcode": "9902242", "prefecture": "山形県", "id": 143 },
        { "address": "高田", "city": "山形市", "postcode": "9900808", "prefecture": "山形県", "id": 144 },
        { "address": "高堂", "city": "山形市", "postcode": "9902464", "prefecture": "山形県", "id": 145 },
        { "address": "高原町", "city": "山形市", "postcode": "9900002", "prefecture": "山形県", "id": 146 },
        { "address": "滝平", "city": "山形市", "postcode": "9902382", "prefecture": "山形県", "id": 147 },
        { "address": "立谷川", "city": "山形市", "postcode": "9902251", "prefecture": "山形県", "id": 148 },
        { "address": "伊達城", "city": "山形市", "postcode": "9902163", "prefecture": "山形県", "id": 149 },
        { "address": "檀野前", "city": "山形市", "postcode": "9900805", "prefecture": "山形県", "id": 150 },
        { "address": "近田", "city": "山形市", "postcode": "9902224", "prefecture": "山形県", "id": 151 },
        { "address": "千歳", "city": "山形市", "postcode": "9900812", "prefecture": "山形県", "id": 152 },
        { "address": "千代田", "city": "山形市", "postcode": "9900855", "prefecture": "山形県", "id": 153 },
        { "address": "津金沢", "city": "山形市", "postcode": "9902315", "prefecture": "山形県", "id": 154 },
        { "address": "土坂", "city": "山形市", "postcode": "9902405", "prefecture": "山形県", "id": 155 },
        { "address": "土樋", "city": "山形市", "postcode": "9900814", "prefecture": "山形県", "id": 156 },
        { "address": "鉄砲町", "city": "山形市", "postcode": "9902492", "prefecture": "山形県", "id": 157 },
        { "address": "寺西", "city": "山形市", "postcode": "9902213", "prefecture": "山形県", "id": 158 },
        { "address": "天神台", "city": "山形市", "postcode": "9900867", "prefecture": "山形県", "id": 159 },
        { "address": "天神町", "city": "山形市", "postcode": "9900801", "prefecture": "山形県", "id": 160 },
        { "address": "十日町", "city": "山形市", "postcode": "9900031", "prefecture": "山形県", "id": 161 },
        { "address": "藤治屋敷", "city": "山形市", "postcode": "9900806", "prefecture": "山形県", "id": 162 },
        { "address": "塔の前", "city": "山形市", "postcode": "9902223", "prefecture": "山形県", "id": 163 },
        { "address": "銅町", "city": "山形市", "postcode": "9900051", "prefecture": "山形県", "id": 164 },
        { "address": "銅谷口", "city": "山形市", "postcode": "9900871", "prefecture": "山形県", "id": 165 },
        { "address": "富神台", "city": "山形市", "postcode": "9902345", "prefecture": "山形県", "id": 166 },
        { "address": "富神前", "city": "山形市", "postcode": "9902342", "prefecture": "山形県", "id": 167 },
        { "address": "百目鬼", "city": "山形市", "postcode": "9902361", "prefecture": "山形県", "id": 168 },
        { "address": "富の中", "city": "山形市", "postcode": "9902463", "prefecture": "山形県", "id": 169 },
        { "address": "樋越", "city": "山形市", "postcode": "9900815", "prefecture": "山形県", "id": 170 },
        { "address": "鳥居ケ丘", "city": "山形市", "postcode": "9902433", "prefecture": "山形県", "id": 171 },
        { "address": "中桜田", "city": "山形市", "postcode": "9902422", "prefecture": "山形県", "id": 172 },
        { "address": "中里", "city": "山形市", "postcode": "9902235", "prefecture": "山形県", "id": 173 },
        { "address": "中沼", "city": "山形市", "postcode": "9900849", "prefecture": "山形県", "id": 174 },
        { "address": "中野", "city": "山形市", "postcode": "9900892", "prefecture": "山形県", "id": 175 },
        { "address": "中野目", "city": "山形市", "postcode": "9902175", "prefecture": "山形県", "id": 176 },
        { "address": "長苗代", "city": "山形市", "postcode": "9902477", "prefecture": "山形県", "id": 177 },
        { "address": "長町", "city": "山形市", "postcode": "9900811", "prefecture": "山形県", "id": 178 },
        { "address": "七浦", "city": "山形市", "postcode": "9902171", "prefecture": "山形県", "id": 179 },
        { "address": "七十刈", "city": "山形市", "postcode": "9900804", "prefecture": "山形県", "id": 180 },
        { "address": "七日町", "city": "山形市", "postcode": "9900042", "prefecture": "山形県", "id": 181 },
        { "address": "並柳", "city": "山形市", "postcode": "9902386", "prefecture": "山形県", "id": 182 },
        { "address": "滑川", "city": "山形市", "postcode": "9900014", "prefecture": "山形県", "id": 183 },
        { "address": "成沢西", "city": "山形市", "postcode": "9902339", "prefecture": "山形県", "id": 184 },
        { "address": "成安", "city": "山形市", "postcode": "9900891", "prefecture": "山形県", "id": 185 },
        { "address": "南栄町", "city": "山形市", "postcode": "9902445", "prefecture": "山形県", "id": 186 },
        { "address": "二位田", "city": "山形市", "postcode": "9902355", "prefecture": "山形県", "id": 187 },
        { "address": "新山", "city": "山形市", "postcode": "9900015", "prefecture": "山形県", "id": 188 },
        { "address": "西江俣", "city": "山形市", "postcode": "9900862", "prefecture": "山形県", "id": 189 },
        { "address": "錦町", "city": "山形市", "postcode": "9900056", "prefecture": "山形県", "id": 190 },
        { "address": "西越", "city": "山形市", "postcode": "9902226", "prefecture": "山形県", "id": 191 },
        { "address": "西崎", "city": "山形市", "postcode": "9900853", "prefecture": "山形県", "id": 192 },
        { "address": "西田", "city": "山形市", "postcode": "9900831", "prefecture": "山形県", "id": 193 },
        { "address": "西中野", "city": "山形市", "postcode": "9900893", "prefecture": "山形県", "id": 194 },
        { "address": "西原", "city": "山形市", "postcode": "9900859", "prefecture": "山形県", "id": 195 },
        { "address": "西見田", "city": "山形市", "postcode": "9900844", "prefecture": "山形県", "id": 196 },
        { "address": "沼木", "city": "山形市", "postcode": "9902474", "prefecture": "山形県", "id": 197 },
        { "address": "沼の辺町", "city": "山形市", "postcode": "9900007", "prefecture": "山形県", "id": 198 },
        { "address": "灰塚", "city": "山形市", "postcode": "9902174", "prefecture": "山形県", "id": 199 },
        { "address": "白山", "city": "山形市", "postcode": "9902446", "prefecture": "山形県", "id": 200 },
        { "address": "羽黒堂", "city": "山形市", "postcode": "9902471", "prefecture": "山形県", "id": 201 },
        { "address": "馬上台", "city": "山形市", "postcode": "9900865", "prefecture": "山形県", "id": 202 },
        { "address": "長谷堂", "city": "山形市", "postcode": "9902363", "prefecture": "山形県", "id": 203 },
        { "address": "旅篭町", "city": "山形市", "postcode": "9900047", "prefecture": "山形県", "id": 204 },
        { "address": "八幡前", "city": "山形市", "postcode": "9900872", "prefecture": "山形県", "id": 205 },
        { "address": "八森", "city": "山形市", "postcode": "9902404", "prefecture": "山形県", "id": 206 },
        { "address": "花岡", "city": "山形市", "postcode": "9902225", "prefecture": "山形県", "id": 207 },
        { "address": "花楯", "city": "山形市", "postcode": "9900067", "prefecture": "山形県", "id": 208 },
        { "address": "浜崎", "city": "山形市", "postcode": "9900072", "prefecture": "山形県", "id": 209 },
        { "address": "東青田", "city": "山形市", "postcode": "9902423", "prefecture": "山形県", "id": 210 },
        { "address": "東篭野町", "city": "山形市", "postcode": "9900899", "prefecture": "山形県", "id": 211 },
        { "address": "東志戸田", "city": "山形市", "postcode": "9900869", "prefecture": "山形県", "id": 212 },
        { "address": "東田", "city": "山形市", "postcode": "9900897", "prefecture": "山形県", "id": 213 },
        { "address": "東二位田", "city": "山形市", "postcode": "9902354", "prefecture": "山形県", "id": 214 },
        { "address": "東原町", "city": "山形市", "postcode": "9900034", "prefecture": "山形県", "id": 215 },
        { "address": "東半郷", "city": "山形市", "postcode": "9902308", "prefecture": "山形県", "id": 216 },
        { "address": "東古館", "city": "山形市", "postcode": "9902375", "prefecture": "山形県", "id": 217 },
        { "address": "東山形", "city": "山形市", "postcode": "9900022", "prefecture": "山形県", "id": 218 },
        { "address": "桧町", "city": "山形市", "postcode": "9900813", "prefecture": "山形県", "id": 219 },
        { "address": "平久保", "city": "山形市", "postcode": "9900076", "prefecture": "山形県", "id": 220 },
        { "address": "平清水", "city": "山形市", "postcode": "9902401", "prefecture": "山形県", "id": 221 },
        { "address": "深町", "city": "山形市", "postcode": "9902462", "prefecture": "山形県", "id": 222 },
        { "address": "藤沢川", "city": "山形市", "postcode": "9902377", "prefecture": "山形県", "id": 223 },
        { "address": "双葉町", "city": "山形市", "postcode": "9900828", "prefecture": "山形県", "id": 224 },
        { "address": "船町", "city": "山形市", "postcode": "9900894", "prefecture": "山形県", "id": 225 },
        { "address": "古館", "city": "山形市", "postcode": "9902374", "prefecture": "山形県", "id": 226 },
        { "address": "平田", "city": "山形市", "postcode": "9900857", "prefecture": "山形県", "id": 227 },
        { "address": "防原町", "city": "山形市", "postcode": "9900013", "prefecture": "山形県", "id": 228 },
        { "address": "穂積", "city": "山形市", "postcode": "9900001", "prefecture": "山形県", "id": 229 },
        { "address": "本町", "city": "山形市", "postcode": "9900043", "prefecture": "山形県", "id": 230 },
        { "address": "前明石", "city": "山形市", "postcode": "9902352", "prefecture": "山形県", "id": 231 },
        { "address": "前田町", "city": "山形市", "postcode": "9902411", "prefecture": "山形県", "id": 232 },
        { "address": "松栄", "city": "山形市", "postcode": "9902473", "prefecture": "山形県", "id": 233 },
        { "address": "松波", "city": "山形市", "postcode": "9900023", "prefecture": "山形県", "id": 234 },
        { "address": "松原", "city": "山形市", "postcode": "9902313", "prefecture": "山形県", "id": 235 },
        { "address": "松見町", "city": "山形市", "postcode": "9902431", "prefecture": "山形県", "id": 236 },
        { "address": "松山", "city": "山形市", "postcode": "9902412", "prefecture": "山形県", "id": 237 },
        { "address": "馬見ケ崎", "city": "山形市", "postcode": "9900810", "prefecture": "山形県", "id": 238 },
        { "address": "見崎", "city": "山形市", "postcode": "9900803", "prefecture": "山形県", "id": 239 },
        { "address": "見崎川原", "city": "山形市", "postcode": "9900802", "prefecture": "山形県", "id": 240 },
        { "address": "三日町", "city": "山形市", "postcode": "9900036", "prefecture": "山形県", "id": 241 },
        { "address": "緑町", "city": "山形市", "postcode": "9900041", "prefecture": "山形県", "id": 242 },
        { "address": "南一番町", "city": "山形市", "postcode": "9902441", "prefecture": "山形県", "id": 243 },
        { "address": "南二番町", "city": "山形市", "postcode": "9902442", "prefecture": "山形県", "id": 244 },
        { "address": "南三番町", "city": "山形市", "postcode": "9902443", "prefecture": "山形県", "id": 245 },
        { "address": "南四番町", "city": "山形市", "postcode": "9902444", "prefecture": "山形県", "id": 246 },
        { "address": "南石関", "city": "山形市", "postcode": "9900836", "prefecture": "山形県", "id": 247 },
        { "address": "南志戸田", "city": "山形市", "postcode": "9900879", "prefecture": "山形県", "id": 248 },
        { "address": "南館", "city": "山形市", "postcode": "9902461", "prefecture": "山形県", "id": 249 },
        { "address": "南館西", "city": "山形市", "postcode": "9902465", "prefecture": "山形県", "id": 250 },
        { "address": "南原町", "city": "山形市", "postcode": "9902413", "prefecture": "山形県", "id": 251 },
        { "address": "南半郷", "city": "山形市", "postcode": "9902306", "prefecture": "山形県", "id": 252 },
        { "address": "南松原", "city": "山形市", "postcode": "9902312", "prefecture": "山形県", "id": 253 },
        { "address": "みのりが丘", "city": "山形市", "postcode": "9902372", "prefecture": "山形県", "id": 254 },
        { "address": "美畑町", "city": "山形市", "postcode": "9902493", "prefecture": "山形県", "id": 255 },
        { "address": "みはらしの丘", "city": "山形市", "postcode": "9902317", "prefecture": "山形県", "id": 256 },
        { "address": "宮浦", "city": "山形市", "postcode": "9900848", "prefecture": "山形県", "id": 257 },
        { "address": "宮町", "city": "山形市", "postcode": "9900057", "prefecture": "山形県", "id": 258 },
        { "address": "妙見寺", "city": "山形市", "postcode": "9900011", "prefecture": "山形県", "id": 259 },
        { "address": "明神前", "city": "山形市", "postcode": "9902472", "prefecture": "山形県", "id": 260 },
        { "address": "六日町", "city": "山形市", "postcode": "9900054", "prefecture": "山形県", "id": 261 },
        { "address": "向新田", "city": "山形市", "postcode": "9900895", "prefecture": "山形県", "id": 262 },
        { "address": "村木沢", "city": "山形市", "postcode": "9902371", "prefecture": "山形県", "id": 263 },
        { "address": "元木", "city": "山形市", "postcode": "9902447", "prefecture": "山形県", "id": 264 },
        { "address": "谷柏", "city": "山形市", "postcode": "9902314", "prefecture": "山形県", "id": 265 },
        { "address": "薬師町", "city": "山形市", "postcode": "9900053", "prefecture": "山形県", "id": 266 },
        { "address": "谷地前", "city": "山形市", "postcode": "9902366", "prefecture": "山形県", "id": 267 },
        { "address": "山寺", "city": "山形市", "postcode": "9993301", "prefecture": "山形県", "id": 268 },
        { "address": "やよい", "city": "山形市", "postcode": "9900835", "prefecture": "山形県", "id": 269 },
        { "address": "山家本町", "city": "山形市", "postcode": "9900006", "prefecture": "山形県", "id": 270 },
        { "address": "山家町", "city": "山形市", "postcode": "9900063", "prefecture": "山形県", "id": 271 },
        { "address": "八日町", "city": "山形市", "postcode": "9900037", "prefecture": "山形県", "id": 272 },
        { "address": "横井", "city": "山形市", "postcode": "9900866", "prefecture": "山形県", "id": 273 },
        { "address": "横道", "city": "山形市", "postcode": "9900843", "prefecture": "山形県", "id": 274 },
        { "address": "芳沢", "city": "山形市", "postcode": "9902383", "prefecture": "山形県", "id": 275 },
        { "address": "芳野", "city": "山形市", "postcode": "9900074", "prefecture": "山形県", "id": 276 },
        { "address": "吉野宿", "city": "山形市", "postcode": "9900883", "prefecture": "山形県", "id": 277 },
        { "address": "吉原", "city": "山形市", "postcode": "9902451", "prefecture": "山形県", "id": 278 },
        { "address": "吉原南", "city": "山形市", "postcode": "9902455", "prefecture": "山形県", "id": 279 },
        { "address": "流通センター", "city": "山形市", "postcode": "9900071", "prefecture": "山形県", "id": 280 },
        { "address": "若木", "city": "山形市", "postcode": "9902373", "prefecture": "山形県", "id": 281 },
        { "address": "若葉町", "city": "山形市", "postcode": "9902495", "prefecture": "山形県", "id": 282 },
        { "address": "若宮", "city": "山形市", "postcode": "9902453", "prefecture": "山形県", "id": 283 },
        { "address": "和合町", "city": "山形市", "postcode": "9900064", "prefecture": "山形県", "id": 284 },
        { "city": "米沢市", "postcode": "9920000", "prefecture": "山形県", "id": 285 },
        { "address": "相生町", "city": "米沢市", "postcode": "9920032", "prefecture": "山形県", "id": 286 },
        { "address": "赤崩", "city": "米沢市", "postcode": "9921406", "prefecture": "山形県", "id": 287 },
        { "address": "赤崩", "city": "米沢市", "postcode": "9921206", "prefecture": "山形県", "id": 288 },
        { "address": "赤芝町", "city": "米沢市", "postcode": "9920075", "prefecture": "山形県", "id": 289 },
        { "address": "浅川", "city": "米沢市", "postcode": "9920112", "prefecture": "山形県", "id": 290 },
        { "address": "梓川", "city": "米沢市", "postcode": "9920115", "prefecture": "山形県", "id": 291 },
        { "address": "吾妻町", "city": "米沢市", "postcode": "9920034", "prefecture": "山形県", "id": 292 },
        { "address": "アルカディア", "city": "米沢市", "postcode": "9920119", "prefecture": "山形県", "id": 293 },
        { "address": "泉町", "city": "米沢市", "postcode": "9920063", "prefecture": "山形県", "id": 294 },
        { "address": "板谷", "city": "米沢市", "postcode": "9921331", "prefecture": "山形県", "id": 295 },
        { "address": "入田沢", "city": "米沢市", "postcode": "9921583", "prefecture": "山形県", "id": 296 },
        { "address": "駅前", "city": "米沢市", "postcode": "9920027", "prefecture": "山形県", "id": 297 },
        { "address": "大小屋", "city": "米沢市", "postcode": "9921204", "prefecture": "山形県", "id": 298 },
        { "address": "大沢", "city": "米沢市", "postcode": "9921203", "prefecture": "山形県", "id": 299 },
        { "address": "大沢", "city": "米沢市", "postcode": "9921303", "prefecture": "山形県", "id": 300 },
        { "address": "太田町", "city": "米沢市", "postcode": "9920035", "prefecture": "山形県", "id": 301 },
        { "address": "大平", "city": "米沢市", "postcode": "9921462", "prefecture": "山形県", "id": 302 },
        { "address": "大町", "city": "米沢市", "postcode": "9920031", "prefecture": "山形県", "id": 303 },
        { "address": "小野川町", "city": "米沢市", "postcode": "9920076", "prefecture": "山形県", "id": 304 },
        { "address": "鍛冶町", "city": "米沢市", "postcode": "9920014", "prefecture": "山形県", "id": 305 },
        { "address": "春日", "city": "米沢市", "postcode": "9920044", "prefecture": "山形県", "id": 306 },
        { "address": "金池", "city": "米沢市", "postcode": "9920012", "prefecture": "山形県", "id": 307 },
        { "address": "上新田", "city": "米沢市", "postcode": "9920118", "prefecture": "山形県", "id": 308 },
        { "address": "川井", "city": "米沢市", "postcode": "9920117", "prefecture": "山形県", "id": 309 },
        { "address": "川井小路", "city": "米沢市", "postcode": "9920016", "prefecture": "山形県", "id": 310 },
        { "address": "神原", "city": "米沢市", "postcode": "9921582", "prefecture": "山形県", "id": 311 },
        { "address": "木場町", "city": "米沢市", "postcode": "9920058", "prefecture": "山形県", "id": 312 },
        { "address": "木和田", "city": "米沢市", "postcode": "9920114", "prefecture": "山形県", "id": 313 },
        { "address": "口田沢", "city": "米沢市", "postcode": "9921581", "prefecture": "山形県", "id": 314 },
        { "address": "窪田町窪田", "city": "米沢市", "postcode": "9920003", "prefecture": "山形県", "id": 315 },
        { "address": "窪田町小瀬", "city": "米沢市", "postcode": "9920004", "prefecture": "山形県", "id": 316 },
        { "address": "窪田町東江股", "city": "米沢市", "postcode": "9920001", "prefecture": "山形県", "id": 317 },
        { "address": "窪田町藤泉", "city": "米沢市", "postcode": "9920005", "prefecture": "山形県", "id": 318 },
        { "address": "窪田町矢野目", "city": "米沢市", "postcode": "9920002", "prefecture": "山形県", "id": 319 },
        { "address": "御廟", "city": "米沢市", "postcode": "9920055", "prefecture": "山形県", "id": 320 },
        { "address": "栄町", "city": "米沢市", "postcode": "9920013", "prefecture": "山形県", "id": 321 },
        { "address": "桜木町", "city": "米沢市", "postcode": "9920017", "prefecture": "山形県", "id": 322 },
        { "address": "笹野", "city": "米沢市", "postcode": "9921443", "prefecture": "山形県", "id": 323 },
        { "address": "笹野本町", "city": "米沢市", "postcode": "9921445", "prefecture": "山形県", "id": 324 },
        { "address": "笹野町", "city": "米沢市", "postcode": "9921441", "prefecture": "山形県", "id": 325 },
        { "address": "塩井町塩野", "city": "米沢市", "postcode": "9920042", "prefecture": "山形県", "id": 326 },
        { "address": "塩井町宮井", "city": "米沢市", "postcode": "9920041", "prefecture": "山形県", "id": 327 },
        { "address": "塩野", "city": "米沢市", "postcode": "9920043", "prefecture": "山形県", "id": 328 },
        { "address": "信夫町", "city": "米沢市", "postcode": "9920046", "prefecture": "山形県", "id": 329 },
        { "address": "下小菅", "city": "米沢市", "postcode": "9920081", "prefecture": "山形県", "id": 330 },
        { "address": "下新田", "city": "米沢市", "postcode": "9920111", "prefecture": "山形県", "id": 331 },
        { "address": "下花沢", "city": "米沢市", "postcode": "9920023", "prefecture": "山形県", "id": 332 },
        { "address": "城西", "city": "米沢市", "postcode": "9920054", "prefecture": "山形県", "id": 333 },
        { "address": "城南", "city": "米沢市", "postcode": "9920038", "prefecture": "山形県", "id": 334 },
        { "address": "城北", "city": "米沢市", "postcode": "9920051", "prefecture": "山形県", "id": 335 },
        { "address": "諸仏町", "city": "米沢市", "postcode": "9921444", "prefecture": "山形県", "id": 336 },
        { "address": "杉の目町", "city": "米沢市", "postcode": "9920064", "prefecture": "山形県", "id": 337 },
        { "address": "李山", "city": "米沢市", "postcode": "9921461", "prefecture": "山形県", "id": 338 },
        { "address": "関", "city": "米沢市", "postcode": "9921472", "prefecture": "山形県", "id": 339 },
        { "address": "関根", "city": "米沢市", "postcode": "9921205", "prefecture": "山形県", "id": 340 },
        { "address": "関町", "city": "米沢市", "postcode": "9921473", "prefecture": "山形県", "id": 341 },
        { "address": "竹井", "city": "米沢市", "postcode": "9920116", "prefecture": "山形県", "id": 342 },
        { "address": "立町", "city": "米沢市", "postcode": "9920015", "prefecture": "山形県", "id": 343 },
        { "address": "立石", "city": "米沢市", "postcode": "9921471", "prefecture": "山形県", "id": 344 },
        { "address": "舘山", "city": "米沢市", "postcode": "9920072", "prefecture": "山形県", "id": 345 },
        { "address": "舘山矢子町", "city": "米沢市", "postcode": "9920071", "prefecture": "山形県", "id": 346 },
        { "address": "中央", "city": "米沢市", "postcode": "9920045", "prefecture": "山形県", "id": 347 },
        { "address": "綱木", "city": "米沢市", "postcode": "9921474", "prefecture": "山形県", "id": 348 },
        { "address": "遠山町", "city": "米沢市", "postcode": "9920066", "prefecture": "山形県", "id": 349 },
        { "address": "通町", "city": "米沢市", "postcode": "9920025", "prefecture": "山形県", "id": 350 },
        { "address": "徳町", "city": "米沢市", "postcode": "9920047", "prefecture": "山形県", "id": 351 },
        { "address": "直江石堤", "city": "米沢市", "postcode": "9921446", "prefecture": "山形県", "id": 352 },
        { "address": "直江町", "city": "米沢市", "postcode": "9920056", "prefecture": "山形県", "id": 353 },
        { "address": "中田町", "city": "米沢市", "postcode": "9920011", "prefecture": "山形県", "id": 354 },
        { "address": "長手", "city": "米沢市", "postcode": "9920113", "prefecture": "山形県", "id": 355 },
        { "address": "成島町", "city": "米沢市", "postcode": "9920057", "prefecture": "山形県", "id": 356 },
        { "address": "西大通", "city": "米沢市", "postcode": "9920059", "prefecture": "山形県", "id": 357 },
        { "address": "八幡原", "city": "米沢市", "postcode": "9921128", "prefecture": "山形県", "id": 358 },
        { "address": "花沢", "city": "米沢市", "postcode": "9920021", "prefecture": "山形県", "id": 359 },
        { "address": "花沢町", "city": "米沢市", "postcode": "9920022", "prefecture": "山形県", "id": 360 },
        { "address": "万世町牛森", "city": "米沢市", "postcode": "9921127", "prefecture": "山形県", "id": 361 },
        { "address": "万世町片子", "city": "米沢市", "postcode": "9921125", "prefecture": "山形県", "id": 362 },
        { "address": "万世町金谷", "city": "米沢市", "postcode": "9921124", "prefecture": "山形県", "id": 363 },
        { "address": "万世町刈安", "city": "米沢市", "postcode": "9921121", "prefecture": "山形県", "id": 364 },
        { "address": "万世町桑山", "city": "米沢市", "postcode": "9921123", "prefecture": "山形県", "id": 365 },
        { "address": "万世町梓山", "city": "米沢市", "postcode": "9921122", "prefecture": "山形県", "id": 366 },
        { "address": "万世町立沢", "city": "米沢市", "postcode": "9921201", "prefecture": "山形県", "id": 367 },
        { "address": "万世町堂森", "city": "米沢市", "postcode": "9921126", "prefecture": "山形県", "id": 368 },
        { "address": "東", "city": "米沢市", "postcode": "9920026", "prefecture": "山形県", "id": 369 },
        { "address": "東大通", "city": "米沢市", "postcode": "9920024", "prefecture": "山形県", "id": 370 },
        { "address": "広幡町大沢", "city": "米沢市", "postcode": "9920087", "prefecture": "山形県", "id": 371 },
        { "address": "広幡町沖仲", "city": "米沢市", "postcode": "9920085", "prefecture": "山形県", "id": 372 },
        { "address": "広幡町小山田", "city": "米沢市", "postcode": "9920082", "prefecture": "山形県", "id": 373 },
        { "address": "広幡町上小菅", "city": "米沢市", "postcode": "9920084", "prefecture": "山形県", "id": 374 },
        { "address": "広幡町京塚", "city": "米沢市", "postcode": "9920086", "prefecture": "山形県", "id": 375 },
        { "address": "広幡町成島", "city": "米沢市", "postcode": "9920083", "prefecture": "山形県", "id": 376 },
        { "address": "吹屋敷町", "city": "米沢市", "postcode": "9920073", "prefecture": "山形県", "id": 377 },
        { "address": "福田", "city": "米沢市", "postcode": "9920036", "prefecture": "山形県", "id": 378 },
        { "address": "福田町", "city": "米沢市", "postcode": "9920033", "prefecture": "山形県", "id": 379 },
        { "address": "古志田町", "city": "米沢市", "postcode": "9920065", "prefecture": "山形県", "id": 380 },
        { "address": "芳泉町", "city": "米沢市", "postcode": "9921442", "prefecture": "山形県", "id": 381 },
        { "address": "堀川町", "city": "米沢市", "postcode": "9920061", "prefecture": "山形県", "id": 382 },
        { "address": "本町", "city": "米沢市", "postcode": "9920037", "prefecture": "山形県", "id": 383 },
        { "address": "松が岬", "city": "米沢市", "postcode": "9920053", "prefecture": "山形県", "id": 384 },
        { "address": "丸の内", "city": "米沢市", "postcode": "9920052", "prefecture": "山形県", "id": 385 },
        { "address": "三沢", "city": "米沢市", "postcode": "9921202", "prefecture": "山形県", "id": 386 },
        { "address": "南原石垣町", "city": "米沢市", "postcode": "9921453", "prefecture": "山形県", "id": 387 },
        { "address": "南原猪苗代町", "city": "米沢市", "postcode": "9921455", "prefecture": "山形県", "id": 388 },
        { "address": "南原笹野町", "city": "米沢市", "postcode": "9921451", "prefecture": "山形県", "id": 389 },
        { "address": "南原新町", "city": "米沢市", "postcode": "9921454", "prefecture": "山形県", "id": 390 },
        { "address": "南原横堀町", "city": "米沢市", "postcode": "9921452", "prefecture": "山形県", "id": 391 },
        { "address": "門東町", "city": "米沢市", "postcode": "9920039", "prefecture": "山形県", "id": 392 },
        { "address": "簗沢", "city": "米沢市", "postcode": "9920077", "prefecture": "山形県", "id": 393 },
        { "address": "矢来", "city": "米沢市", "postcode": "9920074", "prefecture": "山形県", "id": 394 },
        { "address": "林泉寺", "city": "米沢市", "postcode": "9920062", "prefecture": "山形県", "id": 395 },
        { "address": "六郷町桐原", "city": "米沢市", "postcode": "9920091", "prefecture": "山形県", "id": 396 },
        { "address": "六郷町轟", "city": "米沢市", "postcode": "9920094", "prefecture": "山形県", "id": 397 },
        { "address": "六郷町長橋", "city": "米沢市", "postcode": "9920096", "prefecture": "山形県", "id": 398 },
        { "address": "六郷町西江股", "city": "米沢市", "postcode": "9920092", "prefecture": "山形県", "id": 399 },
        { "address": "六郷町西藤泉", "city": "米沢市", "postcode": "9920093", "prefecture": "山形県", "id": 400 },
        { "address": "六郷町一漆", "city": "米沢市", "postcode": "9920095", "prefecture": "山形県", "id": 401 },
        { "city": "鶴岡市", "postcode": "9970000", "prefecture": "山形県", "id": 402 },
        { "address": "青柳町", "city": "鶴岡市", "postcode": "9970832", "prefecture": "山形県", "id": 403 },
        { "address": "温海", "city": "鶴岡市", "postcode": "9997205", "prefecture": "山形県", "id": 404 },
        { "address": "温海川", "city": "鶴岡市", "postcode": "9997312", "prefecture": "山形県", "id": 405 },
        { "address": "油戸", "city": "鶴岡市", "postcode": "9971205", "prefecture": "山形県", "id": 406 },
        { "address": "荒井京田", "city": "鶴岡市", "postcode": "9970051", "prefecture": "山形県", "id": 407 },
        { "address": "荒沢", "city": "鶴岡市", "postcode": "9970621", "prefecture": "山形県", "id": 408 },
        { "address": "荒俣", "city": "鶴岡市", "postcode": "9997673", "prefecture": "山形県", "id": 409 },
        { "address": "新屋敷", "city": "鶴岡市", "postcode": "9997682", "prefecture": "山形県", "id": 410 },
        { "address": "安丹", "city": "鶴岡市", "postcode": "9970057", "prefecture": "山形県", "id": 411 },
        { "address": "砂谷", "city": "鶴岡市", "postcode": "9970755", "prefecture": "山形県", "id": 412 },
        { "address": "泉町", "city": "鶴岡市", "postcode": "9970033", "prefecture": "山形県", "id": 413 },
        { "address": "伊勢原町", "city": "鶴岡市", "postcode": "9970802", "prefecture": "山形県", "id": 414 },
        { "address": "伊勢横内", "city": "鶴岡市", "postcode": "9970803", "prefecture": "山形県", "id": 415 },
        { "address": "板井川", "city": "鶴岡市", "postcode": "9970331", "prefecture": "山形県", "id": 416 },
        { "address": "稲生", "city": "鶴岡市", "postcode": "9970834", "prefecture": "山形県", "id": 417 },
        { "address": "井岡", "city": "鶴岡市", "postcode": "9970842", "prefecture": "山形県", "id": 418 },
        { "address": "今泉", "city": "鶴岡市", "postcode": "9971206", "prefecture": "山形県", "id": 419 },
        { "address": "五十川", "city": "鶴岡市", "postcode": "9997207", "prefecture": "山形県", "id": 420 },
        { "address": "馬町", "city": "鶴岡市", "postcode": "9971125", "prefecture": "山形県", "id": 421 },
        { "address": "越後京田", "city": "鶴岡市", "postcode": "9997635", "prefecture": "山形県", "id": 422 },
        { "address": "越中山", "city": "鶴岡市", "postcode": "9970403", "prefecture": "山形県", "id": 423 },
        { "address": "海老島町", "city": "鶴岡市", "postcode": "9970823", "prefecture": "山形県", "id": 424 },
        { "address": "大網", "city": "鶴岡市", "postcode": "9970531", "prefecture": "山形県", "id": 425 },
        { "address": "大荒", "city": "鶴岡市", "postcode": "9997547", "prefecture": "山形県", "id": 426 },
        { "address": "大岩川", "city": "鶴岡市", "postcode": "9997123", "prefecture": "山形県", "id": 427 },
        { "address": "大川渡", "city": "鶴岡市", "postcode": "9997661", "prefecture": "山形県", "id": 428 },
        { "address": "大塚町", "city": "鶴岡市", "postcode": "9970047", "prefecture": "山形県", "id": 429 },
        { "address": "大鳥", "city": "鶴岡市", "postcode": "9970622", "prefecture": "山形県", "id": 430 },
        { "address": "大西町", "city": "鶴岡市", "postcode": "9970831", "prefecture": "山形県", "id": 431 },
        { "address": "大針", "city": "鶴岡市", "postcode": "9970414", "prefecture": "山形県", "id": 432 },
        { "address": "大広", "city": "鶴岡市", "postcode": "9997543", "prefecture": "山形県", "id": 433 },
        { "address": "大山", "city": "鶴岡市", "postcode": "9971124", "prefecture": "山形県", "id": 434 },
        { "address": "大山", "city": "鶴岡市", "postcode": "9971121", "prefecture": "山形県", "id": 435 },
        { "address": "大淀川", "city": "鶴岡市", "postcode": "9970854", "prefecture": "山形県", "id": 436 },
        { "address": "岡山", "city": "鶴岡市", "postcode": "9970843", "prefecture": "山形県", "id": 437 },
        { "address": "遠賀原", "city": "鶴岡市", "postcode": "9970806", "prefecture": "山形県", "id": 438 },
        { "address": "小国", "city": "鶴岡市", "postcode": "9997316", "prefecture": "山形県", "id": 439 },
        { "address": "小名部", "city": "鶴岡市", "postcode": "9997125", "prefecture": "山形県", "id": 440 },
        { "address": "面野山", "city": "鶴岡市", "postcode": "9971116", "prefecture": "山形県", "id": 441 },
        { "address": "覚岸寺", "city": "鶴岡市", "postcode": "9970052", "prefecture": "山形県", "id": 442 },
        { "address": "堅苔沢", "city": "鶴岡市", "postcode": "9997461", "prefecture": "山形県", "id": 443 },
        { "address": "家中新町", "city": "鶴岡市", "postcode": "9970036", "prefecture": "山形県", "id": 444 },
        { "address": "桂荒俣", "city": "鶴岡市", "postcode": "9970343", "prefecture": "山形県", "id": 445 },
        { "address": "金谷", "city": "鶴岡市", "postcode": "9970365", "prefecture": "山形県", "id": 446 },
        { "address": "金沢", "city": "鶴岡市", "postcode": "9971203", "prefecture": "山形県", "id": 447 },
        { "address": "上清水", "city": "鶴岡市", "postcode": "9970847", "prefecture": "山形県", "id": 448 },
        { "address": "上田沢", "city": "鶴岡市", "postcode": "9970623", "prefecture": "山形県", "id": 449 },
        { "address": "上中野目", "city": "鶴岡市", "postcode": "9997664", "prefecture": "山形県", "id": 450 },
        { "address": "上名川", "city": "鶴岡市", "postcode": "9970405", "prefecture": "山形県", "id": 451 },
        { "address": "上畑町", "city": "鶴岡市", "postcode": "9970032", "prefecture": "山形県", "id": 452 },
        { "address": "上藤島", "city": "鶴岡市", "postcode": "9997611", "prefecture": "山形県", "id": 453 },
        { "address": "上山添", "city": "鶴岡市", "postcode": "9970346", "prefecture": "山形県", "id": 454 },
        { "address": "上山谷", "city": "鶴岡市", "postcode": "9970367", "prefecture": "山形県", "id": 455 },
        { "address": "加茂", "city": "鶴岡市", "postcode": "9971204", "prefecture": "山形県", "id": 456 },
        { "address": "我老林", "city": "鶴岡市", "postcode": "9970805", "prefecture": "山形県", "id": 457 },
        { "address": "川尻", "city": "鶴岡市", "postcode": "9997644", "prefecture": "山形県", "id": 458 },
        { "address": "北京田", "city": "鶴岡市", "postcode": "9970053", "prefecture": "山形県", "id": 459 },
        { "address": "北茅原町", "city": "鶴岡市", "postcode": "9970038", "prefecture": "山形県", "id": 460 },
        { "address": "木野俣", "city": "鶴岡市", "postcode": "9997313", "prefecture": "山形県", "id": 461 },
        { "address": "切添町", "city": "鶴岡市", "postcode": "9970022", "prefecture": "山形県", "id": 462 },
        { "address": "工藤", "city": "鶴岡市", "postcode": "9997646", "prefecture": "山形県", "id": 463 },
        { "address": "熊出", "city": "鶴岡市", "postcode": "9970411", "prefecture": "山形県", "id": 464 },
        { "address": "倉沢", "city": "鶴岡市", "postcode": "9970624", "prefecture": "山形県", "id": 465 },
        { "address": "黒川", "city": "鶴岡市", "postcode": "9970311", "prefecture": "山形県", "id": 466 },
        { "address": "小岩川", "city": "鶴岡市", "postcode": "9997122", "prefecture": "山形県", "id": 467 },
        { "address": "越沢", "city": "鶴岡市", "postcode": "9997314", "prefecture": "山形県", "id": 468 },
        { "address": "小京田", "city": "鶴岡市", "postcode": "9970005", "prefecture": "山形県", "id": 469 },
        { "address": "小菅野代", "city": "鶴岡市", "postcode": "9997206", "prefecture": "山形県", "id": 470 },
        { "address": "寿", "city": "鶴岡市", "postcode": "9970363", "prefecture": "山形県", "id": 471 },
        { "address": "小中島", "city": "鶴岡市", "postcode": "9997632", "prefecture": "山形県", "id": 472 },
        { "address": "小波渡", "city": "鶴岡市", "postcode": "9997462", "prefecture": "山形県", "id": 473 },
        { "address": "小真木原町", "city": "鶴岡市", "postcode": "9970825", "prefecture": "山形県", "id": 474 },
        { "address": "小淀川", "city": "鶴岡市", "postcode": "9970853", "prefecture": "山形県", "id": 475 },
        { "address": "斎藤川原", "city": "鶴岡市", "postcode": "9970804", "prefecture": "山形県", "id": 476 },
        { "address": "坂野下", "city": "鶴岡市", "postcode": "9970757", "prefecture": "山形県", "id": 477 },
        { "address": "鷺畑", "city": "鶴岡市", "postcode": "9997651", "prefecture": "山形県", "id": 478 },
        { "address": "桜新町", "city": "鶴岡市", "postcode": "9970861", "prefecture": "山形県", "id": 479 },
        { "address": "三光町", "city": "鶴岡市", "postcode": "9970821", "prefecture": "山形県", "id": 480 },
        { "address": "三瀬", "city": "鶴岡市", "postcode": "9997463", "prefecture": "山形県", "id": 481 },
        { "address": "三千刈", "city": "鶴岡市", "postcode": "9970342", "prefecture": "山形県", "id": 482 },
        { "address": "山王町", "city": "鶴岡市", "postcode": "9970028", "prefecture": "山形県", "id": 483 },
        { "address": "清水新田", "city": "鶴岡市", "postcode": "9970848", "prefecture": "山形県", "id": 484 },
        { "address": "下川", "city": "鶴岡市", "postcode": "9971117", "prefecture": "山形県", "id": 485 },
        { "address": "下興屋", "city": "鶴岡市", "postcode": "9971133", "prefecture": "山形県", "id": 486 },
        { "address": "下小中", "city": "鶴岡市", "postcode": "9971134", "prefecture": "山形県", "id": 487 },
        { "address": "下清水", "city": "鶴岡市", "postcode": "9970845", "prefecture": "山形県", "id": 488 },
        { "address": "下田沢", "city": "鶴岡市", "postcode": "9970625", "prefecture": "山形県", "id": 489 },
        { "address": "下中野目", "city": "鶴岡市", "postcode": "9997637", "prefecture": "山形県", "id": 490 },
        { "address": "下名川", "city": "鶴岡市", "postcode": "9970404", "prefecture": "山形県", "id": 491 },
        { "address": "下山添", "city": "鶴岡市", "postcode": "9970341", "prefecture": "山形県", "id": 492 },
        { "address": "勝福寺", "city": "鶴岡市", "postcode": "9970351", "prefecture": "山形県", "id": 493 },
        { "address": "城南町", "city": "鶴岡市", "postcode": "9970814", "prefecture": "山形県", "id": 494 },
        { "address": "城北町", "city": "鶴岡市", "postcode": "9970041", "prefecture": "山形県", "id": 495 },
        { "address": "青龍寺", "city": "鶴岡市", "postcode": "9970368", "prefecture": "山形県", "id": 496 },
        { "address": "少連寺", "city": "鶴岡市", "postcode": "9970754", "prefecture": "山形県", "id": 497 },
        { "address": "昭和町", "city": "鶴岡市", "postcode": "9970027", "prefecture": "山形県", "id": 498 },
        { "address": "白山", "city": "鶴岡市", "postcode": "9970841", "prefecture": "山形県", "id": 499 },
        { "address": "新海町", "city": "鶴岡市", "postcode": "9970044", "prefecture": "山形県", "id": 500 },
        { "address": "新斎部", "city": "鶴岡市", "postcode": "9970852", "prefecture": "山形県", "id": 501 },
        { "address": "神明町", "city": "鶴岡市", "postcode": "9970811", "prefecture": "山形県", "id": 502 },
        { "address": "末広町", "city": "鶴岡市", "postcode": "9970015", "prefecture": "山形県", "id": 503 },
        { "address": "菅野代", "city": "鶴岡市", "postcode": "9997311", "prefecture": "山形県", "id": 504 },
        { "address": "砂川", "city": "鶴岡市", "postcode": "9970415", "prefecture": "山形県", "id": 505 },
        { "address": "砂田町", "city": "鶴岡市", "postcode": "9970839", "prefecture": "山形県", "id": 506 },
        { "address": "砂塚", "city": "鶴岡市", "postcode": "9997685", "prefecture": "山形県", "id": 507 },
        { "address": "須走", "city": "鶴岡市", "postcode": "9997633", "prefecture": "山形県", "id": 508 },
        { "address": "関川", "city": "鶴岡市", "postcode": "9997315", "prefecture": "山形県", "id": 509 },
        { "address": "関根", "city": "鶴岡市", "postcode": "9970758", "prefecture": "山形県", "id": 510 },
        { "address": "千石町", "city": "鶴岡市", "postcode": "9970813", "prefecture": "山形県", "id": 511 },
        { "address": "添川", "city": "鶴岡市", "postcode": "9996652", "prefecture": "山形県", "id": 512 },
        { "address": "添川", "city": "鶴岡市", "postcode": "9997652", "prefecture": "山形県", "id": 513 },
        { "address": "大東町", "city": "鶴岡市", "postcode": "9970026", "prefecture": "山形県", "id": 514 },
        { "address": "大半田", "city": "鶴岡市", "postcode": "9997677", "prefecture": "山形県", "id": 515 },
        { "address": "大部町", "city": "鶴岡市", "postcode": "9970049", "prefecture": "山形県", "id": 516 },
        { "address": "大宝寺", "city": "鶴岡市", "postcode": "9970117", "prefecture": "山形県", "id": 517 },
        { "address": "大宝寺", "city": "鶴岡市", "postcode": "9970017", "prefecture": "山形県", "id": 518 },
        { "address": "高坂", "city": "鶴岡市", "postcode": "9970369", "prefecture": "山形県", "id": 519 },
        { "address": "高田", "city": "鶴岡市", "postcode": "9970054", "prefecture": "山形県", "id": 520 },
        { "address": "宝田", "city": "鶴岡市", "postcode": "9970011", "prefecture": "山形県", "id": 521 },
        { "address": "宝町", "city": "鶴岡市", "postcode": "9970021", "prefecture": "山形県", "id": 522 },
        { "address": "田川", "city": "鶴岡市", "postcode": "9970753", "prefecture": "山形県", "id": 523 },
        { "address": "滝沢", "city": "鶴岡市", "postcode": "9970364", "prefecture": "山形県", "id": 524 },
        { "address": "蛸井興屋", "city": "鶴岡市", "postcode": "9997663", "prefecture": "山形県", "id": 525 },
        { "address": "田代", "city": "鶴岡市", "postcode": "9970302", "prefecture": "山形県", "id": 526 },
        { "address": "谷定", "city": "鶴岡市", "postcode": "9970366", "prefecture": "山形県", "id": 527 },
        { "address": "田麦俣", "city": "鶴岡市", "postcode": "9970532", "prefecture": "山形県", "id": 528 },
        { "address": "たらのき代", "city": "鶴岡市", "postcode": "9970303", "prefecture": "山形県", "id": 529 },
        { "address": "大宝寺町", "city": "鶴岡市", "postcode": "9970014", "prefecture": "山形県", "id": 530 },
        { "address": "千安京田", "city": "鶴岡市", "postcode": "9971114", "prefecture": "山形県", "id": 531 },
        { "address": "長者町", "city": "鶴岡市", "postcode": "9970812", "prefecture": "山形県", "id": 532 },
        { "address": "朝暘町", "city": "鶴岡市", "postcode": "9970024", "prefecture": "山形県", "id": 533 },
        { "address": "茅原", "city": "鶴岡市", "postcode": "9970019", "prefecture": "山形県", "id": 534 },
        { "address": "茅原町", "city": "鶴岡市", "postcode": "9970018", "prefecture": "山形県", "id": 535 },
        { "address": "辻興屋", "city": "鶴岡市", "postcode": "9971115", "prefecture": "山形県", "id": 536 },
        { "address": "寺田", "city": "鶴岡市", "postcode": "9970836", "prefecture": "山形県", "id": 537 },
        { "address": "道形", "city": "鶴岡市", "postcode": "9970012", "prefecture": "山形県", "id": 538 },
        { "address": "道形町", "city": "鶴岡市", "postcode": "9970013", "prefecture": "山形県", "id": 539 },
        { "address": "常盤木", "city": "鶴岡市", "postcode": "9970333", "prefecture": "山形県", "id": 540 },
        { "address": "戸沢", "city": "鶴岡市", "postcode": "9997202", "prefecture": "山形県", "id": 541 },
        { "address": "栃屋", "city": "鶴岡市", "postcode": "9971132", "prefecture": "山形県", "id": 542 },
        { "address": "外内島", "city": "鶴岡市", "postcode": "9970815", "prefecture": "山形県", "id": 543 },
        { "address": "友江", "city": "鶴岡市", "postcode": "9971122", "prefecture": "山形県", "id": 544 },
        { "address": "友江町", "city": "鶴岡市", "postcode": "9971123", "prefecture": "山形県", "id": 545 },
        { "address": "豊田", "city": "鶴岡市", "postcode": "9970007", "prefecture": "山形県", "id": 546 },
        { "address": "鳥居町", "city": "鶴岡市", "postcode": "9970023", "prefecture": "山形県", "id": 547 },
        { "address": "苗津", "city": "鶴岡市", "postcode": "9970808", "prefecture": "山形県", "id": 548 },
        { "address": "苗津町", "city": "鶴岡市", "postcode": "9970809", "prefecture": "山形県", "id": 549 },
        { "address": "中京田", "city": "鶴岡市", "postcode": "9970009", "prefecture": "山形県", "id": 550 },
        { "address": "中沢", "city": "鶴岡市", "postcode": "9997546", "prefecture": "山形県", "id": 551 },
        { "address": "中清水", "city": "鶴岡市", "postcode": "9970846", "prefecture": "山形県", "id": 552 },
        { "address": "中田", "city": "鶴岡市", "postcode": "9970345", "prefecture": "山形県", "id": 553 },
        { "address": "中楯", "city": "鶴岡市", "postcode": "9971135", "prefecture": "山形県", "id": 554 },
        { "address": "長沼", "city": "鶴岡市", "postcode": "9997621", "prefecture": "山形県", "id": 555 },
        { "address": "中野京田", "city": "鶴岡市", "postcode": "9970056", "prefecture": "山形県", "id": 556 },
        { "address": "中野新田", "city": "鶴岡市", "postcode": "9970401", "prefecture": "山形県", "id": 557 },
        { "address": "中橋", "city": "鶴岡市", "postcode": "9970362", "prefecture": "山形県", "id": 558 },
        { "address": "中山", "city": "鶴岡市", "postcode": "9997544", "prefecture": "山形県", "id": 559 },
        { "address": "行沢", "city": "鶴岡市", "postcode": "9970413", "prefecture": "山形県", "id": 560 },
        { "address": "長崎", "city": "鶴岡市", "postcode": "9971113", "prefecture": "山形県", "id": 561 },
        { "address": "新形町", "city": "鶴岡市", "postcode": "9970042", "prefecture": "山形県", "id": 562 },
        { "address": "西荒屋", "city": "鶴岡市", "postcode": "9970332", "prefecture": "山形県", "id": 563 },
        { "address": "西片屋", "city": "鶴岡市", "postcode": "9970323", "prefecture": "山形県", "id": 564 },
        { "address": "錦町", "city": "鶴岡市", "postcode": "9970031", "prefecture": "山形県", "id": 565 },
        { "address": "西京田", "city": "鶴岡市", "postcode": "9970055", "prefecture": "山形県", "id": 566 },
        { "address": "西新斎町", "city": "鶴岡市", "postcode": "9970045", "prefecture": "山形県", "id": 567 },
        { "address": "西茅原町", "city": "鶴岡市", "postcode": "9970039", "prefecture": "山形県", "id": 568 },
        { "address": "西沼", "city": "鶴岡市", "postcode": "9971112", "prefecture": "山形県", "id": 569 },
        { "address": "西目", "city": "鶴岡市", "postcode": "9997541", "prefecture": "山形県", "id": 570 },
        { "address": "布目", "city": "鶴岡市", "postcode": "9970851", "prefecture": "山形県", "id": 571 },
        { "address": "鼠ケ関", "city": "鶴岡市", "postcode": "9997126", "prefecture": "山形県", "id": 572 },
        { "address": "のぞみ町", "city": "鶴岡市", "postcode": "9970819", "prefecture": "山形県", "id": 573 },
        { "address": "野田目", "city": "鶴岡市", "postcode": "9997636", "prefecture": "山形県", "id": 574 },
        { "address": "羽黒町赤川", "city": "鶴岡市", "postcode": "9970167", "prefecture": "山形県", "id": 575 },
        { "address": "羽黒町荒川", "city": "鶴岡市", "postcode": "9970141", "prefecture": "山形県", "id": 576 },
        { "address": "羽黒町石野新田", "city": "鶴岡市", "postcode": "9970155", "prefecture": "山形県", "id": 577 },
        { "address": "羽黒町市野山", "city": "鶴岡市", "postcode": "9970123", "prefecture": "山形県", "id": 578 },
        { "address": "羽黒町猪俣新田", "city": "鶴岡市", "postcode": "9970152", "prefecture": "山形県", "id": 579 },
        { "address": "羽黒町後田", "city": "鶴岡市", "postcode": "9970157", "prefecture": "山形県", "id": 580 },
        { "address": "羽黒町上野新田", "city": "鶴岡市", "postcode": "9970142", "prefecture": "山形県", "id": 581 },
        { "address": "羽黒町大口", "city": "鶴岡市", "postcode": "9970122", "prefecture": "山形県", "id": 582 },
        { "address": "羽黒町押口", "city": "鶴岡市", "postcode": "9970161", "prefecture": "山形県", "id": 583 },
        { "address": "羽黒町金森目", "city": "鶴岡市", "postcode": "9970108", "prefecture": "山形県", "id": 584 },
        { "address": "羽黒町狩谷野目", "city": "鶴岡市", "postcode": "9970163", "prefecture": "山形県", "id": 585 },
        { "address": "羽黒町川代", "city": "鶴岡市", "postcode": "9970131", "prefecture": "山形県", "id": 586 },
        { "address": "羽黒町川行", "city": "鶴岡市", "postcode": "9970105", "prefecture": "山形県", "id": 587 },
        { "address": "羽黒町黒瀬", "city": "鶴岡市", "postcode": "9970151", "prefecture": "山形県", "id": 588 },
        { "address": "羽黒町小増川", "city": "鶴岡市", "postcode": "9970107", "prefecture": "山形県", "id": 589 },
        { "address": "羽黒町坂ノ下", "city": "鶴岡市", "postcode": "9970104", "prefecture": "山形県", "id": 590 },
        { "address": "羽黒町十文字", "city": "鶴岡市", "postcode": "9970127", "prefecture": "山形県", "id": 591 },
        { "address": "羽黒町仙道", "city": "鶴岡市", "postcode": "9970125", "prefecture": "山形県", "id": 592 },
        { "address": "羽黒町染興屋", "city": "鶴岡市", "postcode": "9970106", "prefecture": "山形県", "id": 593 },
        { "address": "羽黒町高寺", "city": "鶴岡市", "postcode": "9970153", "prefecture": "山形県", "id": 594 },
        { "address": "羽黒町玉川", "city": "鶴岡市", "postcode": "9970121", "prefecture": "山形県", "id": 595 },
        { "address": "羽黒町手向", "city": "鶴岡市", "postcode": "9970211", "prefecture": "山形県", "id": 596 },
        { "address": "羽黒町戸野", "city": "鶴岡市", "postcode": "9970103", "prefecture": "山形県", "id": 597 },
        { "address": "羽黒町富沢", "city": "鶴岡市", "postcode": "9970165", "prefecture": "山形県", "id": 598 },
        { "address": "羽黒町中里", "city": "鶴岡市", "postcode": "9970102", "prefecture": "山形県", "id": 599 },
        { "address": "羽黒町野荒町", "city": "鶴岡市", "postcode": "9970126", "prefecture": "山形県", "id": 600 },
        { "address": "羽黒町野田", "city": "鶴岡市", "postcode": "9970143", "prefecture": "山形県", "id": 601 },
        { "address": "羽黒町昼田", "city": "鶴岡市", "postcode": "9970164", "prefecture": "山形県", "id": 602 },
        { "address": "羽黒町細谷", "city": "鶴岡市", "postcode": "9970162", "prefecture": "山形県", "id": 603 },
        { "address": "羽黒町増川新田", "city": "鶴岡市", "postcode": "9970124", "prefecture": "山形県", "id": 604 },
        { "address": "羽黒町町屋", "city": "鶴岡市", "postcode": "9970101", "prefecture": "山形県", "id": 605 },
        { "address": "羽黒町松尾", "city": "鶴岡市", "postcode": "9970156", "prefecture": "山形県", "id": 606 },
        { "address": "羽黒町松ケ岡", "city": "鶴岡市", "postcode": "9970158", "prefecture": "山形県", "id": 607 },
        { "address": "羽黒町馬渡ノ内下", "city": "鶴岡市", "postcode": "9970154", "prefecture": "山形県", "id": 608 },
        { "address": "羽黒町三ツ橋", "city": "鶴岡市", "postcode": "9970166", "prefecture": "山形県", "id": 609 },
        { "address": "馬場町", "city": "鶴岡市", "postcode": "9970035", "prefecture": "山形県", "id": 610 },
        { "address": "林崎", "city": "鶴岡市", "postcode": "9970058", "prefecture": "山形県", "id": 611 },
        { "address": "茨新田", "city": "鶴岡市", "postcode": "9971111", "prefecture": "山形県", "id": 612 },
        { "address": "播磨", "city": "鶴岡市", "postcode": "9970002", "prefecture": "山形県", "id": 613 },
        { "address": "番田", "city": "鶴岡市", "postcode": "9970835", "prefecture": "山形県", "id": 614 },
        { "address": "日枝", "city": "鶴岡市", "postcode": "9970824", "prefecture": "山形県", "id": 615 },
        { "address": "東荒屋", "city": "鶴岡市", "postcode": "9970344", "prefecture": "山形県", "id": 616 },
        { "address": "東岩本", "city": "鶴岡市", "postcode": "9970402", "prefecture": "山形県", "id": 617 },
        { "address": "東新斎町", "city": "鶴岡市", "postcode": "9970043", "prefecture": "山形県", "id": 618 },
        { "address": "東原町", "city": "鶴岡市", "postcode": "9970801", "prefecture": "山形県", "id": 619 },
        { "address": "東堀越", "city": "鶴岡市", "postcode": "9997653", "prefecture": "山形県", "id": 620 },
        { "address": "東目", "city": "鶴岡市", "postcode": "9970756", "prefecture": "山形県", "id": 621 },
        { "address": "菱津", "city": "鶴岡市", "postcode": "9971131", "prefecture": "山形県", "id": 622 },
        { "address": "一霞", "city": "鶴岡市", "postcode": "9997203", "prefecture": "山形県", "id": 623 },
        { "address": "日出", "city": "鶴岡市", "postcode": "9970025", "prefecture": "山形県", "id": 624 },
        { "address": "日吉町", "city": "鶴岡市", "postcode": "9970029", "prefecture": "山形県", "id": 625 },
        { "address": "日和田町", "city": "鶴岡市", "postcode": "9970016", "prefecture": "山形県", "id": 626 },
        { "address": "平形", "city": "鶴岡市", "postcode": "9997681", "prefecture": "山形県", "id": 627 },
        { "address": "平田", "city": "鶴岡市", "postcode": "9970008", "prefecture": "山形県", "id": 628 },
        { "address": "福田", "city": "鶴岡市", "postcode": "9970006", "prefecture": "山形県", "id": 629 },
        { "address": "藤岡", "city": "鶴岡市", "postcode": "9997638", "prefecture": "山形県", "id": 630 },
        { "address": "藤沢", "city": "鶴岡市", "postcode": "9970751", "prefecture": "山形県", "id": 631 },
        { "address": "藤島", "city": "鶴岡市", "postcode": "9997601", "prefecture": "山形県", "id": 632 },
        { "address": "藤島関根", "city": "鶴岡市", "postcode": "9997642", "prefecture": "山形県", "id": 633 },
        { "address": "藤浪", "city": "鶴岡市", "postcode": "9997604", "prefecture": "山形県", "id": 634 },
        { "address": "藤の花", "city": "鶴岡市", "postcode": "9997602", "prefecture": "山形県", "id": 635 },
        { "address": "双葉町", "city": "鶴岡市", "postcode": "9970822", "prefecture": "山形県", "id": 636 },
        { "address": "文園町", "city": "鶴岡市", "postcode": "9970816", "prefecture": "山形県", "id": 637 },
        { "address": "古郡", "city": "鶴岡市", "postcode": "9997671", "prefecture": "山形県", "id": 638 },
        { "address": "平京田", "city": "鶴岡市", "postcode": "9970048", "prefecture": "山形県", "id": 639 },
        { "address": "平成町", "city": "鶴岡市", "postcode": "9971156", "prefecture": "山形県", "id": 640 },
        { "address": "平足", "city": "鶴岡市", "postcode": "9997645", "prefecture": "山形県", "id": 641 },
        { "address": "豊栄", "city": "鶴岡市", "postcode": "9997622", "prefecture": "山形県", "id": 642 },
        { "address": "文下", "city": "鶴岡市", "postcode": "9970003", "prefecture": "山形県", "id": 643 },
        { "address": "宝徳", "city": "鶴岡市", "postcode": "9997675", "prefecture": "山形県", "id": 644 },
        { "address": "宝谷", "city": "鶴岡市", "postcode": "9970321", "prefecture": "山形県", "id": 645 },
        { "address": "ほなみ町", "city": "鶴岡市", "postcode": "9970862", "prefecture": "山形県", "id": 646 },
        { "address": "本郷", "city": "鶴岡市", "postcode": "9970412", "prefecture": "山形県", "id": 647 },
        { "address": "本町", "city": "鶴岡市", "postcode": "9970034", "prefecture": "山形県", "id": 648 },
        { "address": "本田", "city": "鶴岡市", "postcode": "9970004", "prefecture": "山形県", "id": 649 },
        { "address": "槇代", "city": "鶴岡市", "postcode": "9997124", "prefecture": "山形県", "id": 650 },
        { "address": "幕野内", "city": "鶴岡市", "postcode": "9997676", "prefecture": "山形県", "id": 651 },
        { "address": "松沢", "city": "鶴岡市", "postcode": "9970626", "prefecture": "山形県", "id": 652 },
        { "address": "松根", "city": "鶴岡市", "postcode": "9970322", "prefecture": "山形県", "id": 653 },
        { "address": "丸岡", "city": "鶴岡市", "postcode": "9970334", "prefecture": "山形県", "id": 654 },
        { "address": "馬渡", "city": "鶴岡市", "postcode": "9970301", "prefecture": "山形県", "id": 655 },
        { "address": "美咲町", "city": "鶴岡市", "postcode": "9970857", "prefecture": "山形県", "id": 656 },
        { "address": "水沢", "city": "鶴岡市", "postcode": "9997542", "prefecture": "山形県", "id": 657 },
        { "address": "みずほ", "city": "鶴岡市", "postcode": "9997548", "prefecture": "山形県", "id": 658 },
        { "address": "道田町", "city": "鶴岡市", "postcode": "9970837", "prefecture": "山形県", "id": 659 },
        { "address": "みどり町", "city": "鶴岡市", "postcode": "9970046", "prefecture": "山形県", "id": 660 },
        { "address": "美原町", "city": "鶴岡市", "postcode": "9970826", "prefecture": "山形県", "id": 661 },
        { "address": "箕升新田", "city": "鶴岡市", "postcode": "9997674", "prefecture": "山形県", "id": 662 },
        { "address": "宮沢", "city": "鶴岡市", "postcode": "9971202", "prefecture": "山形県", "id": 663 },
        { "address": "三和", "city": "鶴岡市", "postcode": "9997634", "prefecture": "山形県", "id": 664 },
        { "address": "三和町", "city": "鶴岡市", "postcode": "9970818", "prefecture": "山形県", "id": 665 },
        { "address": "民田", "city": "鶴岡市", "postcode": "9970361", "prefecture": "山形県", "id": 666 },
        { "address": "睦町", "city": "鶴岡市", "postcode": "9970817", "prefecture": "山形県", "id": 667 },
        { "address": "森片", "city": "鶴岡市", "postcode": "9970844", "prefecture": "山形県", "id": 668 },
        { "address": "八色木", "city": "鶴岡市", "postcode": "9997631", "prefecture": "山形県", "id": 669 },
        { "address": "谷地興屋", "city": "鶴岡市", "postcode": "9997662", "prefecture": "山形県", "id": 670 },
        { "address": "八ツ興屋", "city": "鶴岡市", "postcode": "9970807", "prefecture": "山形県", "id": 671 },
        { "address": "柳田", "city": "鶴岡市", "postcode": "9970833", "prefecture": "山形県", "id": 672 },
        { "address": "柳久瀬", "city": "鶴岡市", "postcode": "9997672", "prefecture": "山形県", "id": 673 },
        { "address": "矢馳", "city": "鶴岡市", "postcode": "9970855", "prefecture": "山形県", "id": 674 },
        { "address": "矢引", "city": "鶴岡市", "postcode": "9997545", "prefecture": "山形県", "id": 675 },
        { "address": "山五十川", "city": "鶴岡市", "postcode": "9997201", "prefecture": "山形県", "id": 676 },
        { "address": "山田", "city": "鶴岡市", "postcode": "9970856", "prefecture": "山形県", "id": 677 },
        { "address": "湯温海", "city": "鶴岡市", "postcode": "9997204", "prefecture": "山形県", "id": 678 },
        { "address": "楪", "city": "鶴岡市", "postcode": "9997641", "prefecture": "山形県", "id": 679 },
        { "address": "湯田川", "city": "鶴岡市", "postcode": "9970752", "prefecture": "山形県", "id": 680 },
        { "address": "湯野沢", "city": "鶴岡市", "postcode": "9970001", "prefecture": "山形県", "id": 681 },
        { "address": "湯野浜", "city": "鶴岡市", "postcode": "9971201", "prefecture": "山形県", "id": 682 },
        { "address": "由良", "city": "鶴岡市", "postcode": "9997464", "prefecture": "山形県", "id": 683 },
        { "address": "陽光町", "city": "鶴岡市", "postcode": "9970827", "prefecture": "山形県", "id": 684 },
        { "address": "余慶町", "city": "鶴岡市", "postcode": "9970010", "prefecture": "山形県", "id": 685 },
        { "address": "淀川町", "city": "鶴岡市", "postcode": "9970838", "prefecture": "山形県", "id": 686 },
        { "address": "無音", "city": "鶴岡市", "postcode": "9997643", "prefecture": "山形県", "id": 687 },
        { "address": "若葉町", "city": "鶴岡市", "postcode": "9970037", "prefecture": "山形県", "id": 688 },
        { "address": "早田", "city": "鶴岡市", "postcode": "9997121", "prefecture": "山形県", "id": 689 },
        { "address": "渡前", "city": "鶴岡市", "postcode": "9997683", "prefecture": "山形県", "id": 690 },
        { "address": "和名川", "city": "鶴岡市", "postcode": "9997684", "prefecture": "山形県", "id": 691 },
        { "city": "酒田市", "postcode": "9980000", "prefecture": "山形県", "id": 692 },
        { "address": "相生町", "city": "酒田市", "postcode": "9980032", "prefecture": "山形県", "id": 693 },
        { "address": "相沢", "city": "酒田市", "postcode": "9996852", "prefecture": "山形県", "id": 694 },
        { "address": "赤剥", "city": "酒田市", "postcode": "9998203", "prefecture": "山形県", "id": 695 },
        { "address": "あきほ町", "city": "酒田市", "postcode": "9980828", "prefecture": "山形県", "id": 696 },
        { "address": "曙町", "city": "酒田市", "postcode": "9980862", "prefecture": "山形県", "id": 697 },
        { "address": "旭新町", "city": "酒田市", "postcode": "9980021", "prefecture": "山形県", "id": 698 },
        { "address": "飛鳥", "city": "酒田市", "postcode": "9996711", "prefecture": "山形県", "id": 699 },
        { "address": "東町", "city": "酒田市", "postcode": "9980875", "prefecture": "山形県", "id": 700 },
        { "address": "荒町", "city": "酒田市", "postcode": "9996834", "prefecture": "山形県", "id": 701 },
        { "address": "飯森山", "city": "酒田市", "postcode": "9980055", "prefecture": "山形県", "id": 702 },
        { "address": "石名坂", "city": "酒田市", "postcode": "9996853", "prefecture": "山形県", "id": 703 },
        { "address": "石橋", "city": "酒田市", "postcode": "9996704", "prefecture": "山形県", "id": 704 },
        { "address": "泉興野", "city": "酒田市", "postcode": "9996708", "prefecture": "山形県", "id": 705 },
        { "address": "泉町", "city": "酒田市", "postcode": "9980018", "prefecture": "山形県", "id": 706 },
        { "address": "板戸", "city": "酒田市", "postcode": "9997774", "prefecture": "山形県", "id": 707 },
        { "address": "市条", "city": "酒田市", "postcode": "9998232", "prefecture": "山形県", "id": 708 },
        { "address": "一番町", "city": "酒田市", "postcode": "9980046", "prefecture": "山形県", "id": 709 },
        { "address": "稲荷沢", "city": "酒田市", "postcode": "9996826", "prefecture": "山形県", "id": 710 },
        { "address": "入船町", "city": "酒田市", "postcode": "9980836", "prefecture": "山形県", "id": 711 },
        { "address": "臼ケ沢", "city": "酒田市", "postcode": "9996815", "prefecture": "山形県", "id": 712 },
        { "address": "内町", "city": "酒田市", "postcode": "9996831", "prefecture": "山形県", "id": 713 },
        { "address": "漆曽根", "city": "酒田市", "postcode": "9998164", "prefecture": "山形県", "id": 714 },
        { "address": "駅東", "city": "酒田市", "postcode": "9980022", "prefecture": "山形県", "id": 715 },
        { "address": "円能寺", "city": "酒田市", "postcode": "9998153", "prefecture": "山形県", "id": 716 },
        { "address": "生石", "city": "酒田市", "postcode": "9980802", "prefecture": "山形県", "id": 717 },
        { "address": "大川渡", "city": "酒田市", "postcode": "9996813", "prefecture": "山形県", "id": 718 },
        { "address": "大久保", "city": "酒田市", "postcode": "9998244", "prefecture": "山形県", "id": 719 },
        { "address": "大島田", "city": "酒田市", "postcode": "9998225", "prefecture": "山形県", "id": 720 },
        { "address": "大多新田", "city": "酒田市", "postcode": "9980877", "prefecture": "山形県", "id": 721 },
        { "address": "大槻新田", "city": "酒田市", "postcode": "9980803", "prefecture": "山形県", "id": 722 },
        { "address": "大豊田", "city": "酒田市", "postcode": "9998133", "prefecture": "山形県", "id": 723 },
        { "address": "大沼新田", "city": "酒田市", "postcode": "9996816", "prefecture": "山形県", "id": 724 },
        { "address": "大野新田", "city": "酒田市", "postcode": "9980816", "prefecture": "山形県", "id": 725 },
        { "address": "大浜", "city": "酒田市", "postcode": "9980064", "prefecture": "山形県", "id": 726 },
        { "address": "大町", "city": "酒田市", "postcode": "9980859", "prefecture": "山形県", "id": 727 },
        { "address": "大宮", "city": "酒田市", "postcode": "9980822", "prefecture": "山形県", "id": 728 },
        { "address": "大宮町", "city": "酒田市", "postcode": "9980824", "prefecture": "山形県", "id": 729 },
        { "address": "大蕨", "city": "酒田市", "postcode": "9998215", "prefecture": "山形県", "id": 730 },
        { "address": "岡島田", "city": "酒田市", "postcode": "9998227", "prefecture": "山形県", "id": 731 },
        { "address": "荻島", "city": "酒田市", "postcode": "9980871", "prefecture": "山形県", "id": 732 },
        { "address": "落野目", "city": "酒田市", "postcode": "9997775", "prefecture": "山形県", "id": 733 },
        { "address": "御成町", "city": "酒田市", "postcode": "9980024", "prefecture": "山形県", "id": 734 },
        { "address": "小見", "city": "酒田市", "postcode": "9996845", "prefecture": "山形県", "id": 735 },
        { "address": "卸町", "city": "酒田市", "postcode": "9980823", "prefecture": "山形県", "id": 736 },
        { "address": "柏谷沢", "city": "酒田市", "postcode": "9996811", "prefecture": "山形県", "id": 737 },
        { "address": "片町", "city": "酒田市", "postcode": "9996838", "prefecture": "山形県", "id": 738 },
        { "address": "勝保関", "city": "酒田市", "postcode": "9980818", "prefecture": "山形県", "id": 739 },
        { "address": "門田", "city": "酒田市", "postcode": "9997772", "prefecture": "山形県", "id": 740 },
        { "address": "金谷", "city": "酒田市", "postcode": "9996837", "prefecture": "山形県", "id": 741 },
        { "address": "上青沢", "city": "酒田市", "postcode": "9998212", "prefecture": "山形県", "id": 742 },
        { "address": "上北目", "city": "酒田市", "postcode": "9996843", "prefecture": "山形県", "id": 743 },
        { "address": "上黒川", "city": "酒田市", "postcode": "9998206", "prefecture": "山形県", "id": 744 },
        { "address": "上興野", "city": "酒田市", "postcode": "9998163", "prefecture": "山形県", "id": 745 },
        { "address": "上野曽根", "city": "酒田市", "postcode": "9998162", "prefecture": "山形県", "id": 746 },
        { "address": "上本町", "city": "酒田市", "postcode": "9980042", "prefecture": "山形県", "id": 747 },
        { "address": "上餅山", "city": "酒田市", "postcode": "9996842", "prefecture": "山形県", "id": 748 },
        { "address": "上安田", "city": "酒田市", "postcode": "9998152", "prefecture": "山形県", "id": 749 },
        { "address": "上安町", "city": "酒田市", "postcode": "9980011", "prefecture": "山形県", "id": 750 },
        { "address": "亀ケ崎", "city": "酒田市", "postcode": "9980842", "prefecture": "山形県", "id": 751 },
        { "address": "刈穂", "city": "酒田市", "postcode": "9998143", "prefecture": "山形県", "id": 752 },
        { "address": "刈屋", "city": "酒田市", "postcode": "9998132", "prefecture": "山形県", "id": 753 },
        { "address": "観音寺", "city": "酒田市", "postcode": "9998235", "prefecture": "山形県", "id": 754 },
        { "address": "木川", "city": "酒田市", "postcode": "9997773", "prefecture": "山形県", "id": 755 },
        { "address": "北青沢", "city": "酒田市", "postcode": "9998211", "prefecture": "山形県", "id": 756 },
        { "address": "北今町", "city": "酒田市", "postcode": "9980027", "prefecture": "山形県", "id": 757 },
        { "address": "北里町", "city": "酒田市", "postcode": "9980028", "prefecture": "山形県", "id": 758 },
        { "address": "北沢", "city": "酒田市", "postcode": "9980801", "prefecture": "山形県", "id": 759 },
        { "address": "北仁田", "city": "酒田市", "postcode": "9998243", "prefecture": "山形県", "id": 760 },
        { "address": "北新橋", "city": "酒田市", "postcode": "9980865", "prefecture": "山形県", "id": 761 },
        { "address": "北新町", "city": "酒田市", "postcode": "9980062", "prefecture": "山形県", "id": 762 },
        { "address": "北千日町", "city": "酒田市", "postcode": "9980016", "prefecture": "山形県", "id": 763 },
        { "address": "北千日堂前", "city": "酒田市", "postcode": "9980015", "prefecture": "山形県", "id": 764 },
        { "address": "北浜町", "city": "酒田市", "postcode": "9980072", "prefecture": "山形県", "id": 765 },
        { "address": "北平沢", "city": "酒田市", "postcode": "9998222", "prefecture": "山形県", "id": 766 },
        { "address": "北俣", "city": "酒田市", "postcode": "9996741", "prefecture": "山形県", "id": 767 },
        { "address": "北町", "city": "酒田市", "postcode": "9996833", "prefecture": "山形県", "id": 768 },
        { "address": "城輪", "city": "酒田市", "postcode": "9998142", "prefecture": "山形県", "id": 769 },
        { "address": "京田", "city": "酒田市", "postcode": "9980102", "prefecture": "山形県", "id": 770 },
        { "address": "草刈谷地", "city": "酒田市", "postcode": "9980827", "prefecture": "山形県", "id": 771 },
        { "address": "草津", "city": "酒田市", "postcode": "9998207", "prefecture": "山形県", "id": 772 },
        { "address": "久保田", "city": "酒田市", "postcode": "9998156", "prefecture": "山形県", "id": 773 },
        { "address": "熊手島", "city": "酒田市", "postcode": "9980817", "prefecture": "山形県", "id": 774 },
        { "address": "熊野田", "city": "酒田市", "postcode": "9980819", "prefecture": "山形県", "id": 775 },
        { "address": "蔵小路", "city": "酒田市", "postcode": "9996835", "prefecture": "山形県", "id": 776 },
        { "address": "黒森", "city": "酒田市", "postcode": "9980111", "prefecture": "山形県", "id": 777 },
        { "address": "こあら", "city": "酒田市", "postcode": "9980878", "prefecture": "山形県", "id": 778 },
        { "address": "古荒新田", "city": "酒田市", "postcode": "9980876", "prefecture": "山形県", "id": 779 },
        { "address": "小泉", "city": "酒田市", "postcode": "9998234", "prefecture": "山形県", "id": 780 },
        { "address": "広栄町", "city": "酒田市", "postcode": "9980104", "prefecture": "山形県", "id": 781 },
        { "address": "郡山", "city": "酒田市", "postcode": "9996707", "prefecture": "山形県", "id": 782 },
        { "address": "こがね町", "city": "酒田市", "postcode": "9980852", "prefecture": "山形県", "id": 783 },
        { "address": "寿町", "city": "酒田市", "postcode": "9980035", "prefecture": "山形県", "id": 784 },
        { "address": "小林", "city": "酒田市", "postcode": "9996735", "prefecture": "山形県", "id": 785 },
        { "address": "小牧", "city": "酒田市", "postcode": "9980815", "prefecture": "山形県", "id": 786 },
        { "address": "小牧新田", "city": "酒田市", "postcode": "9980814", "prefecture": "山形県", "id": 787 },
        { "address": "古湊町", "city": "酒田市", "postcode": "9980071", "prefecture": "山形県", "id": 788 },
        { "address": "幸町", "city": "酒田市", "postcode": "9980023", "prefecture": "山形県", "id": 789 },
        { "address": "境興野", "city": "酒田市", "postcode": "9980806", "prefecture": "山形県", "id": 790 },
        { "address": "酒井新田", "city": "酒田市", "postcode": "9980003", "prefecture": "山形県", "id": 791 },
        { "address": "栄町", "city": "酒田市", "postcode": "9980026", "prefecture": "山形県", "id": 792 },
        { "address": "肴町", "city": "酒田市", "postcode": "9996836", "prefecture": "山形県", "id": 793 },
        { "address": "坂野辺新田", "city": "酒田市", "postcode": "9980101", "prefecture": "山形県", "id": 794 },
        { "address": "桜林", "city": "酒田市", "postcode": "9996705", "prefecture": "山形県", "id": 795 },
        { "address": "桜林興野", "city": "酒田市", "postcode": "9996706", "prefecture": "山形県", "id": 796 },
        { "address": "砂越", "city": "酒田市", "postcode": "9996701", "prefecture": "山形県", "id": 797 },
        { "address": "砂越緑町", "city": "酒田市", "postcode": "9996702", "prefecture": "山形県", "id": 798 },
        { "address": "山居町", "city": "酒田市", "postcode": "9980838", "prefecture": "山形県", "id": 799 },
        { "address": "三之宮", "city": "酒田市", "postcode": "9996723", "prefecture": "山形県", "id": 800 },
        { "address": "下瀬", "city": "酒田市", "postcode": "9980837", "prefecture": "山形県", "id": 801 },
        { "address": "地見興屋", "city": "酒田市", "postcode": "9996814", "prefecture": "山形県", "id": 802 },
        { "address": "下青沢", "city": "酒田市", "postcode": "9998213", "prefecture": "山形県", "id": 803 },
        { "address": "下黒川", "city": "酒田市", "postcode": "9998205", "prefecture": "山形県", "id": 804 },
        { "address": "下餅山", "city": "酒田市", "postcode": "9996846", "prefecture": "山形県", "id": 805 },
        { "address": "下安町", "city": "酒田市", "postcode": "9980012", "prefecture": "山形県", "id": 806 },
        { "address": "十里塚", "city": "酒田市", "postcode": "9980114", "prefecture": "山形県", "id": 807 },
        { "address": "常禅寺", "city": "酒田市", "postcode": "9998214", "prefecture": "山形県", "id": 808 },
        { "address": "真学寺沢", "city": "酒田市", "postcode": "9996823", "prefecture": "山形県", "id": 809 },
        { "address": "新出", "city": "酒田市", "postcode": "9998204", "prefecture": "山形県", "id": 810 },
        { "address": "新橋", "city": "酒田市", "postcode": "9980864", "prefecture": "山形県", "id": 811 },
        { "address": "新屋敷", "city": "酒田市", "postcode": "9996832", "prefecture": "山形県", "id": 812 },
        { "address": "末広町", "city": "酒田市", "postcode": "9980854", "prefecture": "山形県", "id": 813 },
        { "address": "住吉町", "city": "酒田市", "postcode": "9980029", "prefecture": "山形県", "id": 814 },
        { "address": "関", "city": "酒田市", "postcode": "9980805", "prefecture": "山形県", "id": 815 },
        { "address": "芹田", "city": "酒田市", "postcode": "9998246", "prefecture": "山形県", "id": 816 },
        { "address": "千石町", "city": "酒田市", "postcode": "9980843", "prefecture": "山形県", "id": 817 },
        { "address": "千日町", "city": "酒田市", "postcode": "9980014", "prefecture": "山形県", "id": 818 },
        { "address": "曽根田", "city": "酒田市", "postcode": "9998155", "prefecture": "山形県", "id": 819 },
        { "address": "高砂", "city": "酒田市", "postcode": "9980075", "prefecture": "山形県", "id": 820 },
        { "address": "高見台", "city": "酒田市", "postcode": "9980051", "prefecture": "山形県", "id": 821 },
        { "address": "竹田", "city": "酒田市", "postcode": "9996848", "prefecture": "山形県", "id": 822 },
        { "address": "田沢", "city": "酒田市", "postcode": "9996731", "prefecture": "山形県", "id": 823 },
        { "address": "楯山", "city": "酒田市", "postcode": "9996732", "prefecture": "山形県", "id": 824 },
        { "address": "中央東町", "city": "酒田市", "postcode": "9980033", "prefecture": "山形県", "id": 825 },
        { "address": "中央西町", "city": "酒田市", "postcode": "9980034", "prefecture": "山形県", "id": 826 },
        { "address": "千代田", "city": "酒田市", "postcode": "9998422", "prefecture": "山形県", "id": 827 },
        { "address": "塚淵", "city": "酒田市", "postcode": "9998245", "prefecture": "山形県", "id": 828 },
        { "address": "土崎", "city": "酒田市", "postcode": "9980873", "prefecture": "山形県", "id": 829 },
        { "address": "土渕", "city": "酒田市", "postcode": "9996839", "prefecture": "山形県", "id": 830 },
        { "address": "堤町", "city": "酒田市", "postcode": "9980835", "prefecture": "山形県", "id": 831 },
        { "address": "局", "city": "酒田市", "postcode": "9997771", "prefecture": "山形県", "id": 832 },
        { "address": "鶴田", "city": "酒田市", "postcode": "9998168", "prefecture": "山形県", "id": 833 },
        { "address": "手蔵田", "city": "酒田市", "postcode": "9980811", "prefecture": "山形県", "id": 834 },
        { "address": "寺田", "city": "酒田市", "postcode": "9998221", "prefecture": "山形県", "id": 835 },
        { "address": "天神堂", "city": "酒田市", "postcode": "9996703", "prefecture": "山形県", "id": 836 },
        { "address": "東栄町", "city": "酒田市", "postcode": "9980856", "prefecture": "山形県", "id": 837 },
        { "address": "飛島", "city": "酒田市", "postcode": "9980281", "prefecture": "山形県", "id": 838 },
        { "address": "豊里", "city": "酒田市", "postcode": "9980004", "prefecture": "山形県", "id": 839 },
        { "address": "豊原", "city": "酒田市", "postcode": "9998141", "prefecture": "山形県", "id": 840 },
        { "address": "泥沢", "city": "酒田市", "postcode": "9998202", "prefecture": "山形県", "id": 841 },
        { "address": "中北目", "city": "酒田市", "postcode": "9996844", "prefecture": "山形県", "id": 842 },
        { "address": "中野新田", "city": "酒田市", "postcode": "9980872", "prefecture": "山形県", "id": 843 },
        { "address": "中野曽根", "city": "酒田市", "postcode": "9998165", "prefecture": "山形県", "id": 844 },
        { "address": "中野俣", "city": "酒田市", "postcode": "9996727", "prefecture": "山形県", "id": 845 },
        { "address": "中野目", "city": "酒田市", "postcode": "9996722", "prefecture": "山形県", "id": 846 },
        { "address": "中牧田", "city": "酒田市", "postcode": "9996851", "prefecture": "山形県", "id": 847 },
        { "address": "中町", "city": "酒田市", "postcode": "9980044", "prefecture": "山形県", "id": 848 },
        { "address": "仲町", "city": "酒田市", "postcode": "9996827", "prefecture": "山形県", "id": 849 },
        { "address": "楢橋", "city": "酒田市", "postcode": "9996712", "prefecture": "山形県", "id": 850 },
        { "address": "成興野", "city": "酒田市", "postcode": "9996812", "prefecture": "山形県", "id": 851 },
        { "address": "新青渡", "city": "酒田市", "postcode": "9998157", "prefecture": "山形県", "id": 852 },
        { "address": "新井田町", "city": "酒田市", "postcode": "9980041", "prefecture": "山形県", "id": 853 },
        { "address": "新堀", "city": "酒田市", "postcode": "9997776", "prefecture": "山形県", "id": 854 },
        { "address": "錦町", "city": "酒田市", "postcode": "9980103", "prefecture": "山形県", "id": 855 },
        { "address": "西坂本", "city": "酒田市", "postcode": "9996733", "prefecture": "山形県", "id": 856 },
        { "address": "西田", "city": "酒田市", "postcode": "9996862", "prefecture": "山形県", "id": 857 },
        { "address": "西野町", "city": "酒田市", "postcode": "9980017", "prefecture": "山形県", "id": 858 },
        { "address": "仁助谷地", "city": "酒田市", "postcode": "9980829", "prefecture": "山形県", "id": 859 },
        { "address": "二番町", "city": "酒田市", "postcode": "9980045", "prefecture": "山形県", "id": 860 },
        { "address": "庭田", "city": "酒田市", "postcode": "9998144", "prefecture": "山形県", "id": 861 },
        { "address": "布目", "city": "酒田市", "postcode": "9998158", "prefecture": "山形県", "id": 862 },
        { "address": "橋本", "city": "酒田市", "postcode": "9998242", "prefecture": "山形県", "id": 863 },
        { "address": "初瀬", "city": "酒田市", "postcode": "9980826", "prefecture": "山形県", "id": 864 },
        { "address": "浜田", "city": "酒田市", "postcode": "9980031", "prefecture": "山形県", "id": 865 },
        { "address": "浜中", "city": "酒田市", "postcode": "9980112", "prefecture": "山形県", "id": 866 },
        { "address": "浜松町", "city": "酒田市", "postcode": "9980074", "prefecture": "山形県", "id": 867 },
        { "address": "茨野新田", "city": "酒田市", "postcode": "9980813", "prefecture": "山形県", "id": 868 },
        { "address": "光ケ丘", "city": "酒田市", "postcode": "9980061", "prefecture": "山形県", "id": 869 },
        { "address": "東泉町", "city": "酒田市", "postcode": "9980013", "prefecture": "山形県", "id": 870 },
        { "address": "東大町", "city": "酒田市", "postcode": "9980851", "prefecture": "山形県", "id": 871 },
        { "address": "東中の口町", "city": "酒田市", "postcode": "9980855", "prefecture": "山形県", "id": 872 },
        { "address": "東両羽町", "city": "酒田市", "postcode": "9980831", "prefecture": "山形県", "id": 873 },
        { "address": "引地", "city": "酒田市", "postcode": "9996847", "prefecture": "山形県", "id": 874 },
        { "address": "日の出町", "city": "酒田市", "postcode": "9980863", "prefecture": "山形県", "id": 875 },
        { "address": "日吉町", "city": "酒田市", "postcode": "9980037", "prefecture": "山形県", "id": 876 },
        { "address": "広岡新田", "city": "酒田市", "postcode": "9980113", "prefecture": "山形県", "id": 877 },
        { "address": "広野", "city": "酒田市", "postcode": "9980125", "prefecture": "山形県", "id": 878 },
        { "address": "広野新田", "city": "酒田市", "postcode": "9980105", "prefecture": "山形県", "id": 879 },
        { "address": "福山", "city": "酒田市", "postcode": "9998241", "prefecture": "山形県", "id": 880 },
        { "address": "藤塚", "city": "酒田市", "postcode": "9980002", "prefecture": "山形県", "id": 881 },
        { "address": "富士見町", "city": "酒田市", "postcode": "9980861", "prefecture": "山形県", "id": 882 },
        { "address": "船場町", "city": "酒田市", "postcode": "9980036", "prefecture": "山形県", "id": 883 },
        { "address": "麓", "city": "酒田市", "postcode": "9998231", "prefecture": "山形県", "id": 884 },
        { "address": "古青渡", "city": "酒田市", "postcode": "9998154", "prefecture": "山形県", "id": 885 },
        { "address": "法連寺", "city": "酒田市", "postcode": "9998233", "prefecture": "山形県", "id": 886 },
        { "address": "穂積", "city": "酒田市", "postcode": "9998131", "prefecture": "山形県", "id": 887 },
        { "address": "穂積", "city": "酒田市", "postcode": "9980001", "prefecture": "山形県", "id": 888 },
        { "address": "堀野内", "city": "酒田市", "postcode": "9996721", "prefecture": "山形県", "id": 889 },
        { "address": "本川", "city": "酒田市", "postcode": "9980812", "prefecture": "山形県", "id": 890 },
        { "address": "本町", "city": "酒田市", "postcode": "9980043", "prefecture": "山形県", "id": 891 },
        { "address": "前川", "city": "酒田市", "postcode": "9998224", "prefecture": "山形県", "id": 892 },
        { "address": "牧曽根", "city": "酒田市", "postcode": "9998166", "prefecture": "山形県", "id": 893 },
        { "address": "升田", "city": "酒田市", "postcode": "9998201", "prefecture": "山形県", "id": 894 },
        { "address": "松原南", "city": "酒田市", "postcode": "9980841", "prefecture": "山形県", "id": 895 },
        { "address": "松美町", "city": "酒田市", "postcode": "9980073", "prefecture": "山形県", "id": 896 },
        { "address": "丸沼", "city": "酒田市", "postcode": "9997777", "prefecture": "山形県", "id": 897 },
        { "address": "政所", "city": "酒田市", "postcode": "9998226", "prefecture": "山形県", "id": 898 },
        { "address": "みずほ", "city": "酒田市", "postcode": "9980853", "prefecture": "山形県", "id": 899 },
        { "address": "緑ケ丘", "city": "酒田市", "postcode": "9980052", "prefecture": "山形県", "id": 900 },
        { "address": "緑町", "city": "酒田市", "postcode": "9980858", "prefecture": "山形県", "id": 901 },
        { "address": "南新町", "city": "酒田市", "postcode": "9980063", "prefecture": "山形県", "id": 902 },
        { "address": "南新屋敷", "city": "酒田市", "postcode": "9996822", "prefecture": "山形県", "id": 903 },
        { "address": "南千日町", "city": "酒田市", "postcode": "9980025", "prefecture": "山形県", "id": 904 },
        { "address": "南平沢", "city": "酒田市", "postcode": "9998223", "prefecture": "山形県", "id": 905 },
        { "address": "南町", "city": "酒田市", "postcode": "9996825", "prefecture": "山形県", "id": 906 },
        { "address": "宮内", "city": "酒田市", "postcode": "9998423", "prefecture": "山形県", "id": 907 },
        { "address": "宮海", "city": "酒田市", "postcode": "9980005", "prefecture": "山形県", "id": 908 },
        { "address": "宮野浦", "city": "酒田市", "postcode": "9980054", "prefecture": "山形県", "id": 909 },
        { "address": "茗ケ沢", "city": "酒田市", "postcode": "9996841", "prefecture": "山形県", "id": 910 },
        { "address": "元新屋敷", "city": "酒田市", "postcode": "9996824", "prefecture": "山形県", "id": 911 },
        { "address": "本楯", "city": "酒田市", "postcode": "9998134", "prefecture": "山形県", "id": 912 },
        { "address": "保岡", "city": "酒田市", "postcode": "9998145", "prefecture": "山形県", "id": 913 },
        { "address": "安田", "city": "酒田市", "postcode": "9998151", "prefecture": "山形県", "id": 914 },
        { "address": "山田", "city": "酒田市", "postcode": "9996861", "prefecture": "山形県", "id": 915 },
        { "address": "山楯", "city": "酒田市", "postcode": "9996724", "prefecture": "山形県", "id": 916 },
        { "address": "山寺", "city": "酒田市", "postcode": "9996821", "prefecture": "山形県", "id": 917 },
        { "address": "山元", "city": "酒田市", "postcode": "9996734", "prefecture": "山形県", "id": 918 },
        { "address": "山谷", "city": "酒田市", "postcode": "9996726", "prefecture": "山形県", "id": 919 },
        { "address": "山谷新田", "city": "酒田市", "postcode": "9996725", "prefecture": "山形県", "id": 920 },
        { "address": "遊摺部", "city": "酒田市", "postcode": "9980821", "prefecture": "山形県", "id": 921 },
        { "address": "ゆたか", "city": "酒田市", "postcode": "9980006", "prefecture": "山形県", "id": 922 },
        { "address": "横代", "city": "酒田市", "postcode": "9980804", "prefecture": "山形県", "id": 923 },
        { "address": "吉田", "city": "酒田市", "postcode": "9998161", "prefecture": "山形県", "id": 924 },
        { "address": "吉田新田", "city": "酒田市", "postcode": "9998167", "prefecture": "山形県", "id": 925 },
        { "address": "四ツ興野", "city": "酒田市", "postcode": "9980874", "prefecture": "山形県", "id": 926 },
        { "address": "米島", "city": "酒田市", "postcode": "9998421", "prefecture": "山形県", "id": 927 },
        { "address": "両羽町", "city": "酒田市", "postcode": "9980832", "prefecture": "山形県", "id": 928 },
        { "address": "若竹町", "city": "酒田市", "postcode": "9980834", "prefecture": "山形県", "id": 929 },
        { "address": "若浜町", "city": "酒田市", "postcode": "9980857", "prefecture": "山形県", "id": 930 },
        { "address": "若原町", "city": "酒田市", "postcode": "9980833", "prefecture": "山形県", "id": 931 },
        { "address": "若宮町", "city": "酒田市", "postcode": "9980053", "prefecture": "山形県", "id": 932 },
        { "city": "新庄市", "postcode": "9960000", "prefecture": "山形県", "id": 933 },
        { "address": "新町", "city": "新庄市", "postcode": "9960078", "prefecture": "山形県", "id": 934 },
        { "address": "石川町", "city": "新庄市", "postcode": "9960086", "prefecture": "山形県", "id": 935 },
        { "address": "泉田", "city": "新庄市", "postcode": "9995103", "prefecture": "山形県", "id": 936 },
        { "address": "五日町", "city": "新庄市", "postcode": "9960001", "prefecture": "山形県", "id": 937 },
        { "address": "大手町", "city": "新庄市", "postcode": "9960084", "prefecture": "山形県", "id": 938 },
        { "address": "大町", "city": "新庄市", "postcode": "9960026", "prefecture": "山形県", "id": 939 },
        { "address": "沖の町", "city": "新庄市", "postcode": "9960023", "prefecture": "山形県", "id": 940 },
        { "address": "小田島", "city": "新庄市", "postcode": "9960074", "prefecture": "山形県", "id": 941 },
        { "address": "小田島町", "city": "新庄市", "postcode": "9960071", "prefecture": "山形県", "id": 942 },
        { "address": "金沢", "city": "新庄市", "postcode": "9960002", "prefecture": "山形県", "id": 943 },
        { "address": "上金沢町", "city": "新庄市", "postcode": "9960032", "prefecture": "山形県", "id": 944 },
        { "address": "北町", "city": "新庄市", "postcode": "9960082", "prefecture": "山形県", "id": 945 },
        { "address": "栄町", "city": "新庄市", "postcode": "9960073", "prefecture": "山形県", "id": 946 },
        { "address": "下金沢町", "city": "新庄市", "postcode": "9960033", "prefecture": "山形県", "id": 947 },
        { "address": "下田町", "city": "新庄市", "postcode": "9960034", "prefecture": "山形県", "id": 948 },
        { "address": "城南町", "city": "新庄市", "postcode": "9960077", "prefecture": "山形県", "id": 949 },
        { "address": "昭和", "city": "新庄市", "postcode": "9995101", "prefecture": "山形県", "id": 950 },
        { "address": "城西町", "city": "新庄市", "postcode": "9960076", "prefecture": "山形県", "id": 951 },
        { "address": "末広町", "city": "新庄市", "postcode": "9960031", "prefecture": "山形県", "id": 952 },
        { "address": "住吉町", "city": "新庄市", "postcode": "9960022", "prefecture": "山形県", "id": 953 },
        { "address": "千門町", "city": "新庄市", "postcode": "9960079", "prefecture": "山形県", "id": 954 },
        { "address": "多門町", "city": "新庄市", "postcode": "9960024", "prefecture": "山形県", "id": 955 },
        { "address": "角沢", "city": "新庄市", "postcode": "9960052", "prefecture": "山形県", "id": 956 },
        { "address": "鉄砲町", "city": "新庄市", "postcode": "9960035", "prefecture": "山形県", "id": 957 },
        { "address": "十日町", "city": "新庄市", "postcode": "9995191", "prefecture": "山形県", "id": 958 },
        { "address": "十日町", "city": "新庄市", "postcode": "9960091", "prefecture": "山形県", "id": 959 },
        { "address": "常葉町", "city": "新庄市", "postcode": "9960021", "prefecture": "山形県", "id": 960 },
        { "address": "飛田", "city": "新庄市", "postcode": "9960061", "prefecture": "山形県", "id": 961 },
        { "address": "鳥越", "city": "新庄市", "postcode": "9960041", "prefecture": "山形県", "id": 962 },
        { "address": "中道町", "city": "新庄市", "postcode": "9960081", "prefecture": "山形県", "id": 963 },
        { "address": "仁間", "city": "新庄市", "postcode": "9960054", "prefecture": "山形県", "id": 964 },
        { "address": "沼田", "city": "新庄市", "postcode": "9960087", "prefecture": "山形県", "id": 965 },
        { "address": "沼田町", "city": "新庄市", "postcode": "9960083", "prefecture": "山形県", "id": 966 },
        { "address": "萩野", "city": "新庄市", "postcode": "9995102", "prefecture": "山形県", "id": 967 },
        { "address": "万場町", "city": "新庄市", "postcode": "9960028", "prefecture": "山形県", "id": 968 },
        { "address": "東谷地田町", "city": "新庄市", "postcode": "9960011", "prefecture": "山形県", "id": 969 },
        { "address": "桧町", "city": "新庄市", "postcode": "9960088", "prefecture": "山形県", "id": 970 },
        { "address": "福田", "city": "新庄市", "postcode": "9960053", "prefecture": "山形県", "id": 971 },
        { "address": "堀端町", "city": "新庄市", "postcode": "9960085", "prefecture": "山形県", "id": 972 },
        { "address": "本町", "city": "新庄市", "postcode": "9960027", "prefecture": "山形県", "id": 973 },
        { "address": "升形", "city": "新庄市", "postcode": "9960111", "prefecture": "山形県", "id": 974 },
        { "address": "松本", "city": "新庄市", "postcode": "9960051", "prefecture": "山形県", "id": 975 },
        { "address": "宮内町", "city": "新庄市", "postcode": "9960072", "prefecture": "山形県", "id": 976 },
        { "address": "本合海", "city": "新庄市", "postcode": "9960112", "prefecture": "山形県", "id": 977 },
        { "address": "横打町", "city": "新庄市", "postcode": "9960075", "prefecture": "山形県", "id": 978 },
        { "address": "若葉町", "city": "新庄市", "postcode": "9960025", "prefecture": "山形県", "id": 979 },
        { "city": "寒河江市", "postcode": "9910000", "prefecture": "山形県", "id": 980 },
        { "address": "石持町", "city": "寒河江市", "postcode": "9910027", "prefecture": "山形県", "id": 981 },
        { "address": "内ノ袋", "city": "寒河江市", "postcode": "9910057", "prefecture": "山形県", "id": 982 },
        { "address": "落衣前", "city": "寒河江市", "postcode": "9910056", "prefecture": "山形県", "id": 983 },
        { "address": "上河原", "city": "寒河江市", "postcode": "9910006", "prefecture": "山形県", "id": 984 },
        { "address": "菊地堂", "city": "寒河江市", "postcode": "9910008", "prefecture": "山形県", "id": 985 },
        { "address": "越井坂町", "city": "寒河江市", "postcode": "9910044", "prefecture": "山形県", "id": 986 },
        { "address": "小沼町", "city": "寒河江市", "postcode": "9910045", "prefecture": "山形県", "id": 987 },
        { "address": "幸町", "city": "寒河江市", "postcode": "9910035", "prefecture": "山形県", "id": 988 },
        { "address": "栄町", "city": "寒河江市", "postcode": "9910034", "prefecture": "山形県", "id": 989 },
        { "address": "寒河江", "city": "寒河江市", "postcode": "9910041", "prefecture": "山形県", "id": 990 },
        { "address": "幸生", "city": "寒河江市", "postcode": "9900502", "prefecture": "山形県", "id": 991 },
        { "address": "幸田町", "city": "寒河江市", "postcode": "9910052", "prefecture": "山形県", "id": 992 },
        { "address": "慈恩寺", "city": "寒河江市", "postcode": "9900511", "prefecture": "山形県", "id": 993 },
        { "address": "柴橋", "city": "寒河江市", "postcode": "9910063", "prefecture": "山形県", "id": 994 },
        { "address": "島", "city": "寒河江市", "postcode": "9910043", "prefecture": "山形県", "id": 995 },
        { "address": "下河原", "city": "寒河江市", "postcode": "9910002", "prefecture": "山形県", "id": 996 },
        { "address": "白岩", "city": "寒河江市", "postcode": "9900505", "prefecture": "山形県", "id": 997 },
        { "address": "新山", "city": "寒河江市", "postcode": "9910047", "prefecture": "山形県", "id": 998 },
        { "address": "新山町", "city": "寒河江市", "postcode": "9910012", "prefecture": "山形県", "id": 999 },
        { "address": "末広町", "city": "寒河江市", "postcode": "9910033", "prefecture": "山形県", "id": 1000 },
        { "address": "清助新田", "city": "寒河江市", "postcode": "9900522", "prefecture": "山形県", "id": 1001 },
        { "address": "高田", "city": "寒河江市", "postcode": "9910013", "prefecture": "山形県", "id": 1002 },
        { "address": "高松", "city": "寒河江市", "postcode": "9900524", "prefecture": "山形県", "id": 1003 },
        { "address": "高屋", "city": "寒河江市", "postcode": "9910042", "prefecture": "山形県", "id": 1004 },
        { "address": "田代", "city": "寒河江市", "postcode": "9900503", "prefecture": "山形県", "id": 1005 },
        { "address": "中央", "city": "寒河江市", "postcode": "9910021", "prefecture": "山形県", "id": 1006 },
        { "address": "中央工業団地", "city": "寒河江市", "postcode": "9900561", "prefecture": "山形県", "id": 1007 },
        { "address": "中央工業団地", "city": "寒河江市", "postcode": "9910061", "prefecture": "山形県", "id": 1008 },
        { "address": "道生", "city": "寒河江市", "postcode": "9910007", "prefecture": "山形県", "id": 1009 },
        { "address": "留場", "city": "寒河江市", "postcode": "9900504", "prefecture": "山形県", "id": 1010 },
        { "address": "中河原", "city": "寒河江市", "postcode": "9910005", "prefecture": "山形県", "id": 1011 },
        { "address": "中郷", "city": "寒河江市", "postcode": "9910065", "prefecture": "山形県", "id": 1012 },
        { "address": "仲谷地", "city": "寒河江市", "postcode": "9910054", "prefecture": "山形県", "id": 1013 },
        { "address": "七日町", "city": "寒河江市", "postcode": "9910022", "prefecture": "山形県", "id": 1014 },
        { "address": "西根", "city": "寒河江市", "postcode": "9910003", "prefecture": "山形県", "id": 1015 },
        { "address": "西根北町", "city": "寒河江市", "postcode": "9910004", "prefecture": "山形県", "id": 1016 },
        { "address": "日田", "city": "寒河江市", "postcode": "9910011", "prefecture": "山形県", "id": 1017 },
        { "address": "入倉", "city": "寒河江市", "postcode": "9910001", "prefecture": "山形県", "id": 1018 },
        { "address": "東新山町", "city": "寒河江市", "postcode": "9910046", "prefecture": "山形県", "id": 1019 },
        { "address": "平塩", "city": "寒河江市", "postcode": "9910064", "prefecture": "山形県", "id": 1020 },
        { "address": "日和田", "city": "寒河江市", "postcode": "9900513", "prefecture": "山形県", "id": 1021 },
        { "address": "船橋町", "city": "寒河江市", "postcode": "9910055", "prefecture": "山形県", "id": 1022 },
        { "address": "ほなみ", "city": "寒河江市", "postcode": "9910028", "prefecture": "山形県", "id": 1023 },
        { "address": "本町", "city": "寒河江市", "postcode": "9910031", "prefecture": "山形県", "id": 1024 },
        { "address": "松川", "city": "寒河江市", "postcode": "9910066", "prefecture": "山形県", "id": 1025 },
        { "address": "丸内", "city": "寒河江市", "postcode": "9910023", "prefecture": "山形県", "id": 1026 },
        { "address": "みずき", "city": "寒河江市", "postcode": "9910048", "prefecture": "山形県", "id": 1027 },
        { "address": "緑町", "city": "寒河江市", "postcode": "9910062", "prefecture": "山形県", "id": 1028 },
        { "address": "南町", "city": "寒河江市", "postcode": "9910032", "prefecture": "山形県", "id": 1029 },
        { "address": "箕輪", "city": "寒河江市", "postcode": "9900512", "prefecture": "山形県", "id": 1030 },
        { "address": "宮内", "city": "寒河江市", "postcode": "9900501", "prefecture": "山形県", "id": 1031 },
        { "address": "本楯", "city": "寒河江市", "postcode": "9910049", "prefecture": "山形県", "id": 1032 },
        { "address": "元町", "city": "寒河江市", "postcode": "9910053", "prefecture": "山形県", "id": 1033 },
        { "address": "八鍬", "city": "寒河江市", "postcode": "9900523", "prefecture": "山形県", "id": 1034 },
        { "address": "谷沢", "city": "寒河江市", "postcode": "9900521", "prefecture": "山形県", "id": 1035 },
        { "address": "山岸町", "city": "寒河江市", "postcode": "9910026", "prefecture": "山形県", "id": 1036 },
        { "address": "八幡町", "city": "寒河江市", "postcode": "9910025", "prefecture": "山形県", "id": 1037 },
        { "address": "米沢", "city": "寒河江市", "postcode": "9900525", "prefecture": "山形県", "id": 1038 },
        { "address": "六供町", "city": "寒河江市", "postcode": "9910024", "prefecture": "山形県", "id": 1039 },
        { "address": "若葉町", "city": "寒河江市", "postcode": "9910051", "prefecture": "山形県", "id": 1040 },
        { "city": "上山市", "postcode": "9993100", "prefecture": "山形県", "id": 1041 },
        { "address": "相生", "city": "上山市", "postcode": "9993222", "prefecture": "山形県", "id": 1042 },
        { "address": "朝日台", "city": "上山市", "postcode": "9993164", "prefecture": "山形県", "id": 1043 },
        { "address": "旭町", "city": "上山市", "postcode": "9993106", "prefecture": "山形県", "id": 1044 },
        { "address": "阿弥陀地", "city": "上山市", "postcode": "9993235", "prefecture": "山形県", "id": 1045 },
        { "address": "石崎", "city": "上山市", "postcode": "9993144", "prefecture": "山形県", "id": 1046 },
        { "address": "石曽根", "city": "上山市", "postcode": "9993244", "prefecture": "山形県", "id": 1047 },
        { "address": "石堂", "city": "上山市", "postcode": "9993231", "prefecture": "山形県", "id": 1048 },
        { "address": "泉川", "city": "上山市", "postcode": "9993105", "prefecture": "山形県", "id": 1049 },
        { "address": "裏町", "city": "上山市", "postcode": "9993165", "prefecture": "山形県", "id": 1050 },
        { "address": "御井戸丁", "city": "上山市", "postcode": "9993157", "prefecture": "山形県", "id": 1051 },
        { "address": "大石", "city": "上山市", "postcode": "9993167", "prefecture": "山形県", "id": 1052 },
        { "address": "小倉", "city": "上山市", "postcode": "9993112", "prefecture": "山形県", "id": 1053 },
        { "address": "小笹", "city": "上山市", "postcode": "9993214", "prefecture": "山形県", "id": 1054 },
        { "address": "小白府", "city": "上山市", "postcode": "9993172", "prefecture": "山形県", "id": 1055 },
        { "address": "金生", "city": "上山市", "postcode": "9993124", "prefecture": "山形県", "id": 1056 },
        { "address": "金生西", "city": "上山市", "postcode": "9993126", "prefecture": "山形県", "id": 1057 },
        { "address": "金生東", "city": "上山市", "postcode": "9993125", "prefecture": "山形県", "id": 1058 },
        { "address": "金瓶", "city": "上山市", "postcode": "9993101", "prefecture": "山形県", "id": 1059 },
        { "address": "金谷", "city": "上山市", "postcode": "9993103", "prefecture": "山形県", "id": 1060 },
        { "address": "金山", "city": "上山市", "postcode": "9993226", "prefecture": "山形県", "id": 1061 },
        { "address": "上生居", "city": "上山市", "postcode": "9993204", "prefecture": "山形県", "id": 1062 },
        { "address": "軽井沢", "city": "上山市", "postcode": "9993163", "prefecture": "山形県", "id": 1063 },
        { "address": "川口", "city": "上山市", "postcode": "9993245", "prefecture": "山形県", "id": 1064 },
        { "address": "河崎", "city": "上山市", "postcode": "9993145", "prefecture": "山形県", "id": 1065 },
        { "address": "北町", "city": "上山市", "postcode": "9993131", "prefecture": "山形県", "id": 1066 },
        { "address": "北町本丁", "city": "上山市", "postcode": "9993151", "prefecture": "山形県", "id": 1067 },
        { "address": "久保川", "city": "上山市", "postcode": "9993215", "prefecture": "山形県", "id": 1068 },
        { "address": "久保手", "city": "上山市", "postcode": "9993166", "prefecture": "山形県", "id": 1069 },
        { "address": "けやきの森", "city": "上山市", "postcode": "9993241", "prefecture": "山形県", "id": 1070 },
        { "address": "小穴", "city": "上山市", "postcode": "9993237", "prefecture": "山形県", "id": 1071 },
        { "address": "高野", "city": "上山市", "postcode": "9993115", "prefecture": "山形県", "id": 1072 },
        { "address": "権現堂", "city": "上山市", "postcode": "9993111", "prefecture": "山形県", "id": 1073 },
        { "address": "蔵王", "city": "上山市", "postcode": "9993113", "prefecture": "山形県", "id": 1074 },
        { "address": "蔵王の森", "city": "上山市", "postcode": "9993104", "prefecture": "山形県", "id": 1075 },
        { "address": "栄町", "city": "上山市", "postcode": "9993132", "prefecture": "山形県", "id": 1076 },
        { "address": "沢丁", "city": "上山市", "postcode": "9993142", "prefecture": "山形県", "id": 1077 },
        { "address": "三本松", "city": "上山市", "postcode": "9993233", "prefecture": "山形県", "id": 1078 },
        { "address": "下生居", "city": "上山市", "postcode": "9993202", "prefecture": "山形県", "id": 1079 },
        { "address": "菖蒲", "city": "上山市", "postcode": "9993217", "prefecture": "山形県", "id": 1080 },
        { "address": "新金谷", "city": "上山市", "postcode": "9993102", "prefecture": "山形県", "id": 1081 },
        { "address": "新丁", "city": "上山市", "postcode": "9993152", "prefecture": "山形県", "id": 1082 },
        { "address": "新町", "city": "上山市", "postcode": "9993158", "prefecture": "山形県", "id": 1083 },
        { "address": "新湯", "city": "上山市", "postcode": "9993141", "prefecture": "山形県", "id": 1084 },
        { "address": "須田板", "city": "上山市", "postcode": "9993213", "prefecture": "山形県", "id": 1085 },
        { "address": "関根", "city": "上山市", "postcode": "9993221", "prefecture": "山形県", "id": 1086 },
        { "address": "仙石", "city": "上山市", "postcode": "9993122", "prefecture": "山形県", "id": 1087 },
        { "address": "大門", "city": "上山市", "postcode": "9993216", "prefecture": "山形県", "id": 1088 },
        { "address": "高松", "city": "上山市", "postcode": "9993243", "prefecture": "山形県", "id": 1089 },
        { "address": "鶴脛町", "city": "上山市", "postcode": "9993155", "prefecture": "山形県", "id": 1090 },
        { "address": "藤吾", "city": "上山市", "postcode": "9993234", "prefecture": "山形県", "id": 1091 },
        { "address": "十日町", "city": "上山市", "postcode": "9993153", "prefecture": "山形県", "id": 1092 },
        { "address": "中生居", "city": "上山市", "postcode": "9993203", "prefecture": "山形県", "id": 1093 },
        { "address": "中山", "city": "上山市", "postcode": "9993246", "prefecture": "山形県", "id": 1094 },
        { "address": "長清水", "city": "上山市", "postcode": "9993232", "prefecture": "山形県", "id": 1095 },
        { "address": "永野", "city": "上山市", "postcode": "9993114", "prefecture": "山形県", "id": 1096 },
        { "address": "楢下", "city": "上山市", "postcode": "9993225", "prefecture": "山形県", "id": 1097 },
        { "address": "葉山", "city": "上山市", "postcode": "9993242", "prefecture": "山形県", "id": 1098 },
        { "address": "原口", "city": "上山市", "postcode": "9993212", "prefecture": "山形県", "id": 1099 },
        { "address": "東町", "city": "上山市", "postcode": "9993121", "prefecture": "山形県", "id": 1100 },
        { "address": "二日町", "city": "上山市", "postcode": "9993143", "prefecture": "山形県", "id": 1101 },
        { "address": "弁天", "city": "上山市", "postcode": "9993161", "prefecture": "山形県", "id": 1102 },
        { "address": "細谷", "city": "上山市", "postcode": "9993236", "prefecture": "山形県", "id": 1103 },
        { "address": "牧野", "city": "上山市", "postcode": "9993211", "prefecture": "山形県", "id": 1104 },
        { "address": "松山", "city": "上山市", "postcode": "9993146", "prefecture": "山形県", "id": 1105 },
        { "address": "三上", "city": "上山市", "postcode": "9993223", "prefecture": "山形県", "id": 1106 },
        { "address": "美咲町", "city": "上山市", "postcode": "9993123", "prefecture": "山形県", "id": 1107 },
        { "address": "皆沢", "city": "上山市", "postcode": "9993224", "prefecture": "山形県", "id": 1108 },
        { "address": "南町", "city": "上山市", "postcode": "9993135", "prefecture": "山形県", "id": 1109 },
        { "address": "みはらしの丘", "city": "上山市", "postcode": "9993107", "prefecture": "山形県", "id": 1110 },
        { "address": "宮脇", "city": "上山市", "postcode": "9993201", "prefecture": "山形県", "id": 1111 },
        { "address": "狸森", "city": "上山市", "postcode": "9993171", "prefecture": "山形県", "id": 1112 },
        { "address": "元城内", "city": "上山市", "postcode": "9993154", "prefecture": "山形県", "id": 1113 },
        { "address": "矢来", "city": "上山市", "postcode": "9993134", "prefecture": "山形県", "id": 1114 },
        { "address": "湯町", "city": "上山市", "postcode": "9993156", "prefecture": "山形県", "id": 1115 },
        { "address": "八日町", "city": "上山市", "postcode": "9993133", "prefecture": "山形県", "id": 1116 },
        { "address": "四ツ谷", "city": "上山市", "postcode": "9993162", "prefecture": "山形県", "id": 1117 },
        { "city": "村山市", "postcode": "9950000", "prefecture": "山形県", "id": 1118 },
        { "address": "五十沢", "city": "村山市", "postcode": "9950002", "prefecture": "山形県", "id": 1119 },
        { "address": "稲下", "city": "村山市", "postcode": "9950204", "prefecture": "山形県", "id": 1120 },
        { "address": "岩野", "city": "村山市", "postcode": "9950113", "prefecture": "山形県", "id": 1121 },
        { "address": "駅西", "city": "村山市", "postcode": "9950038", "prefecture": "山形県", "id": 1122 },
        { "address": "大久保", "city": "村山市", "postcode": "9950111", "prefecture": "山形県", "id": 1123 },
        { "address": "大槇", "city": "村山市", "postcode": "9950203", "prefecture": "山形県", "id": 1124 },
        { "address": "大淀", "city": "村山市", "postcode": "9950054", "prefecture": "山形県", "id": 1125 },
        { "address": "金谷", "city": "村山市", "postcode": "9950004", "prefecture": "山形県", "id": 1126 },
        { "address": "河島", "city": "村山市", "postcode": "9950041", "prefecture": "山形県", "id": 1127 },
        { "address": "河島山", "city": "村山市", "postcode": "9950056", "prefecture": "山形県", "id": 1128 },
        { "address": "碁点", "city": "村山市", "postcode": "9950209", "prefecture": "山形県", "id": 1129 },
        { "address": "白鳥", "city": "村山市", "postcode": "9950202", "prefecture": "山形県", "id": 1130 },
        { "address": "杉島", "city": "村山市", "postcode": "9950042", "prefecture": "山形県", "id": 1131 },
        { "address": "田沢", "city": "村山市", "postcode": "9950051", "prefecture": "山形県", "id": 1132 },
        { "address": "楯岡", "city": "村山市", "postcode": "9950025", "prefecture": "山形県", "id": 1133 },
        { "address": "楯岡荒町", "city": "村山市", "postcode": "9950032", "prefecture": "山形県", "id": 1134 },
        { "address": "楯岡五日町", "city": "村山市", "postcode": "9950034", "prefecture": "山形県", "id": 1135 },
        { "address": "楯岡大沢川", "city": "村山市", "postcode": "9950031", "prefecture": "山形県", "id": 1136 },
        { "address": "楯岡北町", "city": "村山市", "postcode": "9950011", "prefecture": "山形県", "id": 1137 },
        { "address": "楯岡新高田", "city": "村山市", "postcode": "9950018", "prefecture": "山形県", "id": 1138 },
        { "address": "楯岡新町", "city": "村山市", "postcode": "9950033", "prefecture": "山形県", "id": 1139 },
        { "address": "楯岡楯", "city": "村山市", "postcode": "9950021", "prefecture": "山形県", "id": 1140 },
        { "address": "楯岡俵町", "city": "村山市", "postcode": "9950037", "prefecture": "山形県", "id": 1141 },
        { "address": "楯岡鶴ケ町", "city": "村山市", "postcode": "9950014", "prefecture": "山形県", "id": 1142 },
        { "address": "楯岡十日町", "city": "村山市", "postcode": "9950017", "prefecture": "山形県", "id": 1143 },
        { "address": "楯岡中町", "city": "村山市", "postcode": "9950036", "prefecture": "山形県", "id": 1144 },
        { "address": "楯岡馬場", "city": "村山市", "postcode": "9950022", "prefecture": "山形県", "id": 1145 },
        { "address": "楯岡東沢", "city": "村山市", "postcode": "9950023", "prefecture": "山形県", "id": 1146 },
        { "address": "楯岡笛田", "city": "村山市", "postcode": "9950024", "prefecture": "山形県", "id": 1147 },
        { "address": "楯岡二日町", "city": "村山市", "postcode": "9950015", "prefecture": "山形県", "id": 1148 },
        { "address": "楯岡晦日町", "city": "村山市", "postcode": "9950016", "prefecture": "山形県", "id": 1149 },
        { "address": "楯岡湯沢", "city": "村山市", "postcode": "9950013", "prefecture": "山形県", "id": 1150 },
        { "address": "たも山", "city": "村山市", "postcode": "9950005", "prefecture": "山形県", "id": 1151 },
        { "address": "樽石", "city": "村山市", "postcode": "9950205", "prefecture": "山形県", "id": 1152 },
        { "address": "中央", "city": "村山市", "postcode": "9950035", "prefecture": "山形県", "id": 1153 },
        { "address": "長善寺", "city": "村山市", "postcode": "9950201", "prefecture": "山形県", "id": 1154 },
        { "address": "土生田", "city": "村山市", "postcode": "9950001", "prefecture": "山形県", "id": 1155 },
        { "address": "富並", "city": "村山市", "postcode": "9950208", "prefecture": "山形県", "id": 1156 },
        { "address": "長島", "city": "村山市", "postcode": "9950055", "prefecture": "山形県", "id": 1157 },
        { "address": "名取", "city": "村山市", "postcode": "9950052", "prefecture": "山形県", "id": 1158 },
        { "address": "西郷", "city": "村山市", "postcode": "9950053", "prefecture": "山形県", "id": 1159 },
        { "address": "林崎", "city": "村山市", "postcode": "9950006", "prefecture": "山形県", "id": 1160 },
        { "address": "本飯田", "city": "村山市", "postcode": "9950003", "prefecture": "山形県", "id": 1161 },
        { "address": "山の内", "city": "村山市", "postcode": "9950206", "prefecture": "山形県", "id": 1162 },
        { "address": "雪の観音郷", "city": "村山市", "postcode": "9950207", "prefecture": "山形県", "id": 1163 },
        { "address": "湯沢", "city": "村山市", "postcode": "9950012", "prefecture": "山形県", "id": 1164 },
        { "address": "湯野沢", "city": "村山市", "postcode": "9950112", "prefecture": "山形県", "id": 1165 },
        { "city": "長井市", "postcode": "9930000", "prefecture": "山形県", "id": 1166 },
        { "address": "芦沢", "city": "長井市", "postcode": "9930022", "prefecture": "山形県", "id": 1167 },
        { "address": "あら町", "city": "長井市", "postcode": "9930006", "prefecture": "山形県", "id": 1168 },
        { "address": "五十川", "city": "長井市", "postcode": "9930072", "prefecture": "山形県", "id": 1169 },
        { "address": "泉", "city": "長井市", "postcode": "9930031", "prefecture": "山形県", "id": 1170 },
        { "address": "今泉", "city": "長井市", "postcode": "9930033", "prefecture": "山形県", "id": 1171 },
        { "address": "歌丸", "city": "長井市", "postcode": "9930034", "prefecture": "山形県", "id": 1172 },
        { "address": "大町", "city": "長井市", "postcode": "9930083", "prefecture": "山形県", "id": 1173 },
        { "address": "片田町", "city": "長井市", "postcode": "9930005", "prefecture": "山形県", "id": 1174 },
        { "address": "上伊佐沢", "city": "長井市", "postcode": "9930021", "prefecture": "山形県", "id": 1175 },
        { "address": "河井", "city": "長井市", "postcode": "9930032", "prefecture": "山形県", "id": 1176 },
        { "address": "川原沢", "city": "長井市", "postcode": "9930062", "prefecture": "山形県", "id": 1177 },
        { "address": "勧進代", "city": "長井市", "postcode": "9930064", "prefecture": "山形県", "id": 1178 },
        { "address": "草岡", "city": "長井市", "postcode": "9930063", "prefecture": "山形県", "id": 1179 },
        { "address": "九野本", "city": "長井市", "postcode": "9930041", "prefecture": "山形県", "id": 1180 },
        { "address": "小出", "city": "長井市", "postcode": "9930014", "prefecture": "山形県", "id": 1181 },
        { "address": "高野町", "city": "長井市", "postcode": "9930085", "prefecture": "山形県", "id": 1182 },
        { "address": "幸町", "city": "長井市", "postcode": "9930051", "prefecture": "山形県", "id": 1183 },
        { "address": "栄町", "city": "長井市", "postcode": "9930084", "prefecture": "山形県", "id": 1184 },
        { "address": "清水町", "city": "長井市", "postcode": "9930054", "prefecture": "山形県", "id": 1185 },
        { "address": "下伊佐沢", "city": "長井市", "postcode": "9930023", "prefecture": "山形県", "id": 1186 },
        { "address": "白兎", "city": "長井市", "postcode": "9930071", "prefecture": "山形県", "id": 1187 },
        { "address": "新町", "city": "長井市", "postcode": "9930052", "prefecture": "山形県", "id": 1188 },
        { "address": "神明町", "city": "長井市", "postcode": "9930004", "prefecture": "山形県", "id": 1189 },
        { "address": "台町", "city": "長井市", "postcode": "9930016", "prefecture": "山形県", "id": 1190 },
        { "address": "館町南", "city": "長井市", "postcode": "9930013", "prefecture": "山形県", "id": 1191 },
        { "address": "館町北", "city": "長井市", "postcode": "9930011", "prefecture": "山形県", "id": 1192 },
        { "address": "寺泉", "city": "長井市", "postcode": "9930061", "prefecture": "山形県", "id": 1193 },
        { "address": "十日町", "city": "長井市", "postcode": "9930086", "prefecture": "山形県", "id": 1194 },
        { "address": "時庭", "city": "長井市", "postcode": "9930035", "prefecture": "山形県", "id": 1195 },
        { "address": "中伊佐沢", "city": "長井市", "postcode": "9930024", "prefecture": "山形県", "id": 1196 },
        { "address": "中道", "city": "長井市", "postcode": "9930053", "prefecture": "山形県", "id": 1197 },
        { "address": "成田", "city": "長井市", "postcode": "9930075", "prefecture": "山形県", "id": 1198 },
        { "address": "花作町", "city": "長井市", "postcode": "9930017", "prefecture": "山形県", "id": 1199 },
        { "address": "東町", "city": "長井市", "postcode": "9930003", "prefecture": "山形県", "id": 1200 },
        { "address": "日の出町", "city": "長井市", "postcode": "9930012", "prefecture": "山形県", "id": 1201 },
        { "address": "平山", "city": "長井市", "postcode": "9930042", "prefecture": "山形県", "id": 1202 },
        { "address": "舟場", "city": "長井市", "postcode": "9930082", "prefecture": "山形県", "id": 1203 },
        { "address": "ままの上", "city": "長井市", "postcode": "9930001", "prefecture": "山形県", "id": 1204 },
        { "address": "緑町", "city": "長井市", "postcode": "9930081", "prefecture": "山形県", "id": 1205 },
        { "address": "宮", "city": "長井市", "postcode": "9930074", "prefecture": "山形県", "id": 1206 },
        { "address": "本町", "city": "長井市", "postcode": "9930007", "prefecture": "山形県", "id": 1207 },
        { "address": "森", "city": "長井市", "postcode": "9930073", "prefecture": "山形県", "id": 1208 },
        { "address": "屋城町", "city": "長井市", "postcode": "9930002", "prefecture": "山形県", "id": 1209 },
        { "address": "横町", "city": "長井市", "postcode": "9930087", "prefecture": "山形県", "id": 1210 },
        { "address": "四ツ谷", "city": "長井市", "postcode": "9930015", "prefecture": "山形県", "id": 1211 },
        { "city": "天童市", "postcode": "9940000", "prefecture": "山形県", "id": 1212 },
        { "address": "荒谷", "city": "天童市", "postcode": "9940054", "prefecture": "山形県", "id": 1213 },
        { "address": "石鳥居", "city": "天童市", "postcode": "9940057", "prefecture": "山形県", "id": 1214 },
        { "address": "泉町", "city": "天童市", "postcode": "9940015", "prefecture": "山形県", "id": 1215 },
        { "address": "五日町", "city": "天童市", "postcode": "9940041", "prefecture": "山形県", "id": 1216 },
        { "address": "今町", "city": "天童市", "postcode": "9940078", "prefecture": "山形県", "id": 1217 },
        { "address": "駅西", "city": "天童市", "postcode": "9940047", "prefecture": "山形県", "id": 1218 },
        { "address": "老野森", "city": "天童市", "postcode": "9940013", "prefecture": "山形県", "id": 1219 },
        { "address": "大清水", "city": "天童市", "postcode": "9940007", "prefecture": "山形県", "id": 1220 },
        { "address": "大町", "city": "天童市", "postcode": "9940079", "prefecture": "山形県", "id": 1221 },
        { "address": "柏木町", "city": "天童市", "postcode": "9940003", "prefecture": "山形県", "id": 1222 },
        { "address": "鎌田", "city": "天童市", "postcode": "9940024", "prefecture": "山形県", "id": 1223 },
        { "address": "鎌田本町", "city": "天童市", "postcode": "9940025", "prefecture": "山形県", "id": 1224 },
        { "address": "上荻野戸", "city": "天童市", "postcode": "9940053", "prefecture": "山形県", "id": 1225 },
        { "address": "川原子", "city": "天童市", "postcode": "9940103", "prefecture": "山形県", "id": 1226 },
        { "address": "北久野本", "city": "天童市", "postcode": "9940011", "prefecture": "山形県", "id": 1227 },
        { "address": "北目", "city": "天童市", "postcode": "9940042", "prefecture": "山形県", "id": 1228 },
        { "address": "久野本", "city": "天童市", "postcode": "9940012", "prefecture": "山形県", "id": 1229 },
        { "address": "窪野目", "city": "天童市", "postcode": "9940077", "prefecture": "山形県", "id": 1230 },
        { "address": "蔵増", "city": "天童市", "postcode": "9940075", "prefecture": "山形県", "id": 1231 },
        { "address": "鍬ノ町", "city": "天童市", "postcode": "9940028", "prefecture": "山形県", "id": 1232 },
        { "address": "小路", "city": "天童市", "postcode": "9940032", "prefecture": "山形県", "id": 1233 },
        { "address": "小関", "city": "天童市", "postcode": "9940004", "prefecture": "山形県", "id": 1234 },
        { "address": "桜町", "city": "天童市", "postcode": "9940027", "prefecture": "山形県", "id": 1235 },
        { "address": "下荻野戸", "city": "天童市", "postcode": "9940052", "prefecture": "山形県", "id": 1236 },
        { "address": "清池", "city": "天童市", "postcode": "9940065", "prefecture": "山形県", "id": 1237 },
        { "address": "清池東", "city": "天童市", "postcode": "9940069", "prefecture": "山形県", "id": 1238 },
        { "address": "高木", "city": "天童市", "postcode": "9940005", "prefecture": "山形県", "id": 1239 },
        { "address": "高擶", "city": "天童市", "postcode": "9940068", "prefecture": "山形県", "id": 1240 },
        { "address": "高野辺", "city": "天童市", "postcode": "9940076", "prefecture": "山形県", "id": 1241 },
        { "address": "田鶴町", "city": "天童市", "postcode": "9940046", "prefecture": "山形県", "id": 1242 },
        { "address": "田麦野", "city": "天童市", "postcode": "9940104", "prefecture": "山形県", "id": 1243 },
        { "address": "塚野目", "city": "天童市", "postcode": "9940072", "prefecture": "山形県", "id": 1244 },
        { "address": "寺津", "city": "天童市", "postcode": "9940073", "prefecture": "山形県", "id": 1245 },
        { "address": "天童中", "city": "天童市", "postcode": "9940031", "prefecture": "山形県", "id": 1246 },
        { "address": "東善寺", "city": "天童市", "postcode": "9940023", "prefecture": "山形県", "id": 1247 },
        { "address": "藤内新田", "city": "天童市", "postcode": "9940074", "prefecture": "山形県", "id": 1248 },
        { "address": "道満", "city": "天童市", "postcode": "9940102", "prefecture": "山形県", "id": 1249 },
        { "address": "中里", "city": "天童市", "postcode": "9940064", "prefecture": "山形県", "id": 1250 },
        { "address": "仲町", "city": "天童市", "postcode": "9940045", "prefecture": "山形県", "id": 1251 },
        { "address": "長岡", "city": "天童市", "postcode": "9940066", "prefecture": "山形県", "id": 1252 },
        { "address": "長岡北", "city": "天童市", "postcode": "9940062", "prefecture": "山形県", "id": 1253 },
        { "address": "奈良沢", "city": "天童市", "postcode": "9940051", "prefecture": "山形県", "id": 1254 },
        { "address": "成生", "city": "天童市", "postcode": "9940006", "prefecture": "山形県", "id": 1255 },
        { "address": "糠塚", "city": "天童市", "postcode": "9940014", "prefecture": "山形県", "id": 1256 },
        { "address": "貫津", "city": "天童市", "postcode": "9940022", "prefecture": "山形県", "id": 1257 },
        { "address": "芳賀", "city": "天童市", "postcode": "9940067", "prefecture": "山形県", "id": 1258 },
        { "address": "芳賀タウン北", "city": "天童市", "postcode": "9940082", "prefecture": "山形県", "id": 1259 },
        { "address": "芳賀タウン南", "city": "天童市", "postcode": "9940083", "prefecture": "山形県", "id": 1260 },
        { "address": "原町", "city": "天童市", "postcode": "9940055", "prefecture": "山形県", "id": 1261 },
        { "address": "万代", "city": "天童市", "postcode": "9940001", "prefecture": "山形県", "id": 1262 },
        { "address": "東久野本", "city": "天童市", "postcode": "9940016", "prefecture": "山形県", "id": 1263 },
        { "address": "東長岡", "city": "天童市", "postcode": "9940063", "prefecture": "山形県", "id": 1264 },
        { "address": "東芳賀", "city": "天童市", "postcode": "9940061", "prefecture": "山形県", "id": 1265 },
        { "address": "東本町", "city": "天童市", "postcode": "9940026", "prefecture": "山形県", "id": 1266 },
        { "address": "一日町", "city": "天童市", "postcode": "9940044", "prefecture": "山形県", "id": 1267 },
        { "address": "干布", "city": "天童市", "postcode": "9940056", "prefecture": "山形県", "id": 1268 },
        { "address": "本町", "city": "天童市", "postcode": "9940034", "prefecture": "山形県", "id": 1269 },
        { "address": "交り江", "city": "天童市", "postcode": "9940048", "prefecture": "山形県", "id": 1270 },
        { "address": "松城町", "city": "天童市", "postcode": "9940043", "prefecture": "山形県", "id": 1271 },
        { "address": "乱川", "city": "天童市", "postcode": "9940002", "prefecture": "山形県", "id": 1272 },
        { "address": "三日町", "city": "天童市", "postcode": "9940033", "prefecture": "山形県", "id": 1273 },
        { "address": "南小畑", "city": "天童市", "postcode": "9940081", "prefecture": "山形県", "id": 1274 },
        { "address": "南町", "city": "天童市", "postcode": "9940049", "prefecture": "山形県", "id": 1275 },
        { "address": "矢野目", "city": "天童市", "postcode": "9940071", "prefecture": "山形県", "id": 1276 },
        { "address": "山口", "city": "天童市", "postcode": "9940101", "prefecture": "山形県", "id": 1277 },
        { "address": "山元", "city": "天童市", "postcode": "9940021", "prefecture": "山形県", "id": 1278 },
        { "city": "東根市", "postcode": "9993700", "prefecture": "山形県", "id": 1279 },
        { "address": "泉郷", "city": "東根市", "postcode": "9993722", "prefecture": "山形県", "id": 1280 },
        { "address": "板垣大通り", "city": "東根市", "postcode": "9993747", "prefecture": "山形県", "id": 1281 },
        { "address": "板垣北小路", "city": "東根市", "postcode": "9993749", "prefecture": "山形県", "id": 1282 },
        { "address": "板垣北通り", "city": "東根市", "postcode": "9993744", "prefecture": "山形県", "id": 1283 },
        { "address": "板垣新田", "city": "東根市", "postcode": "9993746", "prefecture": "山形県", "id": 1284 },
        { "address": "板垣中通り", "city": "東根市", "postcode": "9993745", "prefecture": "山形県", "id": 1285 },
        { "address": "板垣西小路", "city": "東根市", "postcode": "9993748", "prefecture": "山形県", "id": 1286 },
        { "address": "一本木", "city": "東根市", "postcode": "9993717", "prefecture": "山形県", "id": 1287 },
        { "address": "猪野沢", "city": "東根市", "postcode": "9993726", "prefecture": "山形県", "id": 1288 },
        { "address": "太田新田", "city": "東根市", "postcode": "9993728", "prefecture": "山形県", "id": 1289 },
        { "address": "大林", "city": "東根市", "postcode": "9993714", "prefecture": "山形県", "id": 1290 },
        { "address": "大林新田", "city": "東根市", "postcode": "9993715", "prefecture": "山形県", "id": 1291 },
        { "address": "大森", "city": "東根市", "postcode": "9993712", "prefecture": "山形県", "id": 1292 },
        { "address": "若木", "city": "東根市", "postcode": "9993737", "prefecture": "山形県", "id": 1293 },
        { "address": "若木大通り", "city": "東根市", "postcode": "9993738", "prefecture": "山形県", "id": 1294 },
        { "address": "若木小路", "city": "東根市", "postcode": "9993757", "prefecture": "山形県", "id": 1295 },
        { "address": "若木一条通り", "city": "東根市", "postcode": "9993756", "prefecture": "山形県", "id": 1296 },
        { "address": "若木二条通り", "city": "東根市", "postcode": "9993755", "prefecture": "山形県", "id": 1297 },
        { "address": "若木三条通り", "city": "東根市", "postcode": "9993754", "prefecture": "山形県", "id": 1298 },
        { "address": "若木四条通り", "city": "東根市", "postcode": "9993753", "prefecture": "山形県", "id": 1299 },
        { "address": "若木五条通り", "city": "東根市", "postcode": "9993752", "prefecture": "山形県", "id": 1300 },
        { "address": "若木通り", "city": "東根市", "postcode": "9993751", "prefecture": "山形県", "id": 1301 },
        { "address": "温泉町", "city": "東根市", "postcode": "9993702", "prefecture": "山形県", "id": 1302 },
        { "address": "柏原", "city": "東根市", "postcode": "9993770", "prefecture": "山形県", "id": 1303 },
        { "address": "蟹沢", "city": "東根市", "postcode": "9993716", "prefecture": "山形県", "id": 1304 },
        { "address": "観音寺", "city": "東根市", "postcode": "9993723", "prefecture": "山形県", "id": 1305 },
        { "address": "郡山", "city": "東根市", "postcode": "9993774", "prefecture": "山形県", "id": 1306 },
        { "address": "小林", "city": "東根市", "postcode": "9993710", "prefecture": "山形県", "id": 1307 },
        { "address": "鷺の宿", "city": "東根市", "postcode": "9993786", "prefecture": "山形県", "id": 1308 },
        { "address": "鷺ノ森", "city": "東根市", "postcode": "9993703", "prefecture": "山形県", "id": 1309 },
        { "address": "さくらんぼ駅前", "city": "東根市", "postcode": "9993720", "prefecture": "山形県", "id": 1310 },
        { "address": "島大堀", "city": "東根市", "postcode": "9993773", "prefecture": "山形県", "id": 1311 },
        { "address": "下川原", "city": "東根市", "postcode": "9993708", "prefecture": "山形県", "id": 1312 },
        { "address": "白水", "city": "東根市", "postcode": "9993787", "prefecture": "山形県", "id": 1313 },
        { "address": "新田町", "city": "東根市", "postcode": "9993707", "prefecture": "山形県", "id": 1314 },
        { "address": "神町", "city": "東根市", "postcode": "9993761", "prefecture": "山形県", "id": 1315 },
        { "address": "神町中央", "city": "東根市", "postcode": "9993763", "prefecture": "山形県", "id": 1316 },
        { "address": "神町東", "city": "東根市", "postcode": "9993764", "prefecture": "山形県", "id": 1317 },
        { "address": "神町西", "city": "東根市", "postcode": "9993766", "prefecture": "山形県", "id": 1318 },
        { "address": "神町南", "city": "東根市", "postcode": "9993765", "prefecture": "山形県", "id": 1319 },
        { "address": "神町北", "city": "東根市", "postcode": "9993762", "prefecture": "山形県", "id": 1320 },
        { "address": "神町営団大通り", "city": "東根市", "postcode": "9993731", "prefecture": "山形県", "id": 1321 },
        { "address": "神町営団中通り", "city": "東根市", "postcode": "9993732", "prefecture": "山形県", "id": 1322 },
        { "address": "神町営団南通り", "city": "東根市", "postcode": "9993736", "prefecture": "山形県", "id": 1323 },
        { "address": "神町営団一条通り", "city": "東根市", "postcode": "9993735", "prefecture": "山形県", "id": 1324 },
        { "address": "神町営団二条通り", "city": "東根市", "postcode": "9993734", "prefecture": "山形県", "id": 1325 },
        { "address": "神町営団三条通り", "city": "東根市", "postcode": "9993733", "prefecture": "山形県", "id": 1326 },
        { "address": "関山", "city": "東根市", "postcode": "9993724", "prefecture": "山形県", "id": 1327 },
        { "address": "中央", "city": "東根市", "postcode": "9993711", "prefecture": "山形県", "id": 1328 },
        { "address": "中央東", "city": "東根市", "postcode": "9993729", "prefecture": "山形県", "id": 1329 },
        { "address": "中央西", "city": "東根市", "postcode": "9993719", "prefecture": "山形県", "id": 1330 },
        { "address": "中央南", "city": "東根市", "postcode": "9993730", "prefecture": "山形県", "id": 1331 },
        { "address": "藤助新田", "city": "東根市", "postcode": "9993778", "prefecture": "山形県", "id": 1332 },
        { "address": "中島新田", "city": "東根市", "postcode": "9993743", "prefecture": "山形県", "id": 1333 },
        { "address": "中島通り", "city": "東根市", "postcode": "9993742", "prefecture": "山形県", "id": 1334 },
        { "address": "中島東通り", "city": "東根市", "postcode": "9993741", "prefecture": "山形県", "id": 1335 },
        { "address": "長瀞", "city": "東根市", "postcode": "9993771", "prefecture": "山形県", "id": 1336 },
        { "address": "荷口", "city": "東根市", "postcode": "9993777", "prefecture": "山形県", "id": 1337 },
        { "address": "沼沢", "city": "東根市", "postcode": "9993725", "prefecture": "山形県", "id": 1338 },
        { "address": "野川", "city": "東根市", "postcode": "9993727", "prefecture": "山形県", "id": 1339 },
        { "address": "野田", "city": "東根市", "postcode": "9993775", "prefecture": "山形県", "id": 1340 },
        { "address": "羽入", "city": "東根市", "postcode": "9993776", "prefecture": "山形県", "id": 1341 },
        { "address": "羽入東", "city": "東根市", "postcode": "9993779", "prefecture": "山形県", "id": 1342 },
        { "address": "東根甲", "city": "東根市", "postcode": "9993701", "prefecture": "山形県", "id": 1343 },
        { "address": "東根乙", "city": "東根市", "postcode": "9993721", "prefecture": "山形県", "id": 1344 },
        { "address": "東根丙", "city": "東根市", "postcode": "9993704", "prefecture": "山形県", "id": 1345 },
        { "address": "東根丁", "city": "東根市", "postcode": "9993713", "prefecture": "山形県", "id": 1346 },
        { "address": "本町", "city": "東根市", "postcode": "9993784", "prefecture": "山形県", "id": 1347 },
        { "address": "本丸北", "city": "東根市", "postcode": "9993781", "prefecture": "山形県", "id": 1348 },
        { "address": "本丸西", "city": "東根市", "postcode": "9993785", "prefecture": "山形県", "id": 1349 },
        { "address": "本丸東", "city": "東根市", "postcode": "9993782", "prefecture": "山形県", "id": 1350 },
        { "address": "本丸南", "city": "東根市", "postcode": "9993783", "prefecture": "山形県", "id": 1351 },
        { "address": "松沢", "city": "東根市", "postcode": "9993772", "prefecture": "山形県", "id": 1352 },
        { "address": "三日町", "city": "東根市", "postcode": "9993706", "prefecture": "山形県", "id": 1353 },
        { "address": "宮崎", "city": "東根市", "postcode": "9993705", "prefecture": "山形県", "id": 1354 },
        { "address": "四ツ家", "city": "東根市", "postcode": "9993718", "prefecture": "山形県", "id": 1355 },
        { "address": "六田", "city": "東根市", "postcode": "9993709", "prefecture": "山形県", "id": 1356 },
        { "city": "尾花沢市", "postcode": "9994200", "prefecture": "山形県", "id": 1357 },
        { "address": "芦沢", "city": "尾花沢市", "postcode": "9994554", "prefecture": "山形県", "id": 1358 },
        { "address": "五十沢", "city": "尾花沢市", "postcode": "9994223", "prefecture": "山形県", "id": 1359 },
        { "address": "市野々", "city": "尾花沢市", "postcode": "9994208", "prefecture": "山形県", "id": 1360 },
        { "address": "岩谷沢", "city": "尾花沢市", "postcode": "9994207", "prefecture": "山形県", "id": 1361 },
        { "address": "荻袋", "city": "尾花沢市", "postcode": "9994552", "prefecture": "山形県", "id": 1362 },
        { "address": "押切", "city": "尾花沢市", "postcode": "9994205", "prefecture": "山形県", "id": 1363 },
        { "address": "尾花沢", "city": "尾花沢市", "postcode": "9994221", "prefecture": "山形県", "id": 1364 },
        { "address": "朧気", "city": "尾花沢市", "postcode": "9994222", "prefecture": "山形県", "id": 1365 },
        { "address": "上ノ畑", "city": "尾花沢市", "postcode": "9994204", "prefecture": "山形県", "id": 1366 },
        { "address": "上ノ畑", "city": "尾花沢市", "postcode": "9994304", "prefecture": "山形県", "id": 1367 },
        { "address": "上柳渡戸", "city": "尾花沢市", "postcode": "9994332", "prefecture": "山形県", "id": 1368 },
        { "address": "上町", "city": "尾花沢市", "postcode": "9994228", "prefecture": "山形県", "id": 1369 },
        { "address": "北郷", "city": "尾花沢市", "postcode": "9994336", "prefecture": "山形県", "id": 1370 },
        { "address": "北町", "city": "尾花沢市", "postcode": "9994231", "prefecture": "山形県", "id": 1371 },
        { "address": "銀山新畑", "city": "尾花沢市", "postcode": "9994333", "prefecture": "山形県", "id": 1372 },
        { "address": "牛房野", "city": "尾花沢市", "postcode": "9994214", "prefecture": "山形県", "id": 1373 },
        { "address": "下柳渡戸", "city": "尾花沢市", "postcode": "9994334", "prefecture": "山形県", "id": 1374 },
        { "address": "正厳", "city": "尾花沢市", "postcode": "9994211", "prefecture": "山形県", "id": 1375 },
        { "address": "新町", "city": "尾花沢市", "postcode": "9994224", "prefecture": "山形県", "id": 1376 },
        { "address": "新町中央", "city": "尾花沢市", "postcode": "9994226", "prefecture": "山形県", "id": 1377 },
        { "address": "高橋", "city": "尾花沢市", "postcode": "9994201", "prefecture": "山形県", "id": 1378 },
        { "address": "鶴子", "city": "尾花沢市", "postcode": "9994443", "prefecture": "山形県", "id": 1379 },
        { "address": "鶴巻田", "city": "尾花沢市", "postcode": "9994337", "prefecture": "山形県", "id": 1380 },
        { "address": "寺内", "city": "尾花沢市", "postcode": "9994551", "prefecture": "山形県", "id": 1381 },
        { "address": "毒沢", "city": "尾花沢市", "postcode": "9994555", "prefecture": "山形県", "id": 1382 },
        { "address": "富山", "city": "尾花沢市", "postcode": "9994206", "prefecture": "山形県", "id": 1383 },
        { "address": "中島", "city": "尾花沢市", "postcode": "9994203", "prefecture": "山形県", "id": 1384 },
        { "address": "中町", "city": "尾花沢市", "postcode": "9994227", "prefecture": "山形県", "id": 1385 },
        { "address": "名木沢", "city": "尾花沢市", "postcode": "9994556", "prefecture": "山形県", "id": 1386 },
        { "address": "行沢", "city": "尾花沢市", "postcode": "9994202", "prefecture": "山形県", "id": 1387 },
        { "address": "二藤袋", "city": "尾花沢市", "postcode": "9994212", "prefecture": "山形県", "id": 1388 },
        { "address": "丹生", "city": "尾花沢市", "postcode": "9994213", "prefecture": "山形県", "id": 1389 },
        { "address": "野黒沢", "city": "尾花沢市", "postcode": "9994553", "prefecture": "山形県", "id": 1390 },
        { "address": "延沢", "city": "尾花沢市", "postcode": "9994441", "prefecture": "山形県", "id": 1391 },
        { "address": "畑沢", "city": "尾花沢市", "postcode": "9994445", "prefecture": "山形県", "id": 1392 },
        { "address": "原田", "city": "尾花沢市", "postcode": "9994335", "prefecture": "山形県", "id": 1393 },
        { "address": "梺町", "city": "尾花沢市", "postcode": "9994232", "prefecture": "山形県", "id": 1394 },
        { "address": "細野", "city": "尾花沢市", "postcode": "9994444", "prefecture": "山形県", "id": 1395 },
        { "address": "南沢", "city": "尾花沢市", "postcode": "9994557", "prefecture": "山形県", "id": 1396 },
        { "address": "母袋", "city": "尾花沢市", "postcode": "9994331", "prefecture": "山形県", "id": 1397 },
        { "address": "横町", "city": "尾花沢市", "postcode": "9994229", "prefecture": "山形県", "id": 1398 },
        { "address": "六沢", "city": "尾花沢市", "postcode": "9994442", "prefecture": "山形県", "id": 1399 },
        { "address": "若葉町", "city": "尾花沢市", "postcode": "9994225", "prefecture": "山形県", "id": 1400 },
        { "city": "南陽市", "postcode": "9992200", "prefecture": "山形県", "id": 1401 },
        { "address": "赤湯", "city": "南陽市", "postcode": "9992211", "prefecture": "山形県", "id": 1402 },
        { "address": "池黒", "city": "南陽市", "postcode": "9920473", "prefecture": "山形県", "id": 1403 },
        { "address": "漆山", "city": "南陽市", "postcode": "9920474", "prefecture": "山形県", "id": 1404 },
        { "address": "大橋", "city": "南陽市", "postcode": "9992224", "prefecture": "山形県", "id": 1405 },
        { "address": "沖田", "city": "南陽市", "postcode": "9992252", "prefecture": "山形県", "id": 1406 },
        { "address": "荻", "city": "南陽市", "postcode": "9920582", "prefecture": "山形県", "id": 1407 },
        { "address": "金沢", "city": "南陽市", "postcode": "9992212", "prefecture": "山形県", "id": 1408 },
        { "address": "金山", "city": "南陽市", "postcode": "9920471", "prefecture": "山形県", "id": 1409 },
        { "address": "釜渡戸", "city": "南陽市", "postcode": "9992201", "prefecture": "山形県", "id": 1410 },
        { "address": "蒲生田", "city": "南陽市", "postcode": "9992261", "prefecture": "山形県", "id": 1411 },
        { "address": "川樋", "city": "南陽市", "postcode": "9992204", "prefecture": "山形県", "id": 1412 },
        { "address": "椚塚", "city": "南陽市", "postcode": "9992221", "prefecture": "山形県", "id": 1413 },
        { "address": "小岩沢", "city": "南陽市", "postcode": "9992203", "prefecture": "山形県", "id": 1414 },
        { "address": "郡山", "city": "南陽市", "postcode": "9992241", "prefecture": "山形県", "id": 1415 },
        { "address": "小滝", "city": "南陽市", "postcode": "9920581", "prefecture": "山形県", "id": 1416 },
        { "address": "坂井", "city": "南陽市", "postcode": "9992256", "prefecture": "山形県", "id": 1417 },
        { "address": "島貫", "city": "南陽市", "postcode": "9992244", "prefecture": "山形県", "id": 1418 },
        { "address": "下荻", "city": "南陽市", "postcode": "9920583", "prefecture": "山形県", "id": 1419 },
        { "address": "新田", "city": "南陽市", "postcode": "9992205", "prefecture": "山形県", "id": 1420 },
        { "address": "砂塚", "city": "南陽市", "postcode": "9920476", "prefecture": "山形県", "id": 1421 },
        { "address": "関根", "city": "南陽市", "postcode": "9992255", "prefecture": "山形県", "id": 1422 },
        { "address": "高梨", "city": "南陽市", "postcode": "9992251", "prefecture": "山形県", "id": 1423 },
        { "address": "竹原", "city": "南陽市", "postcode": "9920478", "prefecture": "山形県", "id": 1424 },
        { "address": "太郎", "city": "南陽市", "postcode": "9920584", "prefecture": "山形県", "id": 1425 },
        { "address": "中央東", "city": "南陽市", "postcode": "9992234", "prefecture": "山形県", "id": 1426 },
        { "address": "露橋", "city": "南陽市", "postcode": "9992254", "prefecture": "山形県", "id": 1427 },
        { "address": "中落合", "city": "南陽市", "postcode": "9992264", "prefecture": "山形県", "id": 1428 },
        { "address": "中ノ目", "city": "南陽市", "postcode": "9992242", "prefecture": "山形県", "id": 1429 },
        { "address": "長岡", "city": "南陽市", "postcode": "9992222", "prefecture": "山形県", "id": 1430 },
        { "address": "長瀞", "city": "南陽市", "postcode": "9992266", "prefecture": "山形県", "id": 1431 },
        { "address": "鍋田", "city": "南陽市", "postcode": "9992243", "prefecture": "山形県", "id": 1432 },
        { "address": "二色根", "city": "南陽市", "postcode": "9992231", "prefecture": "山形県", "id": 1433 },
        { "address": "西落合", "city": "南陽市", "postcode": "9992265", "prefecture": "山形県", "id": 1434 },
        { "address": "萩生田", "city": "南陽市", "postcode": "9992263", "prefecture": "山形県", "id": 1435 },
        { "address": "羽付", "city": "南陽市", "postcode": "9920475", "prefecture": "山形県", "id": 1436 },
        { "address": "法師柳", "city": "南陽市", "postcode": "9992267", "prefecture": "山形県", "id": 1437 },
        { "address": "松沢", "city": "南陽市", "postcode": "9992213", "prefecture": "山形県", "id": 1438 },
        { "address": "俎柳", "city": "南陽市", "postcode": "9992223", "prefecture": "山形県", "id": 1439 },
        { "address": "三間通", "city": "南陽市", "postcode": "9992232", "prefecture": "山形県", "id": 1440 },
        { "address": "宮内", "city": "南陽市", "postcode": "9920472", "prefecture": "山形県", "id": 1441 },
        { "address": "宮崎", "city": "南陽市", "postcode": "9992253", "prefecture": "山形県", "id": 1442 },
        { "address": "元中山", "city": "南陽市", "postcode": "9992202", "prefecture": "山形県", "id": 1443 },
        { "address": "梨郷", "city": "南陽市", "postcode": "9920477", "prefecture": "山形県", "id": 1444 },
        { "address": "若狭郷屋", "city": "南陽市", "postcode": "9992262", "prefecture": "山形県", "id": 1445 },
        { "address": "和田", "city": "南陽市", "postcode": "9920479", "prefecture": "山形県", "id": 1446 },
        { "address": "上野", "city": "南陽市", "postcode": "9992233", "prefecture": "山形県", "id": 1447 },
        { "city": "東村山郡山辺町", "postcode": "9900300", "prefecture": "山形県", "id": 1448 },
        { "address": "近江", "city": "東村山郡山辺町", "postcode": "9900311", "prefecture": "山形県", "id": 1449 },
        { "address": "大塚", "city": "東村山郡山辺町", "postcode": "9900323", "prefecture": "山形県", "id": 1450 },
        { "address": "大寺", "city": "東村山郡山辺町", "postcode": "9900331", "prefecture": "山形県", "id": 1451 },
        { "address": "大蕨", "city": "東村山郡山辺町", "postcode": "9900341", "prefecture": "山形県", "id": 1452 },
        { "address": "北垣", "city": "東村山郡山辺町", "postcode": "9900332", "prefecture": "山形県", "id": 1453 },
        { "address": "北作", "city": "東村山郡山辺町", "postcode": "9900352", "prefecture": "山形県", "id": 1454 },
        { "address": "北山", "city": "東村山郡山辺町", "postcode": "9900342", "prefecture": "山形県", "id": 1455 },
        { "address": "清水", "city": "東村山郡山辺町", "postcode": "9900303", "prefecture": "山形県", "id": 1456 },
        { "address": "杉下", "city": "東村山郡山辺町", "postcode": "9900333", "prefecture": "山形県", "id": 1457 },
        { "address": "根際", "city": "東村山郡山辺町", "postcode": "9900321", "prefecture": "山形県", "id": 1458 },
        { "address": "畑谷", "city": "東村山郡山辺町", "postcode": "9900361", "prefecture": "山形県", "id": 1459 },
        { "address": "三河尻", "city": "東村山郡山辺町", "postcode": "9900312", "prefecture": "山形県", "id": 1460 },
        { "address": "緑ケ丘", "city": "東村山郡山辺町", "postcode": "9900302", "prefecture": "山形県", "id": 1461 },
        { "address": "簗沢", "city": "東村山郡山辺町", "postcode": "9900351", "prefecture": "山形県", "id": 1462 },
        { "address": "山辺", "city": "東村山郡山辺町", "postcode": "9900301", "prefecture": "山形県", "id": 1463 },
        { "address": "要害", "city": "東村山郡山辺町", "postcode": "9900322", "prefecture": "山形県", "id": 1464 },
        { "city": "東村山郡中山町", "postcode": "9900400", "prefecture": "山形県", "id": 1465 },
        { "address": "あおば", "city": "東村山郡中山町", "postcode": "9900411", "prefecture": "山形県", "id": 1466 },
        { "address": "いずみ", "city": "東村山郡中山町", "postcode": "9900402", "prefecture": "山形県", "id": 1467 },
        { "address": "岡", "city": "東村山郡中山町", "postcode": "9900408", "prefecture": "山形県", "id": 1468 },
        { "address": "金沢", "city": "東村山郡中山町", "postcode": "9900405", "prefecture": "山形県", "id": 1469 },
        { "address": "小塩", "city": "東村山郡中山町", "postcode": "9900409", "prefecture": "山形県", "id": 1470 },
        { "address": "達磨寺", "city": "東村山郡中山町", "postcode": "9900403", "prefecture": "山形県", "id": 1471 },
        { "address": "土橋", "city": "東村山郡中山町", "postcode": "9900407", "prefecture": "山形県", "id": 1472 },
        { "address": "長崎", "city": "東村山郡中山町", "postcode": "9900401", "prefecture": "山形県", "id": 1473 },
        { "address": "向新田", "city": "東村山郡中山町", "postcode": "9900404", "prefecture": "山形県", "id": 1474 },
        { "address": "柳沢", "city": "東村山郡中山町", "postcode": "9900406", "prefecture": "山形県", "id": 1475 },
        { "city": "西村山郡河北町", "postcode": "9993500", "prefecture": "山形県", "id": 1476 },
        { "address": "岩木", "city": "西村山郡河北町", "postcode": "9993503", "prefecture": "山形県", "id": 1477 },
        { "address": "新吉田", "city": "西村山郡河北町", "postcode": "9993501", "prefecture": "山形県", "id": 1478 },
        { "address": "田井", "city": "西村山郡河北町", "postcode": "9993521", "prefecture": "山形県", "id": 1479 },
        { "address": "造山", "city": "西村山郡河北町", "postcode": "9993532", "prefecture": "山形県", "id": 1480 },
        { "address": "西里", "city": "西村山郡河北町", "postcode": "9993533", "prefecture": "山形県", "id": 1481 },
        { "address": "畑中", "city": "西村山郡河北町", "postcode": "9993531", "prefecture": "山形県", "id": 1482 },
        { "address": "溝延", "city": "西村山郡河北町", "postcode": "9993522", "prefecture": "山形県", "id": 1483 },
        { "address": "谷地", "city": "西村山郡河北町", "postcode": "9993511", "prefecture": "山形県", "id": 1484 },
        {
            "address": "谷地荒町東",
            "city": "西村山郡河北町",
            "postcode": "9993515",
            "prefecture": "山形県",
            "id": 1485
        },
        { "address": "谷地中央", "city": "西村山郡河北町", "postcode": "9993512", "prefecture": "山形県", "id": 1486 },
        { "address": "谷地所岡", "city": "西村山郡河北町", "postcode": "9993513", "prefecture": "山形県", "id": 1487 },
        {
            "address": "谷地ひな市",
            "city": "西村山郡河北町",
            "postcode": "9993514",
            "prefecture": "山形県",
            "id": 1488
        },
        { "address": "吉田", "city": "西村山郡河北町", "postcode": "9993502", "prefecture": "山形県", "id": 1489 },
        { "city": "西村山郡西川町", "postcode": "9900700", "prefecture": "山形県", "id": 1490 },
        { "address": "入間", "city": "西村山郡西川町", "postcode": "9900714", "prefecture": "山形県", "id": 1491 },
        { "address": "岩根沢", "city": "西村山郡西川町", "postcode": "9900743", "prefecture": "山形県", "id": 1492 },
        { "address": "大井沢", "city": "西村山郡西川町", "postcode": "9900721", "prefecture": "山形県", "id": 1493 },
        { "address": "海味", "city": "西村山郡西川町", "postcode": "9900702", "prefecture": "山形県", "id": 1494 },
        { "address": "志津", "city": "西村山郡西川町", "postcode": "9900734", "prefecture": "山形県", "id": 1495 },
        { "address": "砂子関", "city": "西村山郡西川町", "postcode": "9900732", "prefecture": "山形県", "id": 1496 },
        { "address": "月岡", "city": "西村山郡西川町", "postcode": "9900731", "prefecture": "山形県", "id": 1497 },
        { "address": "月山沢", "city": "西村山郡西川町", "postcode": "9900733", "prefecture": "山形県", "id": 1498 },
        { "address": "綱取", "city": "西村山郡西川町", "postcode": "9900741", "prefecture": "山形県", "id": 1499 },
        { "address": "沼山", "city": "西村山郡西川町", "postcode": "9900713", "prefecture": "山形県", "id": 1500 },
        { "address": "原", "city": "西村山郡西川町", "postcode": "9900712", "prefecture": "山形県", "id": 1501 },
        { "address": "本道寺", "city": "西村山郡西川町", "postcode": "9900735", "prefecture": "山形県", "id": 1502 },
        { "address": "間沢", "city": "西村山郡西川町", "postcode": "9900703", "prefecture": "山形県", "id": 1503 },
        { "address": "水沢", "city": "西村山郡西川町", "postcode": "9900742", "prefecture": "山形県", "id": 1504 },
        { "address": "睦合", "city": "西村山郡西川町", "postcode": "9900701", "prefecture": "山形県", "id": 1505 },
        { "address": "吉川", "city": "西村山郡西川町", "postcode": "9900711", "prefecture": "山形県", "id": 1506 },
        { "city": "西村山郡朝日町", "postcode": "9901400", "prefecture": "山形県", "id": 1507 },
        { "address": "新宿", "city": "西村山郡朝日町", "postcode": "9901441", "prefecture": "山形県", "id": 1508 },
        { "address": "馬神", "city": "西村山郡朝日町", "postcode": "9901303", "prefecture": "山形県", "id": 1509 },
        { "address": "大暮山", "city": "西村山郡朝日町", "postcode": "9901306", "prefecture": "山形県", "id": 1510 },
        { "address": "大滝", "city": "西村山郡朝日町", "postcode": "9901431", "prefecture": "山形県", "id": 1511 },
        { "address": "大沼", "city": "西村山郡朝日町", "postcode": "9901305", "prefecture": "山形県", "id": 1512 },
        { "address": "大船木", "city": "西村山郡朝日町", "postcode": "9901562", "prefecture": "山形県", "id": 1513 },
        { "address": "大谷", "city": "西村山郡朝日町", "postcode": "9901304", "prefecture": "山形県", "id": 1514 },
        { "address": "送橋", "city": "西村山郡朝日町", "postcode": "9901422", "prefecture": "山形県", "id": 1515 },
        { "address": "上郷", "city": "西村山郡朝日町", "postcode": "9901432", "prefecture": "山形県", "id": 1516 },
        { "address": "石須部", "city": "西村山郡朝日町", "postcode": "9901571", "prefecture": "山形県", "id": 1517 },
        { "address": "今平", "city": "西村山郡朝日町", "postcode": "9901563", "prefecture": "山形県", "id": 1518 },
        { "address": "四ノ沢", "city": "西村山郡朝日町", "postcode": "9901444", "prefecture": "山形県", "id": 1519 },
        { "address": "下芦沢", "city": "西村山郡朝日町", "postcode": "9901423", "prefecture": "山形県", "id": 1520 },
        { "address": "白倉", "city": "西村山郡朝日町", "postcode": "9901574", "prefecture": "山形県", "id": 1521 },
        { "address": "杉山", "city": "西村山郡朝日町", "postcode": "9901433", "prefecture": "山形県", "id": 1522 },
        { "address": "立木", "city": "西村山郡朝日町", "postcode": "9901573", "prefecture": "山形県", "id": 1523 },
        { "address": "玉ノ井", "city": "西村山郡朝日町", "postcode": "9901302", "prefecture": "山形県", "id": 1524 },
        { "address": "太郎", "city": "西村山郡朝日町", "postcode": "9901572", "prefecture": "山形県", "id": 1525 },
        { "address": "常盤", "city": "西村山郡朝日町", "postcode": "9901552", "prefecture": "山形県", "id": 1526 },
        { "address": "中沢", "city": "西村山郡朝日町", "postcode": "9901301", "prefecture": "山形県", "id": 1527 },
        { "address": "長沼", "city": "西村山郡朝日町", "postcode": "9901553", "prefecture": "山形県", "id": 1528 },
        { "address": "古槇", "city": "西村山郡朝日町", "postcode": "9901421", "prefecture": "山形県", "id": 1529 },
        { "address": "松程", "city": "西村山郡朝日町", "postcode": "9901561", "prefecture": "山形県", "id": 1530 },
        { "address": "水本", "city": "西村山郡朝日町", "postcode": "9901424", "prefecture": "山形県", "id": 1531 },
        { "address": "三中", "city": "西村山郡朝日町", "postcode": "9901551", "prefecture": "山形県", "id": 1532 },
        { "address": "宮宿", "city": "西村山郡朝日町", "postcode": "9901442", "prefecture": "山形県", "id": 1533 },
        { "address": "雪谷", "city": "西村山郡朝日町", "postcode": "9901443", "prefecture": "山形県", "id": 1534 },
        { "address": "和合", "city": "西村山郡朝日町", "postcode": "9901411", "prefecture": "山形県", "id": 1535 },
        { "address": "和合平", "city": "西村山郡朝日町", "postcode": "9901412", "prefecture": "山形県", "id": 1536 },
        { "city": "西村山郡大江町", "postcode": "9901100", "prefecture": "山形県", "id": 1537 },
        { "address": "左沢", "city": "西村山郡大江町", "postcode": "9910801", "prefecture": "山形県", "id": 1538 },
        { "address": "左沢", "city": "西村山郡大江町", "postcode": "9901101", "prefecture": "山形県", "id": 1539 },
        { "address": "小見", "city": "西村山郡大江町", "postcode": "9901122", "prefecture": "山形県", "id": 1540 },
        { "address": "荻野", "city": "西村山郡大江町", "postcode": "9901131", "prefecture": "山形県", "id": 1541 },
        { "address": "顔好甲", "city": "西村山郡大江町", "postcode": "9901152", "prefecture": "山形県", "id": 1542 },
        { "address": "顔好乙", "city": "西村山郡大江町", "postcode": "9901153", "prefecture": "山形県", "id": 1543 },
        { "address": "黒森", "city": "西村山郡大江町", "postcode": "9901276", "prefecture": "山形県", "id": 1544 },
        { "address": "小釿", "city": "西村山郡大江町", "postcode": "9901141", "prefecture": "山形県", "id": 1545 },
        { "address": "小清", "city": "西村山郡大江町", "postcode": "9901273", "prefecture": "山形県", "id": 1546 },
        { "address": "材木", "city": "西村山郡大江町", "postcode": "9901142", "prefecture": "山形県", "id": 1547 },
        { "address": "沢口", "city": "西村山郡大江町", "postcode": "9901275", "prefecture": "山形県", "id": 1548 },
        { "address": "三郷甲", "city": "西村山郡大江町", "postcode": "9901113", "prefecture": "山形県", "id": 1549 },
        { "address": "三郷乙", "city": "西村山郡大江町", "postcode": "9901112", "prefecture": "山形県", "id": 1550 },
        { "address": "三郷丙", "city": "西村山郡大江町", "postcode": "9901111", "prefecture": "山形県", "id": 1551 },
        { "address": "塩ノ平", "city": "西村山郡大江町", "postcode": "9901133", "prefecture": "山形県", "id": 1552 },
        { "address": "十八才甲", "city": "西村山郡大江町", "postcode": "9901144", "prefecture": "山形県", "id": 1553 },
        { "address": "十八才乙", "city": "西村山郡大江町", "postcode": "9901145", "prefecture": "山形県", "id": 1554 },
        { "address": "月布", "city": "西村山郡大江町", "postcode": "9901271", "prefecture": "山形県", "id": 1555 },
        { "address": "堂屋敷", "city": "西村山郡大江町", "postcode": "9901132", "prefecture": "山形県", "id": 1556 },
        { "address": "所部", "city": "西村山郡大江町", "postcode": "9901134", "prefecture": "山形県", "id": 1557 },
        { "address": "富沢", "city": "西村山郡大江町", "postcode": "9901114", "prefecture": "山形県", "id": 1558 },
        { "address": "楢山", "city": "西村山郡大江町", "postcode": "9901146", "prefecture": "山形県", "id": 1559 },
        { "address": "貫見", "city": "西村山郡大江町", "postcode": "9901272", "prefecture": "山形県", "id": 1560 },
        { "address": "橋上", "city": "西村山郡大江町", "postcode": "9901143", "prefecture": "山形県", "id": 1561 },
        { "address": "原田", "city": "西村山郡大江町", "postcode": "9901161", "prefecture": "山形県", "id": 1562 },
        { "address": "藤田", "city": "西村山郡大江町", "postcode": "9901121", "prefecture": "山形県", "id": 1563 },
        { "address": "本郷甲", "city": "西村山郡大江町", "postcode": "9901154", "prefecture": "山形県", "id": 1564 },
        { "address": "本郷乙", "city": "西村山郡大江町", "postcode": "9901151", "prefecture": "山形県", "id": 1565 },
        { "address": "本郷丙", "city": "西村山郡大江町", "postcode": "9901164", "prefecture": "山形県", "id": 1566 },
        { "address": "本郷丁", "city": "西村山郡大江町", "postcode": "9901163", "prefecture": "山形県", "id": 1567 },
        { "address": "本郷戊", "city": "西村山郡大江町", "postcode": "9901165", "prefecture": "山形県", "id": 1568 },
        { "address": "本郷己", "city": "西村山郡大江町", "postcode": "9901162", "prefecture": "山形県", "id": 1569 },
        { "address": "柳川", "city": "西村山郡大江町", "postcode": "9901274", "prefecture": "山形県", "id": 1570 },
        { "city": "北村山郡大石田町", "postcode": "9994100", "prefecture": "山形県", "id": 1571 },
        { "address": "今宿", "city": "北村山郡大石田町", "postcode": "9994113", "prefecture": "山形県", "id": 1572 },
        { "address": "岩ケ袋", "city": "北村山郡大石田町", "postcode": "9994103", "prefecture": "山形県", "id": 1573 },
        {
            "address": "駅前通り",
            "city": "北村山郡大石田町",
            "postcode": "9994116",
            "prefecture": "山形県",
            "id": 1574
        },
        { "address": "大石田", "city": "北村山郡大石田町", "postcode": "9994111", "prefecture": "山形県", "id": 1575 },
        { "address": "大浦", "city": "北村山郡大石田町", "postcode": "9994131", "prefecture": "山形県", "id": 1576 },
        { "address": "海谷", "city": "北村山郡大石田町", "postcode": "9994102", "prefecture": "山形県", "id": 1577 },
        { "address": "桂木町", "city": "北村山郡大石田町", "postcode": "9994115", "prefecture": "山形県", "id": 1578 },
        { "address": "川前", "city": "北村山郡大石田町", "postcode": "9994133", "prefecture": "山形県", "id": 1579 },
        { "address": "駒籠", "city": "北村山郡大石田町", "postcode": "9994132", "prefecture": "山形県", "id": 1580 },
        { "address": "次年子", "city": "北村山郡大石田町", "postcode": "9994141", "prefecture": "山形県", "id": 1581 },
        { "address": "鷹巣", "city": "北村山郡大石田町", "postcode": "9994101", "prefecture": "山形県", "id": 1582 },
        { "address": "田沢", "city": "北村山郡大石田町", "postcode": "9994122", "prefecture": "山形県", "id": 1583 },
        { "address": "豊田", "city": "北村山郡大石田町", "postcode": "9994134", "prefecture": "山形県", "id": 1584 },
        { "address": "緑町", "city": "北村山郡大石田町", "postcode": "9994112", "prefecture": "山形県", "id": 1585 },
        { "address": "横山", "city": "北村山郡大石田町", "postcode": "9994121", "prefecture": "山形県", "id": 1586 },
        { "address": "四日町", "city": "北村山郡大石田町", "postcode": "9994114", "prefecture": "山形県", "id": 1587 },
        { "city": "最上郡金山町", "postcode": "9995400", "prefecture": "山形県", "id": 1588 },
        { "address": "有屋", "city": "最上郡金山町", "postcode": "9995401", "prefecture": "山形県", "id": 1589 },
        { "address": "漆野", "city": "最上郡金山町", "postcode": "9995414", "prefecture": "山形県", "id": 1590 },
        { "address": "上台", "city": "最上郡金山町", "postcode": "9995405", "prefecture": "山形県", "id": 1591 },
        { "address": "金山", "city": "最上郡金山町", "postcode": "9995402", "prefecture": "山形県", "id": 1592 },
        { "address": "下野明", "city": "最上郡金山町", "postcode": "9995404", "prefecture": "山形県", "id": 1593 },
        { "address": "谷口銀山", "city": "最上郡金山町", "postcode": "9995413", "prefecture": "山形県", "id": 1594 },
        { "address": "飛森", "city": "最上郡金山町", "postcode": "9995412", "prefecture": "山形県", "id": 1595 },
        { "address": "中田", "city": "最上郡金山町", "postcode": "9995411", "prefecture": "山形県", "id": 1596 },
        { "address": "朴山", "city": "最上郡金山町", "postcode": "9995415", "prefecture": "山形県", "id": 1597 },
        { "address": "安沢", "city": "最上郡金山町", "postcode": "9995403", "prefecture": "山形県", "id": 1598 },
        { "address": "山崎", "city": "最上郡金山町", "postcode": "9995406", "prefecture": "山形県", "id": 1599 },
        { "city": "最上郡最上町", "postcode": "9996100", "prefecture": "山形県", "id": 1600 },
        { "address": "大堀", "city": "最上郡最上町", "postcode": "9996211", "prefecture": "山形県", "id": 1601 },
        { "address": "黒澤", "city": "最上郡最上町", "postcode": "9996103", "prefecture": "山形県", "id": 1602 },
        { "address": "堺田", "city": "最上郡最上町", "postcode": "9996106", "prefecture": "山形県", "id": 1603 },
        { "address": "志茂", "city": "最上郡最上町", "postcode": "9996212", "prefecture": "山形県", "id": 1604 },
        { "address": "月楯", "city": "最上郡最上町", "postcode": "9996215", "prefecture": "山形県", "id": 1605 },
        { "address": "富澤", "city": "最上郡最上町", "postcode": "9996105", "prefecture": "山形県", "id": 1606 },
        { "address": "東法田", "city": "最上郡最上町", "postcode": "9996102", "prefecture": "山形県", "id": 1607 },
        { "address": "法田", "city": "最上郡最上町", "postcode": "9996213", "prefecture": "山形県", "id": 1608 },
        { "address": "本城", "city": "最上郡最上町", "postcode": "9996104", "prefecture": "山形県", "id": 1609 },
        { "address": "満澤", "city": "最上郡最上町", "postcode": "9996107", "prefecture": "山形県", "id": 1610 },
        { "address": "向町", "city": "最上郡最上町", "postcode": "9996101", "prefecture": "山形県", "id": 1611 },
        { "address": "若宮", "city": "最上郡最上町", "postcode": "9996214", "prefecture": "山形県", "id": 1612 },
        { "city": "最上郡舟形町", "postcode": "9994600", "prefecture": "山形県", "id": 1613 },
        { "address": "長者原", "city": "最上郡舟形町", "postcode": "9994602", "prefecture": "山形県", "id": 1614 },
        { "address": "富田", "city": "最上郡舟形町", "postcode": "9994603", "prefecture": "山形県", "id": 1615 },
        { "address": "長沢", "city": "最上郡舟形町", "postcode": "9994605", "prefecture": "山形県", "id": 1616 },
        { "address": "舟形", "city": "最上郡舟形町", "postcode": "9994601", "prefecture": "山形県", "id": 1617 },
        { "address": "堀内", "city": "最上郡舟形町", "postcode": "9994604", "prefecture": "山形県", "id": 1618 },
        { "city": "最上郡真室川町", "postcode": "9995300", "prefecture": "山形県", "id": 1619 },
        { "address": "新町", "city": "最上郡真室川町", "postcode": "9995312", "prefecture": "山形県", "id": 1620 },
        { "address": "内町", "city": "最上郡真室川町", "postcode": "9995313", "prefecture": "山形県", "id": 1621 },
        { "address": "大沢", "city": "最上郡真室川町", "postcode": "9995521", "prefecture": "山形県", "id": 1622 },
        { "address": "大滝", "city": "最上郡真室川町", "postcode": "9995603", "prefecture": "山形県", "id": 1623 },
        { "address": "釜渕", "city": "最上郡真室川町", "postcode": "9995604", "prefecture": "山形県", "id": 1624 },
        { "address": "川ノ内", "city": "最上郡真室川町", "postcode": "9995601", "prefecture": "山形県", "id": 1625 },
        { "address": "川ノ内", "city": "最上郡真室川町", "postcode": "9995301", "prefecture": "山形県", "id": 1626 },
        { "address": "木ノ下", "city": "最上郡真室川町", "postcode": "9995314", "prefecture": "山形県", "id": 1627 },
        { "address": "差首鍋", "city": "最上郡真室川町", "postcode": "9995522", "prefecture": "山形県", "id": 1628 },
        { "address": "及位", "city": "最上郡真室川町", "postcode": "9995602", "prefecture": "山形県", "id": 1629 },
        { "address": "平岡", "city": "最上郡真室川町", "postcode": "9995311", "prefecture": "山形県", "id": 1630 },
        { "city": "最上郡大蔵村", "postcode": "9960200", "prefecture": "山形県", "id": 1631 },
        { "address": "合海", "city": "最上郡大蔵村", "postcode": "9960211", "prefecture": "山形県", "id": 1632 },
        { "address": "赤松", "city": "最上郡大蔵村", "postcode": "9960213", "prefecture": "山形県", "id": 1633 },
        { "address": "清水", "city": "最上郡大蔵村", "postcode": "9960212", "prefecture": "山形県", "id": 1634 },
        { "address": "南山", "city": "最上郡大蔵村", "postcode": "9960301", "prefecture": "山形県", "id": 1635 },
        { "address": "南山", "city": "最上郡大蔵村", "postcode": "9960201", "prefecture": "山形県", "id": 1636 },
        { "city": "最上郡鮭川村", "postcode": "9995200", "prefecture": "山形県", "id": 1637 },
        { "address": "石名坂", "city": "最上郡鮭川村", "postcode": "9995208", "prefecture": "山形県", "id": 1638 },
        { "address": "川口", "city": "最上郡鮭川村", "postcode": "9995203", "prefecture": "山形県", "id": 1639 },
        { "address": "京塚", "city": "最上郡鮭川村", "postcode": "9995201", "prefecture": "山形県", "id": 1640 },
        { "address": "佐渡", "city": "最上郡鮭川村", "postcode": "9995202", "prefecture": "山形県", "id": 1641 },
        { "address": "中渡", "city": "最上郡鮭川村", "postcode": "9995205", "prefecture": "山形県", "id": 1642 },
        { "address": "庭月", "city": "最上郡鮭川村", "postcode": "9995207", "prefecture": "山形県", "id": 1643 },
        { "address": "曲川", "city": "最上郡鮭川村", "postcode": "9995206", "prefecture": "山形県", "id": 1644 },
        { "address": "向居", "city": "最上郡鮭川村", "postcode": "9995204", "prefecture": "山形県", "id": 1645 },
        { "city": "最上郡戸沢村", "postcode": "9996400", "prefecture": "山形県", "id": 1646 },
        { "address": "岩清水", "city": "最上郡戸沢村", "postcode": "9996312", "prefecture": "山形県", "id": 1647 },
        { "address": "蔵岡", "city": "最上郡戸沢村", "postcode": "9996402", "prefecture": "山形県", "id": 1648 },
        { "address": "神田", "city": "最上郡戸沢村", "postcode": "9996315", "prefecture": "山形県", "id": 1649 },
        { "address": "角川", "city": "最上郡戸沢村", "postcode": "9996403", "prefecture": "山形県", "id": 1650 },
        { "address": "津谷", "city": "最上郡戸沢村", "postcode": "9996311", "prefecture": "山形県", "id": 1651 },
        { "address": "名高", "city": "最上郡戸沢村", "postcode": "9996313", "prefecture": "山形県", "id": 1652 },
        { "address": "古口", "city": "最上郡戸沢村", "postcode": "9996801", "prefecture": "山形県", "id": 1653 },
        { "address": "古口", "city": "最上郡戸沢村", "postcode": "9996401", "prefecture": "山形県", "id": 1654 },
        { "address": "松坂", "city": "最上郡戸沢村", "postcode": "9996314", "prefecture": "山形県", "id": 1655 },
        { "city": "東置賜郡高畠町", "postcode": "9920300", "prefecture": "山形県", "id": 1656 },
        { "address": "相森", "city": "東置賜郡高畠町", "postcode": "9920332", "prefecture": "山形県", "id": 1657 },
        { "address": "安久津", "city": "東置賜郡高畠町", "postcode": "9920302", "prefecture": "山形県", "id": 1658 },
        { "address": "石岡", "city": "東置賜郡高畠町", "postcode": "9992171", "prefecture": "山形県", "id": 1659 },
        { "address": "泉岡", "city": "東置賜郡高畠町", "postcode": "9920315", "prefecture": "山形県", "id": 1660 },
        { "address": "一本柳", "city": "東置賜郡高畠町", "postcode": "9920334", "prefecture": "山形県", "id": 1661 },
        { "address": "入生田", "city": "東置賜郡高畠町", "postcode": "9920324", "prefecture": "山形県", "id": 1662 },
        { "address": "小其塚", "city": "東置賜郡高畠町", "postcode": "9992177", "prefecture": "山形県", "id": 1663 },
        { "address": "柏木目", "city": "東置賜郡高畠町", "postcode": "9920333", "prefecture": "山形県", "id": 1664 },
        { "address": "金原", "city": "東置賜郡高畠町", "postcode": "9920311", "prefecture": "山形県", "id": 1665 },
        { "address": "上平柳", "city": "東置賜郡高畠町", "postcode": "9992178", "prefecture": "山形県", "id": 1666 },
        { "address": "上和田", "city": "東置賜郡高畠町", "postcode": "9920261", "prefecture": "山形県", "id": 1667 },
        { "address": "亀岡", "city": "東置賜郡高畠町", "postcode": "9920321", "prefecture": "山形県", "id": 1668 },
        { "address": "川沼", "city": "東置賜郡高畠町", "postcode": "9920335", "prefecture": "山形県", "id": 1669 },
        { "address": "高安", "city": "東置賜郡高畠町", "postcode": "9920313", "prefecture": "山形県", "id": 1670 },
        { "address": "小郡山", "city": "東置賜郡高畠町", "postcode": "9920312", "prefecture": "山形県", "id": 1671 },
        { "address": "佐沢", "city": "東置賜郡高畠町", "postcode": "9920265", "prefecture": "山形県", "id": 1672 },
        { "address": "三条目", "city": "東置賜郡高畠町", "postcode": "9920331", "prefecture": "山形県", "id": 1673 },
        { "address": "塩森", "city": "東置賜郡高畠町", "postcode": "9920314", "prefecture": "山形県", "id": 1674 },
        { "address": "下和田", "city": "東置賜郡高畠町", "postcode": "9920263", "prefecture": "山形県", "id": 1675 },
        { "address": "蛇口", "city": "東置賜郡高畠町", "postcode": "9992179", "prefecture": "山形県", "id": 1676 },
        { "address": "高畠", "city": "東置賜郡高畠町", "postcode": "9920351", "prefecture": "山形県", "id": 1677 },
        { "address": "竹森", "city": "東置賜郡高畠町", "postcode": "9920342", "prefecture": "山形県", "id": 1678 },
        { "address": "露藤", "city": "東置賜郡高畠町", "postcode": "9920323", "prefecture": "山形県", "id": 1679 },
        { "address": "時沢", "city": "東置賜郡高畠町", "postcode": "9920341", "prefecture": "山形県", "id": 1680 },
        { "address": "中里", "city": "東置賜郡高畠町", "postcode": "9920352", "prefecture": "山形県", "id": 1681 },
        { "address": "中島", "city": "東置賜郡高畠町", "postcode": "9920322", "prefecture": "山形県", "id": 1682 },
        { "address": "夏茂", "city": "東置賜郡高畠町", "postcode": "9992172", "prefecture": "山形県", "id": 1683 },
        { "address": "二井宿", "city": "東置賜郡高畠町", "postcode": "9920301", "prefecture": "山形県", "id": 1684 },
        { "address": "糠野目", "city": "東置賜郡高畠町", "postcode": "9992176", "prefecture": "山形県", "id": 1685 },
        { "address": "根岸", "city": "東置賜郡高畠町", "postcode": "9920343", "prefecture": "山形県", "id": 1686 },
        { "address": "馬頭", "city": "東置賜郡高畠町", "postcode": "9920264", "prefecture": "山形県", "id": 1687 },
        { "address": "深沼", "city": "東置賜郡高畠町", "postcode": "9920344", "prefecture": "山形県", "id": 1688 },
        { "address": "福沢", "city": "東置賜郡高畠町", "postcode": "9992174", "prefecture": "山形県", "id": 1689 },
        { "address": "福沢南", "city": "東置賜郡高畠町", "postcode": "9992175", "prefecture": "山形県", "id": 1690 },
        { "address": "船橋", "city": "東置賜郡高畠町", "postcode": "9920325", "prefecture": "山形県", "id": 1691 },
        { "address": "元和田", "city": "東置賜郡高畠町", "postcode": "9920262", "prefecture": "山形県", "id": 1692 },
        { "address": "山崎", "city": "東置賜郡高畠町", "postcode": "9992173", "prefecture": "山形県", "id": 1693 },
        { "city": "東置賜郡川西町", "postcode": "9990100", "prefecture": "山形県", "id": 1694 },
        { "address": "大塚", "city": "東置賜郡川西町", "postcode": "9920602", "prefecture": "山形県", "id": 1695 },
        { "address": "大舟", "city": "東置賜郡川西町", "postcode": "9990151", "prefecture": "山形県", "id": 1696 },
        { "address": "尾長島", "city": "東置賜郡川西町", "postcode": "9990213", "prefecture": "山形県", "id": 1697 },
        { "address": "上奥田", "city": "東置賜郡川西町", "postcode": "9990152", "prefecture": "山形県", "id": 1698 },
        { "address": "上小松", "city": "東置賜郡川西町", "postcode": "9990121", "prefecture": "山形県", "id": 1699 },
        { "address": "黒川", "city": "東置賜郡川西町", "postcode": "9990131", "prefecture": "山形県", "id": 1700 },
        { "address": "高豆蒄", "city": "東置賜郡川西町", "postcode": "9990132", "prefecture": "山形県", "id": 1701 },
        { "address": "小松", "city": "東置賜郡川西町", "postcode": "9990133", "prefecture": "山形県", "id": 1702 },
        { "address": "下奥田", "city": "東置賜郡川西町", "postcode": "9990145", "prefecture": "山形県", "id": 1703 },
        { "address": "下小松", "city": "東置賜郡川西町", "postcode": "9990134", "prefecture": "山形県", "id": 1704 },
        { "address": "下平柳", "city": "東置賜郡川西町", "postcode": "9990212", "prefecture": "山形県", "id": 1705 },
        { "address": "洲島", "city": "東置賜郡川西町", "postcode": "9990211", "prefecture": "山形県", "id": 1706 },
        { "address": "高山", "city": "東置賜郡川西町", "postcode": "9990141", "prefecture": "山形県", "id": 1707 },
        { "address": "玉庭", "city": "東置賜郡川西町", "postcode": "9990361", "prefecture": "山形県", "id": 1708 },
        { "address": "時田", "city": "東置賜郡川西町", "postcode": "9990144", "prefecture": "山形県", "id": 1709 },
        { "address": "中小松", "city": "東置賜郡川西町", "postcode": "9990122", "prefecture": "山形県", "id": 1710 },
        { "address": "西大塚", "city": "東置賜郡川西町", "postcode": "9920601", "prefecture": "山形県", "id": 1711 },
        { "address": "莅", "city": "東置賜郡川西町", "postcode": "9990143", "prefecture": "山形県", "id": 1712 },
        { "address": "東大塚", "city": "東置賜郡川西町", "postcode": "9920603", "prefecture": "山形県", "id": 1713 },
        { "address": "朴沢", "city": "東置賜郡川西町", "postcode": "9990153", "prefecture": "山形県", "id": 1714 },
        { "address": "堀金", "city": "東置賜郡川西町", "postcode": "9990142", "prefecture": "山形県", "id": 1715 },
        { "address": "吉田", "city": "東置賜郡川西町", "postcode": "9990214", "prefecture": "山形県", "id": 1716 },
        { "city": "西置賜郡小国町", "postcode": "9991300", "prefecture": "山形県", "id": 1717 },
        { "address": "あけぼの", "city": "西置賜郡小国町", "postcode": "9991356", "prefecture": "山形県", "id": 1718 },
        { "address": "朝篠", "city": "西置賜郡小国町", "postcode": "9991323", "prefecture": "山形県", "id": 1719 },
        { "address": "足野水", "city": "西置賜郡小国町", "postcode": "9991507", "prefecture": "山形県", "id": 1720 },
        { "address": "足水中里", "city": "西置賜郡小国町", "postcode": "9991504", "prefecture": "山形県", "id": 1721 },
        { "address": "網代瀬", "city": "西置賜郡小国町", "postcode": "9991402", "prefecture": "山形県", "id": 1722 },
        { "address": "荒沢", "city": "西置賜郡小国町", "postcode": "9991434", "prefecture": "山形県", "id": 1723 },
        { "address": "新股", "city": "西置賜郡小国町", "postcode": "9991213", "prefecture": "山形県", "id": 1724 },
        { "address": "伊佐領", "city": "西置賜郡小国町", "postcode": "9991322", "prefecture": "山形県", "id": 1725 },
        { "address": "石滝", "city": "西置賜郡小国町", "postcode": "9991451", "prefecture": "山形県", "id": 1726 },
        { "address": "泉岡", "city": "西置賜郡小国町", "postcode": "9991521", "prefecture": "山形県", "id": 1727 },
        { "address": "市野沢", "city": "西置賜郡小国町", "postcode": "9991506", "prefecture": "山形県", "id": 1728 },
        { "address": "市野々", "city": "西置賜郡小国町", "postcode": "9991203", "prefecture": "山形県", "id": 1729 },
        { "address": "今市", "city": "西置賜郡小国町", "postcode": "9991413", "prefecture": "山形県", "id": 1730 },
        { "address": "入折戸", "city": "西置賜郡小国町", "postcode": "9991435", "prefecture": "山形県", "id": 1731 },
        { "address": "岩井沢", "city": "西置賜郡小国町", "postcode": "9991352", "prefecture": "山形県", "id": 1732 },
        { "address": "越中里", "city": "西置賜郡小国町", "postcode": "9991421", "prefecture": "山形県", "id": 1733 },
        { "address": "大石沢", "city": "西置賜郡小国町", "postcode": "9991212", "prefecture": "山形県", "id": 1734 },
        { "address": "大滝", "city": "西置賜郡小国町", "postcode": "9991336", "prefecture": "山形県", "id": 1735 },
        { "address": "大宮", "city": "西置賜郡小国町", "postcode": "9991342", "prefecture": "山形県", "id": 1736 },
        {
            "address": "小国小坂町",
            "city": "西置賜郡小国町",
            "postcode": "9991363",
            "prefecture": "山形県",
            "id": 1737
        },
        { "address": "小国町", "city": "西置賜郡小国町", "postcode": "9991351", "prefecture": "山形県", "id": 1738 },
        { "address": "小渡", "city": "西置賜郡小国町", "postcode": "9991312", "prefecture": "山形県", "id": 1739 },
        { "address": "驚", "city": "西置賜郡小国町", "postcode": "9991441", "prefecture": "山形県", "id": 1740 },
        { "address": "小股", "city": "西置賜郡小国町", "postcode": "9991443", "prefecture": "山形県", "id": 1741 },
        { "address": "折戸", "city": "西置賜郡小国町", "postcode": "9991436", "prefecture": "山形県", "id": 1742 },
        { "address": "貝少", "city": "西置賜郡小国町", "postcode": "9991311", "prefecture": "山形県", "id": 1743 },
        { "address": "片貝", "city": "西置賜郡小国町", "postcode": "9991512", "prefecture": "山形県", "id": 1744 },
        { "address": "金目", "city": "西置賜郡小国町", "postcode": "9991301", "prefecture": "山形県", "id": 1745 },
        { "address": "叶水", "city": "西置賜郡小国町", "postcode": "9991211", "prefecture": "山形県", "id": 1746 },
        { "address": "河原角", "city": "西置賜郡小国町", "postcode": "9991214", "prefecture": "山形県", "id": 1747 },
        { "address": "北", "city": "西置賜郡小国町", "postcode": "9991345", "prefecture": "山形県", "id": 1748 },
        { "address": "黒沢", "city": "西置賜郡小国町", "postcode": "9991334", "prefecture": "山形県", "id": 1749 },
        { "address": "小倉", "city": "西置賜郡小国町", "postcode": "9991339", "prefecture": "山形県", "id": 1750 },
        { "address": "小玉川", "city": "西置賜郡小国町", "postcode": "9991522", "prefecture": "山形県", "id": 1751 },
        { "address": "五味沢", "city": "西置賜郡小国町", "postcode": "9991452", "prefecture": "山形県", "id": 1752 },
        { "address": "幸町", "city": "西置賜郡小国町", "postcode": "9991354", "prefecture": "山形県", "id": 1753 },
        { "address": "栄町", "city": "西置賜郡小国町", "postcode": "9991361", "prefecture": "山形県", "id": 1754 },
        { "address": "白子沢", "city": "西置賜郡小国町", "postcode": "9991202", "prefecture": "山形県", "id": 1755 },
        { "address": "尻無沢", "city": "西置賜郡小国町", "postcode": "9991412", "prefecture": "山形県", "id": 1756 },
        { "address": "新原", "city": "西置賜郡小国町", "postcode": "9991337", "prefecture": "山形県", "id": 1757 },
        { "address": "新屋敷", "city": "西置賜郡小国町", "postcode": "9991314", "prefecture": "山形県", "id": 1758 },
        { "address": "菅沼", "city": "西置賜郡小国町", "postcode": "9991503", "prefecture": "山形県", "id": 1759 },
        { "address": "杉沢", "city": "西置賜郡小国町", "postcode": "9991338", "prefecture": "山形県", "id": 1760 },
        { "address": "芹出", "city": "西置賜郡小国町", "postcode": "9991333", "prefecture": "山形県", "id": 1761 },
        { "address": "太鼓沢", "city": "西置賜郡小国町", "postcode": "9991442", "prefecture": "山形県", "id": 1762 },
        { "address": "滝倉", "city": "西置賜郡小国町", "postcode": "9991502", "prefecture": "山形県", "id": 1763 },
        { "address": "田沢頭", "city": "西置賜郡小国町", "postcode": "9991344", "prefecture": "山形県", "id": 1764 },
        { "address": "種沢", "city": "西置賜郡小国町", "postcode": "9991335", "prefecture": "山形県", "id": 1765 },
        { "address": "玉川", "city": "西置賜郡小国町", "postcode": "9991511", "prefecture": "山形県", "id": 1766 },
        { "address": "玉川中里", "city": "西置賜郡小国町", "postcode": "9991514", "prefecture": "山形県", "id": 1767 },
        { "address": "樽口", "city": "西置賜郡小国町", "postcode": "9991501", "prefecture": "山形県", "id": 1768 },
        { "address": "綱木箱口", "city": "西置賜郡小国町", "postcode": "9991321", "prefecture": "山形県", "id": 1769 },
        { "address": "栃倉", "city": "西置賜郡小国町", "postcode": "9991414", "prefecture": "山形県", "id": 1770 },
        { "address": "中島", "city": "西置賜郡小国町", "postcode": "9991432", "prefecture": "山形県", "id": 1771 },
        { "address": "中田山崎", "city": "西置賜郡小国町", "postcode": "9991513", "prefecture": "山形県", "id": 1772 },
        { "address": "長沢", "city": "西置賜郡小国町", "postcode": "9991422", "prefecture": "山形県", "id": 1773 },
        { "address": "西", "city": "西置賜郡小国町", "postcode": "9991355", "prefecture": "山形県", "id": 1774 },
        { "address": "西滝", "city": "西置賜郡小国町", "postcode": "9991215", "prefecture": "山形県", "id": 1775 },
        { "address": "沼沢", "city": "西置賜郡小国町", "postcode": "9991201", "prefecture": "山形県", "id": 1776 },
        { "address": "針生", "city": "西置賜郡小国町", "postcode": "9991313", "prefecture": "山形県", "id": 1777 },
        { "address": "東滝", "city": "西置賜郡小国町", "postcode": "9991216", "prefecture": "山形県", "id": 1778 },
        { "address": "東原", "city": "西置賜郡小国町", "postcode": "9991331", "prefecture": "山形県", "id": 1779 },
        { "address": "樋ノ沢", "city": "西置賜郡小国町", "postcode": "9991433", "prefecture": "山形県", "id": 1780 },
        { "address": "百子沢", "city": "西置賜郡小国町", "postcode": "9991505", "prefecture": "山形県", "id": 1781 },
        { "address": "兵庫舘", "city": "西置賜郡小国町", "postcode": "9991353", "prefecture": "山形県", "id": 1782 },
        { "address": "舟渡", "city": "西置賜郡小国町", "postcode": "9991401", "prefecture": "山形県", "id": 1783 },
        { "address": "古田", "city": "西置賜郡小国町", "postcode": "9991302", "prefecture": "山形県", "id": 1784 },
        { "address": "増岡", "city": "西置賜郡小国町", "postcode": "9991341", "prefecture": "山形県", "id": 1785 },
        { "address": "町原", "city": "西置賜郡小国町", "postcode": "9991332", "prefecture": "山形県", "id": 1786 },
        { "address": "松岡", "city": "西置賜郡小国町", "postcode": "9991324", "prefecture": "山形県", "id": 1787 },
        { "address": "松崎", "city": "西置賜郡小国町", "postcode": "9991411", "prefecture": "山形県", "id": 1788 },
        { "address": "緑町", "city": "西置賜郡小国町", "postcode": "9991362", "prefecture": "山形県", "id": 1789 },
        { "address": "宮の台", "city": "西置賜郡小国町", "postcode": "9991343", "prefecture": "山形県", "id": 1790 },
        { "address": "焼山", "city": "西置賜郡小国町", "postcode": "9991431", "prefecture": "山形県", "id": 1791 },
        { "address": "湯ノ花", "city": "西置賜郡小国町", "postcode": "9991346", "prefecture": "山形県", "id": 1792 },
        { "address": "若山", "city": "西置賜郡小国町", "postcode": "9991303", "prefecture": "山形県", "id": 1793 },
        { "city": "西置賜郡白鷹町", "postcode": "9920800", "prefecture": "山形県", "id": 1794 },
        { "address": "浅立", "city": "西置賜郡白鷹町", "postcode": "9920852", "prefecture": "山形県", "id": 1795 },
        { "address": "鮎貝", "city": "西置賜郡白鷹町", "postcode": "9920771", "prefecture": "山形県", "id": 1796 },
        { "address": "荒砥甲", "city": "西置賜郡白鷹町", "postcode": "9920831", "prefecture": "山形県", "id": 1797 },
        { "address": "荒砥乙", "city": "西置賜郡白鷹町", "postcode": "9920832", "prefecture": "山形県", "id": 1798 },
        { "address": "大瀬", "city": "西置賜郡白鷹町", "postcode": "9920861", "prefecture": "山形県", "id": 1799 },
        { "address": "黒鴨", "city": "西置賜郡白鷹町", "postcode": "9920775", "prefecture": "山形県", "id": 1800 },
        { "address": "畔藤", "city": "西置賜郡白鷹町", "postcode": "9920841", "prefecture": "山形県", "id": 1801 },
        { "address": "佐野原", "city": "西置賜郡白鷹町", "postcode": "9920864", "prefecture": "山形県", "id": 1802 },
        { "address": "下山", "city": "西置賜郡白鷹町", "postcode": "9920862", "prefecture": "山形県", "id": 1803 },
        { "address": "十王", "city": "西置賜郡白鷹町", "postcode": "9920821", "prefecture": "山形県", "id": 1804 },
        { "address": "菖蒲", "city": "西置賜郡白鷹町", "postcode": "9920863", "prefecture": "山形県", "id": 1805 },
        { "address": "高岡", "city": "西置賜郡白鷹町", "postcode": "9920778", "prefecture": "山形県", "id": 1806 },
        { "address": "高玉", "city": "西置賜郡白鷹町", "postcode": "9920773", "prefecture": "山形県", "id": 1807 },
        { "address": "滝野", "city": "西置賜郡白鷹町", "postcode": "9920812", "prefecture": "山形県", "id": 1808 },
        { "address": "栃窪", "city": "西置賜郡白鷹町", "postcode": "9920777", "prefecture": "山形県", "id": 1809 },
        { "address": "中山", "city": "西置賜郡白鷹町", "postcode": "9920802", "prefecture": "山形県", "id": 1810 },
        { "address": "萩野", "city": "西置賜郡白鷹町", "postcode": "9920811", "prefecture": "山形県", "id": 1811 },
        { "address": "針生", "city": "西置賜郡白鷹町", "postcode": "9920801", "prefecture": "山形県", "id": 1812 },
        { "address": "広野", "city": "西置賜郡白鷹町", "postcode": "9920851", "prefecture": "山形県", "id": 1813 },
        { "address": "箕和田", "city": "西置賜郡白鷹町", "postcode": "9920779", "prefecture": "山形県", "id": 1814 },
        { "address": "深山", "city": "西置賜郡白鷹町", "postcode": "9920776", "prefecture": "山形県", "id": 1815 },
        { "address": "山口", "city": "西置賜郡白鷹町", "postcode": "9920774", "prefecture": "山形県", "id": 1816 },
        { "address": "横田尻", "city": "西置賜郡白鷹町", "postcode": "9920772", "prefecture": "山形県", "id": 1817 },
        { "city": "西置賜郡飯豊町", "postcode": "9990600", "prefecture": "山形県", "id": 1818 },
        { "address": "岩倉", "city": "西置賜郡飯豊町", "postcode": "9990436", "prefecture": "山形県", "id": 1819 },
        { "address": "宇津沢", "city": "西置賜郡飯豊町", "postcode": "9990425", "prefecture": "山形県", "id": 1820 },
        { "address": "上原", "city": "西置賜郡飯豊町", "postcode": "9990427", "prefecture": "山形県", "id": 1821 },
        { "address": "遅谷", "city": "西置賜郡飯豊町", "postcode": "9990426", "prefecture": "山形県", "id": 1822 },
        { "address": "数馬", "city": "西置賜郡飯豊町", "postcode": "9990424", "prefecture": "山形県", "id": 1823 },
        { "address": "上屋地", "city": "西置賜郡飯豊町", "postcode": "9990433", "prefecture": "山形県", "id": 1824 },
        { "address": "川内戸", "city": "西置賜郡飯豊町", "postcode": "9990434", "prefecture": "山形県", "id": 1825 },
        { "address": "黒沢", "city": "西置賜郡飯豊町", "postcode": "9990603", "prefecture": "山形県", "id": 1826 },
        { "address": "小白川", "city": "西置賜郡飯豊町", "postcode": "9991113", "prefecture": "山形県", "id": 1827 },
        { "address": "小屋", "city": "西置賜郡飯豊町", "postcode": "9990421", "prefecture": "山形県", "id": 1828 },
        { "address": "下屋地", "city": "西置賜郡飯豊町", "postcode": "9990431", "prefecture": "山形県", "id": 1829 },
        { "address": "白川", "city": "西置賜郡飯豊町", "postcode": "9990432", "prefecture": "山形県", "id": 1830 },
        { "address": "須郷", "city": "西置賜郡飯豊町", "postcode": "9990423", "prefecture": "山形県", "id": 1831 },
        { "address": "添川", "city": "西置賜郡飯豊町", "postcode": "9990605", "prefecture": "山形県", "id": 1832 },
        { "address": "高造路", "city": "西置賜郡飯豊町", "postcode": "9990435", "prefecture": "山形県", "id": 1833 },
        { "address": "高峰", "city": "西置賜郡飯豊町", "postcode": "9991112", "prefecture": "山形県", "id": 1834 },
        { "address": "椿", "city": "西置賜郡飯豊町", "postcode": "9990604", "prefecture": "山形県", "id": 1835 },
        { "address": "手ノ子", "city": "西置賜郡飯豊町", "postcode": "9991111", "prefecture": "山形県", "id": 1836 },
        { "address": "中", "city": "西置賜郡飯豊町", "postcode": "9990601", "prefecture": "山形県", "id": 1837 },
        { "address": "萩生", "city": "西置賜郡飯豊町", "postcode": "9990602", "prefecture": "山形県", "id": 1838 },
        { "address": "広河原", "city": "西置賜郡飯豊町", "postcode": "9990422", "prefecture": "山形県", "id": 1839 },
        { "address": "松原", "city": "西置賜郡飯豊町", "postcode": "9990606", "prefecture": "山形県", "id": 1840 },
        { "city": "東田川郡三川町", "postcode": "9971300", "prefecture": "山形県", "id": 1841 },
        { "address": "青山", "city": "東田川郡三川町", "postcode": "9971311", "prefecture": "山形県", "id": 1842 },
        { "address": "猪子", "city": "東田川郡三川町", "postcode": "9971316", "prefecture": "山形県", "id": 1843 },
        { "address": "押切新田", "city": "東田川郡三川町", "postcode": "9971321", "prefecture": "山形県", "id": 1844 },
        { "address": "角田二口", "city": "東田川郡三川町", "postcode": "9971313", "prefecture": "山形県", "id": 1845 },
        { "address": "加藤", "city": "東田川郡三川町", "postcode": "9971336", "prefecture": "山形県", "id": 1846 },
        { "address": "神花", "city": "東田川郡三川町", "postcode": "9971315", "prefecture": "山形県", "id": 1847 },
        { "address": "小尺", "city": "東田川郡三川町", "postcode": "9971337", "prefecture": "山形県", "id": 1848 },
        { "address": "助川", "city": "東田川郡三川町", "postcode": "9971331", "prefecture": "山形県", "id": 1849 },
        { "address": "善阿弥", "city": "東田川郡三川町", "postcode": "9971312", "prefecture": "山形県", "id": 1850 },
        { "address": "竹原田", "city": "東田川郡三川町", "postcode": "9971334", "prefecture": "山形県", "id": 1851 },
        { "address": "堤野", "city": "東田川郡三川町", "postcode": "9971332", "prefecture": "山形県", "id": 1852 },
        { "address": "土口", "city": "東田川郡三川町", "postcode": "9971322", "prefecture": "山形県", "id": 1853 },
        { "address": "成田新田", "city": "東田川郡三川町", "postcode": "9971317", "prefecture": "山形県", "id": 1854 },
        { "address": "東沼", "city": "東田川郡三川町", "postcode": "9971314", "prefecture": "山形県", "id": 1855 },
        { "address": "菱沼", "city": "東田川郡三川町", "postcode": "9971335", "prefecture": "山形県", "id": 1856 },
        { "address": "横内", "city": "東田川郡三川町", "postcode": "9971333", "prefecture": "山形県", "id": 1857 },
        { "address": "横川", "city": "東田川郡三川町", "postcode": "9971338", "prefecture": "山形県", "id": 1858 },
        { "address": "横川新田", "city": "東田川郡三川町", "postcode": "9971339", "prefecture": "山形県", "id": 1859 },
        { "address": "横山", "city": "東田川郡三川町", "postcode": "9971301", "prefecture": "山形県", "id": 1860 },
        { "city": "東田川郡庄内町", "postcode": "9997700", "prefecture": "山形県", "id": 1861 },
        { "address": "赤渕新田", "city": "東田川郡庄内町", "postcode": "9997724", "prefecture": "山形県", "id": 1862 },
        { "address": "跡", "city": "東田川郡庄内町", "postcode": "9997701", "prefecture": "山形県", "id": 1863 },
        { "address": "余目", "city": "東田川郡庄内町", "postcode": "9997781", "prefecture": "山形県", "id": 1864 },
        { "address": "余目新田", "city": "東田川郡庄内町", "postcode": "9997714", "prefecture": "山形県", "id": 1865 },
        { "address": "新田目", "city": "東田川郡庄内町", "postcode": "9997743", "prefecture": "山形県", "id": 1866 },
        { "address": "生三", "city": "東田川郡庄内町", "postcode": "9997755", "prefecture": "山形県", "id": 1867 },
        { "address": "榎木", "city": "東田川郡庄内町", "postcode": "9997702", "prefecture": "山形県", "id": 1868 },
        { "address": "大野", "city": "東田川郡庄内町", "postcode": "9997747", "prefecture": "山形県", "id": 1869 },
        { "address": "大真木", "city": "東田川郡庄内町", "postcode": "9997737", "prefecture": "山形県", "id": 1870 },
        { "address": "近江新田", "city": "東田川郡庄内町", "postcode": "9997752", "prefecture": "山形県", "id": 1871 },
        { "address": "落合", "city": "東田川郡庄内町", "postcode": "9997763", "prefecture": "山形県", "id": 1872 },
        { "address": "家根合", "city": "東田川郡庄内町", "postcode": "9997762", "prefecture": "山形県", "id": 1873 },
        { "address": "狩川", "city": "東田川郡庄内町", "postcode": "9996601", "prefecture": "山形県", "id": 1874 },
        { "address": "肝煎", "city": "東田川郡庄内町", "postcode": "9996607", "prefecture": "山形県", "id": 1875 },
        { "address": "久田", "city": "東田川郡庄内町", "postcode": "9997766", "prefecture": "山形県", "id": 1876 },
        { "address": "京島", "city": "東田川郡庄内町", "postcode": "9997742", "prefecture": "山形県", "id": 1877 },
        { "address": "清川", "city": "東田川郡庄内町", "postcode": "9996606", "prefecture": "山形県", "id": 1878 },
        { "address": "桑田", "city": "東田川郡庄内町", "postcode": "9996605", "prefecture": "山形県", "id": 1879 },
        { "address": "小出新田", "city": "東田川郡庄内町", "postcode": "9997722", "prefecture": "山形県", "id": 1880 },
        { "address": "境興屋", "city": "東田川郡庄内町", "postcode": "9997745", "prefecture": "山形県", "id": 1881 },
        { "address": "沢新田", "city": "東田川郡庄内町", "postcode": "9997725", "prefecture": "山形県", "id": 1882 },
        { "address": "科沢", "city": "東田川郡庄内町", "postcode": "9996608", "prefecture": "山形県", "id": 1883 },
        { "address": "島田", "city": "東田川郡庄内町", "postcode": "9997754", "prefecture": "山形県", "id": 1884 },
        { "address": "常万", "city": "東田川郡庄内町", "postcode": "9997713", "prefecture": "山形県", "id": 1885 },
        { "address": "松陽", "city": "東田川郡庄内町", "postcode": "9997782", "prefecture": "山形県", "id": 1886 },
        { "address": "杉浦", "city": "東田川郡庄内町", "postcode": "9997765", "prefecture": "山形県", "id": 1887 },
        { "address": "千本杉", "city": "東田川郡庄内町", "postcode": "9996604", "prefecture": "山形県", "id": 1888 },
        { "address": "添津", "city": "東田川郡庄内町", "postcode": "9996603", "prefecture": "山形県", "id": 1889 },
        { "address": "返吉", "city": "東田川郡庄内町", "postcode": "9997741", "prefecture": "山形県", "id": 1890 },
        { "address": "高田麦", "city": "東田川郡庄内町", "postcode": "9997761", "prefecture": "山形県", "id": 1891 },
        { "address": "立谷沢", "city": "東田川郡庄内町", "postcode": "9996609", "prefecture": "山形県", "id": 1892 },
        { "address": "田谷", "city": "東田川郡庄内町", "postcode": "9997748", "prefecture": "山形県", "id": 1893 },
        { "address": "千河原", "city": "東田川郡庄内町", "postcode": "9997704", "prefecture": "山形県", "id": 1894 },
        { "address": "堤新田", "city": "東田川郡庄内町", "postcode": "9997721", "prefecture": "山形県", "id": 1895 },
        { "address": "廿六木", "city": "東田川郡庄内町", "postcode": "9997707", "prefecture": "山形県", "id": 1896 },
        { "address": "主殿新田", "city": "東田川郡庄内町", "postcode": "9997731", "prefecture": "山形県", "id": 1897 },
        { "address": "中野", "city": "東田川郡庄内町", "postcode": "9997734", "prefecture": "山形県", "id": 1898 },
        { "address": "西小野方", "city": "東田川郡庄内町", "postcode": "9997751", "prefecture": "山形県", "id": 1899 },
        { "address": "西野", "city": "東田川郡庄内町", "postcode": "9997768", "prefecture": "山形県", "id": 1900 },
        { "address": "西袋", "city": "東田川郡庄内町", "postcode": "9997746", "prefecture": "山形県", "id": 1901 },
        { "address": "払田", "city": "東田川郡庄内町", "postcode": "9997757", "prefecture": "山形県", "id": 1902 },
        { "address": "提興屋", "city": "東田川郡庄内町", "postcode": "9997706", "prefecture": "山形県", "id": 1903 },
        { "address": "平岡", "city": "東田川郡庄内町", "postcode": "9997703", "prefecture": "山形県", "id": 1904 },
        { "address": "深川", "city": "東田川郡庄内町", "postcode": "9997767", "prefecture": "山形県", "id": 1905 },
        { "address": "福島", "city": "東田川郡庄内町", "postcode": "9997736", "prefecture": "山形県", "id": 1906 },
        { "address": "福原", "city": "東田川郡庄内町", "postcode": "9997711", "prefecture": "山形県", "id": 1907 },
        { "address": "古関", "city": "東田川郡庄内町", "postcode": "9997726", "prefecture": "山形県", "id": 1908 },
        { "address": "堀野", "city": "東田川郡庄内町", "postcode": "9997712", "prefecture": "山形県", "id": 1909 },
        { "address": "前田野目", "city": "東田川郡庄内町", "postcode": "9997735", "prefecture": "山形県", "id": 1910 },
        { "address": "槇島", "city": "東田川郡庄内町", "postcode": "9997705", "prefecture": "山形県", "id": 1911 },
        { "address": "廻館", "city": "東田川郡庄内町", "postcode": "9997715", "prefecture": "山形県", "id": 1912 },
        { "address": "三ケ沢", "city": "東田川郡庄内町", "postcode": "9996602", "prefecture": "山形県", "id": 1913 },
        { "address": "南興屋", "city": "東田川郡庄内町", "postcode": "9997733", "prefecture": "山形県", "id": 1914 },
        { "address": "南野", "city": "東田川郡庄内町", "postcode": "9997727", "prefecture": "山形県", "id": 1915 },
        { "address": "南野新田", "city": "東田川郡庄内町", "postcode": "9997732", "prefecture": "山形県", "id": 1916 },
        { "address": "宮曽根", "city": "東田川郡庄内町", "postcode": "9997764", "prefecture": "山形県", "id": 1917 },
        { "address": "茗荷瀬", "city": "東田川郡庄内町", "postcode": "9997756", "prefecture": "山形県", "id": 1918 },
        { "address": "本小野方", "city": "東田川郡庄内町", "postcode": "9997744", "prefecture": "山形県", "id": 1919 },
        { "address": "吉岡", "city": "東田川郡庄内町", "postcode": "9997753", "prefecture": "山形県", "id": 1920 },
        { "address": "吉方", "city": "東田川郡庄内町", "postcode": "9997749", "prefecture": "山形県", "id": 1921 },
        { "address": "連枝", "city": "東田川郡庄内町", "postcode": "9997723", "prefecture": "山形県", "id": 1922 },
        { "city": "飽海郡遊佐町", "postcode": "9998300", "prefecture": "山形県", "id": 1923 },
        { "address": "岩川", "city": "飽海郡遊佐町", "postcode": "9998436", "prefecture": "山形県", "id": 1924 },
        { "address": "江地", "city": "飽海郡遊佐町", "postcode": "9998433", "prefecture": "山形県", "id": 1925 },
        { "address": "大蕨岡", "city": "飽海郡遊佐町", "postcode": "9998315", "prefecture": "山形県", "id": 1926 },
        { "address": "小原田", "city": "飽海郡遊佐町", "postcode": "9998311", "prefecture": "山形県", "id": 1927 },
        { "address": "鹿野沢", "city": "飽海郡遊佐町", "postcode": "9998312", "prefecture": "山形県", "id": 1928 },
        { "address": "上蕨岡", "city": "飽海郡遊佐町", "postcode": "9998314", "prefecture": "山形県", "id": 1929 },
        { "address": "北目", "city": "飽海郡遊佐町", "postcode": "9998522", "prefecture": "山形県", "id": 1930 },
        { "address": "小松", "city": "飽海郡遊佐町", "postcode": "9998317", "prefecture": "山形県", "id": 1931 },
        { "address": "庄泉", "city": "飽海郡遊佐町", "postcode": "9998435", "prefecture": "山形県", "id": 1932 },
        { "address": "白井新田", "city": "飽海郡遊佐町", "postcode": "9998304", "prefecture": "山形県", "id": 1933 },
        { "address": "菅里", "city": "飽海郡遊佐町", "postcode": "9998431", "prefecture": "山形県", "id": 1934 },
        { "address": "菅里", "city": "飽海郡遊佐町", "postcode": "9998531", "prefecture": "山形県", "id": 1935 },
        { "address": "杉沢", "city": "飽海郡遊佐町", "postcode": "9998313", "prefecture": "山形県", "id": 1936 },
        { "address": "直世", "city": "飽海郡遊佐町", "postcode": "9998525", "prefecture": "山形県", "id": 1937 },
        { "address": "当山", "city": "飽海郡遊佐町", "postcode": "9998523", "prefecture": "山形県", "id": 1938 },
        { "address": "富岡", "city": "飽海郡遊佐町", "postcode": "9998524", "prefecture": "山形県", "id": 1939 },
        { "address": "豊岡", "city": "飽海郡遊佐町", "postcode": "9998316", "prefecture": "山形県", "id": 1940 },
        { "address": "野沢", "city": "飽海郡遊佐町", "postcode": "9998303", "prefecture": "山形県", "id": 1941 },
        { "address": "比子", "city": "飽海郡遊佐町", "postcode": "9998438", "prefecture": "山形県", "id": 1942 },
        { "address": "吹浦", "city": "飽海郡遊佐町", "postcode": "9998521", "prefecture": "山形県", "id": 1943 },
        { "address": "藤崎", "city": "飽海郡遊佐町", "postcode": "9998437", "prefecture": "山形県", "id": 1944 },
        { "address": "増穂", "city": "飽海郡遊佐町", "postcode": "9998434", "prefecture": "山形県", "id": 1945 },
        { "address": "宮田", "city": "飽海郡遊佐町", "postcode": "9998432", "prefecture": "山形県", "id": 1946 },
        { "address": "遊佐", "city": "飽海郡遊佐町", "postcode": "9998301", "prefecture": "山形県", "id": 1947 },
        { "address": "吉出", "city": "飽海郡遊佐町", "postcode": "9998302", "prefecture": "山形県", "id": 1948 }
    ]
}
