{
    "postcodes": [
        { "city": "下関市", "postcode": "7500000", "prefecture": "山口県", "id": 0 },
        { "address": "赤池町", "city": "下関市", "postcode": "7520902", "prefecture": "山口県", "id": 1 },
        { "address": "垢田", "city": "下関市", "postcode": "7510846", "prefecture": "山口県", "id": 2 },
        { "address": "垢田町", "city": "下関市", "postcode": "7510841", "prefecture": "山口県", "id": 3 },
        { "address": "赤間町", "city": "下関市", "postcode": "7500007", "prefecture": "山口県", "id": 4 },
        { "address": "秋根", "city": "下関市", "postcode": "7510871", "prefecture": "山口県", "id": 5 },
        { "address": "秋根上町", "city": "下関市", "postcode": "7510878", "prefecture": "山口県", "id": 6 },
        { "address": "秋根新町", "city": "下関市", "postcode": "7510874", "prefecture": "山口県", "id": 7 },
        { "address": "秋根東町", "city": "下関市", "postcode": "7510877", "prefecture": "山口県", "id": 8 },
        { "address": "秋根西町", "city": "下関市", "postcode": "7510873", "prefecture": "山口県", "id": 9 },
        { "address": "秋根南町", "city": "下関市", "postcode": "7510872", "prefecture": "山口県", "id": 10 },
        { "address": "秋根北町", "city": "下関市", "postcode": "7510876", "prefecture": "山口県", "id": 11 },
        { "address": "秋根本町", "city": "下関市", "postcode": "7510875", "prefecture": "山口県", "id": 12 },
        { "address": "阿弥陀寺町", "city": "下関市", "postcode": "7500003", "prefecture": "山口県", "id": 13 },
        { "address": "綾羅木", "city": "下関市", "postcode": "7510866", "prefecture": "山口県", "id": 14 },
        { "address": "綾羅木新町", "city": "下関市", "postcode": "7510865", "prefecture": "山口県", "id": 15 },
        { "address": "綾羅木本町", "city": "下関市", "postcode": "7510849", "prefecture": "山口県", "id": 16 },
        { "address": "綾羅木南町", "city": "下関市", "postcode": "7510848", "prefecture": "山口県", "id": 17 },
        { "address": "有冨", "city": "下関市", "postcode": "7510868", "prefecture": "山口県", "id": 18 },
        { "address": "あるかぽーと", "city": "下関市", "postcode": "7500036", "prefecture": "山口県", "id": 19 },
        { "address": "生野町", "city": "下関市", "postcode": "7510832", "prefecture": "山口県", "id": 20 },
        { "address": "伊倉", "city": "下関市", "postcode": "7510862", "prefecture": "山口県", "id": 21 },
        { "address": "伊倉新町", "city": "下関市", "postcode": "7510869", "prefecture": "山口県", "id": 22 },
        { "address": "伊倉東町", "city": "下関市", "postcode": "7510861", "prefecture": "山口県", "id": 23 },
        { "address": "伊倉本町", "city": "下関市", "postcode": "7510863", "prefecture": "山口県", "id": 24 },
        { "address": "伊倉町", "city": "下関市", "postcode": "7510864", "prefecture": "山口県", "id": 25 },
        { "address": "伊崎町", "city": "下関市", "postcode": "7500065", "prefecture": "山口県", "id": 26 },
        { "address": "石神町", "city": "下関市", "postcode": "7510825", "prefecture": "山口県", "id": 27 },
        { "address": "石原", "city": "下関市", "postcode": "7510886", "prefecture": "山口県", "id": 28 },
        { "address": "井田", "city": "下関市", "postcode": "7510881", "prefecture": "山口県", "id": 29 },
        { "address": "一の宮卸本町", "city": "下関市", "postcode": "7510817", "prefecture": "山口県", "id": 30 },
        { "address": "一の宮学園町", "city": "下関市", "postcode": "7510807", "prefecture": "山口県", "id": 31 },
        { "address": "一の宮住吉", "city": "下関市", "postcode": "7510805", "prefecture": "山口県", "id": 32 },
        { "address": "一の宮東町", "city": "下関市", "postcode": "7510809", "prefecture": "山口県", "id": 33 },
        { "address": "一の宮本町", "city": "下関市", "postcode": "7510808", "prefecture": "山口県", "id": 34 },
        { "address": "一の宮町", "city": "下関市", "postcode": "7510806", "prefecture": "山口県", "id": 35 },
        { "address": "今浦町", "city": "下関市", "postcode": "7500064", "prefecture": "山口県", "id": 36 },
        { "address": "入江町", "city": "下関市", "postcode": "7500013", "prefecture": "山口県", "id": 37 },
        { "address": "上条町", "city": "下関市", "postcode": "7500027", "prefecture": "山口県", "id": 38 },
        { "address": "植田", "city": "下関市", "postcode": "7500251", "prefecture": "山口県", "id": 39 },
        { "address": "後田町", "city": "下関市", "postcode": "7510826", "prefecture": "山口県", "id": 40 },
        { "address": "内日上", "city": "下関市", "postcode": "7500252", "prefecture": "山口県", "id": 41 },
        { "address": "内日下", "city": "下関市", "postcode": "7500253", "prefecture": "山口県", "id": 42 },
        { "address": "宇津井", "city": "下関市", "postcode": "7501111", "prefecture": "山口県", "id": 43 },
        { "address": "宇部", "city": "下関市", "postcode": "7520923", "prefecture": "山口県", "id": 44 },
        { "address": "王喜宇津井", "city": "下関市", "postcode": "7501115", "prefecture": "山口県", "id": 45 },
        { "address": "王喜本町", "city": "下関市", "postcode": "7501114", "prefecture": "山口県", "id": 46 },
        { "address": "王司上町", "city": "下関市", "postcode": "7520916", "prefecture": "山口県", "id": 47 },
        { "address": "王司川端", "city": "下関市", "postcode": "7520912", "prefecture": "山口県", "id": 48 },
        { "address": "王司神田", "city": "下関市", "postcode": "7520911", "prefecture": "山口県", "id": 49 },
        { "address": "王司本町", "city": "下関市", "postcode": "7520915", "prefecture": "山口県", "id": 50 },
        { "address": "王司南町", "city": "下関市", "postcode": "7520924", "prefecture": "山口県", "id": 51 },
        { "address": "阿内", "city": "下関市", "postcode": "7501171", "prefecture": "山口県", "id": 52 },
        { "address": "大坪本町", "city": "下関市", "postcode": "7500051", "prefecture": "山口県", "id": 53 },
        { "address": "小月市原町", "city": "下関市", "postcode": "7501147", "prefecture": "山口県", "id": 54 },
        { "address": "小月駅前", "city": "下関市", "postcode": "7501143", "prefecture": "山口県", "id": 55 },
        { "address": "小月京泊", "city": "下関市", "postcode": "7501134", "prefecture": "山口県", "id": 56 },
        { "address": "小月公園町", "city": "下関市", "postcode": "7501146", "prefecture": "山口県", "id": 57 },
        { "address": "小月小島", "city": "下関市", "postcode": "7501136", "prefecture": "山口県", "id": 58 },
        { "address": "小月幸町", "city": "下関市", "postcode": "7501141", "prefecture": "山口県", "id": 59 },
        { "address": "小月杉迫", "city": "下関市", "postcode": "7501145", "prefecture": "山口県", "id": 60 },
        { "address": "小月高雄町", "city": "下関市", "postcode": "7501133", "prefecture": "山口県", "id": 61 },
        { "address": "小月茶屋", "city": "下関市", "postcode": "7501144", "prefecture": "山口県", "id": 62 },
        { "address": "小月町", "city": "下関市", "postcode": "7501131", "prefecture": "山口県", "id": 63 },
        { "address": "小月西の台", "city": "下関市", "postcode": "7501135", "prefecture": "山口県", "id": 64 },
        { "address": "小月本町", "city": "下関市", "postcode": "7501142", "prefecture": "山口県", "id": 65 },
        { "address": "小月南町", "city": "下関市", "postcode": "7501137", "prefecture": "山口県", "id": 66 },
        { "address": "小月宮の町", "city": "下関市", "postcode": "7501132", "prefecture": "山口県", "id": 67 },
        { "address": "小野", "city": "下関市", "postcode": "7510887", "prefecture": "山口県", "id": 68 },
        { "address": "卸新町", "city": "下関市", "postcode": "7510818", "prefecture": "山口県", "id": 69 },
        { "address": "梶栗町", "city": "下関市", "postcode": "7596614", "prefecture": "山口県", "id": 70 },
        { "address": "春日町", "city": "下関市", "postcode": "7500031", "prefecture": "山口県", "id": 71 },
        { "address": "員光", "city": "下関市", "postcode": "7520904", "prefecture": "山口県", "id": 72 },
        { "address": "員光町", "city": "下関市", "postcode": "7520903", "prefecture": "山口県", "id": 73 },
        { "address": "形山", "city": "下関市", "postcode": "7510884", "prefecture": "山口県", "id": 74 },
        { "address": "形山町", "city": "下関市", "postcode": "7510888", "prefecture": "山口県", "id": 75 },
        { "address": "形山みどり町", "city": "下関市", "postcode": "7510885", "prefecture": "山口県", "id": 76 },
        { "address": "上新地町", "city": "下関市", "postcode": "7500061", "prefecture": "山口県", "id": 77 },
        { "address": "上田中町", "city": "下関市", "postcode": "7500009", "prefecture": "山口県", "id": 78 },
        { "address": "亀浜町", "city": "下関市", "postcode": "7520925", "prefecture": "山口県", "id": 79 },
        { "address": "蒲生野", "city": "下関市", "postcode": "7596602", "prefecture": "山口県", "id": 80 },
        { "address": "唐戸町", "city": "下関市", "postcode": "7500005", "prefecture": "山口県", "id": 81 },
        { "address": "川中本町", "city": "下関市", "postcode": "7510859", "prefecture": "山口県", "id": 82 },
        { "address": "川中豊町", "city": "下関市", "postcode": "7510853", "prefecture": "山口県", "id": 83 },
        { "address": "関西町", "city": "下関市", "postcode": "7500032", "prefecture": "山口県", "id": 84 },
        { "address": "関西本町", "city": "下関市", "postcode": "7500022", "prefecture": "山口県", "id": 85 },
        { "address": "神田", "city": "下関市", "postcode": "7520907", "prefecture": "山口県", "id": 86 },
        { "address": "神田町", "city": "下関市", "postcode": "7500044", "prefecture": "山口県", "id": 87 },
        { "address": "観音崎町", "city": "下関市", "postcode": "7500012", "prefecture": "山口県", "id": 88 },
        { "address": "菊川町上大野", "city": "下関市", "postcode": "7500311", "prefecture": "山口県", "id": 89 },
        { "address": "菊川町上岡枝", "city": "下関市", "postcode": "7500321", "prefecture": "山口県", "id": 90 },
        { "address": "菊川町上田部", "city": "下関市", "postcode": "7500314", "prefecture": "山口県", "id": 91 },
        { "address": "菊川町上保木", "city": "下関市", "postcode": "7500307", "prefecture": "山口県", "id": 92 },
        { "address": "菊川町貴飯", "city": "下関市", "postcode": "7500325", "prefecture": "山口県", "id": 93 },
        { "address": "菊川町轡井", "city": "下関市", "postcode": "7500305", "prefecture": "山口県", "id": 94 },
        { "address": "菊川町久野", "city": "下関市", "postcode": "7500324", "prefecture": "山口県", "id": 95 },
        { "address": "菊川町下大野", "city": "下関市", "postcode": "7500312", "prefecture": "山口県", "id": 96 },
        { "address": "菊川町下岡枝", "city": "下関市", "postcode": "7500317", "prefecture": "山口県", "id": 97 },
        { "address": "菊川町下保木", "city": "下関市", "postcode": "7500306", "prefecture": "山口県", "id": 98 },
        { "address": "菊川町田部", "city": "下関市", "postcode": "7500313", "prefecture": "山口県", "id": 99 },
        { "address": "菊川町七見", "city": "下関市", "postcode": "7500315", "prefecture": "山口県", "id": 100 },
        { "address": "菊川町楢崎", "city": "下関市", "postcode": "7500322", "prefecture": "山口県", "id": 101 },
        { "address": "菊川町西中山", "city": "下関市", "postcode": "7500301", "prefecture": "山口県", "id": 102 },
        { "address": "菊川町日新", "city": "下関市", "postcode": "7500323", "prefecture": "山口県", "id": 103 },
        { "address": "菊川町東中山", "city": "下関市", "postcode": "7500302", "prefecture": "山口県", "id": 104 },
        { "address": "菊川町道市", "city": "下関市", "postcode": "7500304", "prefecture": "山口県", "id": 105 },
        { "address": "菊川町樅ノ木", "city": "下関市", "postcode": "7500303", "prefecture": "山口県", "id": 106 },
        { "address": "菊川町吉賀", "city": "下関市", "postcode": "7500316", "prefecture": "山口県", "id": 107 },
        { "address": "貴船町", "city": "下関市", "postcode": "7510823", "prefecture": "山口県", "id": 108 },
        { "address": "清末", "city": "下関市", "postcode": "7501151", "prefecture": "山口県", "id": 109 },
        { "address": "清末東町", "city": "下関市", "postcode": "7501156", "prefecture": "山口県", "id": 110 },
        { "address": "清末鞍馬", "city": "下関市", "postcode": "7501153", "prefecture": "山口県", "id": 111 },
        { "address": "清末五毛", "city": "下関市", "postcode": "7501162", "prefecture": "山口県", "id": 112 },
        { "address": "清末陣屋", "city": "下関市", "postcode": "7501152", "prefecture": "山口県", "id": 113 },
        { "address": "清末千房", "city": "下関市", "postcode": "7501163", "prefecture": "山口県", "id": 114 },
        { "address": "清末大門", "city": "下関市", "postcode": "7501164", "prefecture": "山口県", "id": 115 },
        { "address": "清末中町", "city": "下関市", "postcode": "7501155", "prefecture": "山口県", "id": 116 },
        { "address": "清末西町", "city": "下関市", "postcode": "7501161", "prefecture": "山口県", "id": 117 },
        { "address": "清末本町", "city": "下関市", "postcode": "7501154", "prefecture": "山口県", "id": 118 },
        { "address": "楠乃", "city": "下関市", "postcode": "7510804", "prefecture": "山口県", "id": 119 },
        { "address": "熊野町", "city": "下関市", "postcode": "7510852", "prefecture": "山口県", "id": 120 },
        { "address": "熊野西町", "city": "下関市", "postcode": "7510851", "prefecture": "山口県", "id": 121 },
        { "address": "向洋町", "city": "下関市", "postcode": "7500041", "prefecture": "山口県", "id": 122 },
        { "address": "木屋川本町", "city": "下関市", "postcode": "7501112", "prefecture": "山口県", "id": 123 },
        { "address": "木屋川南町", "city": "下関市", "postcode": "7501113", "prefecture": "山口県", "id": 124 },
        { "address": "金比羅町", "city": "下関市", "postcode": "7500058", "prefecture": "山口県", "id": 125 },
        { "address": "才川", "city": "下関市", "postcode": "7520921", "prefecture": "山口県", "id": 126 },
        { "address": "幸町", "city": "下関市", "postcode": "7500001", "prefecture": "山口県", "id": 127 },
        { "address": "栄町", "city": "下関市", "postcode": "7500049", "prefecture": "山口県", "id": 128 },
        { "address": "桜山町", "city": "下関市", "postcode": "7500035", "prefecture": "山口県", "id": 129 },
        { "address": "笹山町", "city": "下関市", "postcode": "7500024", "prefecture": "山口県", "id": 130 },
        { "address": "汐入町", "city": "下関市", "postcode": "7500059", "prefecture": "山口県", "id": 131 },
        { "address": "勝谷", "city": "下関市", "postcode": "7510801", "prefecture": "山口県", "id": 132 },
        { "address": "勝谷新町", "city": "下関市", "postcode": "7510802", "prefecture": "山口県", "id": 133 },
        { "address": "白崎", "city": "下関市", "postcode": "7501116", "prefecture": "山口県", "id": 134 },
        { "address": "新垢田東町", "city": "下関市", "postcode": "7510843", "prefecture": "山口県", "id": 135 },
        { "address": "新垢田西町", "city": "下関市", "postcode": "7510844", "prefecture": "山口県", "id": 136 },
        { "address": "新垢田南町", "city": "下関市", "postcode": "7510842", "prefecture": "山口県", "id": 137 },
        { "address": "新垢田北町", "city": "下関市", "postcode": "7510845", "prefecture": "山口県", "id": 138 },
        { "address": "新地町", "city": "下関市", "postcode": "7500063", "prefecture": "山口県", "id": 139 },
        { "address": "新地西町", "city": "下関市", "postcode": "7500062", "prefecture": "山口県", "id": 140 },
        { "address": "新椋野", "city": "下関市", "postcode": "7510820", "prefecture": "山口県", "id": 141 },
        { "address": "筋川町", "city": "下関市", "postcode": "7500057", "prefecture": "山口県", "id": 142 },
        { "address": "筋ケ浜町", "city": "下関市", "postcode": "7500056", "prefecture": "山口県", "id": 143 },
        { "address": "大平町", "city": "下関市", "postcode": "7500053", "prefecture": "山口県", "id": 144 },
        { "address": "高畑", "city": "下関市", "postcode": "7520991", "prefecture": "山口県", "id": 145 },
        { "address": "宝町", "city": "下関市", "postcode": "7510822", "prefecture": "山口県", "id": 146 },
        { "address": "田倉", "city": "下関市", "postcode": "7510883", "prefecture": "山口県", "id": 147 },
        { "address": "田倉御殿町", "city": "下関市", "postcode": "7510882", "prefecture": "山口県", "id": 148 },
        { "address": "竹崎町", "city": "下関市", "postcode": "7500025", "prefecture": "山口県", "id": 149 },
        { "address": "武久町", "city": "下関市", "postcode": "7510833", "prefecture": "山口県", "id": 150 },
        { "address": "武久西原台", "city": "下関市", "postcode": "7510819", "prefecture": "山口県", "id": 151 },
        { "address": "田中町", "city": "下関市", "postcode": "7500008", "prefecture": "山口県", "id": 152 },
        { "address": "大学町", "city": "下関市", "postcode": "7510831", "prefecture": "山口県", "id": 153 },
        { "address": "壇之浦町", "city": "下関市", "postcode": "7510814", "prefecture": "山口県", "id": 154 },
        { "address": "千鳥ケ丘町", "city": "下関市", "postcode": "7520922", "prefecture": "山口県", "id": 155 },
        { "address": "千鳥浜町", "city": "下関市", "postcode": "7520914", "prefecture": "山口県", "id": 156 },
        { "address": "中央町", "city": "下関市", "postcode": "7500042", "prefecture": "山口県", "id": 157 },
        { "address": "長州出島", "city": "下関市", "postcode": "7510840", "prefecture": "山口県", "id": 158 },
        { "address": "長府安養寺", "city": "下関市", "postcode": "7520962", "prefecture": "山口県", "id": 159 },
        { "address": "長府印内町", "city": "下関市", "postcode": "7520957", "prefecture": "山口県", "id": 160 },
        { "address": "長府江下町", "city": "下関市", "postcode": "7520952", "prefecture": "山口県", "id": 161 },
        { "address": "長府逢坂町", "city": "下関市", "postcode": "7520971", "prefecture": "山口県", "id": 162 },
        { "address": "長府扇町", "city": "下関市", "postcode": "7520927", "prefecture": "山口県", "id": 163 },
        { "address": "長府金屋町", "city": "下関市", "postcode": "7520959", "prefecture": "山口県", "id": 164 },
        { "address": "長府金屋浜町", "city": "下関市", "postcode": "7520958", "prefecture": "山口県", "id": 165 },
        { "address": "長府亀の甲", "city": "下関市", "postcode": "7520966", "prefecture": "山口県", "id": 166 },
        { "address": "長府川端", "city": "下関市", "postcode": "7520979", "prefecture": "山口県", "id": 167 },
        { "address": "長府黒門町", "city": "下関市", "postcode": "7520980", "prefecture": "山口県", "id": 168 },
        { "address": "長府黒門東町", "city": "下関市", "postcode": "7520986", "prefecture": "山口県", "id": 169 },
        { "address": "長府黒門南町", "city": "下関市", "postcode": "7520989", "prefecture": "山口県", "id": 170 },
        { "address": "長府古城町", "city": "下関市", "postcode": "7520954", "prefecture": "山口県", "id": 171 },
        { "address": "長府紺屋町", "city": "下関市", "postcode": "7520968", "prefecture": "山口県", "id": 172 },
        { "address": "長府才川", "city": "下関市", "postcode": "7520928", "prefecture": "山口県", "id": 173 },
        { "address": "長府侍町", "city": "下関市", "postcode": "7520978", "prefecture": "山口県", "id": 174 },
        { "address": "長府四王司町", "city": "下関市", "postcode": "7520942", "prefecture": "山口県", "id": 175 },
        { "address": "長府新四王司町", "city": "下関市", "postcode": "7520941", "prefecture": "山口県", "id": 176 },
        { "address": "長府新松原町", "city": "下関市", "postcode": "7520982", "prefecture": "山口県", "id": 177 },
        { "address": "長府惣社町", "city": "下関市", "postcode": "7520970", "prefecture": "山口県", "id": 178 },
        { "address": "長府外浦町", "city": "下関市", "postcode": "7520985", "prefecture": "山口県", "id": 179 },
        { "address": "長府高場町", "city": "下関市", "postcode": "7520994", "prefecture": "山口県", "id": 180 },
        { "address": "長府珠の浦町", "city": "下関市", "postcode": "7520961", "prefecture": "山口県", "id": 181 },
        { "address": "長府豊浦町", "city": "下関市", "postcode": "7520945", "prefecture": "山口県", "id": 182 },
        { "address": "長府土居の内町", "city": "下関市", "postcode": "7520974", "prefecture": "山口県", "id": 183 },
        { "address": "長府中尾町", "city": "下関市", "postcode": "7520946", "prefecture": "山口県", "id": 184 },
        { "address": "長府中土居北町", "city": "下関市", "postcode": "7520963", "prefecture": "山口県", "id": 185 },
        { "address": "長府中土居本町", "city": "下関市", "postcode": "7520964", "prefecture": "山口県", "id": 186 },
        { "address": "長府中之町", "city": "下関市", "postcode": "7520973", "prefecture": "山口県", "id": 187 },
        { "address": "長府中浜町", "city": "下関市", "postcode": "7520975", "prefecture": "山口県", "id": 188 },
        { "address": "長府中六波町", "city": "下関市", "postcode": "7520944", "prefecture": "山口県", "id": 189 },
        { "address": "長府野久留米町", "city": "下関市", "postcode": "7520992", "prefecture": "山口県", "id": 190 },
        { "address": "長府羽衣町", "city": "下関市", "postcode": "7520987", "prefecture": "山口県", "id": 191 },
        { "address": "長府羽衣南町", "city": "下関市", "postcode": "7520988", "prefecture": "山口県", "id": 192 },
        { "address": "長府浜浦町", "city": "下関市", "postcode": "7520993", "prefecture": "山口県", "id": 193 },
        { "address": "長府浜浦西町", "city": "下関市", "postcode": "7520998", "prefecture": "山口県", "id": 194 },
        { "address": "長府浜浦南町", "city": "下関市", "postcode": "7520995", "prefecture": "山口県", "id": 195 },
        { "address": "長府東侍町", "city": "下関市", "postcode": "7520977", "prefecture": "山口県", "id": 196 },
        { "address": "長府日の出町", "city": "下関市", "postcode": "7520951", "prefecture": "山口県", "id": 197 },
        { "address": "長府古江小路町", "city": "下関市", "postcode": "7520972", "prefecture": "山口県", "id": 198 },
        { "address": "長府豊城町", "city": "下関市", "postcode": "7520943", "prefecture": "山口県", "id": 199 },
        { "address": "長府前八幡町", "city": "下関市", "postcode": "7520956", "prefecture": "山口県", "id": 200 },
        { "address": "長府松小田中町", "city": "下関市", "postcode": "7520935", "prefecture": "山口県", "id": 201 },
        { "address": "長府松小田東町", "city": "下関市", "postcode": "7520934", "prefecture": "山口県", "id": 202 },
        { "address": "長府松小田西町", "city": "下関市", "postcode": "7520937", "prefecture": "山口県", "id": 203 },
        { "address": "長府松小田南町", "city": "下関市", "postcode": "7520936", "prefecture": "山口県", "id": 204 },
        { "address": "長府松小田北町", "city": "下関市", "postcode": "7520932", "prefecture": "山口県", "id": 205 },
        { "address": "長府松小田本町", "city": "下関市", "postcode": "7520933", "prefecture": "山口県", "id": 206 },
        { "address": "長府松原町", "city": "下関市", "postcode": "7520983", "prefecture": "山口県", "id": 207 },
        { "address": "長府満珠新町", "city": "下関市", "postcode": "7520948", "prefecture": "山口県", "id": 208 },
        { "address": "長府満珠町", "city": "下関市", "postcode": "7520947", "prefecture": "山口県", "id": 209 },
        { "address": "長府三島町", "city": "下関市", "postcode": "7520965", "prefecture": "山口県", "id": 210 },
        { "address": "長府港町", "city": "下関市", "postcode": "7520953", "prefecture": "山口県", "id": 211 },
        { "address": "長府南之町", "city": "下関市", "postcode": "7520976", "prefecture": "山口県", "id": 212 },
        { "address": "長府宮崎町", "city": "下関市", "postcode": "7520984", "prefecture": "山口県", "id": 213 },
        { "address": "長府宮の内町", "city": "下関市", "postcode": "7520967", "prefecture": "山口県", "id": 214 },
        { "address": "長府向田町", "city": "下関市", "postcode": "7520996", "prefecture": "山口県", "id": 215 },
        { "address": "長府八幡町", "city": "下関市", "postcode": "7520955", "prefecture": "山口県", "id": 216 },
        { "address": "冨任", "city": "下関市", "postcode": "7596615", "prefecture": "山口県", "id": 217 },
        { "address": "富任町", "city": "下関市", "postcode": "7596613", "prefecture": "山口県", "id": 218 },
        { "address": "豊浦町厚母郷", "city": "下関市", "postcode": "7596314", "prefecture": "山口県", "id": 219 },
        { "address": "豊浦町宇賀", "city": "下関市", "postcode": "7596303", "prefecture": "山口県", "id": 220 },
        { "address": "豊浦町川棚", "city": "下関市", "postcode": "7596301", "prefecture": "山口県", "id": 221 },
        { "address": "豊浦町黒井", "city": "下関市", "postcode": "7596312", "prefecture": "山口県", "id": 222 },
        { "address": "豊浦町小串", "city": "下関市", "postcode": "7596302", "prefecture": "山口県", "id": 223 },
        { "address": "豊浦町豊洋台", "city": "下関市", "postcode": "7596313", "prefecture": "山口県", "id": 224 },
        { "address": "豊浦町室津上", "city": "下関市", "postcode": "7596315", "prefecture": "山口県", "id": 225 },
        { "address": "豊浦町室津下", "city": "下関市", "postcode": "7596316", "prefecture": "山口県", "id": 226 },
        { "address": "豊浦町吉永", "city": "下関市", "postcode": "7596311", "prefecture": "山口県", "id": 227 },
        { "address": "豊浦町涌田後地", "city": "下関市", "postcode": "7596317", "prefecture": "山口県", "id": 228 },
        { "address": "豊浦村", "city": "下関市", "postcode": "7520981", "prefecture": "山口県", "id": 229 },
        { "address": "豊田町阿座上", "city": "下関市", "postcode": "7500451", "prefecture": "山口県", "id": 230 },
        { "address": "豊田町荒木", "city": "下関市", "postcode": "7500404", "prefecture": "山口県", "id": 231 },
        { "address": "豊田町一ノ俣", "city": "下関市", "postcode": "7500403", "prefecture": "山口県", "id": 232 },
        { "address": "豊田町稲見", "city": "下関市", "postcode": "7500412", "prefecture": "山口県", "id": 233 },
        { "address": "豊田町稲光", "city": "下関市", "postcode": "7500442", "prefecture": "山口県", "id": 234 },
        { "address": "豊田町今出", "city": "下関市", "postcode": "7500431", "prefecture": "山口県", "id": 235 },
        { "address": "豊田町浮石", "city": "下関市", "postcode": "7500415", "prefecture": "山口県", "id": 236 },
        { "address": "豊田町宇内", "city": "下関市", "postcode": "7500411", "prefecture": "山口県", "id": 237 },
        { "address": "豊田町江良", "city": "下関市", "postcode": "7500452", "prefecture": "山口県", "id": 238 },
        { "address": "豊田町大河内", "city": "下関市", "postcode": "7500433", "prefecture": "山口県", "id": 239 },
        { "address": "豊田町城戸", "city": "下関市", "postcode": "7500455", "prefecture": "山口県", "id": 240 },
        { "address": "豊田町金道", "city": "下関市", "postcode": "7500413", "prefecture": "山口県", "id": 241 },
        { "address": "豊田町佐野", "city": "下関市", "postcode": "7500402", "prefecture": "山口県", "id": 242 },
        { "address": "豊田町地吉", "city": "下関市", "postcode": "7500432", "prefecture": "山口県", "id": 243 },
        { "address": "豊田町鷹子", "city": "下関市", "postcode": "7500416", "prefecture": "山口県", "id": 244 },
        { "address": "豊田町高山", "city": "下関市", "postcode": "7500446", "prefecture": "山口県", "id": 245 },
        { "address": "豊田町手洗", "city": "下関市", "postcode": "7500453", "prefecture": "山口県", "id": 246 },
        { "address": "豊田町殿居", "city": "下関市", "postcode": "7500401", "prefecture": "山口県", "id": 247 },
        { "address": "豊田町殿敷", "city": "下関市", "postcode": "7500421", "prefecture": "山口県", "id": 248 },
        { "address": "豊田町中村", "city": "下関市", "postcode": "7500441", "prefecture": "山口県", "id": 249 },
        { "address": "豊田町楢原", "city": "下関市", "postcode": "7500422", "prefecture": "山口県", "id": 250 },
        { "address": "豊田町西市", "city": "下関市", "postcode": "7500423", "prefecture": "山口県", "id": 251 },
        { "address": "豊田町西長野", "city": "下関市", "postcode": "7500454", "prefecture": "山口県", "id": 252 },
        { "address": "豊田町庭田", "city": "下関市", "postcode": "7500425", "prefecture": "山口県", "id": 253 },
        { "address": "豊田町萩原", "city": "下関市", "postcode": "7500444", "prefecture": "山口県", "id": 254 },
        { "address": "豊田町東長野", "city": "下関市", "postcode": "7500445", "prefecture": "山口県", "id": 255 },
        { "address": "豊田町日野", "city": "下関市", "postcode": "7500443", "prefecture": "山口県", "id": 256 },
        { "address": "豊田町杢路子", "city": "下関市", "postcode": "7500405", "prefecture": "山口県", "id": 257 },
        { "address": "豊田町八道", "city": "下関市", "postcode": "7500414", "prefecture": "山口県", "id": 258 },
        { "address": "豊田町矢田", "city": "下関市", "postcode": "7500424", "prefecture": "山口県", "id": 259 },
        { "address": "中之町", "city": "下関市", "postcode": "7500004", "prefecture": "山口県", "id": 260 },
        { "address": "長崎新町", "city": "下関市", "postcode": "7500023", "prefecture": "山口県", "id": 261 },
        { "address": "長崎中央町", "city": "下関市", "postcode": "7500021", "prefecture": "山口県", "id": 262 },
        { "address": "長崎本町", "city": "下関市", "postcode": "7500028", "prefecture": "山口県", "id": 263 },
        { "address": "長崎町", "city": "下関市", "postcode": "7500029", "prefecture": "山口県", "id": 264 },
        { "address": "永田郷", "city": "下関市", "postcode": "7596534", "prefecture": "山口県", "id": 265 },
        { "address": "永田本町", "city": "下関市", "postcode": "7596533", "prefecture": "山口県", "id": 266 },
        { "address": "長門町", "city": "下関市", "postcode": "7500026", "prefecture": "山口県", "id": 267 },
        { "address": "南部町", "city": "下関市", "postcode": "7500006", "prefecture": "山口県", "id": 268 },
        { "address": "西入江町", "city": "下関市", "postcode": "7500015", "prefecture": "山口県", "id": 269 },
        { "address": "西大坪町", "city": "下関市", "postcode": "7500054", "prefecture": "山口県", "id": 270 },
        { "address": "西神田町", "city": "下関市", "postcode": "7500034", "prefecture": "山口県", "id": 271 },
        { "address": "西観音町", "city": "下関市", "postcode": "7520905", "prefecture": "山口県", "id": 272 },
        { "address": "乃木浜", "city": "下関市", "postcode": "7520913", "prefecture": "山口県", "id": 273 },
        { "address": "延行", "city": "下関市", "postcode": "7510867", "prefecture": "山口県", "id": 274 },
        { "address": "幡生新町", "city": "下関市", "postcode": "7510830", "prefecture": "山口県", "id": 275 },
        { "address": "幡生本町", "city": "下関市", "postcode": "7510827", "prefecture": "山口県", "id": 276 },
        { "address": "幡生宮の下町", "city": "下関市", "postcode": "7510829", "prefecture": "山口県", "id": 277 },
        { "address": "幡生町", "city": "下関市", "postcode": "7510828", "prefecture": "山口県", "id": 278 },
        { "address": "岬之町", "city": "下関市", "postcode": "7500014", "prefecture": "山口県", "id": 279 },
        { "address": "羽山町", "city": "下関市", "postcode": "7500046", "prefecture": "山口県", "id": 280 },
        { "address": "稗田中町", "city": "下関市", "postcode": "7510856", "prefecture": "山口県", "id": 281 },
        { "address": "稗田西町", "city": "下関市", "postcode": "7510855", "prefecture": "山口県", "id": 282 },
        { "address": "稗田南町", "city": "下関市", "postcode": "7510854", "prefecture": "山口県", "id": 283 },
        { "address": "稗田北町", "city": "下関市", "postcode": "7510857", "prefecture": "山口県", "id": 284 },
        { "address": "稗田町", "city": "下関市", "postcode": "7510858", "prefecture": "山口県", "id": 285 },
        { "address": "東神田町", "city": "下関市", "postcode": "7500043", "prefecture": "山口県", "id": 286 },
        { "address": "東観音町", "city": "下関市", "postcode": "7520906", "prefecture": "山口県", "id": 287 },
        { "address": "東勝谷", "city": "下関市", "postcode": "7510879", "prefecture": "山口県", "id": 288 },
        { "address": "東向山町", "city": "下関市", "postcode": "7500048", "prefecture": "山口県", "id": 289 },
        { "address": "東大和町", "city": "下関市", "postcode": "7500066", "prefecture": "山口県", "id": 290 },
        { "address": "彦島海士郷町", "city": "下関市", "postcode": "7500071", "prefecture": "山口県", "id": 291 },
        { "address": "彦島江の浦町", "city": "下関市", "postcode": "7500075", "prefecture": "山口県", "id": 292 },
        { "address": "彦島老の山公園", "city": "下関市", "postcode": "7500073", "prefecture": "山口県", "id": 293 },
        { "address": "彦島老町", "city": "下関市", "postcode": "7500072", "prefecture": "山口県", "id": 294 },
        { "address": "彦島桜ケ丘町", "city": "下関市", "postcode": "7500083", "prefecture": "山口県", "id": 295 },
        { "address": "彦島迫町", "city": "下関市", "postcode": "7500092", "prefecture": "山口県", "id": 296 },
        { "address": "彦島塩浜町", "city": "下関市", "postcode": "7500086", "prefecture": "山口県", "id": 297 },
        { "address": "彦島杉田町", "city": "下関市", "postcode": "7500078", "prefecture": "山口県", "id": 298 },
        { "address": "彦島角倉町", "city": "下関市", "postcode": "7500081", "prefecture": "山口県", "id": 299 },
        { "address": "彦島竹ノ子島町", "city": "下関市", "postcode": "7500094", "prefecture": "山口県", "id": 300 },
        { "address": "彦島田の首町", "city": "下関市", "postcode": "7500085", "prefecture": "山口県", "id": 301 },
        { "address": "彦島弟子待町", "city": "下関市", "postcode": "7500076", "prefecture": "山口県", "id": 302 },
        { "address": "彦島弟子待東町", "city": "下関市", "postcode": "7500077", "prefecture": "山口県", "id": 303 },
        { "address": "彦島西山町", "city": "下関市", "postcode": "7500093", "prefecture": "山口県", "id": 304 },
        { "address": "彦島福浦町", "city": "下関市", "postcode": "7500087", "prefecture": "山口県", "id": 305 },
        { "address": "彦島本村町", "city": "下関市", "postcode": "7500074", "prefecture": "山口県", "id": 306 },
        { "address": "彦島緑町", "city": "下関市", "postcode": "7500091", "prefecture": "山口県", "id": 307 },
        { "address": "彦島向井町", "city": "下関市", "postcode": "7500084", "prefecture": "山口県", "id": 308 },
        { "address": "彦島山中町", "city": "下関市", "postcode": "7500082", "prefecture": "山口県", "id": 309 },
        { "address": "福江", "city": "下関市", "postcode": "7596601", "prefecture": "山口県", "id": 310 },
        { "address": "藤ケ谷町", "city": "下関市", "postcode": "7510811", "prefecture": "山口県", "id": 311 },
        { "address": "藤附町", "city": "下関市", "postcode": "7500052", "prefecture": "山口県", "id": 312 },
        { "address": "豊前田町", "city": "下関市", "postcode": "7500018", "prefecture": "山口県", "id": 313 },
        { "address": "蓋井島", "city": "下関市", "postcode": "7596542", "prefecture": "山口県", "id": 314 },
        { "address": "古屋町", "city": "下関市", "postcode": "7510847", "prefecture": "山口県", "id": 315 },
        { "address": "豊北町阿川", "city": "下関市", "postcode": "7595241", "prefecture": "山口県", "id": 316 },
        { "address": "豊北町粟野", "city": "下関市", "postcode": "7595101", "prefecture": "山口県", "id": 317 },
        { "address": "豊北町神田", "city": "下関市", "postcode": "7595331", "prefecture": "山口県", "id": 318 },
        { "address": "豊北町神田上", "city": "下関市", "postcode": "7595513", "prefecture": "山口県", "id": 319 },
        { "address": "豊北町神田上", "city": "下関市", "postcode": "7596121", "prefecture": "山口県", "id": 320 },
        { "address": "豊北町滝部", "city": "下関市", "postcode": "7595511", "prefecture": "山口県", "id": 321 },
        { "address": "豊北町田耕", "city": "下関市", "postcode": "7595512", "prefecture": "山口県", "id": 322 },
        { "address": "豊北町角島", "city": "下関市", "postcode": "7595332", "prefecture": "山口県", "id": 323 },
        { "address": "豊北町矢玉", "city": "下関市", "postcode": "7596122", "prefecture": "山口県", "id": 324 },
        { "address": "細江新町", "city": "下関市", "postcode": "7500017", "prefecture": "山口県", "id": 325 },
        { "address": "細江町", "city": "下関市", "postcode": "7500016", "prefecture": "山口県", "id": 326 },
        { "address": "本町", "city": "下関市", "postcode": "7510815", "prefecture": "山口県", "id": 327 },
        { "address": "前勝谷町", "city": "下関市", "postcode": "7510803", "prefecture": "山口県", "id": 328 },
        { "address": "前田", "city": "下関市", "postcode": "7520997", "prefecture": "山口県", "id": 329 },
        { "address": "松小田", "city": "下関市", "postcode": "7520931", "prefecture": "山口県", "id": 330 },
        { "address": "松屋", "city": "下関市", "postcode": "7501121", "prefecture": "山口県", "id": 331 },
        { "address": "松屋上町", "city": "下関市", "postcode": "7501122", "prefecture": "山口県", "id": 332 },
        { "address": "松屋東町", "city": "下関市", "postcode": "7501123", "prefecture": "山口県", "id": 333 },
        { "address": "松屋本町", "city": "下関市", "postcode": "7501124", "prefecture": "山口県", "id": 334 },
        { "address": "丸山町", "city": "下関市", "postcode": "7500019", "prefecture": "山口県", "id": 335 },
        { "address": "三河町", "city": "下関市", "postcode": "7510821", "prefecture": "山口県", "id": 336 },
        { "address": "南大坪町", "city": "下関市", "postcode": "7500055", "prefecture": "山口県", "id": 337 },
        { "address": "みもすそ川町", "city": "下関市", "postcode": "7510813", "prefecture": "山口県", "id": 338 },
        { "address": "宮田町", "city": "下関市", "postcode": "7500002", "prefecture": "山口県", "id": 339 },
        { "address": "向山町", "city": "下関市", "postcode": "7500047", "prefecture": "山口県", "id": 340 },
        { "address": "椋野上町", "city": "下関市", "postcode": "7510812", "prefecture": "山口県", "id": 341 },
        { "address": "椋野町", "city": "下関市", "postcode": "7510816", "prefecture": "山口県", "id": 342 },
        { "address": "六連島", "city": "下関市", "postcode": "7500095", "prefecture": "山口県", "id": 343 },
        { "address": "名池町", "city": "下関市", "postcode": "7500011", "prefecture": "山口県", "id": 344 },
        { "address": "元町", "city": "下関市", "postcode": "7500045", "prefecture": "山口県", "id": 345 },
        { "address": "安岡", "city": "下関市", "postcode": "7596605", "prefecture": "山口県", "id": 346 },
        { "address": "安岡駅前", "city": "下関市", "postcode": "7596612", "prefecture": "山口県", "id": 347 },
        { "address": "安岡町", "city": "下関市", "postcode": "7596603", "prefecture": "山口県", "id": 348 },
        { "address": "安岡本町", "city": "下関市", "postcode": "7596611", "prefecture": "山口県", "id": 349 },
        { "address": "山田", "city": "下関市", "postcode": "7520901", "prefecture": "山口県", "id": 350 },
        { "address": "山手町", "city": "下関市", "postcode": "7500033", "prefecture": "山口県", "id": 351 },
        { "address": "大和町", "city": "下関市", "postcode": "7500067", "prefecture": "山口県", "id": 352 },
        { "address": "山の口町", "city": "下関市", "postcode": "7510824", "prefecture": "山口県", "id": 353 },
        { "address": "山の田中央町", "city": "下関市", "postcode": "7510837", "prefecture": "山口県", "id": 354 },
        { "address": "山の田東町", "city": "下関市", "postcode": "7510834", "prefecture": "山口県", "id": 355 },
        { "address": "山の田西町", "city": "下関市", "postcode": "7510836", "prefecture": "山口県", "id": 356 },
        { "address": "山の田南町", "city": "下関市", "postcode": "7510835", "prefecture": "山口県", "id": 357 },
        { "address": "山の田北町", "city": "下関市", "postcode": "7510839", "prefecture": "山口県", "id": 358 },
        { "address": "山の田本町", "city": "下関市", "postcode": "7510838", "prefecture": "山口県", "id": 359 },
        { "address": "ゆめタウン", "city": "下関市", "postcode": "7520926", "prefecture": "山口県", "id": 360 },
        { "address": "横野町", "city": "下関市", "postcode": "7596604", "prefecture": "山口県", "id": 361 },
        { "address": "吉田", "city": "下関市", "postcode": "7501101", "prefecture": "山口県", "id": 362 },
        { "address": "吉田地方", "city": "下関市", "postcode": "7501102", "prefecture": "山口県", "id": 363 },
        { "address": "吉見上", "city": "下関市", "postcode": "7596524", "prefecture": "山口県", "id": 364 },
        { "address": "吉見下", "city": "下関市", "postcode": "7596523", "prefecture": "山口県", "id": 365 },
        { "address": "吉見古宿町", "city": "下関市", "postcode": "7596521", "prefecture": "山口県", "id": 366 },
        { "address": "吉見里町", "city": "下関市", "postcode": "7596525", "prefecture": "山口県", "id": 367 },
        { "address": "吉見新町", "city": "下関市", "postcode": "7596532", "prefecture": "山口県", "id": 368 },
        { "address": "吉見本町", "city": "下関市", "postcode": "7596531", "prefecture": "山口県", "id": 369 },
        { "address": "吉見竜王町", "city": "下関市", "postcode": "7596522", "prefecture": "山口県", "id": 370 },
        { "address": "吉母", "city": "下関市", "postcode": "7596541", "prefecture": "山口県", "id": 371 },
        { "city": "宇部市", "postcode": "7550000", "prefecture": "山口県", "id": 372 },
        { "address": "相生町", "city": "宇部市", "postcode": "7550043", "prefecture": "山口県", "id": 373 },
        { "address": "上条", "city": "宇部市", "postcode": "7550801", "prefecture": "山口県", "id": 374 },
        { "address": "朝日町", "city": "宇部市", "postcode": "7550041", "prefecture": "山口県", "id": 375 },
        { "address": "芦河内", "city": "宇部市", "postcode": "7570211", "prefecture": "山口県", "id": 376 },
        { "address": "あすとぴあ", "city": "宇部市", "postcode": "7550152", "prefecture": "山口県", "id": 377 },
        { "address": "荒瀬", "city": "宇部市", "postcode": "7590131", "prefecture": "山口県", "id": 378 },
        { "address": "櫟原", "city": "宇部市", "postcode": "7541314", "prefecture": "山口県", "id": 379 },
        { "address": "居能町", "city": "宇部市", "postcode": "7550055", "prefecture": "山口県", "id": 380 },
        { "address": "今富", "city": "宇部市", "postcode": "7570212", "prefecture": "山口県", "id": 381 },
        { "address": "今村北", "city": "宇部市", "postcode": "7550155", "prefecture": "山口県", "id": 382 },
        { "address": "今村南", "city": "宇部市", "postcode": "7550154", "prefecture": "山口県", "id": 383 },
        { "address": "岩鼻町", "city": "宇部市", "postcode": "7550810", "prefecture": "山口県", "id": 384 },
        { "address": "上町", "city": "宇部市", "postcode": "7550051", "prefecture": "山口県", "id": 385 },
        { "address": "棯小野", "city": "宇部市", "postcode": "7541312", "prefecture": "山口県", "id": 386 },
        { "address": "鵜の島町", "city": "宇部市", "postcode": "7550062", "prefecture": "山口県", "id": 387 },
        { "address": "瓜生野", "city": "宇部市", "postcode": "7590135", "prefecture": "山口県", "id": 388 },
        { "address": "大小路", "city": "宇部市", "postcode": "7550076", "prefecture": "山口県", "id": 389 },
        { "address": "沖宇部", "city": "宇部市", "postcode": "7550001", "prefecture": "山口県", "id": 390 },
        { "address": "沖ノ旦", "city": "宇部市", "postcode": "7590202", "prefecture": "山口県", "id": 391 },
        { "address": "奥万倉", "city": "宇部市", "postcode": "7570213", "prefecture": "山口県", "id": 392 },
        { "address": "小野", "city": "宇部市", "postcode": "7541311", "prefecture": "山口県", "id": 393 },
        { "address": "恩田町", "city": "宇部市", "postcode": "7550023", "prefecture": "山口県", "id": 394 },
        { "address": "海南町", "city": "宇部市", "postcode": "7550038", "prefecture": "山口県", "id": 395 },
        { "address": "上宇部", "city": "宇部市", "postcode": "7550091", "prefecture": "山口県", "id": 396 },
        { "address": "上野中町", "city": "宇部市", "postcode": "7550092", "prefecture": "山口県", "id": 397 },
        { "address": "神原町", "city": "宇部市", "postcode": "7550022", "prefecture": "山口県", "id": 398 },
        { "address": "亀浦", "city": "宇部市", "postcode": "7550002", "prefecture": "山口県", "id": 399 },
        { "address": "川上", "city": "宇部市", "postcode": "7550084", "prefecture": "山口県", "id": 400 },
        { "address": "川添", "city": "宇部市", "postcode": "7550074", "prefecture": "山口県", "id": 401 },
        { "address": "北小羽山町", "city": "宇部市", "postcode": "7550081", "prefecture": "山口県", "id": 402 },
        { "address": "北琴芝", "city": "宇部市", "postcode": "7550036", "prefecture": "山口県", "id": 403 },
        { "address": "北迫新町", "city": "宇部市", "postcode": "7550093", "prefecture": "山口県", "id": 404 },
        { "address": "北条", "city": "宇部市", "postcode": "7550802", "prefecture": "山口県", "id": 405 },
        { "address": "木田", "city": "宇部市", "postcode": "7590136", "prefecture": "山口県", "id": 406 },
        { "address": "際波", "city": "宇部市", "postcode": "7590207", "prefecture": "山口県", "id": 407 },
        { "address": "草江", "city": "宇部市", "postcode": "7550004", "prefecture": "山口県", "id": 408 },
        { "address": "車地", "city": "宇部市", "postcode": "7590133", "prefecture": "山口県", "id": 409 },
        { "address": "黒石北", "city": "宇部市", "postcode": "7590213", "prefecture": "山口県", "id": 410 },
        { "address": "厚南北", "city": "宇部市", "postcode": "7590209", "prefecture": "山口県", "id": 411 },
        { "address": "厚南中央", "city": "宇部市", "postcode": "7590212", "prefecture": "山口県", "id": 412 },
        { "address": "小串", "city": "宇部市", "postcode": "7550067", "prefecture": "山口県", "id": 413 },
        { "address": "五十目山町", "city": "宇部市", "postcode": "7550005", "prefecture": "山口県", "id": 414 },
        { "address": "琴崎町", "city": "宇部市", "postcode": "7550075", "prefecture": "山口県", "id": 415 },
        { "address": "琴芝町", "city": "宇部市", "postcode": "7550033", "prefecture": "山口県", "id": 416 },
        { "address": "寿町", "city": "宇部市", "postcode": "7550032", "prefecture": "山口県", "id": 417 },
        { "address": "小松原町", "city": "宇部市", "postcode": "7550066", "prefecture": "山口県", "id": 418 },
        { "address": "幸町", "city": "宇部市", "postcode": "7550012", "prefecture": "山口県", "id": 419 },
        { "address": "笹山町", "city": "宇部市", "postcode": "7550015", "prefecture": "山口県", "id": 420 },
        { "address": "芝中町", "city": "宇部市", "postcode": "7550017", "prefecture": "山口県", "id": 421 },
        { "address": "島", "city": "宇部市", "postcode": "7550047", "prefecture": "山口県", "id": 422 },
        { "address": "下条", "city": "宇部市", "postcode": "7550048", "prefecture": "山口県", "id": 423 },
        { "address": "昭和町", "city": "宇部市", "postcode": "7550011", "prefecture": "山口県", "id": 424 },
        { "address": "新天町", "city": "宇部市", "postcode": "7550029", "prefecture": "山口県", "id": 425 },
        { "address": "新町", "city": "宇部市", "postcode": "7550044", "prefecture": "山口県", "id": 426 },
        { "address": "末信", "city": "宇部市", "postcode": "7590123", "prefecture": "山口県", "id": 427 },
        { "address": "末広町", "city": "宇部市", "postcode": "7550014", "prefecture": "山口県", "id": 428 },
        { "address": "助田町", "city": "宇部市", "postcode": "7550054", "prefecture": "山口県", "id": 429 },
        { "address": "棚井", "city": "宇部市", "postcode": "7590121", "prefecture": "山口県", "id": 430 },
        { "address": "中央町", "city": "宇部市", "postcode": "7550045", "prefecture": "山口県", "id": 431 },
        { "address": "常藤町", "city": "宇部市", "postcode": "7550021", "prefecture": "山口県", "id": 432 },
        { "address": "妻崎開作", "city": "宇部市", "postcode": "7590204", "prefecture": "山口県", "id": 433 },
        { "address": "寺の前町", "city": "宇部市", "postcode": "7550078", "prefecture": "山口県", "id": 434 },
        { "address": "常盤台", "city": "宇部市", "postcode": "7550097", "prefecture": "山口県", "id": 435 },
        { "address": "常盤町", "city": "宇部市", "postcode": "7550031", "prefecture": "山口県", "id": 436 },
        { "address": "床波", "city": "宇部市", "postcode": "7550153", "prefecture": "山口県", "id": 437 },
        { "address": "中宇部", "city": "宇部市", "postcode": "7550086", "prefecture": "山口県", "id": 438 },
        { "address": "中尾", "city": "宇部市", "postcode": "7550073", "prefecture": "山口県", "id": 439 },
        { "address": "中野開作", "city": "宇部市", "postcode": "7590203", "prefecture": "山口県", "id": 440 },
        { "address": "中村", "city": "宇部市", "postcode": "7550072", "prefecture": "山口県", "id": 441 },
        { "address": "中山", "city": "宇部市", "postcode": "7550058", "prefecture": "山口県", "id": 442 },
        { "address": "鍋倉町", "city": "宇部市", "postcode": "7550064", "prefecture": "山口県", "id": 443 },
        { "address": "西宇部北", "city": "宇部市", "postcode": "7590211", "prefecture": "山口県", "id": 444 },
        { "address": "西宇部南", "city": "宇部市", "postcode": "7590208", "prefecture": "山口県", "id": 445 },
        { "address": "西沖の山", "city": "宇部市", "postcode": "7590205", "prefecture": "山口県", "id": 446 },
        { "address": "西梶返", "city": "宇部市", "postcode": "7550037", "prefecture": "山口県", "id": 447 },
        { "address": "錦町", "city": "宇部市", "postcode": "7550018", "prefecture": "山口県", "id": 448 },
        { "address": "西吉部", "city": "宇部市", "postcode": "7570402", "prefecture": "山口県", "id": 449 },
        { "address": "西岐波", "city": "宇部市", "postcode": "7550151", "prefecture": "山口県", "id": 450 },
        { "address": "西小串", "city": "宇部市", "postcode": "7550049", "prefecture": "山口県", "id": 451 },
        { "address": "西琴芝", "city": "宇部市", "postcode": "7550035", "prefecture": "山口県", "id": 452 },
        { "address": "西中町", "city": "宇部市", "postcode": "7550053", "prefecture": "山口県", "id": 453 },
        { "address": "西平原", "city": "宇部市", "postcode": "7550808", "prefecture": "山口県", "id": 454 },
        { "address": "西本町", "city": "宇部市", "postcode": "7550052", "prefecture": "山口県", "id": 455 },
        { "address": "西万倉", "city": "宇部市", "postcode": "7570214", "prefecture": "山口県", "id": 456 },
        { "address": "西桃山", "city": "宇部市", "postcode": "7550069", "prefecture": "山口県", "id": 457 },
        { "address": "如意寺", "city": "宇部市", "postcode": "7541315", "prefecture": "山口県", "id": 458 },
        { "address": "沼", "city": "宇部市", "postcode": "7550085", "prefecture": "山口県", "id": 459 },
        { "address": "野中", "city": "宇部市", "postcode": "7550025", "prefecture": "山口県", "id": 460 },
        { "address": "野原", "city": "宇部市", "postcode": "7550024", "prefecture": "山口県", "id": 461 },
        { "address": "則貞", "city": "宇部市", "postcode": "7550003", "prefecture": "山口県", "id": 462 },
        { "address": "八王子町", "city": "宇部市", "postcode": "7550007", "prefecture": "山口県", "id": 463 },
        { "address": "浜田", "city": "宇部市", "postcode": "7550806", "prefecture": "山口県", "id": 464 },
        { "address": "浜町", "city": "宇部市", "postcode": "7550065", "prefecture": "山口県", "id": 465 },
        { "address": "東小羽山町", "city": "宇部市", "postcode": "7550082", "prefecture": "山口県", "id": 466 },
        { "address": "東梶返", "city": "宇部市", "postcode": "7550039", "prefecture": "山口県", "id": 467 },
        { "address": "東吉部", "city": "宇部市", "postcode": "7570401", "prefecture": "山口県", "id": 468 },
        { "address": "東岐波", "city": "宇部市", "postcode": "7550241", "prefecture": "山口県", "id": 469 },
        { "address": "東小串", "city": "宇部市", "postcode": "7550068", "prefecture": "山口県", "id": 470 },
        { "address": "東琴芝", "city": "宇部市", "postcode": "7550034", "prefecture": "山口県", "id": 471 },
        { "address": "東芝中町", "city": "宇部市", "postcode": "7550016", "prefecture": "山口県", "id": 472 },
        { "address": "東新川町", "city": "宇部市", "postcode": "7550019", "prefecture": "山口県", "id": 473 },
        { "address": "東須恵", "city": "宇部市", "postcode": "7590206", "prefecture": "山口県", "id": 474 },
        { "address": "東平原", "city": "宇部市", "postcode": "7550807", "prefecture": "山口県", "id": 475 },
        { "address": "東藤曲", "city": "宇部市", "postcode": "7550803", "prefecture": "山口県", "id": 476 },
        { "address": "東本町", "city": "宇部市", "postcode": "7550028", "prefecture": "山口県", "id": 477 },
        { "address": "東万倉", "city": "宇部市", "postcode": "7570215", "prefecture": "山口県", "id": 478 },
        { "address": "東見初町", "city": "宇部市", "postcode": "7550009", "prefecture": "山口県", "id": 479 },
        { "address": "開", "city": "宇部市", "postcode": "7550096", "prefecture": "山口県", "id": 480 },
        { "address": "ひらき台", "city": "宇部市", "postcode": "7550094", "prefecture": "山口県", "id": 481 },
        { "address": "広瀬", "city": "宇部市", "postcode": "7590124", "prefecture": "山口県", "id": 482 },
        { "address": "藤河内", "city": "宇部市", "postcode": "7541313", "prefecture": "山口県", "id": 483 },
        { "address": "藤曲", "city": "宇部市", "postcode": "7550057", "prefecture": "山口県", "id": 484 },
        { "address": "船木", "city": "宇部市", "postcode": "7570216", "prefecture": "山口県", "id": 485 },
        { "address": "風呂ケ迫町", "city": "宇部市", "postcode": "7550095", "prefecture": "山口県", "id": 486 },
        { "address": "文京台", "city": "宇部市", "postcode": "7550805", "prefecture": "山口県", "id": 487 },
        { "address": "文京町", "city": "宇部市", "postcode": "7550056", "prefecture": "山口県", "id": 488 },
        { "address": "松崎町", "city": "宇部市", "postcode": "7550809", "prefecture": "山口県", "id": 489 },
        { "address": "松島町", "city": "宇部市", "postcode": "7550042", "prefecture": "山口県", "id": 490 },
        { "address": "松山町", "city": "宇部市", "postcode": "7550026", "prefecture": "山口県", "id": 491 },
        { "address": "岬町", "city": "宇部市", "postcode": "7550006", "prefecture": "山口県", "id": 492 },
        { "address": "港町", "city": "宇部市", "postcode": "7550027", "prefecture": "山口県", "id": 493 },
        { "address": "南小羽山町", "city": "宇部市", "postcode": "7550083", "prefecture": "山口県", "id": 494 },
        { "address": "南小串", "city": "宇部市", "postcode": "7550046", "prefecture": "山口県", "id": 495 },
        { "address": "南中山町", "city": "宇部市", "postcode": "7550804", "prefecture": "山口県", "id": 496 },
        { "address": "南浜町", "city": "宇部市", "postcode": "7550063", "prefecture": "山口県", "id": 497 },
        { "address": "宮地町", "city": "宇部市", "postcode": "7550071", "prefecture": "山口県", "id": 498 },
        { "address": "明神町", "city": "宇部市", "postcode": "7550008", "prefecture": "山口県", "id": 499 },
        { "address": "明治町", "city": "宇部市", "postcode": "7550013", "prefecture": "山口県", "id": 500 },
        { "address": "矢矯", "city": "宇部市", "postcode": "7570217", "prefecture": "山口県", "id": 501 },
        { "address": "山門", "city": "宇部市", "postcode": "7550077", "prefecture": "山口県", "id": 502 },
        { "address": "山中", "city": "宇部市", "postcode": "7590132", "prefecture": "山口県", "id": 503 },
        { "address": "山の手町", "city": "宇部市", "postcode": "7590201", "prefecture": "山口県", "id": 504 },
        { "address": "吉見", "city": "宇部市", "postcode": "7590122", "prefecture": "山口県", "id": 505 },
        { "address": "善和", "city": "宇部市", "postcode": "7590134", "prefecture": "山口県", "id": 506 },
        { "address": "若松町", "city": "宇部市", "postcode": "7550061", "prefecture": "山口県", "id": 507 },
        { "city": "山口市", "postcode": "7530000", "prefecture": "山口県", "id": 508 },
        { "address": "秋穂西", "city": "山口市", "postcode": "7541102", "prefecture": "山口県", "id": 509 },
        { "address": "秋穂東", "city": "山口市", "postcode": "7541101", "prefecture": "山口県", "id": 510 },
        { "address": "秋穂二島", "city": "山口市", "postcode": "7540893", "prefecture": "山口県", "id": 511 },
        { "address": "葵", "city": "山口市", "postcode": "7530821", "prefecture": "山口県", "id": 512 },
        { "address": "青葉台", "city": "山口市", "postcode": "7530012", "prefecture": "山口県", "id": 513 },
        { "address": "赤妻町", "city": "山口市", "postcode": "7530067", "prefecture": "山口県", "id": 514 },
        { "address": "朝倉町", "city": "山口市", "postcode": "7530061", "prefecture": "山口県", "id": 515 },
        { "address": "朝田", "city": "山口市", "postcode": "7530871", "prefecture": "山口県", "id": 516 },
        { "address": "朝田流通センター", "city": "山口市", "postcode": "7530872", "prefecture": "山口県", "id": 517 },
        { "address": "旭通り", "city": "山口市", "postcode": "7530051", "prefecture": "山口県", "id": 518 },
        { "address": "阿知須", "city": "山口市", "postcode": "7541277", "prefecture": "山口県", "id": 519 },
        { "address": "阿東生雲中", "city": "山口市", "postcode": "7591342", "prefecture": "山口県", "id": 520 },
        { "address": "阿東生雲西分", "city": "山口市", "postcode": "7591341", "prefecture": "山口県", "id": 521 },
        { "address": "阿東生雲東分", "city": "山口市", "postcode": "7591231", "prefecture": "山口県", "id": 522 },
        { "address": "阿東嘉年上", "city": "山口市", "postcode": "7591601", "prefecture": "山口県", "id": 523 },
        { "address": "阿東嘉年下", "city": "山口市", "postcode": "7591602", "prefecture": "山口県", "id": 524 },
        { "address": "阿東篠目", "city": "山口市", "postcode": "7591232", "prefecture": "山口県", "id": 525 },
        { "address": "阿東地福上", "city": "山口市", "postcode": "7591421", "prefecture": "山口県", "id": 526 },
        { "address": "阿東地福下", "city": "山口市", "postcode": "7591422", "prefecture": "山口県", "id": 527 },
        { "address": "阿東蔵目喜", "city": "山口市", "postcode": "7591343", "prefecture": "山口県", "id": 528 },
        { "address": "阿東徳佐上", "city": "山口市", "postcode": "7591511", "prefecture": "山口県", "id": 529 },
        { "address": "阿東徳佐下", "city": "山口市", "postcode": "7591513", "prefecture": "山口県", "id": 530 },
        { "address": "阿東徳佐中", "city": "山口市", "postcode": "7591512", "prefecture": "山口県", "id": 531 },
        { "address": "石観音町", "city": "山口市", "postcode": "7530038", "prefecture": "山口県", "id": 532 },
        { "address": "維新公園", "city": "山口市", "postcode": "7530815", "prefecture": "山口県", "id": 533 },
        { "address": "泉町", "city": "山口市", "postcode": "7530066", "prefecture": "山口県", "id": 534 },
        { "address": "糸米", "city": "山口市", "postcode": "7530079", "prefecture": "山口県", "id": 535 },
        { "address": "今井町", "city": "山口市", "postcode": "7530055", "prefecture": "山口県", "id": 536 },
        { "address": "後河原", "city": "山口市", "postcode": "7530083", "prefecture": "山口県", "id": 537 },
        { "address": "駅通り", "city": "山口市", "postcode": "7530048", "prefecture": "山口県", "id": 538 },
        { "address": "江崎", "city": "山口市", "postcode": "7540896", "prefecture": "山口県", "id": 539 },
        { "address": "江良", "city": "山口市", "postcode": "7530017", "prefecture": "山口県", "id": 540 },
        { "address": "円政寺", "city": "山口市", "postcode": "7530036", "prefecture": "山口県", "id": 541 },
        { "address": "大市町", "city": "山口市", "postcode": "7530033", "prefecture": "山口県", "id": 542 },
        { "address": "大内小京都", "city": "山口市", "postcode": "7530242", "prefecture": "山口県", "id": 543 },
        { "address": "大内千坊", "city": "山口市", "postcode": "7530251", "prefecture": "山口県", "id": 544 },
        { "address": "大内中央", "city": "山口市", "postcode": "7530252", "prefecture": "山口県", "id": 545 },
        { "address": "大内問田", "city": "山口市", "postcode": "7530241", "prefecture": "山口県", "id": 546 },
        { "address": "大内長野", "city": "山口市", "postcode": "7530211", "prefecture": "山口県", "id": 547 },
        { "address": "大内氷上", "city": "山口市", "postcode": "7530231", "prefecture": "山口県", "id": 548 },
        { "address": "大内姫山台", "city": "山口市", "postcode": "7530243", "prefecture": "山口県", "id": 549 },
        { "address": "大内御堀", "city": "山口市", "postcode": "7530214", "prefecture": "山口県", "id": 550 },
        { "address": "大内矢田", "city": "山口市", "postcode": "7530215", "prefecture": "山口県", "id": 551 },
        { "address": "大内矢田北", "city": "山口市", "postcode": "7530221", "prefecture": "山口県", "id": 552 },
        { "address": "大内矢田南", "city": "山口市", "postcode": "7530222", "prefecture": "山口県", "id": 553 },
        { "address": "大手町", "city": "山口市", "postcode": "7530072", "prefecture": "山口県", "id": 554 },
        { "address": "大殿大路", "city": "山口市", "postcode": "7530093", "prefecture": "山口県", "id": 555 },
        { "address": "荻町", "city": "山口市", "postcode": "7530062", "prefecture": "山口県", "id": 556 },
        { "address": "小郡維新町", "city": "山口市", "postcode": "7540029", "prefecture": "山口県", "id": 557 },
        { "address": "小郡円座西町", "city": "山口市", "postcode": "7540008", "prefecture": "山口県", "id": 558 },
        { "address": "小郡円座東町", "city": "山口市", "postcode": "7540007", "prefecture": "山口県", "id": 559 },
        { "address": "小郡大江町", "city": "山口市", "postcode": "7540015", "prefecture": "山口県", "id": 560 },
        { "address": "小郡尾崎町", "city": "山口市", "postcode": "7540006", "prefecture": "山口県", "id": 561 },
        { "address": "小郡かぜの丘", "city": "山口市", "postcode": "7540034", "prefecture": "山口県", "id": 562 },
        { "address": "小郡金堀町", "city": "山口市", "postcode": "7540004", "prefecture": "山口県", "id": 563 },
        { "address": "小郡上郷", "city": "山口市", "postcode": "7540001", "prefecture": "山口県", "id": 564 },
        { "address": "小郡給領町", "city": "山口市", "postcode": "7540028", "prefecture": "山口県", "id": 565 },
        { "address": "小郡黄金町", "city": "山口市", "postcode": "7540021", "prefecture": "山口県", "id": 566 },
        { "address": "小郡栄町", "city": "山口市", "postcode": "7540026", "prefecture": "山口県", "id": 567 },
        { "address": "小郡三軒屋町", "city": "山口市", "postcode": "7540027", "prefecture": "山口県", "id": 568 },
        { "address": "小郡下郷", "city": "山口市", "postcode": "7540002", "prefecture": "山口県", "id": 569 },
        { "address": "小郡新町", "city": "山口市", "postcode": "7540031", "prefecture": "山口県", "id": 570 },
        { "address": "小郡大正町", "city": "山口市", "postcode": "7540044", "prefecture": "山口県", "id": 571 },
        { "address": "小郡高砂町", "city": "山口市", "postcode": "7540014", "prefecture": "山口県", "id": 572 },
        { "address": "小郡長谷", "city": "山口市", "postcode": "7540042", "prefecture": "山口県", "id": 573 },
        { "address": "小郡花園町", "city": "山口市", "postcode": "7540022", "prefecture": "山口県", "id": 574 },
        { "address": "小郡光が丘", "city": "山口市", "postcode": "7540033", "prefecture": "山口県", "id": 575 },
        { "address": "小郡平砂町", "city": "山口市", "postcode": "7540025", "prefecture": "山口県", "id": 576 },
        { "address": "小郡船倉町", "city": "山口市", "postcode": "7540012", "prefecture": "山口県", "id": 577 },
        { "address": "小郡平成町", "city": "山口市", "postcode": "7540020", "prefecture": "山口県", "id": 578 },
        { "address": "小郡前田町", "city": "山口市", "postcode": "7540023", "prefecture": "山口県", "id": 579 },
        { "address": "小郡真名", "city": "山口市", "postcode": "7540003", "prefecture": "山口県", "id": 580 },
        { "address": "小郡緑町", "city": "山口市", "postcode": "7540013", "prefecture": "山口県", "id": 581 },
        { "address": "小郡御幸町", "city": "山口市", "postcode": "7540011", "prefecture": "山口県", "id": 582 },
        { "address": "小郡みらい町", "city": "山口市", "postcode": "7540032", "prefecture": "山口県", "id": 583 },
        { "address": "小郡明治", "city": "山口市", "postcode": "7540043", "prefecture": "山口県", "id": 584 },
        { "address": "小郡山手上町", "city": "山口市", "postcode": "7540005", "prefecture": "山口県", "id": 585 },
        { "address": "小郡令和", "city": "山口市", "postcode": "7540041", "prefecture": "山口県", "id": 586 },
        { "address": "小郡若草町", "city": "山口市", "postcode": "7540024", "prefecture": "山口県", "id": 587 },
        { "address": "折本", "city": "山口市", "postcode": "7530022", "prefecture": "山口県", "id": 588 },
        { "address": "嘉川", "city": "山口市", "postcode": "7540897", "prefecture": "山口県", "id": 589 },
        { "address": "春日町", "city": "山口市", "postcode": "7530073", "prefecture": "山口県", "id": 590 },
        { "address": "金古曽町", "city": "山口市", "postcode": "7530024", "prefecture": "山口県", "id": 591 },
        { "address": "上宇野令", "city": "山口市", "postcode": "7530091", "prefecture": "山口県", "id": 592 },
        { "address": "上小鯖", "city": "山口市", "postcode": "7530213", "prefecture": "山口県", "id": 593 },
        { "address": "上竪小路", "city": "山口市", "postcode": "7530035", "prefecture": "山口県", "id": 594 },
        { "address": "上天花町", "city": "山口市", "postcode": "7530891", "prefecture": "山口県", "id": 595 },
        { "address": "亀山町", "city": "山口市", "postcode": "7530089", "prefecture": "山口県", "id": 596 },
        { "address": "神田町", "city": "山口市", "postcode": "7530064", "prefecture": "山口県", "id": 597 },
        { "address": "木町", "city": "山口市", "postcode": "7530095", "prefecture": "山口県", "id": 598 },
        { "address": "楠木町", "city": "山口市", "postcode": "7530065", "prefecture": "山口県", "id": 599 },
        { "address": "久保小路", "city": "山口市", "postcode": "7530084", "prefecture": "山口県", "id": 600 },
        { "address": "熊野町", "city": "山口市", "postcode": "7530077", "prefecture": "山口県", "id": 601 },
        { "address": "黒川", "city": "山口市", "postcode": "7530851", "prefecture": "山口県", "id": 602 },
        { "address": "香山町", "city": "山口市", "postcode": "7530081", "prefecture": "山口県", "id": 603 },
        { "address": "黄金町", "city": "山口市", "postcode": "7530045", "prefecture": "山口県", "id": 604 },
        { "address": "米屋町", "city": "山口市", "postcode": "7530087", "prefecture": "山口県", "id": 605 },
        { "address": "幸町", "city": "山口市", "postcode": "7530826", "prefecture": "山口県", "id": 606 },
        { "address": "桜畠", "city": "山口市", "postcode": "7530021", "prefecture": "山口県", "id": 607 },
        { "address": "佐山", "city": "山口市", "postcode": "7540894", "prefecture": "山口県", "id": 608 },
        { "address": "三の宮", "city": "山口市", "postcode": "7530023", "prefecture": "山口県", "id": 609 },
        { "address": "三和町", "city": "山口市", "postcode": "7530052", "prefecture": "山口県", "id": 610 },
        { "address": "芝崎町", "city": "山口市", "postcode": "7530025", "prefecture": "山口県", "id": 611 },
        { "address": "下市町", "city": "山口市", "postcode": "7530058", "prefecture": "山口県", "id": 612 },
        { "address": "下小鯖", "city": "山口市", "postcode": "7530212", "prefecture": "山口県", "id": 613 },
        { "address": "下竪小路", "city": "山口市", "postcode": "7530034", "prefecture": "山口県", "id": 614 },
        { "address": "白石", "city": "山口市", "postcode": "7530070", "prefecture": "山口県", "id": 615 },
        { "address": "新馬場", "city": "山口市", "postcode": "7530085", "prefecture": "山口県", "id": 616 },
        { "address": "陶", "city": "山口市", "postcode": "7540891", "prefecture": "山口県", "id": 617 },
        { "address": "鋳銭司", "city": "山口市", "postcode": "7471221", "prefecture": "山口県", "id": 618 },
        { "address": "周布町", "city": "山口市", "postcode": "7530822", "prefecture": "山口県", "id": 619 },
        { "address": "泉都町", "city": "山口市", "postcode": "7530076", "prefecture": "山口県", "id": 620 },
        { "address": "惣太夫町", "city": "山口市", "postcode": "7530042", "prefecture": "山口県", "id": 621 },
        { "address": "宝町", "city": "山口市", "postcode": "7530812", "prefecture": "山口県", "id": 622 },
        { "address": "滝町", "city": "山口市", "postcode": "7530071", "prefecture": "山口県", "id": 623 },
        { "address": "中央", "city": "山口市", "postcode": "7530074", "prefecture": "山口県", "id": 624 },
        { "address": "道場門前", "city": "山口市", "postcode": "7530047", "prefecture": "山口県", "id": 625 },
        { "address": "道祖町", "city": "山口市", "postcode": "7530037", "prefecture": "山口県", "id": 626 },
        { "address": "堂の前町", "city": "山口市", "postcode": "7530032", "prefecture": "山口県", "id": 627 },
        { "address": "徳地伊賀地", "city": "山口市", "postcode": "7470232", "prefecture": "山口県", "id": 628 },
        { "address": "徳地小古祖", "city": "山口市", "postcode": "7470234", "prefecture": "山口県", "id": 629 },
        { "address": "徳地上村", "city": "山口市", "postcode": "7470523", "prefecture": "山口県", "id": 630 },
        { "address": "徳地岸見", "city": "山口市", "postcode": "7470233", "prefecture": "山口県", "id": 631 },
        { "address": "徳地串", "city": "山口市", "postcode": "7470612", "prefecture": "山口県", "id": 632 },
        { "address": "徳地鯖河内", "city": "山口市", "postcode": "7470611", "prefecture": "山口県", "id": 633 },
        { "address": "徳地島地", "city": "山口市", "postcode": "7470522", "prefecture": "山口県", "id": 634 },
        { "address": "徳地野谷", "city": "山口市", "postcode": "7470401", "prefecture": "山口県", "id": 635 },
        { "address": "徳地引谷", "city": "山口市", "postcode": "7470341", "prefecture": "山口県", "id": 636 },
        { "address": "徳地深谷", "city": "山口市", "postcode": "7470235", "prefecture": "山口県", "id": 637 },
        { "address": "徳地藤木", "city": "山口市", "postcode": "7470524", "prefecture": "山口県", "id": 638 },
        { "address": "徳地船路", "city": "山口市", "postcode": "7470342", "prefecture": "山口県", "id": 639 },
        { "address": "徳地堀", "city": "山口市", "postcode": "7470231", "prefecture": "山口県", "id": 640 },
        { "address": "徳地三谷", "city": "山口市", "postcode": "7470343", "prefecture": "山口県", "id": 641 },
        { "address": "徳地八坂", "city": "山口市", "postcode": "7470344", "prefecture": "山口県", "id": 642 },
        { "address": "徳地山畑", "city": "山口市", "postcode": "7470521", "prefecture": "山口県", "id": 643 },
        { "address": "徳地柚木", "city": "山口市", "postcode": "7470402", "prefecture": "山口県", "id": 644 },
        { "address": "富田原町", "city": "山口市", "postcode": "7530054", "prefecture": "山口県", "id": 645 },
        { "address": "中市町", "city": "山口市", "postcode": "7530086", "prefecture": "山口県", "id": 646 },
        { "address": "中尾", "city": "山口市", "postcode": "7530801", "prefecture": "山口県", "id": 647 },
        { "address": "中河原", "city": "山口市", "postcode": "7530088", "prefecture": "山口県", "id": 648 },
        { "address": "中園町", "city": "山口市", "postcode": "7530075", "prefecture": "山口県", "id": 649 },
        { "address": "名田島", "city": "山口市", "postcode": "7540892", "prefecture": "山口県", "id": 650 },
        { "address": "七尾台", "city": "山口市", "postcode": "7530018", "prefecture": "山口県", "id": 651 },
        { "address": "錦町", "city": "山口市", "postcode": "7530068", "prefecture": "山口県", "id": 652 },
        { "address": "仁保上郷", "city": "山口市", "postcode": "7530301", "prefecture": "山口県", "id": 653 },
        { "address": "仁保下郷", "city": "山口市", "postcode": "7530303", "prefecture": "山口県", "id": 654 },
        { "address": "仁保中郷", "city": "山口市", "postcode": "7530302", "prefecture": "山口県", "id": 655 },
        { "address": "野田", "city": "山口市", "postcode": "7530094", "prefecture": "山口県", "id": 656 },
        { "address": "東山", "city": "山口市", "postcode": "7530041", "prefecture": "山口県", "id": 657 },
        { "address": "平井", "city": "山口市", "postcode": "7530831", "prefecture": "山口県", "id": 658 },
        { "address": "平野", "city": "山口市", "postcode": "7530015", "prefecture": "山口県", "id": 659 },
        { "address": "深溝", "city": "山口市", "postcode": "7540895", "prefecture": "山口県", "id": 660 },
        { "address": "古熊", "city": "山口市", "postcode": "7530031", "prefecture": "山口県", "id": 661 },
        { "address": "穂積町", "city": "山口市", "postcode": "7530824", "prefecture": "山口県", "id": 662 },
        { "address": "本町", "city": "山口市", "postcode": "7530046", "prefecture": "山口県", "id": 663 },
        { "address": "前町", "city": "山口市", "postcode": "7530057", "prefecture": "山口県", "id": 664 },
        { "address": "松美町", "city": "山口市", "postcode": "7530053", "prefecture": "山口県", "id": 665 },
        { "address": "水の上町", "city": "山口市", "postcode": "7530082", "prefecture": "山口県", "id": 666 },
        { "address": "緑ヶ丘", "city": "山口市", "postcode": "7530016", "prefecture": "山口県", "id": 667 },
        { "address": "緑町", "city": "山口市", "postcode": "7530078", "prefecture": "山口県", "id": 668 },
        { "address": "宮島町", "city": "山口市", "postcode": "7530043", "prefecture": "山口県", "id": 669 },
        { "address": "宮野上", "city": "山口市", "postcode": "7530001", "prefecture": "山口県", "id": 670 },
        { "address": "宮野下", "city": "山口市", "postcode": "7530011", "prefecture": "山口県", "id": 671 },
        { "address": "元町", "city": "山口市", "postcode": "7530063", "prefecture": "山口県", "id": 672 },
        { "address": "矢原", "city": "山口市", "postcode": "7530861", "prefecture": "山口県", "id": 673 },
        { "address": "矢原町", "city": "山口市", "postcode": "7530825", "prefecture": "山口県", "id": 674 },
        { "address": "八幡馬場", "city": "山口市", "postcode": "7530092", "prefecture": "山口県", "id": 675 },
        { "address": "湯田温泉", "city": "山口市", "postcode": "7530056", "prefecture": "山口県", "id": 676 },
        { "address": "吉敷", "city": "山口市", "postcode": "7530811", "prefecture": "山口県", "id": 677 },
        { "address": "吉敷赤田", "city": "山口市", "postcode": "7530817", "prefecture": "山口県", "id": 678 },
        { "address": "吉敷上東", "city": "山口市", "postcode": "7530818", "prefecture": "山口県", "id": 679 },
        { "address": "吉敷佐畑", "city": "山口市", "postcode": "7530816", "prefecture": "山口県", "id": 680 },
        { "address": "吉敷下東", "city": "山口市", "postcode": "7530814", "prefecture": "山口県", "id": 681 },
        { "address": "吉敷中東", "city": "山口市", "postcode": "7530813", "prefecture": "山口県", "id": 682 },
        { "address": "吉田", "city": "山口市", "postcode": "7530841", "prefecture": "山口県", "id": 683 },
        { "address": "若宮町", "city": "山口市", "postcode": "7530823", "prefecture": "山口県", "id": 684 },
        { "address": "鰐石町", "city": "山口市", "postcode": "7530044", "prefecture": "山口県", "id": 685 },
        { "city": "萩市", "postcode": "7580000", "prefecture": "山口県", "id": 686 },
        { "address": "相島", "city": "萩市", "postcode": "7580001", "prefecture": "山口県", "id": 687 },
        { "address": "明木", "city": "萩市", "postcode": "7540411", "prefecture": "山口県", "id": 688 },
        { "address": "油屋町", "city": "萩市", "postcode": "7580051", "prefecture": "山口県", "id": 689 },
        { "address": "今魚店町", "city": "萩市", "postcode": "7580052", "prefecture": "山口県", "id": 690 },
        { "address": "今古萩町", "city": "萩市", "postcode": "7580021", "prefecture": "山口県", "id": 691 },
        { "address": "江崎", "city": "萩市", "postcode": "7593113", "prefecture": "山口県", "id": 692 },
        { "address": "恵美須町", "city": "萩市", "postcode": "7580033", "prefecture": "山口県", "id": 693 },
        { "address": "江向", "city": "萩市", "postcode": "7580041", "prefecture": "山口県", "id": 694 },
        { "address": "大井", "city": "萩市", "postcode": "7593611", "prefecture": "山口県", "id": 695 },
        { "address": "大島", "city": "萩市", "postcode": "7580003", "prefecture": "山口県", "id": 696 },
        { "address": "御許町", "city": "萩市", "postcode": "7580042", "prefecture": "山口県", "id": 697 },
        { "address": "片俣", "city": "萩市", "postcode": "7580301", "prefecture": "山口県", "id": 698 },
        { "address": "上小川西分", "city": "萩市", "postcode": "7593201", "prefecture": "山口県", "id": 699 },
        { "address": "上小川東分", "city": "萩市", "postcode": "7593202", "prefecture": "山口県", "id": 700 },
        { "address": "上五間町", "city": "萩市", "postcode": "7580043", "prefecture": "山口県", "id": 701 },
        { "address": "上田万", "city": "萩市", "postcode": "7593111", "prefecture": "山口県", "id": 702 },
        { "address": "唐樋町", "city": "萩市", "postcode": "7580044", "prefecture": "山口県", "id": 703 },
        { "address": "川上", "city": "萩市", "postcode": "7580141", "prefecture": "山口県", "id": 704 },
        { "address": "川島", "city": "萩市", "postcode": "7580031", "prefecture": "山口県", "id": 705 },
        { "address": "瓦町", "city": "萩市", "postcode": "7580071", "prefecture": "山口県", "id": 706 },
        { "address": "北片河町", "city": "萩市", "postcode": "7580053", "prefecture": "山口県", "id": 707 },
        { "address": "北古萩町", "city": "萩市", "postcode": "7580032", "prefecture": "山口県", "id": 708 },
        { "address": "吉部上", "city": "萩市", "postcode": "7580304", "prefecture": "山口県", "id": 709 },
        { "address": "吉部下", "city": "萩市", "postcode": "7580305", "prefecture": "山口県", "id": 710 },
        { "address": "熊谷町", "city": "萩市", "postcode": "7580034", "prefecture": "山口県", "id": 711 },
        { "address": "黒川", "city": "萩市", "postcode": "7580213", "prefecture": "山口県", "id": 712 },
        { "address": "河添", "city": "萩市", "postcode": "7580073", "prefecture": "山口県", "id": 713 },
        { "address": "呉服町", "city": "萩市", "postcode": "7580072", "prefecture": "山口県", "id": 714 },
        { "address": "米屋町", "city": "萩市", "postcode": "7580045", "prefecture": "山口県", "id": 715 },
        { "address": "細工町", "city": "萩市", "postcode": "7580035", "prefecture": "山口県", "id": 716 },
        { "address": "佐々並", "city": "萩市", "postcode": "7530101", "prefecture": "山口県", "id": 717 },
        { "address": "三見", "city": "萩市", "postcode": "7593721", "prefecture": "山口県", "id": 718 },
        { "address": "塩屋町", "city": "萩市", "postcode": "7580036", "prefecture": "山口県", "id": 719 },
        { "address": "紫福", "city": "萩市", "postcode": "7580501", "prefecture": "山口県", "id": 720 },
        { "address": "下小川", "city": "萩市", "postcode": "7593204", "prefecture": "山口県", "id": 721 },
        { "address": "下田万", "city": "萩市", "postcode": "7593112", "prefecture": "山口県", "id": 722 },
        { "address": "須佐", "city": "萩市", "postcode": "7593411", "prefecture": "山口県", "id": 723 },
        { "address": "鈴野川", "city": "萩市", "postcode": "7593303", "prefecture": "山口県", "id": 724 },
        { "address": "高佐上", "city": "萩市", "postcode": "7580302", "prefecture": "山口県", "id": 725 },
        { "address": "高佐下", "city": "萩市", "postcode": "7580303", "prefecture": "山口県", "id": 726 },
        { "address": "樽屋町", "city": "萩市", "postcode": "7580054", "prefecture": "山口県", "id": 727 },
        { "address": "椿東", "city": "萩市", "postcode": "7580011", "prefecture": "山口県", "id": 728 },
        { "address": "椿", "city": "萩市", "postcode": "7580061", "prefecture": "山口県", "id": 729 },
        { "address": "津守町", "city": "萩市", "postcode": "7580037", "prefecture": "山口県", "id": 730 },
        { "address": "中小川", "city": "萩市", "postcode": "7593203", "prefecture": "山口県", "id": 731 },
        { "address": "西田町", "city": "萩市", "postcode": "7580046", "prefecture": "山口県", "id": 732 },
        { "address": "橋本町", "city": "萩市", "postcode": "7580062", "prefecture": "山口県", "id": 733 },
        { "address": "浜崎新町", "city": "萩市", "postcode": "7580023", "prefecture": "山口県", "id": 734 },
        { "address": "浜崎町", "city": "萩市", "postcode": "7580022", "prefecture": "山口県", "id": 735 },
        { "address": "春若町", "city": "萩市", "postcode": "7580055", "prefecture": "山口県", "id": 736 },
        { "address": "東田町", "city": "萩市", "postcode": "7580047", "prefecture": "山口県", "id": 737 },
        { "address": "東浜崎町", "city": "萩市", "postcode": "7580024", "prefecture": "山口県", "id": 738 },
        { "address": "肥島", "city": "萩市", "postcode": "7580004", "prefecture": "山口県", "id": 739 },
        { "address": "土原", "city": "萩市", "postcode": "7580025", "prefecture": "山口県", "id": 740 },
        { "address": "櫃島", "city": "萩市", "postcode": "7580002", "prefecture": "山口県", "id": 741 },
        { "address": "平安古町", "city": "萩市", "postcode": "7580074", "prefecture": "山口県", "id": 742 },
        { "address": "福井上", "city": "萩市", "postcode": "7580211", "prefecture": "山口県", "id": 743 },
        { "address": "福井下", "city": "萩市", "postcode": "7580212", "prefecture": "山口県", "id": 744 },
        { "address": "古魚店町", "city": "萩市", "postcode": "7580056", "prefecture": "山口県", "id": 745 },
        { "address": "古萩町", "city": "萩市", "postcode": "7580026", "prefecture": "山口県", "id": 746 },
        { "address": "堀内", "city": "萩市", "postcode": "7580057", "prefecture": "山口県", "id": 747 },
        { "address": "見島", "city": "萩市", "postcode": "7580701", "prefecture": "山口県", "id": 748 },
        { "address": "南片河町", "city": "萩市", "postcode": "7580076", "prefecture": "山口県", "id": 749 },
        { "address": "南古萩町", "city": "萩市", "postcode": "7580077", "prefecture": "山口県", "id": 750 },
        { "address": "弥富上", "city": "萩市", "postcode": "7593301", "prefecture": "山口県", "id": 751 },
        { "address": "弥富下", "city": "萩市", "postcode": "7593302", "prefecture": "山口県", "id": 752 },
        { "address": "山田", "city": "萩市", "postcode": "7580063", "prefecture": "山口県", "id": 753 },
        { "address": "吉田町", "city": "萩市", "postcode": "7580027", "prefecture": "山口県", "id": 754 },
        { "city": "防府市", "postcode": "7470000", "prefecture": "山口県", "id": 755 },
        { "address": "伊佐江", "city": "防府市", "postcode": "7470846", "prefecture": "山口県", "id": 756 },
        { "address": "伊佐江町", "city": "防府市", "postcode": "7470847", "prefecture": "山口県", "id": 757 },
        { "address": "石が口", "city": "防府市", "postcode": "7470806", "prefecture": "山口県", "id": 758 },
        { "address": "泉町", "city": "防府市", "postcode": "7470051", "prefecture": "山口県", "id": 759 },
        { "address": "今市町", "city": "防府市", "postcode": "7470042", "prefecture": "山口県", "id": 760 },
        { "address": "鋳物師町", "city": "防府市", "postcode": "7470812", "prefecture": "山口県", "id": 761 },
        { "address": "岩畠", "city": "防府市", "postcode": "7470001", "prefecture": "山口県", "id": 762 },
        { "address": "植松", "city": "防府市", "postcode": "7470836", "prefecture": "山口県", "id": 763 },
        { "address": "駅南町", "city": "防府市", "postcode": "7470801", "prefecture": "山口県", "id": 764 },
        { "address": "江泊", "city": "防府市", "postcode": "7470014", "prefecture": "山口県", "id": 765 },
        { "address": "戎町", "city": "防府市", "postcode": "7470036", "prefecture": "山口県", "id": 766 },
        { "address": "大崎", "city": "防府市", "postcode": "7470065", "prefecture": "山口県", "id": 767 },
        { "address": "岡村町", "city": "防府市", "postcode": "7470803", "prefecture": "山口県", "id": 768 },
        { "address": "沖今宿", "city": "防府市", "postcode": "7470013", "prefecture": "山口県", "id": 769 },
        { "address": "奥畑", "city": "防府市", "postcode": "7470101", "prefecture": "山口県", "id": 770 },
        { "address": "お茶屋町", "city": "防府市", "postcode": "7470819", "prefecture": "山口県", "id": 771 },
        { "address": "開出", "city": "防府市", "postcode": "7470052", "prefecture": "山口県", "id": 772 },
        { "address": "開出西町", "city": "防府市", "postcode": "7470054", "prefecture": "山口県", "id": 773 },
        { "address": "開出本町", "city": "防府市", "postcode": "7470053", "prefecture": "山口県", "id": 774 },
        { "address": "勝間", "city": "防府市", "postcode": "7470822", "prefecture": "山口県", "id": 775 },
        { "address": "鐘紡町", "city": "防府市", "postcode": "7470823", "prefecture": "山口県", "id": 776 },
        { "address": "華浦", "city": "防府市", "postcode": "7470816", "prefecture": "山口県", "id": 777 },
        { "address": "上天神町", "city": "防府市", "postcode": "7470033", "prefecture": "山口県", "id": 778 },
        { "address": "上右田", "city": "防府市", "postcode": "7470062", "prefecture": "山口県", "id": 779 },
        { "address": "岸津", "city": "防府市", "postcode": "7470011", "prefecture": "山口県", "id": 780 },
        { "address": "協和町", "city": "防府市", "postcode": "7470815", "prefecture": "山口県", "id": 781 },
        { "address": "切畑", "city": "防府市", "postcode": "7471231", "prefecture": "山口県", "id": 782 },
        { "address": "車塚町", "city": "防府市", "postcode": "7470811", "prefecture": "山口県", "id": 783 },
        { "address": "桑山", "city": "防府市", "postcode": "7470808", "prefecture": "山口県", "id": 784 },
        { "address": "警固町", "city": "防府市", "postcode": "7470821", "prefecture": "山口県", "id": 785 },
        { "address": "国衙", "city": "防府市", "postcode": "7470024", "prefecture": "山口県", "id": 786 },
        { "address": "国分寺町", "city": "防府市", "postcode": "7470021", "prefecture": "山口県", "id": 787 },
        { "address": "古祖原", "city": "防府市", "postcode": "7470056", "prefecture": "山口県", "id": 788 },
        { "address": "寿町", "city": "防府市", "postcode": "7470809", "prefecture": "山口県", "id": 789 },
        { "address": "栄町", "city": "防府市", "postcode": "7470035", "prefecture": "山口県", "id": 790 },
        { "address": "佐野", "city": "防府市", "postcode": "7470067", "prefecture": "山口県", "id": 791 },
        { "address": "佐波", "city": "防府市", "postcode": "7470044", "prefecture": "山口県", "id": 792 },
        { "address": "敷山町", "city": "防府市", "postcode": "7470006", "prefecture": "山口県", "id": 793 },
        { "address": "清水町", "city": "防府市", "postcode": "7470842", "prefecture": "山口県", "id": 794 },
        { "address": "下右田", "city": "防府市", "postcode": "7470063", "prefecture": "山口県", "id": 795 },
        { "address": "新築地町", "city": "防府市", "postcode": "7470824", "prefecture": "山口県", "id": 796 },
        { "address": "新田", "city": "防府市", "postcode": "7470825", "prefecture": "山口県", "id": 797 },
        { "address": "新橋町", "city": "防府市", "postcode": "7470047", "prefecture": "山口県", "id": 798 },
        { "address": "自由ケ丘", "city": "防府市", "postcode": "7470066", "prefecture": "山口県", "id": 799 },
        { "address": "自力町", "city": "防府市", "postcode": "7470817", "prefecture": "山口県", "id": 800 },
        { "address": "酢貝", "city": "防府市", "postcode": "7470002", "prefecture": "山口県", "id": 801 },
        { "address": "鈴屋", "city": "防府市", "postcode": "7470105", "prefecture": "山口県", "id": 802 },
        { "address": "迫戸町", "city": "防府市", "postcode": "7470031", "prefecture": "山口県", "id": 803 },
        { "address": "千日", "city": "防府市", "postcode": "7470046", "prefecture": "山口県", "id": 804 },
        { "address": "惣社町", "city": "防府市", "postcode": "7470022", "prefecture": "山口県", "id": 805 },
        { "address": "桑南", "city": "防府市", "postcode": "7470807", "prefecture": "山口県", "id": 806 },
        { "address": "台道", "city": "防府市", "postcode": "7471232", "prefecture": "山口県", "id": 807 },
        { "address": "高井", "city": "防府市", "postcode": "7470064", "prefecture": "山口県", "id": 808 },
        { "address": "高倉", "city": "防府市", "postcode": "7470045", "prefecture": "山口県", "id": 809 },
        { "address": "田島", "city": "防府市", "postcode": "7470834", "prefecture": "山口県", "id": 810 },
        { "address": "多々良", "city": "防府市", "postcode": "7470023", "prefecture": "山口県", "id": 811 },
        { "address": "中央町", "city": "防府市", "postcode": "7470802", "prefecture": "山口県", "id": 812 },
        { "address": "天神", "city": "防府市", "postcode": "7470034", "prefecture": "山口県", "id": 813 },
        { "address": "富海", "city": "防府市", "postcode": "7471111", "prefecture": "山口県", "id": 814 },
        { "address": "中泉町", "city": "防府市", "postcode": "7470055", "prefecture": "山口県", "id": 815 },
        { "address": "中西", "city": "防府市", "postcode": "7470005", "prefecture": "山口県", "id": 816 },
        { "address": "中山", "city": "防府市", "postcode": "7470107", "prefecture": "山口県", "id": 817 },
        { "address": "奈美", "city": "防府市", "postcode": "7470106", "prefecture": "山口県", "id": 818 },
        { "address": "仁井令", "city": "防府市", "postcode": "7470845", "prefecture": "山口県", "id": 819 },
        { "address": "仁井令町", "city": "防府市", "postcode": "7470841", "prefecture": "山口県", "id": 820 },
        { "address": "西仁井令", "city": "防府市", "postcode": "7470849", "prefecture": "山口県", "id": 821 },
        { "address": "西浦", "city": "防府市", "postcode": "7470835", "prefecture": "山口県", "id": 822 },
        { "address": "野島", "city": "防府市", "postcode": "7470832", "prefecture": "山口県", "id": 823 },
        { "address": "八王子", "city": "防府市", "postcode": "7470037", "prefecture": "山口県", "id": 824 },
        { "address": "華城中央", "city": "防府市", "postcode": "7470848", "prefecture": "山口県", "id": 825 },
        { "address": "華園町", "city": "防府市", "postcode": "7470844", "prefecture": "山口県", "id": 826 },
        { "address": "浜方", "city": "防府市", "postcode": "7470833", "prefecture": "山口県", "id": 827 },
        { "address": "東佐波令", "city": "防府市", "postcode": "7470061", "prefecture": "山口県", "id": 828 },
        { "address": "東仁井令町", "city": "防府市", "postcode": "7470843", "prefecture": "山口県", "id": 829 },
        { "address": "東松崎町", "city": "防府市", "postcode": "7470028", "prefecture": "山口県", "id": 830 },
        { "address": "東三田尻", "city": "防府市", "postcode": "7470813", "prefecture": "山口県", "id": 831 },
        { "address": "久兼", "city": "防府市", "postcode": "7470102", "prefecture": "山口県", "id": 832 },
        { "address": "平和町", "city": "防府市", "postcode": "7470043", "prefecture": "山口県", "id": 833 },
        { "address": "松崎町", "city": "防府市", "postcode": "7470029", "prefecture": "山口県", "id": 834 },
        { "address": "松原町", "city": "防府市", "postcode": "7470804", "prefecture": "山口県", "id": 835 },
        { "address": "真尾", "city": "防府市", "postcode": "7470104", "prefecture": "山口県", "id": 836 },
        { "address": "鞠生町", "city": "防府市", "postcode": "7470805", "prefecture": "山口県", "id": 837 },
        { "address": "三田尻", "city": "防府市", "postcode": "7470814", "prefecture": "山口県", "id": 838 },
        { "address": "三田尻本町", "city": "防府市", "postcode": "7470818", "prefecture": "山口県", "id": 839 },
        { "address": "緑町", "city": "防府市", "postcode": "7470026", "prefecture": "山口県", "id": 840 },
        { "address": "南松崎町", "city": "防府市", "postcode": "7470027", "prefecture": "山口県", "id": 841 },
        { "address": "宮市町", "city": "防府市", "postcode": "7470032", "prefecture": "山口県", "id": 842 },
        { "address": "美和町", "city": "防府市", "postcode": "7470025", "prefecture": "山口県", "id": 843 },
        { "address": "向島", "city": "防府市", "postcode": "7470831", "prefecture": "山口県", "id": 844 },
        { "address": "牟礼", "city": "防府市", "postcode": "7470004", "prefecture": "山口県", "id": 845 },
        { "address": "牟礼今宿", "city": "防府市", "postcode": "7470012", "prefecture": "山口県", "id": 846 },
        { "address": "牟礼柳", "city": "防府市", "postcode": "7470003", "prefecture": "山口県", "id": 847 },
        { "address": "本橋町", "city": "防府市", "postcode": "7470041", "prefecture": "山口県", "id": 848 },
        { "address": "和字", "city": "防府市", "postcode": "7470103", "prefecture": "山口県", "id": 849 },
        { "city": "下松市", "postcode": "7440000", "prefecture": "山口県", "id": 850 },
        { "address": "青柳", "city": "下松市", "postcode": "7440004", "prefecture": "山口県", "id": 851 },
        { "address": "生野屋", "city": "下松市", "postcode": "7440031", "prefecture": "山口県", "id": 852 },
        { "address": "生野屋西", "city": "下松市", "postcode": "7440032", "prefecture": "山口県", "id": 853 },
        { "address": "生野屋南", "city": "下松市", "postcode": "7440033", "prefecture": "山口県", "id": 854 },
        { "address": "駅南", "city": "下松市", "postcode": "7440007", "prefecture": "山口県", "id": 855 },
        { "address": "大手町", "city": "下松市", "postcode": "7440015", "prefecture": "山口県", "id": 856 },
        { "address": "大藤谷", "city": "下松市", "postcode": "7440272", "prefecture": "山口県", "id": 857 },
        { "address": "笠戸島", "city": "下松市", "postcode": "7440001", "prefecture": "山口県", "id": 858 },
        { "address": "清瀬町", "city": "下松市", "postcode": "7440071", "prefecture": "山口県", "id": 859 },
        { "address": "切山", "city": "下松市", "postcode": "7440042", "prefecture": "山口県", "id": 860 },
        { "address": "楠木町", "city": "下松市", "postcode": "7440029", "prefecture": "山口県", "id": 861 },
        { "address": "下谷", "city": "下松市", "postcode": "7440271", "prefecture": "山口県", "id": 862 },
        { "address": "来巻", "city": "下松市", "postcode": "7440051", "prefecture": "山口県", "id": 863 },
        { "address": "河内", "city": "下松市", "postcode": "7440061", "prefecture": "山口県", "id": 864 },
        { "address": "琴平町", "city": "下松市", "postcode": "7440003", "prefecture": "山口県", "id": 865 },
        { "address": "栄町", "city": "下松市", "postcode": "7440013", "prefecture": "山口県", "id": 866 },
        { "address": "桜町", "city": "下松市", "postcode": "7440019", "prefecture": "山口県", "id": 867 },
        { "address": "潮音町", "city": "下松市", "postcode": "7440074", "prefecture": "山口県", "id": 868 },
        { "address": "昭和町", "city": "下松市", "postcode": "7440062", "prefecture": "山口県", "id": 869 },
        { "address": "新川", "city": "下松市", "postcode": "7440008", "prefecture": "山口県", "id": 870 },
        { "address": "末武上", "city": "下松市", "postcode": "7440024", "prefecture": "山口県", "id": 871 },
        { "address": "末武下", "city": "下松市", "postcode": "7440022", "prefecture": "山口県", "id": 872 },
        { "address": "末武中", "city": "下松市", "postcode": "7440023", "prefecture": "山口県", "id": 873 },
        { "address": "せせらぎ町", "city": "下松市", "postcode": "7440076", "prefecture": "山口県", "id": 874 },
        { "address": "瀬戸", "city": "下松市", "postcode": "7440273", "prefecture": "山口県", "id": 875 },
        { "address": "中央町", "city": "下松市", "postcode": "7440025", "prefecture": "山口県", "id": 876 },
        { "address": "藤光町", "city": "下松市", "postcode": "7440028", "prefecture": "山口県", "id": 877 },
        { "address": "東陽", "city": "下松市", "postcode": "7440043", "prefecture": "山口県", "id": 878 },
        { "address": "東和", "city": "下松市", "postcode": "7440053", "prefecture": "山口県", "id": 879 },
        { "address": "中市", "city": "下松市", "postcode": "7440014", "prefecture": "山口県", "id": 880 },
        { "address": "中島町", "city": "下松市", "postcode": "7440077", "prefecture": "山口県", "id": 881 },
        { "address": "中須南", "city": "下松市", "postcode": "7440275", "prefecture": "山口県", "id": 882 },
        { "address": "西市", "city": "下松市", "postcode": "7440078", "prefecture": "山口県", "id": 883 },
        { "address": "西豊井", "city": "下松市", "postcode": "7440011", "prefecture": "山口県", "id": 884 },
        { "address": "西柳", "city": "下松市", "postcode": "7440018", "prefecture": "山口県", "id": 885 },
        { "address": "温見", "city": "下松市", "postcode": "7440274", "prefecture": "山口県", "id": 886 },
        { "address": "望町", "city": "下松市", "postcode": "7440072", "prefecture": "山口県", "id": 887 },
        { "address": "旗岡", "city": "下松市", "postcode": "7440006", "prefecture": "山口県", "id": 888 },
        { "address": "東豊井", "city": "下松市", "postcode": "7440002", "prefecture": "山口県", "id": 889 },
        { "address": "東柳", "city": "下松市", "postcode": "7440017", "prefecture": "山口県", "id": 890 },
        { "address": "平田", "city": "下松市", "postcode": "7440021", "prefecture": "山口県", "id": 891 },
        { "address": "古川町", "city": "下松市", "postcode": "7440005", "prefecture": "山口県", "id": 892 },
        { "address": "北斗町", "city": "下松市", "postcode": "7440012", "prefecture": "山口県", "id": 893 },
        { "address": "星が丘", "city": "下松市", "postcode": "7440065", "prefecture": "山口県", "id": 894 },
        { "address": "美里町", "city": "下松市", "postcode": "7440073", "prefecture": "山口県", "id": 895 },
        { "address": "瑞穂町", "city": "下松市", "postcode": "7440075", "prefecture": "山口県", "id": 896 },
        { "address": "南花岡", "city": "下松市", "postcode": "7440027", "prefecture": "山口県", "id": 897 },
        { "address": "桃山町", "city": "下松市", "postcode": "7440052", "prefecture": "山口県", "id": 898 },
        { "address": "山田", "city": "下松市", "postcode": "7440041", "prefecture": "山口県", "id": 899 },
        { "address": "米川", "city": "下松市", "postcode": "7440276", "prefecture": "山口県", "id": 900 },
        { "address": "若宮町", "city": "下松市", "postcode": "7440063", "prefecture": "山口県", "id": 901 },
        { "city": "岩国市", "postcode": "7400000", "prefecture": "山口県", "id": 902 },
        { "address": "相ノ谷", "city": "岩国市", "postcode": "7400304", "prefecture": "山口県", "id": 903 },
        { "address": "旭町", "city": "岩国市", "postcode": "7400024", "prefecture": "山口県", "id": 904 },
        { "address": "阿品", "city": "岩国市", "postcode": "7410094", "prefecture": "山口県", "id": 905 },
        { "address": "愛宕町", "city": "岩国市", "postcode": "7400037", "prefecture": "山口県", "id": 906 },
        { "address": "飯田町", "city": "岩国市", "postcode": "7400003", "prefecture": "山口県", "id": 907 },
        { "address": "伊房", "city": "岩国市", "postcode": "7400324", "prefecture": "山口県", "id": 908 },
        { "address": "今津町", "city": "岩国市", "postcode": "7400017", "prefecture": "山口県", "id": 909 },
        { "address": "入野", "city": "岩国市", "postcode": "7400321", "prefecture": "山口県", "id": 910 },
        { "address": "岩国", "city": "岩国市", "postcode": "7410062", "prefecture": "山口県", "id": 911 },
        { "address": "上田", "city": "岩国市", "postcode": "7400317", "prefecture": "山口県", "id": 912 },
        { "address": "牛野谷町", "city": "岩国市", "postcode": "7410071", "prefecture": "山口県", "id": 913 },
        { "address": "青木町", "city": "岩国市", "postcode": "7400042", "prefecture": "山口県", "id": 914 },
        { "address": "大谷", "city": "岩国市", "postcode": "7410084", "prefecture": "山口県", "id": 915 },
        { "address": "大山", "city": "岩国市", "postcode": "7400323", "prefecture": "山口県", "id": 916 },
        { "address": "小瀬", "city": "岩国市", "postcode": "7410091", "prefecture": "山口県", "id": 917 },
        { "address": "尾津町", "city": "岩国市", "postcode": "7400032", "prefecture": "山口県", "id": 918 },
        { "address": "桂町", "city": "岩国市", "postcode": "7400013", "prefecture": "山口県", "id": 919 },
        { "address": "叶木", "city": "岩国市", "postcode": "7410075", "prefecture": "山口県", "id": 920 },
        { "address": "川口町", "city": "岩国市", "postcode": "7400015", "prefecture": "山口県", "id": 921 },
        { "address": "川下町", "city": "岩国市", "postcode": "7400023", "prefecture": "山口県", "id": 922 },
        { "address": "瓦谷", "city": "岩国市", "postcode": "7400311", "prefecture": "山口県", "id": 923 },
        { "address": "川西", "city": "岩国市", "postcode": "7410082", "prefecture": "山口県", "id": 924 },
        { "address": "杭名", "city": "岩国市", "postcode": "7400303", "prefecture": "山口県", "id": 925 },
        { "address": "玖珂町", "city": "岩国市", "postcode": "7420332", "prefecture": "山口県", "id": 926 },
        { "address": "玖珂町", "city": "岩国市", "postcode": "7420338", "prefecture": "山口県", "id": 927 },
        { "address": "玖珂町", "city": "岩国市", "postcode": "7420321", "prefecture": "山口県", "id": 928 },
        { "address": "玖珂町", "city": "岩国市", "postcode": "7420334", "prefecture": "山口県", "id": 929 },
        { "address": "玖珂町", "city": "岩国市", "postcode": "7420322", "prefecture": "山口県", "id": 930 },
        { "address": "玖珂町", "city": "岩国市", "postcode": "7420324", "prefecture": "山口県", "id": 931 },
        { "address": "玖珂町", "city": "岩国市", "postcode": "7420342", "prefecture": "山口県", "id": 932 },
        { "address": "玖珂町", "city": "岩国市", "postcode": "7420312", "prefecture": "山口県", "id": 933 },
        { "address": "玖珂町", "city": "岩国市", "postcode": "7420311", "prefecture": "山口県", "id": 934 },
        { "address": "玖珂町", "city": "岩国市", "postcode": "7420337", "prefecture": "山口県", "id": 935 },
        { "address": "玖珂町", "city": "岩国市", "postcode": "7420331", "prefecture": "山口県", "id": 936 },
        { "address": "玖珂町", "city": "岩国市", "postcode": "7420313", "prefecture": "山口県", "id": 937 },
        { "address": "玖珂町", "city": "岩国市", "postcode": "7420336", "prefecture": "山口県", "id": 938 },
        { "address": "玖珂町", "city": "岩国市", "postcode": "7420335", "prefecture": "山口県", "id": 939 },
        { "address": "玖珂町", "city": "岩国市", "postcode": "7420315", "prefecture": "山口県", "id": 940 },
        { "address": "玖珂町", "city": "岩国市", "postcode": "7420333", "prefecture": "山口県", "id": 941 },
        { "address": "玖珂町", "city": "岩国市", "postcode": "7420326", "prefecture": "山口県", "id": 942 },
        { "address": "玖珂町", "city": "岩国市", "postcode": "7420314", "prefecture": "山口県", "id": 943 },
        { "address": "玖珂町", "city": "岩国市", "postcode": "7420343", "prefecture": "山口県", "id": 944 },
        { "address": "玖珂町", "city": "岩国市", "postcode": "7420344", "prefecture": "山口県", "id": 945 },
        { "address": "玖珂町", "city": "岩国市", "postcode": "7420325", "prefecture": "山口県", "id": 946 },
        { "address": "玖珂町", "city": "岩国市", "postcode": "7420323", "prefecture": "山口県", "id": 947 },
        { "address": "玖珂町", "city": "岩国市", "postcode": "7420341", "prefecture": "山口県", "id": 948 },
        { "address": "楠町", "city": "岩国市", "postcode": "7400028", "prefecture": "山口県", "id": 949 },
        { "address": "車町", "city": "岩国市", "postcode": "7400026", "prefecture": "山口県", "id": 950 },
        { "address": "黒磯町", "city": "岩国市", "postcode": "7400041", "prefecture": "山口県", "id": 951 },
        { "address": "下", "city": "岩国市", "postcode": "7400302", "prefecture": "山口県", "id": 952 },
        { "address": "守内", "city": "岩国市", "postcode": "7400312", "prefecture": "山口県", "id": 953 },
        { "address": "周東町明見谷", "city": "岩国市", "postcode": "7420411", "prefecture": "山口県", "id": 954 },
        { "address": "周東町獺越", "city": "岩国市", "postcode": "7420422", "prefecture": "山口県", "id": 955 },
        { "address": "周東町上久原", "city": "岩国市", "postcode": "7420413", "prefecture": "山口県", "id": 956 },
        { "address": "周東町上須通", "city": "岩国市", "postcode": "7420426", "prefecture": "山口県", "id": 957 },
        { "address": "周東町川上", "city": "岩国市", "postcode": "7420412", "prefecture": "山口県", "id": 958 },
        { "address": "周東町差川", "city": "岩国市", "postcode": "7420424", "prefecture": "山口県", "id": 959 },
        { "address": "周東町三瀬川", "city": "岩国市", "postcode": "7420421", "prefecture": "山口県", "id": 960 },
        { "address": "周東町下久原", "city": "岩国市", "postcode": "7420417", "prefecture": "山口県", "id": 961 },
        { "address": "周東町下須通", "city": "岩国市", "postcode": "7420423", "prefecture": "山口県", "id": 962 },
        { "address": "周東町祖生", "city": "岩国市", "postcode": "7420301", "prefecture": "山口県", "id": 963 },
        { "address": "周東町田尻", "city": "岩国市", "postcode": "7420414", "prefecture": "山口県", "id": 964 },
        { "address": "周東町中山", "city": "岩国市", "postcode": "7420415", "prefecture": "山口県", "id": 965 },
        { "address": "周東町西長野", "city": "岩国市", "postcode": "7420425", "prefecture": "山口県", "id": 966 },
        { "address": "周東町樋余地", "city": "岩国市", "postcode": "7420427", "prefecture": "山口県", "id": 967 },
        { "address": "周東町用田", "city": "岩国市", "postcode": "7420416", "prefecture": "山口県", "id": 968 },
        { "address": "装束町", "city": "岩国市", "postcode": "7400001", "prefecture": "山口県", "id": 969 },
        { "address": "昭和町", "city": "岩国市", "postcode": "7400004", "prefecture": "山口県", "id": 970 },
        { "address": "新港町", "city": "岩国市", "postcode": "7400002", "prefecture": "山口県", "id": 971 },
        { "address": "砂山町", "city": "岩国市", "postcode": "7400019", "prefecture": "山口県", "id": 972 },
        { "address": "角", "city": "岩国市", "postcode": "7400327", "prefecture": "山口県", "id": 973 },
        { "address": "関戸", "city": "岩国市", "postcode": "7410063", "prefecture": "山口県", "id": 974 },
        { "address": "竹安", "city": "岩国市", "postcode": "7400325", "prefecture": "山口県", "id": 975 },
        { "address": "多田", "city": "岩国市", "postcode": "7410092", "prefecture": "山口県", "id": 976 },
        { "address": "立石町", "city": "岩国市", "postcode": "7400011", "prefecture": "山口県", "id": 977 },
        { "address": "田原", "city": "岩国市", "postcode": "7410093", "prefecture": "山口県", "id": 978 },
        { "address": "近延", "city": "岩国市", "postcode": "7400315", "prefecture": "山口県", "id": 979 },
        { "address": "通津", "city": "岩国市", "postcode": "7400044", "prefecture": "山口県", "id": 980 },
        { "address": "寺山", "city": "岩国市", "postcode": "7400314", "prefecture": "山口県", "id": 981 },
        { "address": "天尾", "city": "岩国市", "postcode": "7400306", "prefecture": "山口県", "id": 982 },
        { "address": "中津町", "city": "岩国市", "postcode": "7400027", "prefecture": "山口県", "id": 983 },
        { "address": "長野", "city": "岩国市", "postcode": "7400045", "prefecture": "山口県", "id": 984 },
        { "address": "灘町", "city": "岩国市", "postcode": "7400033", "prefecture": "山口県", "id": 985 },
        { "address": "錦町宇佐", "city": "岩国市", "postcode": "7400901", "prefecture": "山口県", "id": 986 },
        { "address": "錦町宇佐郷", "city": "岩国市", "postcode": "7400904", "prefecture": "山口県", "id": 987 },
        { "address": "錦町宇佐郷", "city": "岩国市", "postcode": "7400902", "prefecture": "山口県", "id": 988 },
        { "address": "錦町大野", "city": "岩国市", "postcode": "7400721", "prefecture": "山口県", "id": 989 },
        { "address": "錦町大原", "city": "岩国市", "postcode": "7400903", "prefecture": "山口県", "id": 990 },
        { "address": "錦町須川", "city": "岩国市", "postcode": "7400811", "prefecture": "山口県", "id": 991 },
        { "address": "錦町中ノ瀬", "city": "岩国市", "postcode": "7400722", "prefecture": "山口県", "id": 992 },
        { "address": "錦町野谷", "city": "岩国市", "postcode": "7400725", "prefecture": "山口県", "id": 993 },
        { "address": "錦町広瀬", "city": "岩国市", "postcode": "7400724", "prefecture": "山口県", "id": 994 },
        { "address": "錦町深川", "city": "岩国市", "postcode": "7400812", "prefecture": "山口県", "id": 995 },
        { "address": "錦町府谷", "city": "岩国市", "postcode": "7400723", "prefecture": "山口県", "id": 996 },
        { "address": "錦見", "city": "岩国市", "postcode": "7410061", "prefecture": "山口県", "id": 997 },
        { "address": "柱島", "city": "岩国市", "postcode": "7400051", "prefecture": "山口県", "id": 998 },
        { "address": "柱野", "city": "岩国市", "postcode": "7410073", "prefecture": "山口県", "id": 999 },
        { "address": "廿木", "city": "岩国市", "postcode": "7400322", "prefecture": "山口県", "id": 1000 },
        { "address": "土生", "city": "岩国市", "postcode": "7400326", "prefecture": "山口県", "id": 1001 },
        { "address": "日の出町", "city": "岩国市", "postcode": "7400014", "prefecture": "山口県", "id": 1002 },
        { "address": "平田", "city": "岩国市", "postcode": "7410072", "prefecture": "山口県", "id": 1003 },
        { "address": "藤生町", "city": "岩国市", "postcode": "7400036", "prefecture": "山口県", "id": 1004 },
        { "address": "二鹿", "city": "岩国市", "postcode": "7400305", "prefecture": "山口県", "id": 1005 },
        { "address": "保木", "city": "岩国市", "postcode": "7400313", "prefecture": "山口県", "id": 1006 },
        { "address": "保津町", "city": "岩国市", "postcode": "7400043", "prefecture": "山口県", "id": 1007 },
        { "address": "本郷町宇塚", "city": "岩国市", "postcode": "7400604", "prefecture": "山口県", "id": 1008 },
        { "address": "本郷町西黒沢", "city": "岩国市", "postcode": "7400605", "prefecture": "山口県", "id": 1009 },
        { "address": "本郷町波野", "city": "岩国市", "postcode": "7400603", "prefecture": "山口県", "id": 1010 },
        { "address": "本郷町本郷", "city": "岩国市", "postcode": "7400602", "prefecture": "山口県", "id": 1011 },
        { "address": "本郷町本谷", "city": "岩国市", "postcode": "7400601", "prefecture": "山口県", "id": 1012 },
        { "address": "麻里布町", "city": "岩国市", "postcode": "7400018", "prefecture": "山口県", "id": 1013 },
        { "address": "三笠町", "city": "岩国市", "postcode": "7400016", "prefecture": "山口県", "id": 1014 },
        { "address": "美川町小川", "city": "岩国市", "postcode": "7400501", "prefecture": "山口県", "id": 1015 },
        { "address": "美川町四馬神", "city": "岩国市", "postcode": "7400502", "prefecture": "山口県", "id": 1016 },
        { "address": "美川町添谷", "city": "岩国市", "postcode": "7400503", "prefecture": "山口県", "id": 1017 },
        { "address": "美川町南桑", "city": "岩国市", "postcode": "7400504", "prefecture": "山口県", "id": 1018 },
        { "address": "美川町根笠", "city": "岩国市", "postcode": "7400505", "prefecture": "山口県", "id": 1019 },
        { "address": "御庄", "city": "岩国市", "postcode": "7410083", "prefecture": "山口県", "id": 1020 },
        { "address": "三角町", "city": "岩国市", "postcode": "7400025", "prefecture": "山口県", "id": 1021 },
        { "address": "海土路町", "city": "岩国市", "postcode": "7400035", "prefecture": "山口県", "id": 1022 },
        { "address": "南岩国町", "city": "岩国市", "postcode": "7400034", "prefecture": "山口県", "id": 1023 },
        { "address": "美和町阿賀", "city": "岩国市", "postcode": "7401241", "prefecture": "山口県", "id": 1024 },
        { "address": "美和町秋掛", "city": "岩国市", "postcode": "7401201", "prefecture": "山口県", "id": 1025 },
        { "address": "美和町生見", "city": "岩国市", "postcode": "7401231", "prefecture": "山口県", "id": 1026 },
        { "address": "美和町大根川", "city": "岩国市", "postcode": "7401217", "prefecture": "山口県", "id": 1027 },
        { "address": "美和町釜ケ原", "city": "岩国市", "postcode": "7401211", "prefecture": "山口県", "id": 1028 },
        { "address": "美和町上駄床", "city": "岩国市", "postcode": "7401221", "prefecture": "山口県", "id": 1029 },
        { "address": "美和町岸根", "city": "岩国市", "postcode": "7401213", "prefecture": "山口県", "id": 1030 },
        { "address": "美和町北中山", "city": "岩国市", "postcode": "7401202", "prefecture": "山口県", "id": 1031 },
        { "address": "美和町黒沢", "city": "岩国市", "postcode": "7401212", "prefecture": "山口県", "id": 1032 },
        { "address": "美和町佐坂", "city": "岩国市", "postcode": "7401224", "prefecture": "山口県", "id": 1033 },
        { "address": "美和町渋前", "city": "岩国市", "postcode": "7401225", "prefecture": "山口県", "id": 1034 },
        { "address": "美和町下畑", "city": "岩国市", "postcode": "7401242", "prefecture": "山口県", "id": 1035 },
        { "address": "美和町瀬戸ノ内", "city": "岩国市", "postcode": "7401219", "prefecture": "山口県", "id": 1036 },
        { "address": "美和町田ノ口", "city": "岩国市", "postcode": "7401222", "prefecture": "山口県", "id": 1037 },
        { "address": "美和町中垣内", "city": "岩国市", "postcode": "7401218", "prefecture": "山口県", "id": 1038 },
        { "address": "美和町長谷", "city": "岩国市", "postcode": "7401215", "prefecture": "山口県", "id": 1039 },
        { "address": "美和町滑", "city": "岩国市", "postcode": "7401223", "prefecture": "山口県", "id": 1040 },
        { "address": "美和町西畑", "city": "岩国市", "postcode": "7401232", "prefecture": "山口県", "id": 1041 },
        { "address": "美和町日宛", "city": "岩国市", "postcode": "7401216", "prefecture": "山口県", "id": 1042 },
        { "address": "美和町百合谷", "city": "岩国市", "postcode": "7401214", "prefecture": "山口県", "id": 1043 },
        { "address": "室の木町", "city": "岩国市", "postcode": "7400021", "prefecture": "山口県", "id": 1044 },
        { "address": "持国", "city": "岩国市", "postcode": "7410085", "prefecture": "山口県", "id": 1045 },
        { "address": "元町", "city": "岩国市", "postcode": "7400012", "prefecture": "山口県", "id": 1046 },
        { "address": "門前町", "city": "岩国市", "postcode": "7400031", "prefecture": "山口県", "id": 1047 },
        { "address": "山手町", "city": "岩国市", "postcode": "7400022", "prefecture": "山口県", "id": 1048 },
        { "address": "由宇町北", "city": "岩国市", "postcode": "7401455", "prefecture": "山口県", "id": 1049 },
        { "address": "由宇町神東", "city": "岩国市", "postcode": "7401432", "prefecture": "山口県", "id": 1050 },
        { "address": "由宇町千鳥ケ丘", "city": "岩国市", "postcode": "7401441", "prefecture": "山口県", "id": 1051 },
        { "address": "由宇町中央", "city": "岩国市", "postcode": "7401428", "prefecture": "山口県", "id": 1052 },
        { "address": "由宇町西", "city": "岩国市", "postcode": "7401454", "prefecture": "山口県", "id": 1053 },
        { "address": "由宇町港", "city": "岩国市", "postcode": "7401424", "prefecture": "山口県", "id": 1054 },
        { "address": "由宇町南", "city": "岩国市", "postcode": "7401451", "prefecture": "山口県", "id": 1055 },
        { "address": "由宇町南沖", "city": "岩国市", "postcode": "7401425", "prefecture": "山口県", "id": 1056 },
        { "address": "由宇町由宇崎", "city": "岩国市", "postcode": "7401426", "prefecture": "山口県", "id": 1057 },
        { "address": "由宇町", "city": "岩国市", "postcode": "7401431", "prefecture": "山口県", "id": 1058 },
        { "address": "由宇町", "city": "岩国市", "postcode": "7401405", "prefecture": "山口県", "id": 1059 },
        { "address": "由宇町", "city": "岩国市", "postcode": "7401413", "prefecture": "山口県", "id": 1060 },
        { "address": "由宇町", "city": "岩国市", "postcode": "7401406", "prefecture": "山口県", "id": 1061 },
        { "address": "由宇町", "city": "岩国市", "postcode": "7401411", "prefecture": "山口県", "id": 1062 },
        { "address": "由宇町", "city": "岩国市", "postcode": "7401402", "prefecture": "山口県", "id": 1063 },
        { "address": "由宇町", "city": "岩国市", "postcode": "7401452", "prefecture": "山口県", "id": 1064 },
        { "address": "由宇町", "city": "岩国市", "postcode": "7401401", "prefecture": "山口県", "id": 1065 },
        { "address": "由宇町", "city": "岩国市", "postcode": "7401403", "prefecture": "山口県", "id": 1066 },
        { "address": "由宇町", "city": "岩国市", "postcode": "7401412", "prefecture": "山口県", "id": 1067 },
        { "address": "由宇町", "city": "岩国市", "postcode": "7401404", "prefecture": "山口県", "id": 1068 },
        { "address": "由宇町", "city": "岩国市", "postcode": "7401407", "prefecture": "山口県", "id": 1069 },
        { "address": "由宇町", "city": "岩国市", "postcode": "7401488", "prefecture": "山口県", "id": 1070 },
        { "address": "行波", "city": "岩国市", "postcode": "7400301", "prefecture": "山口県", "id": 1071 },
        { "address": "行正", "city": "岩国市", "postcode": "7400316", "prefecture": "山口県", "id": 1072 },
        { "address": "横山", "city": "岩国市", "postcode": "7410081", "prefecture": "山口県", "id": 1073 },
        { "address": "六呂師", "city": "岩国市", "postcode": "7410074", "prefecture": "山口県", "id": 1074 },
        { "city": "光市", "postcode": "7430000", "prefecture": "山口県", "id": 1075 },
        { "address": "浅江", "city": "光市", "postcode": "7430021", "prefecture": "山口県", "id": 1076 },
        { "address": "岩狩", "city": "光市", "postcode": "7430051", "prefecture": "山口県", "id": 1077 },
        { "address": "岩田", "city": "光市", "postcode": "7430103", "prefecture": "山口県", "id": 1078 },
        { "address": "岩田立野", "city": "光市", "postcode": "7430104", "prefecture": "山口県", "id": 1079 },
        { "address": "牛島", "city": "光市", "postcode": "7430003", "prefecture": "山口県", "id": 1080 },
        { "address": "上島田", "city": "光市", "postcode": "7430065", "prefecture": "山口県", "id": 1081 },
        { "address": "木園", "city": "光市", "postcode": "7430046", "prefecture": "山口県", "id": 1082 },
        { "address": "協和町", "city": "光市", "postcode": "7430043", "prefecture": "山口県", "id": 1083 },
        { "address": "小周防", "city": "光市", "postcode": "7430061", "prefecture": "山口県", "id": 1084 },
        { "address": "塩田", "city": "光市", "postcode": "7430101", "prefecture": "山口県", "id": 1085 },
        { "address": "島田", "city": "光市", "postcode": "7430063", "prefecture": "山口県", "id": 1086 },
        { "address": "千坊台", "city": "光市", "postcode": "7430012", "prefecture": "山口県", "id": 1087 },
        { "address": "宝町", "city": "光市", "postcode": "7430042", "prefecture": "山口県", "id": 1088 },
        { "address": "立野", "city": "光市", "postcode": "7430062", "prefecture": "山口県", "id": 1089 },
        { "address": "中央", "city": "光市", "postcode": "7430013", "prefecture": "山口県", "id": 1090 },
        { "address": "束荷", "city": "光市", "postcode": "7430105", "prefecture": "山口県", "id": 1091 },
        { "address": "中島田", "city": "光市", "postcode": "7430064", "prefecture": "山口県", "id": 1092 },
        { "address": "中村町", "city": "光市", "postcode": "7430048", "prefecture": "山口県", "id": 1093 },
        { "address": "虹ケ丘", "city": "光市", "postcode": "7430031", "prefecture": "山口県", "id": 1094 },
        { "address": "虹ケ浜", "city": "光市", "postcode": "7430022", "prefecture": "山口県", "id": 1095 },
        { "address": "花園", "city": "光市", "postcode": "7430047", "prefecture": "山口県", "id": 1096 },
        { "address": "光ケ丘", "city": "光市", "postcode": "7430023", "prefecture": "山口県", "id": 1097 },
        { "address": "丸山町", "city": "光市", "postcode": "7430041", "prefecture": "山口県", "id": 1098 },
        { "address": "三井", "city": "光市", "postcode": "7430052", "prefecture": "山口県", "id": 1099 },
        { "address": "光井", "city": "光市", "postcode": "7430011", "prefecture": "山口県", "id": 1100 },
        { "address": "宮ノ下町", "city": "光市", "postcode": "7430045", "prefecture": "山口県", "id": 1101 },
        { "address": "三輪", "city": "光市", "postcode": "7430102", "prefecture": "山口県", "id": 1102 },
        { "address": "室積", "city": "光市", "postcode": "7430007", "prefecture": "山口県", "id": 1103 },
        { "address": "室積市延", "city": "光市", "postcode": "7430004", "prefecture": "山口県", "id": 1104 },
        { "address": "室積浦", "city": "光市", "postcode": "7430002", "prefecture": "山口県", "id": 1105 },
        { "address": "室積大町", "city": "光市", "postcode": "7430072", "prefecture": "山口県", "id": 1106 },
        { "address": "室積沖田", "city": "光市", "postcode": "7430075", "prefecture": "山口県", "id": 1107 },
        { "address": "室積新開", "city": "光市", "postcode": "7430071", "prefecture": "山口県", "id": 1108 },
        { "address": "室積神田", "city": "光市", "postcode": "7430006", "prefecture": "山口県", "id": 1109 },
        { "address": "室積中央町", "city": "光市", "postcode": "7430008", "prefecture": "山口県", "id": 1110 },
        { "address": "室積西ノ庄", "city": "光市", "postcode": "7430074", "prefecture": "山口県", "id": 1111 },
        { "address": "室積東ノ庄", "city": "光市", "postcode": "7430005", "prefecture": "山口県", "id": 1112 },
        { "address": "室積正木", "city": "光市", "postcode": "7430073", "prefecture": "山口県", "id": 1113 },
        { "address": "室積松原", "city": "光市", "postcode": "7430009", "prefecture": "山口県", "id": 1114 },
        { "address": "室積村", "city": "光市", "postcode": "7430001", "prefecture": "山口県", "id": 1115 },
        { "address": "和田町", "city": "光市", "postcode": "7430044", "prefecture": "山口県", "id": 1116 },
        { "city": "長門市", "postcode": "7594100", "prefecture": "山口県", "id": 1117 },
        { "address": "通", "city": "長門市", "postcode": "7594107", "prefecture": "山口県", "id": 1118 },
        { "address": "渋木", "city": "長門市", "postcode": "7594104", "prefecture": "山口県", "id": 1119 },
        { "address": "仙崎", "city": "長門市", "postcode": "7594106", "prefecture": "山口県", "id": 1120 },
        { "address": "俵山", "city": "長門市", "postcode": "7594211", "prefecture": "山口県", "id": 1121 },
        { "address": "西深川", "city": "長門市", "postcode": "7594102", "prefecture": "山口県", "id": 1122 },
        { "address": "東深川", "city": "長門市", "postcode": "7594101", "prefecture": "山口県", "id": 1123 },
        { "address": "深川湯本", "city": "長門市", "postcode": "7594103", "prefecture": "山口県", "id": 1124 },
        { "address": "日置上", "city": "長門市", "postcode": "7594401", "prefecture": "山口県", "id": 1125 },
        { "address": "日置蔵小田", "city": "長門市", "postcode": "7594405", "prefecture": "山口県", "id": 1126 },
        { "address": "日置下", "city": "長門市", "postcode": "7594403", "prefecture": "山口県", "id": 1127 },
        { "address": "日置中", "city": "長門市", "postcode": "7594402", "prefecture": "山口県", "id": 1128 },
        { "address": "日置野田", "city": "長門市", "postcode": "7594404", "prefecture": "山口県", "id": 1129 },
        { "address": "真木", "city": "長門市", "postcode": "7594105", "prefecture": "山口県", "id": 1130 },
        { "address": "三隅上", "city": "長門市", "postcode": "7593801", "prefecture": "山口県", "id": 1131 },
        { "address": "三隅下", "city": "長門市", "postcode": "7593803", "prefecture": "山口県", "id": 1132 },
        { "address": "三隅中", "city": "長門市", "postcode": "7593802", "prefecture": "山口県", "id": 1133 },
        { "address": "油谷伊上", "city": "長門市", "postcode": "7594505", "prefecture": "山口県", "id": 1134 },
        { "address": "油谷後畑", "city": "長門市", "postcode": "7594711", "prefecture": "山口県", "id": 1135 },
        { "address": "油谷角山", "city": "長門市", "postcode": "7594713", "prefecture": "山口県", "id": 1136 },
        { "address": "油谷川尻", "city": "長門市", "postcode": "7594621", "prefecture": "山口県", "id": 1137 },
        { "address": "油谷河原", "city": "長門市", "postcode": "7594504", "prefecture": "山口県", "id": 1138 },
        { "address": "油谷蔵小田", "city": "長門市", "postcode": "7594501", "prefecture": "山口県", "id": 1139 },
        { "address": "油谷新別名", "city": "長門市", "postcode": "7594503", "prefecture": "山口県", "id": 1140 },
        { "address": "油谷津黄", "city": "長門市", "postcode": "7594712", "prefecture": "山口県", "id": 1141 },
        { "address": "油谷久富", "city": "長門市", "postcode": "7594502", "prefecture": "山口県", "id": 1142 },
        { "address": "油谷向津具上", "city": "長門市", "postcode": "7594622", "prefecture": "山口県", "id": 1143 },
        { "address": "油谷向津具下", "city": "長門市", "postcode": "7594623", "prefecture": "山口県", "id": 1144 },
        { "city": "柳井市", "postcode": "7420000", "prefecture": "山口県", "id": 1145 },
        { "address": "旭ケ丘", "city": "柳井市", "postcode": "7421351", "prefecture": "山口県", "id": 1146 },
        { "address": "阿月", "city": "柳井市", "postcode": "7421353", "prefecture": "山口県", "id": 1147 },
        { "address": "伊陸", "city": "柳井市", "postcode": "7420201", "prefecture": "山口県", "id": 1148 },
        { "address": "伊保庄", "city": "柳井市", "postcode": "7421352", "prefecture": "山口県", "id": 1149 },
        { "address": "駅南", "city": "柳井市", "postcode": "7420036", "prefecture": "山口県", "id": 1150 },
        { "address": "大畠", "city": "柳井市", "postcode": "7490102", "prefecture": "山口県", "id": 1151 },
        { "address": "片野西", "city": "柳井市", "postcode": "7420003", "prefecture": "山口県", "id": 1152 },
        { "address": "北浜", "city": "柳井市", "postcode": "7420012", "prefecture": "山口県", "id": 1153 },
        { "address": "神代", "city": "柳井市", "postcode": "7490101", "prefecture": "山口県", "id": 1154 },
        { "address": "古開作", "city": "柳井市", "postcode": "7420032", "prefecture": "山口県", "id": 1155 },
        { "address": "新市", "city": "柳井市", "postcode": "7420009", "prefecture": "山口県", "id": 1156 },
        { "address": "新市沖", "city": "柳井市", "postcode": "7420011", "prefecture": "山口県", "id": 1157 },
        { "address": "新市北", "city": "柳井市", "postcode": "7420008", "prefecture": "山口県", "id": 1158 },
        { "address": "新市南", "city": "柳井市", "postcode": "7420010", "prefecture": "山口県", "id": 1159 },
        { "address": "新庄", "city": "柳井市", "postcode": "7420033", "prefecture": "山口県", "id": 1160 },
        { "address": "新天地", "city": "柳井市", "postcode": "7420006", "prefecture": "山口県", "id": 1161 },
        { "address": "中央", "city": "柳井市", "postcode": "7420035", "prefecture": "山口県", "id": 1162 },
        { "address": "天神", "city": "柳井市", "postcode": "7420005", "prefecture": "山口県", "id": 1163 },
        { "address": "遠崎", "city": "柳井市", "postcode": "7490103", "prefecture": "山口県", "id": 1164 },
        { "address": "土手町", "city": "柳井市", "postcode": "7420004", "prefecture": "山口県", "id": 1165 },
        { "address": "ニュータウン南町", "city": "柳井市", "postcode": "7420024", "prefecture": "山口県", "id": 1166 },
        { "address": "東土手", "city": "柳井市", "postcode": "7420007", "prefecture": "山口県", "id": 1167 },
        { "address": "日積", "city": "柳井市", "postcode": "7420111", "prefecture": "山口県", "id": 1168 },
        { "address": "姫田", "city": "柳井市", "postcode": "7420001", "prefecture": "山口県", "id": 1169 },
        { "address": "平郡", "city": "柳井市", "postcode": "7420041", "prefecture": "山口県", "id": 1170 },
        { "address": "南浜", "city": "柳井市", "postcode": "7420023", "prefecture": "山口県", "id": 1171 },
        { "address": "南町", "city": "柳井市", "postcode": "7420031", "prefecture": "山口県", "id": 1172 },
        { "address": "柳井", "city": "柳井市", "postcode": "7420021", "prefecture": "山口県", "id": 1173 },
        { "address": "柳井津", "city": "柳井市", "postcode": "7420022", "prefecture": "山口県", "id": 1174 },
        { "address": "山根", "city": "柳井市", "postcode": "7420002", "prefecture": "山口県", "id": 1175 },
        { "address": "余田", "city": "柳井市", "postcode": "7420034", "prefecture": "山口県", "id": 1176 },
        { "city": "美祢市", "postcode": "7592200", "prefecture": "山口県", "id": 1177 },
        { "address": "伊佐町伊佐", "city": "美祢市", "postcode": "7592222", "prefecture": "山口県", "id": 1178 },
        { "address": "伊佐町奥万倉", "city": "美祢市", "postcode": "7592223", "prefecture": "山口県", "id": 1179 },
        { "address": "伊佐町河原", "city": "美祢市", "postcode": "7592221", "prefecture": "山口県", "id": 1180 },
        { "address": "伊佐町堀越", "city": "美祢市", "postcode": "7592131", "prefecture": "山口県", "id": 1181 },
        { "address": "大嶺町奥分", "city": "美祢市", "postcode": "7592214", "prefecture": "山口県", "id": 1182 },
        { "address": "大嶺町東分", "city": "美祢市", "postcode": "7592212", "prefecture": "山口県", "id": 1183 },
        { "address": "大嶺町西分", "city": "美祢市", "postcode": "7592213", "prefecture": "山口県", "id": 1184 },
        { "address": "大嶺町北分", "city": "美祢市", "postcode": "7592211", "prefecture": "山口県", "id": 1185 },
        { "address": "於福町上", "city": "美祢市", "postcode": "7592301", "prefecture": "山口県", "id": 1186 },
        { "address": "於福町下", "city": "美祢市", "postcode": "7592302", "prefecture": "山口県", "id": 1187 },
        { "address": "秋芳町青景", "city": "美祢市", "postcode": "7540602", "prefecture": "山口県", "id": 1188 },
        { "address": "秋芳町秋吉", "city": "美祢市", "postcode": "7540511", "prefecture": "山口県", "id": 1189 },
        { "address": "秋芳町岩永下郷", "city": "美祢市", "postcode": "7540513", "prefecture": "山口県", "id": 1190 },
        { "address": "秋芳町岩永本郷", "city": "美祢市", "postcode": "7540512", "prefecture": "山口県", "id": 1191 },
        { "address": "秋芳町嘉万", "city": "美祢市", "postcode": "7540601", "prefecture": "山口県", "id": 1192 },
        { "address": "秋芳町別府", "city": "美祢市", "postcode": "7540603", "prefecture": "山口県", "id": 1193 },
        { "address": "秋芳町", "city": "美祢市", "postcode": "7540514", "prefecture": "山口県", "id": 1194 },
        { "address": "豊田前町麻生上", "city": "美祢市", "postcode": "7500601", "prefecture": "山口県", "id": 1195 },
        { "address": "豊田前町麻生下", "city": "美祢市", "postcode": "7500602", "prefecture": "山口県", "id": 1196 },
        { "address": "豊田前町今山", "city": "美祢市", "postcode": "7500603", "prefecture": "山口県", "id": 1197 },
        { "address": "豊田前町嶽", "city": "美祢市", "postcode": "7500606", "prefecture": "山口県", "id": 1198 },
        { "address": "豊田前町古烏帽子", "city": "美祢市", "postcode": "7500605", "prefecture": "山口県", "id": 1199 },
        { "address": "豊田前町保々", "city": "美祢市", "postcode": "7500604", "prefecture": "山口県", "id": 1200 },
        { "address": "西厚保町原", "city": "美祢市", "postcode": "7592152", "prefecture": "山口県", "id": 1201 },
        { "address": "西厚保町本郷", "city": "美祢市", "postcode": "7592151", "prefecture": "山口県", "id": 1202 },
        { "address": "東厚保町川東", "city": "美祢市", "postcode": "7592142", "prefecture": "山口県", "id": 1203 },
        { "address": "東厚保町山中", "city": "美祢市", "postcode": "7592141", "prefecture": "山口県", "id": 1204 },
        { "address": "美東町赤", "city": "美祢市", "postcode": "7540302", "prefecture": "山口県", "id": 1205 },
        { "address": "美東町綾木", "city": "美祢市", "postcode": "7540212", "prefecture": "山口県", "id": 1206 },
        { "address": "美東町絵堂", "city": "美祢市", "postcode": "7540301", "prefecture": "山口県", "id": 1207 },
        { "address": "美東町大田", "city": "美祢市", "postcode": "7540211", "prefecture": "山口県", "id": 1208 },
        { "address": "美東町小野", "city": "美祢市", "postcode": "7540123", "prefecture": "山口県", "id": 1209 },
        { "address": "美東町長田", "city": "美祢市", "postcode": "7540121", "prefecture": "山口県", "id": 1210 },
        { "address": "美東町長登", "city": "美祢市", "postcode": "7540213", "prefecture": "山口県", "id": 1211 },
        { "address": "美東町真名", "city": "美祢市", "postcode": "7540122", "prefecture": "山口県", "id": 1212 },
        { "address": "美東町", "city": "美祢市", "postcode": "7540214", "prefecture": "山口県", "id": 1213 },
        { "city": "周南市", "postcode": "7450000", "prefecture": "山口県", "id": 1214 },
        { "address": "相生町", "city": "周南市", "postcode": "7450055", "prefecture": "山口県", "id": 1215 },
        { "address": "青山町", "city": "周南市", "postcode": "7450842", "prefecture": "山口県", "id": 1216 },
        { "address": "秋月", "city": "周南市", "postcode": "7450825", "prefecture": "山口県", "id": 1217 },
        { "address": "曙町", "city": "周南市", "postcode": "7450821", "prefecture": "山口県", "id": 1218 },
        { "address": "莇地", "city": "周南市", "postcode": "7450124", "prefecture": "山口県", "id": 1219 },
        { "address": "飯島町", "city": "周南市", "postcode": "7450014", "prefecture": "山口県", "id": 1220 },
        { "address": "泉原町", "city": "周南市", "postcode": "7450833", "prefecture": "山口県", "id": 1221 },
        { "address": "一ノ井手", "city": "周南市", "postcode": "7450882", "prefecture": "山口県", "id": 1222 },
        { "address": "一番丁", "city": "周南市", "postcode": "7450872", "prefecture": "山口県", "id": 1223 },
        { "address": "今宿町", "city": "周南市", "postcode": "7450074", "prefecture": "山口県", "id": 1224 },
        { "address": "今住町", "city": "周南市", "postcode": "7450063", "prefecture": "山口県", "id": 1225 },
        { "address": "入船町", "city": "周南市", "postcode": "7450047", "prefecture": "山口県", "id": 1226 },
        { "address": "馬神", "city": "周南市", "postcode": "7460105", "prefecture": "山口県", "id": 1227 },
        { "address": "馬屋", "city": "周南市", "postcode": "7450887", "prefecture": "山口県", "id": 1228 },
        { "address": "梅園町", "city": "周南市", "postcode": "7450076", "prefecture": "山口県", "id": 1229 },
        { "address": "浦山", "city": "周南市", "postcode": "7450856", "prefecture": "山口県", "id": 1230 },
        { "address": "浦山開作", "city": "周南市", "postcode": "7450857", "prefecture": "山口県", "id": 1231 },
        { "address": "江口", "city": "周南市", "postcode": "7450862", "prefecture": "山口県", "id": 1232 },
        { "address": "江の宮町", "city": "周南市", "postcode": "7450826", "prefecture": "山口県", "id": 1233 },
        { "address": "戎町", "city": "周南市", "postcode": "7450041", "prefecture": "山口県", "id": 1234 },
        { "address": "扇町", "city": "周南市", "postcode": "7450832", "prefecture": "山口県", "id": 1235 },
        { "address": "大内町", "city": "周南市", "postcode": "7450824", "prefecture": "山口県", "id": 1236 },
        { "address": "大河内", "city": "周南市", "postcode": "7450651", "prefecture": "山口県", "id": 1237 },
        { "address": "大潮", "city": "周南市", "postcode": "7450301", "prefecture": "山口県", "id": 1238 },
        { "address": "大島", "city": "周南市", "postcode": "7450803", "prefecture": "山口県", "id": 1239 },
        { "address": "大津島", "city": "周南市", "postcode": "7450057", "prefecture": "山口県", "id": 1240 },
        { "address": "大道理", "city": "周南市", "postcode": "7450242", "prefecture": "山口県", "id": 1241 },
        { "address": "大向", "city": "周南市", "postcode": "7450241", "prefecture": "山口県", "id": 1242 },
        { "address": "岡田町", "city": "周南市", "postcode": "7450066", "prefecture": "山口県", "id": 1243 },
        { "address": "小川屋町", "city": "周南市", "postcode": "7460027", "prefecture": "山口県", "id": 1244 },
        { "address": "沖見町", "city": "周南市", "postcode": "7450051", "prefecture": "山口県", "id": 1245 },
        { "address": "奥関屋", "city": "周南市", "postcode": "7450611", "prefecture": "山口県", "id": 1246 },
        { "address": "桶川町", "city": "周南市", "postcode": "7460013", "prefecture": "山口県", "id": 1247 },
        { "address": "小畑", "city": "周南市", "postcode": "7460083", "prefecture": "山口県", "id": 1248 },
        { "address": "御姫町", "city": "周南市", "postcode": "7460051", "prefecture": "山口県", "id": 1249 },
        { "address": "御弓町", "city": "周南市", "postcode": "7450871", "prefecture": "山口県", "id": 1250 },
        { "address": "温田", "city": "周南市", "postcode": "7460036", "prefecture": "山口県", "id": 1251 },
        { "address": "開成町", "city": "周南市", "postcode": "7460006", "prefecture": "山口県", "id": 1252 },
        { "address": "かせ河原町", "city": "周南市", "postcode": "7460055", "prefecture": "山口県", "id": 1253 },
        { "address": "勝間ヶ丘", "city": "周南市", "postcode": "7450615", "prefecture": "山口県", "id": 1254 },
        { "address": "勝間原", "city": "周南市", "postcode": "7450617", "prefecture": "山口県", "id": 1255 },
        { "address": "鹿野上", "city": "周南市", "postcode": "7450302", "prefecture": "山口県", "id": 1256 },
        { "address": "鹿野下", "city": "周南市", "postcode": "7450304", "prefecture": "山口県", "id": 1257 },
        { "address": "鹿野中", "city": "周南市", "postcode": "7450303", "prefecture": "山口県", "id": 1258 },
        { "address": "上迫町", "city": "周南市", "postcode": "7460065", "prefecture": "山口県", "id": 1259 },
        { "address": "上遠石町", "city": "周南市", "postcode": "7450817", "prefecture": "山口県", "id": 1260 },
        { "address": "花陽", "city": "周南市", "postcode": "7450858", "prefecture": "山口県", "id": 1261 },
        { "address": "川上", "city": "周南市", "postcode": "7450855", "prefecture": "山口県", "id": 1262 },
        { "address": "川崎", "city": "周南市", "postcode": "7460001", "prefecture": "山口県", "id": 1263 },
        { "address": "川手", "city": "周南市", "postcode": "7460009", "prefecture": "山口県", "id": 1264 },
        { "address": "川端町", "city": "周南市", "postcode": "7450012", "prefecture": "山口県", "id": 1265 },
        { "address": "河東町", "city": "周南市", "postcode": "7450845", "prefecture": "山口県", "id": 1266 },
        { "address": "川曲", "city": "周南市", "postcode": "7450852", "prefecture": "山口県", "id": 1267 },
        { "address": "岐山通り", "city": "周南市", "postcode": "7450071", "prefecture": "山口県", "id": 1268 },
        { "address": "北山", "city": "周南市", "postcode": "7450864", "prefecture": "山口県", "id": 1269 },
        { "address": "岐南町", "city": "周南市", "postcode": "7450007", "prefecture": "山口県", "id": 1270 },
        { "address": "銀座", "city": "周南市", "postcode": "7450032", "prefecture": "山口県", "id": 1271 },
        { "address": "銀南街", "city": "周南市", "postcode": "7450031", "prefecture": "山口県", "id": 1272 },
        { "address": "櫛ヶ浜", "city": "周南市", "postcode": "7450805", "prefecture": "山口県", "id": 1273 },
        { "address": "楠木", "city": "周南市", "postcode": "7450831", "prefecture": "山口県", "id": 1274 },
        { "address": "熊毛中央町", "city": "周南市", "postcode": "7450663", "prefecture": "山口県", "id": 1275 },
        { "address": "久米", "city": "周南市", "postcode": "7450801", "prefecture": "山口県", "id": 1276 },
        { "address": "久米中央", "city": "周南市", "postcode": "7450809", "prefecture": "山口県", "id": 1277 },
        { "address": "栗屋", "city": "周南市", "postcode": "7450802", "prefecture": "山口県", "id": 1278 },
        { "address": "黒岩町", "city": "周南市", "postcode": "7450886", "prefecture": "山口県", "id": 1279 },
        { "address": "慶万町", "city": "周南市", "postcode": "7450836", "prefecture": "山口県", "id": 1280 },
        { "address": "古泉", "city": "周南市", "postcode": "7460024", "prefecture": "山口県", "id": 1281 },
        { "address": "公園区", "city": "周南市", "postcode": "7450874", "prefecture": "山口県", "id": 1282 },
        { "address": "糀町", "city": "周南市", "postcode": "7450027", "prefecture": "山口県", "id": 1283 },
        { "address": "孝田町", "city": "周南市", "postcode": "7450822", "prefecture": "山口県", "id": 1284 },
        { "address": "河内町", "city": "周南市", "postcode": "7460032", "prefecture": "山口県", "id": 1285 },
        { "address": "幸の台", "city": "周南市", "postcode": "7450878", "prefecture": "山口県", "id": 1286 },
        { "address": "鼓海", "city": "周南市", "postcode": "7450814", "prefecture": "山口県", "id": 1287 },
        { "address": "御所尾原", "city": "周南市", "postcode": "7450614", "prefecture": "山口県", "id": 1288 },
        { "address": "児玉町", "city": "周南市", "postcode": "7450005", "prefecture": "山口県", "id": 1289 },
        { "address": "小松原", "city": "周南市", "postcode": "7450641", "prefecture": "山口県", "id": 1290 },
        { "address": "権現町", "city": "周南市", "postcode": "7450046", "prefecture": "山口県", "id": 1291 },
        { "address": "栄谷", "city": "周南市", "postcode": "7450883", "prefecture": "山口県", "id": 1292 },
        { "address": "栄町", "city": "周南市", "postcode": "7450037", "prefecture": "山口県", "id": 1293 },
        { "address": "坂根町", "city": "周南市", "postcode": "7460031", "prefecture": "山口県", "id": 1294 },
        { "address": "桜木", "city": "周南市", "postcode": "7450806", "prefecture": "山口県", "id": 1295 },
        { "address": "桜馬場通り", "city": "周南市", "postcode": "7450011", "prefecture": "山口県", "id": 1296 },
        { "address": "幸ケ丘", "city": "周南市", "postcode": "7450652", "prefecture": "山口県", "id": 1297 },
        { "address": "五月町", "city": "周南市", "postcode": "7450811", "prefecture": "山口県", "id": 1298 },
        { "address": "皿山町", "city": "周南市", "postcode": "7460061", "prefecture": "山口県", "id": 1299 },
        { "address": "三番町", "city": "周南市", "postcode": "7450003", "prefecture": "山口県", "id": 1300 },
        { "address": "椎木町", "city": "周南市", "postcode": "7460008", "prefecture": "山口県", "id": 1301 },
        { "address": "四熊", "city": "周南市", "postcode": "7460081", "prefecture": "山口県", "id": 1302 },
        { "address": "清水", "city": "周南市", "postcode": "7460015", "prefecture": "山口県", "id": 1303 },
        { "address": "清水町", "city": "周南市", "postcode": "7450834", "prefecture": "山口県", "id": 1304 },
        { "address": "下上", "city": "周南市", "postcode": "7460082", "prefecture": "山口県", "id": 1305 },
        { "address": "社地町", "city": "周南市", "postcode": "7460041", "prefecture": "山口県", "id": 1306 },
        { "address": "自由ケ丘", "city": "周南市", "postcode": "7450654", "prefecture": "山口県", "id": 1307 },
        { "address": "周陽", "city": "周南市", "postcode": "7450823", "prefecture": "山口県", "id": 1308 },
        { "address": "城ケ丘", "city": "周南市", "postcode": "7450807", "prefecture": "山口県", "id": 1309 },
        { "address": "上村", "city": "周南市", "postcode": "7450853", "prefecture": "山口県", "id": 1310 },
        { "address": "鐘楼町", "city": "周南市", "postcode": "7450061", "prefecture": "山口県", "id": 1311 },
        { "address": "昭和通り", "city": "周南市", "postcode": "7450013", "prefecture": "山口県", "id": 1312 },
        { "address": "新宮町", "city": "周南市", "postcode": "7450843", "prefecture": "山口県", "id": 1313 },
        { "address": "新宿通", "city": "周南市", "postcode": "7450056", "prefecture": "山口県", "id": 1314 },
        { "address": "新清光台", "city": "周南市", "postcode": "7450643", "prefecture": "山口県", "id": 1315 },
        { "address": "新地", "city": "周南市", "postcode": "7450861", "prefecture": "山口県", "id": 1316 },
        { "address": "新地町", "city": "周南市", "postcode": "7460045", "prefecture": "山口県", "id": 1317 },
        { "address": "新堤町", "city": "周南市", "postcode": "7460033", "prefecture": "山口県", "id": 1318 },
        { "address": "新田", "city": "周南市", "postcode": "7460043", "prefecture": "山口県", "id": 1319 },
        { "address": "新堀", "city": "周南市", "postcode": "7450867", "prefecture": "山口県", "id": 1320 },
        { "address": "新町", "city": "周南市", "postcode": "7450017", "prefecture": "山口県", "id": 1321 },
        { "address": "粭島", "city": "周南市", "postcode": "7450804", "prefecture": "山口県", "id": 1322 },
        { "address": "須々万奥", "city": "周南市", "postcode": "7450121", "prefecture": "山口県", "id": 1323 },
        { "address": "須々万本郷", "city": "周南市", "postcode": "7450122", "prefecture": "山口県", "id": 1324 },
        { "address": "須万", "city": "周南市", "postcode": "7450401", "prefecture": "山口県", "id": 1325 },
        { "address": "住崎町", "city": "周南市", "postcode": "7450026", "prefecture": "山口県", "id": 1326 },
        { "address": "住吉町", "city": "周南市", "postcode": "7450064", "prefecture": "山口県", "id": 1327 },
        { "address": "巣山", "city": "周南市", "postcode": "7470621", "prefecture": "山口県", "id": 1328 },
        { "address": "清光台町", "city": "周南市", "postcode": "7450653", "prefecture": "山口県", "id": 1329 },
        { "address": "清尾", "city": "周南市", "postcode": "7450623", "prefecture": "山口県", "id": 1330 },
        { "address": "瀬戸見町", "city": "周南市", "postcode": "7450827", "prefecture": "山口県", "id": 1331 },
        { "address": "大神", "city": "周南市", "postcode": "7460018", "prefecture": "山口県", "id": 1332 },
        { "address": "垰", "city": "周南市", "postcode": "7460103", "prefecture": "山口県", "id": 1333 },
        { "address": "高尾団地", "city": "周南市", "postcode": "7450885", "prefecture": "山口県", "id": 1334 },
        { "address": "高瀬", "city": "周南市", "postcode": "7460101", "prefecture": "山口県", "id": 1335 },
        { "address": "高水原", "city": "周南市", "postcode": "7450662", "prefecture": "山口県", "id": 1336 },
        { "address": "竹島町", "city": "周南市", "postcode": "7460007", "prefecture": "山口県", "id": 1337 },
        { "address": "築港町", "city": "周南市", "postcode": "7450025", "prefecture": "山口県", "id": 1338 },
        { "address": "中央町", "city": "周南市", "postcode": "7460016", "prefecture": "山口県", "id": 1339 },
        { "address": "千代田町", "city": "周南市", "postcode": "7450044", "prefecture": "山口県", "id": 1340 },
        { "address": "月丘町", "city": "周南市", "postcode": "7450062", "prefecture": "山口県", "id": 1341 },
        { "address": "辻町", "city": "周南市", "postcode": "7450001", "prefecture": "山口県", "id": 1342 },
        { "address": "鶴見台", "city": "周南市", "postcode": "7450632", "prefecture": "山口県", "id": 1343 },
        { "address": "土井", "city": "周南市", "postcode": "7460011", "prefecture": "山口県", "id": 1344 },
        { "address": "遠石", "city": "周南市", "postcode": "7450816", "prefecture": "山口県", "id": 1345 },
        { "address": "道源町", "city": "周南市", "postcode": "7460003", "prefecture": "山口県", "id": 1346 },
        { "address": "徳山", "city": "周南市", "postcode": "7450123", "prefecture": "山口県", "id": 1347 },
        { "address": "徳山", "city": "周南市", "postcode": "7450851", "prefecture": "山口県", "id": 1348 },
        { "address": "徳山港町", "city": "周南市", "postcode": "7450045", "prefecture": "山口県", "id": 1349 },
        { "address": "富田", "city": "周南市", "postcode": "7460034", "prefecture": "山口県", "id": 1350 },
        { "address": "富田新町", "city": "周南市", "postcode": "7460039", "prefecture": "山口県", "id": 1351 },
        { "address": "中金剛山", "city": "周南市", "postcode": "7450876", "prefecture": "山口県", "id": 1352 },
        { "address": "中須北", "city": "周南市", "postcode": "7450511", "prefecture": "山口県", "id": 1353 },
        { "address": "中須南", "city": "周南市", "postcode": "7450512", "prefecture": "山口県", "id": 1354 },
        { "address": "長田町", "city": "周南市", "postcode": "7460054", "prefecture": "山口県", "id": 1355 },
        { "address": "中畷町", "city": "周南市", "postcode": "7460052", "prefecture": "山口県", "id": 1356 },
        { "address": "中野", "city": "周南市", "postcode": "7450854", "prefecture": "山口県", "id": 1357 },
        { "address": "長穂", "city": "周南市", "postcode": "7450125", "prefecture": "山口県", "id": 1358 },
        { "address": "中村", "city": "周南市", "postcode": "7450642", "prefecture": "山口県", "id": 1359 },
        { "address": "渚町", "city": "周南市", "postcode": "7460005", "prefecture": "山口県", "id": 1360 },
        { "address": "那智町", "city": "周南市", "postcode": "7450023", "prefecture": "山口県", "id": 1361 },
        { "address": "夏切", "city": "周南市", "postcode": "7460102", "prefecture": "山口県", "id": 1362 },
        { "address": "西金剛山", "city": "周南市", "postcode": "7450875", "prefecture": "山口県", "id": 1363 },
        { "address": "西千代田町", "city": "周南市", "postcode": "7460002", "prefecture": "山口県", "id": 1364 },
        { "address": "西桝町", "city": "周南市", "postcode": "7460044", "prefecture": "山口県", "id": 1365 },
        { "address": "西松原", "city": "周南市", "postcode": "7450054", "prefecture": "山口県", "id": 1366 },
        { "address": "二ノ井手", "city": "周南市", "postcode": "7450884", "prefecture": "山口県", "id": 1367 },
        { "address": "二番町", "city": "周南市", "postcode": "7450002", "prefecture": "山口県", "id": 1368 },
        { "address": "野上町", "city": "周南市", "postcode": "7450042", "prefecture": "山口県", "id": 1369 },
        { "address": "野村", "city": "周南市", "postcode": "7460022", "prefecture": "山口県", "id": 1370 },
        { "address": "野村南町", "city": "周南市", "postcode": "7460023", "prefecture": "山口県", "id": 1371 },
        { "address": "羽島", "city": "周南市", "postcode": "7460056", "prefecture": "山口県", "id": 1372 },
        { "address": "橋本町", "city": "周南市", "postcode": "7450022", "prefecture": "山口県", "id": 1373 },
        { "address": "蓮ヶ浴", "city": "周南市", "postcode": "7450865", "prefecture": "山口県", "id": 1374 },
        { "address": "初音町", "city": "周南市", "postcode": "7450052", "prefecture": "山口県", "id": 1375 },
        { "address": "花園町", "city": "周南市", "postcode": "7460021", "prefecture": "山口県", "id": 1376 },
        { "address": "花畠町", "city": "周南市", "postcode": "7450006", "prefecture": "山口県", "id": 1377 },
        { "address": "浜田", "city": "周南市", "postcode": "7460026", "prefecture": "山口県", "id": 1378 },
        { "address": "速玉町", "city": "周南市", "postcode": "7450844", "prefecture": "山口県", "id": 1379 },
        { "address": "原", "city": "周南市", "postcode": "7450621", "prefecture": "山口県", "id": 1380 },
        { "address": "原宿町", "city": "周南市", "postcode": "7450065", "prefecture": "山口県", "id": 1381 },
        { "address": "晴海町", "city": "周南市", "postcode": "7450024", "prefecture": "山口県", "id": 1382 },
        { "address": "東北山", "city": "周南市", "postcode": "7450869", "prefecture": "山口県", "id": 1383 },
        { "address": "東金剛山", "city": "周南市", "postcode": "7450877", "prefecture": "山口県", "id": 1384 },
        { "address": "東辻", "city": "周南市", "postcode": "7450881", "prefecture": "山口県", "id": 1385 },
        { "address": "東山町", "city": "周南市", "postcode": "7450846", "prefecture": "山口県", "id": 1386 },
        { "address": "樋口", "city": "周南市", "postcode": "7450622", "prefecture": "山口県", "id": 1387 },
        { "address": "土越", "city": "周南市", "postcode": "7450866", "prefecture": "山口県", "id": 1388 },
        { "address": "日地町", "city": "周南市", "postcode": "7460035", "prefecture": "山口県", "id": 1389 },
        { "address": "平野", "city": "周南市", "postcode": "7460029", "prefecture": "山口県", "id": 1390 },
        { "address": "平原町", "city": "周南市", "postcode": "7450808", "prefecture": "山口県", "id": 1391 },
        { "address": "福川", "city": "周南市", "postcode": "7460038", "prefecture": "山口県", "id": 1392 },
        { "address": "福川中市町", "city": "周南市", "postcode": "7460062", "prefecture": "山口県", "id": 1393 },
        { "address": "福川南町", "city": "周南市", "postcode": "7460042", "prefecture": "山口県", "id": 1394 },
        { "address": "藤ヶ台", "city": "周南市", "postcode": "7450618", "prefecture": "山口県", "id": 1395 },
        { "address": "古市", "city": "周南市", "postcode": "7460025", "prefecture": "山口県", "id": 1396 },
        { "address": "古川町", "city": "周南市", "postcode": "7460014", "prefecture": "山口県", "id": 1397 },
        { "address": "平和通り", "city": "周南市", "postcode": "7450015", "prefecture": "山口県", "id": 1398 },
        { "address": "戸田", "city": "周南市", "postcode": "7451131", "prefecture": "山口県", "id": 1399 },
        { "address": "本陣町", "city": "周南市", "postcode": "7460063", "prefecture": "山口県", "id": 1400 },
        { "address": "本町", "city": "周南市", "postcode": "7450036", "prefecture": "山口県", "id": 1401 },
        { "address": "舞車町", "city": "周南市", "postcode": "7450835", "prefecture": "山口県", "id": 1402 },
        { "address": "松保町", "city": "周南市", "postcode": "7450847", "prefecture": "山口県", "id": 1403 },
        { "address": "政所", "city": "周南市", "postcode": "7460012", "prefecture": "山口県", "id": 1404 },
        { "address": "丸山町", "city": "周南市", "postcode": "7460037", "prefecture": "山口県", "id": 1405 },
        { "address": "御影町", "city": "周南市", "postcode": "7450053", "prefecture": "山口県", "id": 1406 },
        { "address": "三笹町", "city": "周南市", "postcode": "7460004", "prefecture": "山口県", "id": 1407 },
        { "address": "三田川", "city": "周南市", "postcode": "7450873", "prefecture": "山口県", "id": 1408 },
        { "address": "金峰", "city": "周南市", "postcode": "7450402", "prefecture": "山口県", "id": 1409 },
        { "address": "緑ケ丘", "city": "周南市", "postcode": "7450616", "prefecture": "山口県", "id": 1410 },
        { "address": "緑町", "city": "周南市", "postcode": "7450075", "prefecture": "山口県", "id": 1411 },
        { "address": "港町", "city": "周南市", "postcode": "7460028", "prefecture": "山口県", "id": 1412 },
        { "address": "南浦山町", "city": "周南市", "postcode": "7450868", "prefecture": "山口県", "id": 1413 },
        { "address": "みなみ銀座", "city": "周南市", "postcode": "7450033", "prefecture": "山口県", "id": 1414 },
        { "address": "都町", "city": "周南市", "postcode": "7450043", "prefecture": "山口県", "id": 1415 },
        { "address": "宮の前", "city": "周南市", "postcode": "7460017", "prefecture": "山口県", "id": 1416 },
        { "address": "宮前町", "city": "周南市", "postcode": "7450815", "prefecture": "山口県", "id": 1417 },
        { "address": "御山町", "city": "周南市", "postcode": "7450863", "prefecture": "山口県", "id": 1418 },
        { "address": "御幸通り", "city": "周南市", "postcode": "7450034", "prefecture": "山口県", "id": 1419 },
        { "address": "室尾", "city": "周南市", "postcode": "7460053", "prefecture": "山口県", "id": 1420 },
        { "address": "毛利町", "city": "周南市", "postcode": "7450004", "prefecture": "山口県", "id": 1421 },
        { "address": "夜市", "city": "周南市", "postcode": "7460084", "prefecture": "山口県", "id": 1422 },
        { "address": "八代", "city": "周南市", "postcode": "7450501", "prefecture": "山口県", "id": 1423 },
        { "address": "安田", "city": "周南市", "postcode": "7450631", "prefecture": "山口県", "id": 1424 },
        { "address": "柳町", "city": "周南市", "postcode": "7450021", "prefecture": "山口県", "id": 1425 },
        { "address": "弥生町", "city": "周南市", "postcode": "7450072", "prefecture": "山口県", "id": 1426 },
        { "address": "有楽町", "city": "周南市", "postcode": "7450035", "prefecture": "山口県", "id": 1427 },
        { "address": "由加町", "city": "周南市", "postcode": "7450813", "prefecture": "山口県", "id": 1428 },
        { "address": "譲羽", "city": "周南市", "postcode": "7450837", "prefecture": "山口県", "id": 1429 },
        { "address": "湯野", "city": "周南市", "postcode": "7451132", "prefecture": "山口県", "id": 1430 },
        { "address": "夢ケ丘", "city": "周南市", "postcode": "7450613", "prefecture": "山口県", "id": 1431 },
        { "address": "横浜町", "city": "周南市", "postcode": "7450812", "prefecture": "山口県", "id": 1432 },
        { "address": "米光", "city": "周南市", "postcode": "7460104", "prefecture": "山口県", "id": 1433 },
        { "address": "呼坂", "city": "周南市", "postcode": "7450612", "prefecture": "山口県", "id": 1434 },
        { "address": "呼坂本町", "city": "周南市", "postcode": "7450661", "prefecture": "山口県", "id": 1435 },
        { "address": "代々木通り", "city": "周南市", "postcode": "7450073", "prefecture": "山口県", "id": 1436 },
        { "address": "臨海町", "city": "周南市", "postcode": "7460019", "prefecture": "山口県", "id": 1437 },
        { "address": "若草町", "city": "周南市", "postcode": "7450841", "prefecture": "山口県", "id": 1438 },
        { "address": "若宮町", "city": "周南市", "postcode": "7450016", "prefecture": "山口県", "id": 1439 },
        { "address": "若山", "city": "周南市", "postcode": "7460064", "prefecture": "山口県", "id": 1440 },
        { "city": "山陽小野田市", "postcode": "7560000", "prefecture": "山口県", "id": 1441 },
        { "address": "青葉台", "city": "山陽小野田市", "postcode": "7560030", "prefecture": "山口県", "id": 1442 },
        { "address": "赤崎", "city": "山陽小野田市", "postcode": "7560841", "prefecture": "山口県", "id": 1443 },
        { "address": "厚狭", "city": "山陽小野田市", "postcode": "7570001", "prefecture": "山口県", "id": 1444 },
        { "address": "あさひが丘", "city": "山陽小野田市", "postcode": "7560871", "prefecture": "山口県", "id": 1445 },
        { "address": "旭町", "city": "山陽小野田市", "postcode": "7560808", "prefecture": "山口県", "id": 1446 },
        { "address": "有帆", "city": "山陽小野田市", "postcode": "7560038", "prefecture": "山口県", "id": 1447 },
        { "address": "有帆上町", "city": "山陽小野田市", "postcode": "7560009", "prefecture": "山口県", "id": 1448 },
        { "address": "有帆新町", "city": "山陽小野田市", "postcode": "7560003", "prefecture": "山口県", "id": 1449 },
        { "address": "石井手", "city": "山陽小野田市", "postcode": "7560063", "prefecture": "山口県", "id": 1450 },
        { "address": "稲荷町", "city": "山陽小野田市", "postcode": "7560811", "prefecture": "山口県", "id": 1451 },
        { "address": "上の台", "city": "山陽小野田市", "postcode": "7560863", "prefecture": "山口県", "id": 1452 },
        { "address": "後潟上", "city": "山陽小野田市", "postcode": "7560049", "prefecture": "山口県", "id": 1453 },
        { "address": "後潟下", "city": "山陽小野田市", "postcode": "7560048", "prefecture": "山口県", "id": 1454 },
        { "address": "えびす町", "city": "山陽小野田市", "postcode": "7560855", "prefecture": "山口県", "id": 1455 },
        { "address": "烏帽子岩", "city": "山陽小野田市", "postcode": "7560025", "prefecture": "山口県", "id": 1456 },
        {
            "address": "烏帽子岩団地",
            "city": "山陽小野田市",
            "postcode": "7560026",
            "prefecture": "山口県",
            "id": 1457
        },
        { "address": "烏帽子岩前", "city": "山陽小野田市", "postcode": "7560027", "prefecture": "山口県", "id": 1458 },
        { "address": "大須恵", "city": "山陽小野田市", "postcode": "7560873", "prefecture": "山口県", "id": 1459 },
        { "address": "大塚", "city": "山陽小野田市", "postcode": "7560042", "prefecture": "山口県", "id": 1460 },
        { "address": "大塚団地", "city": "山陽小野田市", "postcode": "7560036", "prefecture": "山口県", "id": 1461 },
        { "address": "大浜", "city": "山陽小野田市", "postcode": "7560866", "prefecture": "山口県", "id": 1462 },
        { "address": "奥若山", "city": "山陽小野田市", "postcode": "7560852", "prefecture": "山口県", "id": 1463 },
        { "address": "小野田", "city": "山陽小野田市", "postcode": "7560817", "prefecture": "山口県", "id": 1464 },
        { "address": "小野山", "city": "山陽小野田市", "postcode": "7560812", "prefecture": "山口県", "id": 1465 },
        { "address": "柿の木坂", "city": "山陽小野田市", "postcode": "7560067", "prefecture": "山口県", "id": 1466 },
        { "address": "片山", "city": "山陽小野田市", "postcode": "7560013", "prefecture": "山口県", "id": 1467 },
        { "address": "角石", "city": "山陽小野田市", "postcode": "7560012", "prefecture": "山口県", "id": 1468 },
        { "address": "叶松", "city": "山陽小野田市", "postcode": "7560854", "prefecture": "山口県", "id": 1469 },
        { "address": "上木屋", "city": "山陽小野田市", "postcode": "7560056", "prefecture": "山口県", "id": 1470 },
        { "address": "上の郷", "city": "山陽小野田市", "postcode": "7560041", "prefecture": "山口県", "id": 1471 },
        { "address": "神帆町", "city": "山陽小野田市", "postcode": "7560086", "prefecture": "山口県", "id": 1472 },
        { "address": "亀の甲", "city": "山陽小野田市", "postcode": "7560075", "prefecture": "山口県", "id": 1473 },
        { "address": "鴨庄", "city": "山陽小野田市", "postcode": "7570005", "prefecture": "山口県", "id": 1474 },
        { "address": "刈屋上条", "city": "山陽小野田市", "postcode": "7560843", "prefecture": "山口県", "id": 1475 },
        { "address": "刈屋中村", "city": "山陽小野田市", "postcode": "7560842", "prefecture": "山口県", "id": 1476 },
        { "address": "刈屋西条", "city": "山陽小野田市", "postcode": "7560848", "prefecture": "山口県", "id": 1477 },
        { "address": "杵築", "city": "山陽小野田市", "postcode": "7560051", "prefecture": "山口県", "id": 1478 },
        { "address": "北栄町", "city": "山陽小野田市", "postcode": "7560801", "prefecture": "山口県", "id": 1479 },
        { "address": "北真土郷", "city": "山陽小野田市", "postcode": "7560007", "prefecture": "山口県", "id": 1480 },
        { "address": "北竜王町", "city": "山陽小野田市", "postcode": "7560833", "prefecture": "山口県", "id": 1481 },
        { "address": "北若山", "city": "山陽小野田市", "postcode": "7560822", "prefecture": "山口県", "id": 1482 },
        { "address": "木戸大鼻", "city": "山陽小野田市", "postcode": "7560844", "prefecture": "山口県", "id": 1483 },
        { "address": "木戸新町", "city": "山陽小野田市", "postcode": "7560846", "prefecture": "山口県", "id": 1484 },
        { "address": "木戸中ノ町", "city": "山陽小野田市", "postcode": "7560845", "prefecture": "山口県", "id": 1485 },
        { "address": "共和台", "city": "山陽小野田市", "postcode": "7560011", "prefecture": "山口県", "id": 1486 },
        { "address": "共和町", "city": "山陽小野田市", "postcode": "7560028", "prefecture": "山口県", "id": 1487 },
        { "address": "くし山", "city": "山陽小野田市", "postcode": "7560080", "prefecture": "山口県", "id": 1488 },
        { "address": "郷", "city": "山陽小野田市", "postcode": "7560044", "prefecture": "山口県", "id": 1489 },
        { "address": "高栄", "city": "山陽小野田市", "postcode": "7560815", "prefecture": "山口県", "id": 1490 },
        { "address": "郡", "city": "山陽小野田市", "postcode": "7570002", "prefecture": "山口県", "id": 1491 },
        { "address": "小松尾", "city": "山陽小野田市", "postcode": "7560037", "prefecture": "山口県", "id": 1492 },
        { "address": "栄町", "city": "山陽小野田市", "postcode": "7560802", "prefecture": "山口県", "id": 1493 },
        { "address": "桜", "city": "山陽小野田市", "postcode": "7570006", "prefecture": "山口県", "id": 1494 },
        { "address": "桜が丘", "city": "山陽小野田市", "postcode": "7560851", "prefecture": "山口県", "id": 1495 },
        { "address": "笹尾西", "city": "山陽小野田市", "postcode": "7560888", "prefecture": "山口県", "id": 1496 },
        { "address": "笹尾東", "city": "山陽小野田市", "postcode": "7560881", "prefecture": "山口県", "id": 1497 },
        { "address": "下木屋", "city": "山陽小野田市", "postcode": "7560053", "prefecture": "山口県", "id": 1498 },
        { "address": "自由ヶ丘", "city": "山陽小野田市", "postcode": "7560805", "prefecture": "山口県", "id": 1499 },
        { "address": "市立病院", "city": "山陽小野田市", "postcode": "7560094", "prefecture": "山口県", "id": 1500 },
        { "address": "新有帆町", "city": "山陽小野田市", "postcode": "7560010", "prefecture": "山口県", "id": 1501 },
        { "address": "新沖", "city": "山陽小野田市", "postcode": "7560847", "prefecture": "山口県", "id": 1502 },
        { "address": "新生", "city": "山陽小野田市", "postcode": "7560092", "prefecture": "山口県", "id": 1503 },
        { "address": "心和園", "city": "山陽小野田市", "postcode": "7560823", "prefecture": "山口県", "id": 1504 },
        { "address": "須恵", "city": "山陽小野田市", "postcode": "7560836", "prefecture": "山口県", "id": 1505 },
        { "address": "須恵西", "city": "山陽小野田市", "postcode": "7560862", "prefecture": "山口県", "id": 1506 },
        { "address": "須恵東", "city": "山陽小野田市", "postcode": "7560889", "prefecture": "山口県", "id": 1507 },
        { "address": "須田ノ木", "city": "山陽小野田市", "postcode": "7560882", "prefecture": "山口県", "id": 1508 },
        { "address": "住吉本町", "city": "山陽小野田市", "postcode": "7560813", "prefecture": "山口県", "id": 1509 },
        { "address": "セメント町", "city": "山陽小野田市", "postcode": "7560835", "prefecture": "山口県", "id": 1510 },
        { "address": "大学通", "city": "山陽小野田市", "postcode": "7560884", "prefecture": "山口県", "id": 1511 },
        { "address": "大休", "city": "山陽小野田市", "postcode": "7560001", "prefecture": "山口県", "id": 1512 },
        { "address": "大休団地", "city": "山陽小野田市", "postcode": "7560008", "prefecture": "山口県", "id": 1513 },
        { "address": "高須", "city": "山陽小野田市", "postcode": "7560087", "prefecture": "山口県", "id": 1514 },
        { "address": "高千帆", "city": "山陽小野田市", "postcode": "7560060", "prefecture": "山口県", "id": 1515 },
        { "address": "高畑", "city": "山陽小野田市", "postcode": "7560021", "prefecture": "山口県", "id": 1516 },
        { "address": "高浜", "city": "山陽小野田市", "postcode": "7560047", "prefecture": "山口県", "id": 1517 },
        { "address": "田の尻", "city": "山陽小野田市", "postcode": "7560865", "prefecture": "山口県", "id": 1518 },
        { "address": "旦西", "city": "山陽小野田市", "postcode": "7560055", "prefecture": "山口県", "id": 1519 },
        { "address": "旦東", "city": "山陽小野田市", "postcode": "7560054", "prefecture": "山口県", "id": 1520 },
        { "address": "千崎", "city": "山陽小野田市", "postcode": "7560039", "prefecture": "山口県", "id": 1521 },
        { "address": "千崎西", "city": "山陽小野田市", "postcode": "7560022", "prefecture": "山口県", "id": 1522 },
        { "address": "千崎東", "city": "山陽小野田市", "postcode": "7560023", "prefecture": "山口県", "id": 1523 },
        { "address": "中央", "city": "山陽小野田市", "postcode": "7560824", "prefecture": "山口県", "id": 1524 },
        { "address": "長寿園", "city": "山陽小野田市", "postcode": "7560804", "prefecture": "山口県", "id": 1525 },
        { "address": "千代町", "city": "山陽小野田市", "postcode": "7560814", "prefecture": "山口県", "id": 1526 },
        { "address": "津布田", "city": "山陽小野田市", "postcode": "7570011", "prefecture": "山口県", "id": 1527 },
        { "address": "中川", "city": "山陽小野田市", "postcode": "7560806", "prefecture": "山口県", "id": 1528 },
        { "address": "中里", "city": "山陽小野田市", "postcode": "7560004", "prefecture": "山口県", "id": 1529 },
        { "address": "中村", "city": "山陽小野田市", "postcode": "7560005", "prefecture": "山口県", "id": 1530 },
        { "address": "夏目", "city": "山陽小野田市", "postcode": "7560886", "prefecture": "山口県", "id": 1531 },
        { "address": "南平台", "city": "山陽小野田市", "postcode": "7560016", "prefecture": "山口県", "id": 1532 },
        { "address": "西沖", "city": "山陽小野田市", "postcode": "7560885", "prefecture": "山口県", "id": 1533 },
        { "address": "西が迫", "city": "山陽小野田市", "postcode": "7560864", "prefecture": "山口県", "id": 1534 },
        { "address": "西住吉町", "city": "山陽小野田市", "postcode": "7560816", "prefecture": "山口県", "id": 1535 },
        { "address": "西高泊", "city": "山陽小野田市", "postcode": "7560057", "prefecture": "山口県", "id": 1536 },
        { "address": "西の郷", "city": "山陽小野田市", "postcode": "7560046", "prefecture": "山口県", "id": 1537 },
        { "address": "日産", "city": "山陽小野田市", "postcode": "7560093", "prefecture": "山口県", "id": 1538 },
        { "address": "仁保の上", "city": "山陽小野田市", "postcode": "7560017", "prefecture": "山口県", "id": 1539 },
        { "address": "野来見", "city": "山陽小野田市", "postcode": "7560853", "prefecture": "山口県", "id": 1540 },
        { "address": "萩森", "city": "山陽小野田市", "postcode": "7560024", "prefecture": "山口県", "id": 1541 },
        { "address": "波瀬", "city": "山陽小野田市", "postcode": "7560861", "prefecture": "山口県", "id": 1542 },
        { "address": "埴生", "city": "山陽小野田市", "postcode": "7570012", "prefecture": "山口県", "id": 1543 },
        { "address": "浜", "city": "山陽小野田市", "postcode": "7560043", "prefecture": "山口県", "id": 1544 },
        { "address": "浜河内", "city": "山陽小野田市", "postcode": "7560872", "prefecture": "山口県", "id": 1545 },
        { "address": "浜田町", "city": "山陽小野田市", "postcode": "7560052", "prefecture": "山口県", "id": 1546 },
        { "address": "東須田の木", "city": "山陽小野田市", "postcode": "7560883", "prefecture": "山口県", "id": 1547 },
        { "address": "東住吉町", "city": "山陽小野田市", "postcode": "7560825", "prefecture": "山口県", "id": 1548 },
        { "address": "東高泊", "city": "山陽小野田市", "postcode": "7560088", "prefecture": "山口県", "id": 1549 },
        { "address": "東町", "city": "山陽小野田市", "postcode": "7560018", "prefecture": "山口県", "id": 1550 },
        { "address": "彼岸田", "city": "山陽小野田市", "postcode": "7560014", "prefecture": "山口県", "id": 1551 },
        {
            "address": "ひがんだ団地",
            "city": "山陽小野田市",
            "postcode": "7560015",
            "prefecture": "山口県",
            "id": 1552
        },
        { "address": "日の出", "city": "山陽小野田市", "postcode": "7560091", "prefecture": "山口県", "id": 1553 },
        { "address": "平生町", "city": "山陽小野田市", "postcode": "7560032", "prefecture": "山口県", "id": 1554 },
        { "address": "平原", "city": "山陽小野田市", "postcode": "7560035", "prefecture": "山口県", "id": 1555 },
        { "address": "福田", "city": "山陽小野田市", "postcode": "7570013", "prefecture": "山口県", "id": 1556 },
        { "address": "船越", "city": "山陽小野田市", "postcode": "7560029", "prefecture": "山口県", "id": 1557 },
        { "address": "古開作", "city": "山陽小野田市", "postcode": "7560856", "prefecture": "山口県", "id": 1558 },
        { "address": "古開作団地", "city": "山陽小野田市", "postcode": "7560857", "prefecture": "山口県", "id": 1559 },
        { "address": "平成町", "city": "山陽小野田市", "postcode": "7560837", "prefecture": "山口県", "id": 1560 },
        { "address": "平和町", "city": "山陽小野田市", "postcode": "7560031", "prefecture": "山口県", "id": 1561 },
        { "address": "松角", "city": "山陽小野田市", "postcode": "7560887", "prefecture": "山口県", "id": 1562 },
        { "address": "松浜", "city": "山陽小野田市", "postcode": "7560877", "prefecture": "山口県", "id": 1563 },
        { "address": "松浜団地", "city": "山陽小野田市", "postcode": "7560878", "prefecture": "山口県", "id": 1564 },
        { "address": "丸河内", "city": "山陽小野田市", "postcode": "7560821", "prefecture": "山口県", "id": 1565 },
        { "address": "緑が丘", "city": "山陽小野田市", "postcode": "7560034", "prefecture": "山口県", "id": 1566 },
        { "address": "港町", "city": "山陽小野田市", "postcode": "7560834", "prefecture": "山口県", "id": 1567 },
        { "address": "南高泊", "city": "山陽小野田市", "postcode": "7560045", "prefecture": "山口県", "id": 1568 },
        { "address": "南中川町", "city": "山陽小野田市", "postcode": "7560803", "prefecture": "山口県", "id": 1569 },
        { "address": "南真土郷", "city": "山陽小野田市", "postcode": "7560019", "prefecture": "山口県", "id": 1570 },
        { "address": "南松浜", "city": "山陽小野田市", "postcode": "7560875", "prefecture": "山口県", "id": 1571 },
        { "address": "南竜王町", "city": "山陽小野田市", "postcode": "7560832", "prefecture": "山口県", "id": 1572 },
        { "address": "南若山", "city": "山陽小野田市", "postcode": "7560831", "prefecture": "山口県", "id": 1573 },
        { "address": "目出", "city": "山陽小野田市", "postcode": "7560076", "prefecture": "山口県", "id": 1574 },
        { "address": "目出湖畔町", "city": "山陽小野田市", "postcode": "7560074", "prefecture": "山口県", "id": 1575 },
        { "address": "目出幸町", "city": "山陽小野田市", "postcode": "7560073", "prefecture": "山口県", "id": 1576 },
        { "address": "目出新町", "city": "山陽小野田市", "postcode": "7560077", "prefecture": "山口県", "id": 1577 },
        { "address": "目出文化町", "city": "山陽小野田市", "postcode": "7560071", "prefecture": "山口県", "id": 1578 },
        { "address": "目出緑町", "city": "山陽小野田市", "postcode": "7560072", "prefecture": "山口県", "id": 1579 },
        { "address": "本山団地", "city": "山陽小野田市", "postcode": "7560876", "prefecture": "山口県", "id": 1580 },
        { "address": "本山町", "city": "山陽小野田市", "postcode": "7560874", "prefecture": "山口県", "id": 1581 },
        { "address": "山川", "city": "山陽小野田市", "postcode": "7570004", "prefecture": "山口県", "id": 1582 },
        { "address": "山野井", "city": "山陽小野田市", "postcode": "7570003", "prefecture": "山口県", "id": 1583 },
        { "address": "横土手", "city": "山陽小野田市", "postcode": "7560809", "prefecture": "山口県", "id": 1584 },
        { "address": "硫酸町", "city": "山陽小野田市", "postcode": "7560807", "prefecture": "山口県", "id": 1585 },
        { "address": "労災病院", "city": "山陽小野田市", "postcode": "7560095", "prefecture": "山口県", "id": 1586 },
        { "address": "若草町", "city": "山陽小野田市", "postcode": "7560033", "prefecture": "山口県", "id": 1587 },
        { "city": "大島郡周防大島町", "postcode": "7422100", "prefecture": "山口県", "id": 1588 },
        { "address": "秋", "city": "大島郡周防大島町", "postcode": "7422807", "prefecture": "山口県", "id": 1589 },
        { "address": "出井", "city": "大島郡周防大島町", "postcode": "7422712", "prefecture": "山口県", "id": 1590 },
        { "address": "伊保田", "city": "大島郡周防大島町", "postcode": "7422601", "prefecture": "山口県", "id": 1591 },
        { "address": "浮島", "city": "大島郡周防大島町", "postcode": "7422801", "prefecture": "山口県", "id": 1592 },
        { "address": "内入", "city": "大島郡周防大島町", "postcode": "7422515", "prefecture": "山口県", "id": 1593 },
        {
            "address": "沖家室島",
            "city": "大島郡周防大島町",
            "postcode": "7422922",
            "prefecture": "山口県",
            "id": 1594
        },
        { "address": "笠佐島", "city": "大島郡周防大島町", "postcode": "7422108", "prefecture": "山口県", "id": 1595 },
        { "address": "片添", "city": "大島郡周防大島町", "postcode": "7422511", "prefecture": "山口県", "id": 1596 },
        { "address": "家房", "city": "大島郡周防大島町", "postcode": "7422711", "prefecture": "山口県", "id": 1597 },
        { "address": "久賀", "city": "大島郡周防大島町", "postcode": "7422301", "prefecture": "山口県", "id": 1598 },
        { "address": "神浦", "city": "大島郡周防大島町", "postcode": "7422514", "prefecture": "山口県", "id": 1599 },
        { "address": "小泊", "city": "大島郡周防大島町", "postcode": "7422517", "prefecture": "山口県", "id": 1600 },
        { "address": "小松", "city": "大島郡周防大島町", "postcode": "7422106", "prefecture": "山口県", "id": 1601 },
        {
            "address": "小松開作",
            "city": "大島郡周防大島町",
            "postcode": "7422105",
            "prefecture": "山口県",
            "id": 1602
        },
        { "address": "地家室", "city": "大島郡周防大島町", "postcode": "7422923", "prefecture": "山口県", "id": 1603 },
        { "address": "志佐", "city": "大島郡周防大島町", "postcode": "7422104", "prefecture": "山口県", "id": 1604 },
        { "address": "津海木", "city": "大島郡周防大島町", "postcode": "7422713", "prefecture": "山口県", "id": 1605 },
        { "address": "土居", "city": "大島郡周防大島町", "postcode": "7422803", "prefecture": "山口県", "id": 1606 },
        { "address": "外入", "city": "大島郡周防大島町", "postcode": "7422924", "prefecture": "山口県", "id": 1607 },
        {
            "address": "西安下庄",
            "city": "大島郡周防大島町",
            "postcode": "7422806",
            "prefecture": "山口県",
            "id": 1608
        },
        { "address": "西方", "city": "大島郡周防大島町", "postcode": "7422921", "prefecture": "山口県", "id": 1609 },
        { "address": "西三蒲", "city": "大島郡周防大島町", "postcode": "7422101", "prefecture": "山口県", "id": 1610 },
        { "address": "西屋代", "city": "大島郡周防大島町", "postcode": "7422103", "prefecture": "山口県", "id": 1611 },
        {
            "address": "東安下庄",
            "city": "大島郡周防大島町",
            "postcode": "7422805",
            "prefecture": "山口県",
            "id": 1612
        },
        { "address": "東三蒲", "city": "大島郡周防大島町", "postcode": "7422102", "prefecture": "山口県", "id": 1613 },
        { "address": "東屋代", "city": "大島郡周防大島町", "postcode": "7422107", "prefecture": "山口県", "id": 1614 },
        { "address": "日前", "city": "大島郡周防大島町", "postcode": "7422804", "prefecture": "山口県", "id": 1615 },
        { "address": "日見", "city": "大島郡周防大島町", "postcode": "7422716", "prefecture": "山口県", "id": 1616 },
        { "address": "平野", "city": "大島郡周防大島町", "postcode": "7422512", "prefecture": "山口県", "id": 1617 },
        { "address": "戸田", "city": "大島郡周防大島町", "postcode": "7422714", "prefecture": "山口県", "id": 1618 },
        { "address": "椋野", "city": "大島郡周防大島町", "postcode": "7422302", "prefecture": "山口県", "id": 1619 },
        { "address": "森", "city": "大島郡周防大島町", "postcode": "7422513", "prefecture": "山口県", "id": 1620 },
        { "address": "油宇", "city": "大島郡周防大島町", "postcode": "7422602", "prefecture": "山口県", "id": 1621 },
        { "address": "油良", "city": "大島郡周防大島町", "postcode": "7422802", "prefecture": "山口県", "id": 1622 },
        { "address": "横見", "city": "大島郡周防大島町", "postcode": "7422715", "prefecture": "山口県", "id": 1623 },
        { "address": "和佐", "city": "大島郡周防大島町", "postcode": "7422518", "prefecture": "山口県", "id": 1624 },
        { "address": "和田", "city": "大島郡周防大島町", "postcode": "7422516", "prefecture": "山口県", "id": 1625 },
        { "address": "関ケ浜", "city": "玖珂郡和木町", "postcode": "7400063", "prefecture": "山口県", "id": 1626 },
        { "address": "瀬田", "city": "玖珂郡和木町", "postcode": "7400062", "prefecture": "山口県", "id": 1627 },
        { "address": "和木", "city": "玖珂郡和木町", "postcode": "7400061", "prefecture": "山口県", "id": 1628 },
        { "city": "熊毛郡上関町", "postcode": "7421400", "prefecture": "山口県", "id": 1629 },
        { "address": "祝島", "city": "熊毛郡上関町", "postcode": "7421401", "prefecture": "山口県", "id": 1630 },
        { "address": "長島", "city": "熊毛郡上関町", "postcode": "7421402", "prefecture": "山口県", "id": 1631 },
        { "address": "室津", "city": "熊毛郡上関町", "postcode": "7421403", "prefecture": "山口県", "id": 1632 },
        { "address": "八島", "city": "熊毛郡上関町", "postcode": "7421404", "prefecture": "山口県", "id": 1633 },
        { "city": "熊毛郡田布施町", "postcode": "7421500", "prefecture": "山口県", "id": 1634 },
        { "address": "馬島", "city": "熊毛郡田布施町", "postcode": "7421516", "prefecture": "山口県", "id": 1635 },
        { "address": "大波野", "city": "熊毛郡田布施町", "postcode": "7421501", "prefecture": "山口県", "id": 1636 },
        { "address": "麻郷", "city": "熊毛郡田布施町", "postcode": "7421513", "prefecture": "山口県", "id": 1637 },
        { "address": "麻郷奥", "city": "熊毛郡田布施町", "postcode": "7421512", "prefecture": "山口県", "id": 1638 },
        { "address": "上田布施", "city": "熊毛郡田布施町", "postcode": "7421515", "prefecture": "山口県", "id": 1639 },
        { "address": "川西", "city": "熊毛郡田布施町", "postcode": "7421504", "prefecture": "山口県", "id": 1640 },
        { "address": "下田布施", "city": "熊毛郡田布施町", "postcode": "7421511", "prefecture": "山口県", "id": 1641 },
        { "address": "宿井", "city": "熊毛郡田布施町", "postcode": "7421503", "prefecture": "山口県", "id": 1642 },
        { "address": "中央南", "city": "熊毛郡田布施町", "postcode": "7421517", "prefecture": "山口県", "id": 1643 },
        { "address": "波野", "city": "熊毛郡田布施町", "postcode": "7421502", "prefecture": "山口県", "id": 1644 },
        { "address": "別府", "city": "熊毛郡田布施町", "postcode": "7421514", "prefecture": "山口県", "id": 1645 },
        { "city": "熊毛郡平生町", "postcode": "7421100", "prefecture": "山口県", "id": 1646 },
        { "address": "宇佐木", "city": "熊毛郡平生町", "postcode": "7421104", "prefecture": "山口県", "id": 1647 },
        { "address": "大野南", "city": "熊毛郡平生町", "postcode": "7421106", "prefecture": "山口県", "id": 1648 },
        { "address": "大野北", "city": "熊毛郡平生町", "postcode": "7421105", "prefecture": "山口県", "id": 1649 },
        { "address": "尾国", "city": "熊毛郡平生町", "postcode": "7421113", "prefecture": "山口県", "id": 1650 },
        { "address": "小郡", "city": "熊毛郡平生町", "postcode": "7421112", "prefecture": "山口県", "id": 1651 },
        { "address": "佐賀", "city": "熊毛郡平生町", "postcode": "7421111", "prefecture": "山口県", "id": 1652 },
        { "address": "佐合島", "city": "熊毛郡平生町", "postcode": "7421114", "prefecture": "山口県", "id": 1653 },
        { "address": "曽根", "city": "熊毛郡平生町", "postcode": "7421107", "prefecture": "山口県", "id": 1654 },
        { "address": "竪ケ浜", "city": "熊毛郡平生町", "postcode": "7421103", "prefecture": "山口県", "id": 1655 },
        { "address": "平生町", "city": "熊毛郡平生町", "postcode": "7421101", "prefecture": "山口県", "id": 1656 },
        { "address": "平生村", "city": "熊毛郡平生町", "postcode": "7421102", "prefecture": "山口県", "id": 1657 },
        { "city": "阿武郡阿武町", "postcode": "7593600", "prefecture": "山口県", "id": 1658 },
        { "address": "宇田", "city": "阿武郡阿武町", "postcode": "7593501", "prefecture": "山口県", "id": 1659 },
        { "address": "宇生賀", "city": "阿武郡阿武町", "postcode": "7580613", "prefecture": "山口県", "id": 1660 },
        { "address": "木与", "city": "阿武郡阿武町", "postcode": "7593621", "prefecture": "山口県", "id": 1661 },
        { "address": "惣郷", "city": "阿武郡阿武町", "postcode": "7593502", "prefecture": "山口県", "id": 1662 },
        { "address": "奈古", "city": "阿武郡阿武町", "postcode": "7593622", "prefecture": "山口県", "id": 1663 },
        { "address": "福田上", "city": "阿武郡阿武町", "postcode": "7580612", "prefecture": "山口県", "id": 1664 },
        { "address": "福田下", "city": "阿武郡阿武町", "postcode": "7580611", "prefecture": "山口県", "id": 1665 }
    ]
}
