{
    "postcodes": [
        { "city": "甲府市", "postcode": "4000000", "prefecture": "山梨県", "id": 0 },
        { "address": "相生", "city": "甲府市", "postcode": "4000858", "prefecture": "山梨県", "id": 1 },
        { "address": "青沼", "city": "甲府市", "postcode": "4000867", "prefecture": "山梨県", "id": 2 },
        { "address": "青葉町", "city": "甲府市", "postcode": "4000828", "prefecture": "山梨県", "id": 3 },
        { "address": "朝気", "city": "甲府市", "postcode": "4000862", "prefecture": "山梨県", "id": 4 },
        { "address": "朝日", "city": "甲府市", "postcode": "4000025", "prefecture": "山梨県", "id": 5 },
        { "address": "愛宕町", "city": "甲府市", "postcode": "4000023", "prefecture": "山梨県", "id": 6 },
        { "address": "荒川", "city": "甲府市", "postcode": "4000061", "prefecture": "山梨県", "id": 7 },
        { "address": "飯田", "city": "甲府市", "postcode": "4000035", "prefecture": "山梨県", "id": 8 },
        { "address": "猪狩町", "city": "甲府市", "postcode": "4001217", "prefecture": "山梨県", "id": 9 },
        { "address": "池田", "city": "甲府市", "postcode": "4000062", "prefecture": "山梨県", "id": 10 },
        { "address": "伊勢", "city": "甲府市", "postcode": "4000856", "prefecture": "山梨県", "id": 11 },
        { "address": "岩窪町", "city": "甲府市", "postcode": "4000013", "prefecture": "山梨県", "id": 12 },
        { "address": "後屋町", "city": "甲府市", "postcode": "4000045", "prefecture": "山梨県", "id": 13 },
        { "address": "右左口町", "city": "甲府市", "postcode": "4001504", "prefecture": "山梨県", "id": 14 },
        { "address": "大里町", "city": "甲府市", "postcode": "4000053", "prefecture": "山梨県", "id": 15 },
        { "address": "太田町", "city": "甲府市", "postcode": "4000865", "prefecture": "山梨県", "id": 16 },
        { "address": "大津町", "city": "甲府市", "postcode": "4000055", "prefecture": "山梨県", "id": 17 },
        { "address": "大手", "city": "甲府市", "postcode": "4000015", "prefecture": "山梨県", "id": 18 },
        { "address": "落合町", "city": "甲府市", "postcode": "4000834", "prefecture": "山梨県", "id": 19 },
        { "address": "音羽町", "city": "甲府市", "postcode": "4000028", "prefecture": "山梨県", "id": 20 },
        { "address": "小曲町", "city": "甲府市", "postcode": "4000841", "prefecture": "山梨県", "id": 21 },
        { "address": "梯町", "city": "甲府市", "postcode": "4093711", "prefecture": "山梨県", "id": 22 },
        { "address": "金竹町", "city": "甲府市", "postcode": "4000063", "prefecture": "山梨県", "id": 23 },
        { "address": "上阿原町", "city": "甲府市", "postcode": "4000814", "prefecture": "山梨県", "id": 24 },
        { "address": "上石田", "city": "甲府市", "postcode": "4000041", "prefecture": "山梨県", "id": 25 },
        { "address": "上今井町", "city": "甲府市", "postcode": "4000845", "prefecture": "山梨県", "id": 26 },
        { "address": "上帯那町", "city": "甲府市", "postcode": "4000081", "prefecture": "山梨県", "id": 27 },
        { "address": "上小河原町", "city": "甲府市", "postcode": "4000044", "prefecture": "山梨県", "id": 28 },
        { "address": "上条新居町", "city": "甲府市", "postcode": "4000052", "prefecture": "山梨県", "id": 29 },
        { "address": "上積翠寺町", "city": "甲府市", "postcode": "4000011", "prefecture": "山梨県", "id": 30 },
        { "address": "上曽根町", "city": "甲府市", "postcode": "4001501", "prefecture": "山梨県", "id": 31 },
        { "address": "上町", "city": "甲府市", "postcode": "4000831", "prefecture": "山梨県", "id": 32 },
        { "address": "上向山町", "city": "甲府市", "postcode": "4001506", "prefecture": "山梨県", "id": 33 },
        { "address": "川窪町", "city": "甲府市", "postcode": "4001213", "prefecture": "山梨県", "id": 34 },
        { "address": "川田町", "city": "甲府市", "postcode": "4000811", "prefecture": "山梨県", "id": 35 },
        { "address": "北口", "city": "甲府市", "postcode": "4000024", "prefecture": "山梨県", "id": 36 },
        { "address": "北新", "city": "甲府市", "postcode": "4000005", "prefecture": "山梨県", "id": 37 },
        { "address": "貢川", "city": "甲府市", "postcode": "4000065", "prefecture": "山梨県", "id": 38 },
        { "address": "貢川本町", "city": "甲府市", "postcode": "4000048", "prefecture": "山梨県", "id": 39 },
        { "address": "国玉町", "city": "甲府市", "postcode": "4000815", "prefecture": "山梨県", "id": 40 },
        { "address": "黒平町", "city": "甲府市", "postcode": "4001211", "prefecture": "山梨県", "id": 41 },
        { "address": "国母", "city": "甲府市", "postcode": "4000043", "prefecture": "山梨県", "id": 42 },
        { "address": "小瀬町", "city": "甲府市", "postcode": "4000836", "prefecture": "山梨県", "id": 43 },
        { "address": "寿町", "city": "甲府市", "postcode": "4000033", "prefecture": "山梨県", "id": 44 },
        { "address": "古府中町", "city": "甲府市", "postcode": "4000014", "prefecture": "山梨県", "id": 45 },
        { "address": "小松町", "city": "甲府市", "postcode": "4000002", "prefecture": "山梨県", "id": 46 },
        { "address": "幸町", "city": "甲府市", "postcode": "4000857", "prefecture": "山梨県", "id": 47 },
        { "address": "酒折", "city": "甲府市", "postcode": "4000805", "prefecture": "山梨県", "id": 48 },
        { "address": "酒折町", "city": "甲府市", "postcode": "4000804", "prefecture": "山梨県", "id": 49 },
        { "address": "桜井町", "city": "甲府市", "postcode": "4000803", "prefecture": "山梨県", "id": 50 },
        { "address": "里吉", "city": "甲府市", "postcode": "4000822", "prefecture": "山梨県", "id": 51 },
        { "address": "里吉町", "city": "甲府市", "postcode": "4000823", "prefecture": "山梨県", "id": 52 },
        { "address": "塩部", "city": "甲府市", "postcode": "4000026", "prefecture": "山梨県", "id": 53 },
        { "address": "下飯田", "city": "甲府市", "postcode": "4000064", "prefecture": "山梨県", "id": 54 },
        { "address": "下石田", "city": "甲府市", "postcode": "4000046", "prefecture": "山梨県", "id": 55 },
        { "address": "下今井町", "city": "甲府市", "postcode": "4000842", "prefecture": "山梨県", "id": 56 },
        { "address": "下帯那町", "city": "甲府市", "postcode": "4000082", "prefecture": "山梨県", "id": 57 },
        { "address": "下鍛冶屋町", "city": "甲府市", "postcode": "4000835", "prefecture": "山梨県", "id": 58 },
        { "address": "下河原町", "city": "甲府市", "postcode": "4000068", "prefecture": "山梨県", "id": 59 },
        { "address": "下小河原町", "city": "甲府市", "postcode": "4000853", "prefecture": "山梨県", "id": 60 },
        { "address": "下積翠寺町", "city": "甲府市", "postcode": "4000012", "prefecture": "山梨県", "id": 61 },
        { "address": "下曽根町", "city": "甲府市", "postcode": "4001508", "prefecture": "山梨県", "id": 62 },
        { "address": "下向山町", "city": "甲府市", "postcode": "4001507", "prefecture": "山梨県", "id": 63 },
        { "address": "城東", "city": "甲府市", "postcode": "4000861", "prefecture": "山梨県", "id": 64 },
        { "address": "白井町", "city": "甲府市", "postcode": "4001502", "prefecture": "山梨県", "id": 65 },
        { "address": "心経寺町", "city": "甲府市", "postcode": "4001503", "prefecture": "山梨県", "id": 66 },
        { "address": "新田町", "city": "甲府市", "postcode": "4000066", "prefecture": "山梨県", "id": 67 },
        { "address": "砂田町", "city": "甲府市", "postcode": "4000821", "prefecture": "山梨県", "id": 68 },
        { "address": "住吉", "city": "甲府市", "postcode": "4000851", "prefecture": "山梨県", "id": 69 },
        { "address": "住吉本町", "city": "甲府市", "postcode": "4000852", "prefecture": "山梨県", "id": 70 },
        { "address": "善光寺", "city": "甲府市", "postcode": "4000806", "prefecture": "山梨県", "id": 71 },
        { "address": "善光寺町", "city": "甲府市", "postcode": "4000801", "prefecture": "山梨県", "id": 72 },
        { "address": "草鹿沢町", "city": "甲府市", "postcode": "4001219", "prefecture": "山梨県", "id": 73 },
        { "address": "大和町", "city": "甲府市", "postcode": "4000072", "prefecture": "山梨県", "id": 74 },
        { "address": "高成町", "city": "甲府市", "postcode": "4001214", "prefecture": "山梨県", "id": 75 },
        { "address": "高畑", "city": "甲府市", "postcode": "4000042", "prefecture": "山梨県", "id": 76 },
        { "address": "高町", "city": "甲府市", "postcode": "4001212", "prefecture": "山梨県", "id": 77 },
        { "address": "高室町", "city": "甲府市", "postcode": "4000057", "prefecture": "山梨県", "id": 78 },
        { "address": "宝", "city": "甲府市", "postcode": "4000034", "prefecture": "山梨県", "id": 79 },
        { "address": "武田", "city": "甲府市", "postcode": "4000016", "prefecture": "山梨県", "id": 80 },
        { "address": "竹日向町", "city": "甲府市", "postcode": "4001215", "prefecture": "山梨県", "id": 81 },
        { "address": "千塚", "city": "甲府市", "postcode": "4000074", "prefecture": "山梨県", "id": 82 },
        { "address": "中央", "city": "甲府市", "postcode": "4000032", "prefecture": "山梨県", "id": 83 },
        { "address": "長松寺町", "city": "甲府市", "postcode": "4000067", "prefecture": "山梨県", "id": 84 },
        { "address": "塚原町", "city": "甲府市", "postcode": "4000003", "prefecture": "山梨県", "id": 85 },
        { "address": "天神町", "city": "甲府市", "postcode": "4000006", "prefecture": "山梨県", "id": 86 },
        { "address": "塔岩町", "city": "甲府市", "postcode": "4001216", "prefecture": "山梨県", "id": 87 },
        { "address": "東光寺", "city": "甲府市", "postcode": "4000807", "prefecture": "山梨県", "id": 88 },
        { "address": "東光寺町", "city": "甲府市", "postcode": "4000808", "prefecture": "山梨県", "id": 89 },
        { "address": "徳行", "city": "甲府市", "postcode": "4000047", "prefecture": "山梨県", "id": 90 },
        { "address": "富竹", "city": "甲府市", "postcode": "4000049", "prefecture": "山梨県", "id": 91 },
        { "address": "中小河原", "city": "甲府市", "postcode": "4000855", "prefecture": "山梨県", "id": 92 },
        { "address": "中小河原町", "city": "甲府市", "postcode": "4000854", "prefecture": "山梨県", "id": 93 },
        { "address": "中町", "city": "甲府市", "postcode": "4000844", "prefecture": "山梨県", "id": 94 },
        { "address": "中畑町", "city": "甲府市", "postcode": "4001505", "prefecture": "山梨県", "id": 95 },
        { "address": "中村町", "city": "甲府市", "postcode": "4000069", "prefecture": "山梨県", "id": 96 },
        { "address": "七沢町", "city": "甲府市", "postcode": "4000825", "prefecture": "山梨県", "id": 97 },
        { "address": "西油川町", "city": "甲府市", "postcode": "4000833", "prefecture": "山梨県", "id": 98 },
        { "address": "西下条町", "city": "甲府市", "postcode": "4000054", "prefecture": "山梨県", "id": 99 },
        { "address": "西高橋町", "city": "甲府市", "postcode": "4000826", "prefecture": "山梨県", "id": 100 },
        { "address": "西田町", "city": "甲府市", "postcode": "4000004", "prefecture": "山梨県", "id": 101 },
        { "address": "羽黒町", "city": "甲府市", "postcode": "4000071", "prefecture": "山梨県", "id": 102 },
        { "address": "東下条町", "city": "甲府市", "postcode": "4000843", "prefecture": "山梨県", "id": 103 },
        { "address": "平瀬町", "city": "甲府市", "postcode": "4000083", "prefecture": "山梨県", "id": 104 },
        { "address": "富士見", "city": "甲府市", "postcode": "4000027", "prefecture": "山梨県", "id": 105 },
        { "address": "古上条町", "city": "甲府市", "postcode": "4000051", "prefecture": "山梨県", "id": 106 },
        { "address": "古関町", "city": "甲府市", "postcode": "4093712", "prefecture": "山梨県", "id": 107 },
        { "address": "堀之内町", "city": "甲府市", "postcode": "4000056", "prefecture": "山梨県", "id": 108 },
        { "address": "増坪町", "city": "甲府市", "postcode": "4000832", "prefecture": "山梨県", "id": 109 },
        { "address": "丸の内", "city": "甲府市", "postcode": "4000031", "prefecture": "山梨県", "id": 110 },
        { "address": "美咲", "city": "甲府市", "postcode": "4000007", "prefecture": "山梨県", "id": 111 },
        { "address": "御岳町", "city": "甲府市", "postcode": "4001218", "prefecture": "山梨県", "id": 112 },
        { "address": "緑が丘", "city": "甲府市", "postcode": "4000008", "prefecture": "山梨県", "id": 113 },
        { "address": "南口町", "city": "甲府市", "postcode": "4000863", "prefecture": "山梨県", "id": 114 },
        { "address": "宮原町", "city": "甲府市", "postcode": "4000058", "prefecture": "山梨県", "id": 115 },
        { "address": "宮前町", "city": "甲府市", "postcode": "4000021", "prefecture": "山梨県", "id": 116 },
        { "address": "向町", "city": "甲府市", "postcode": "4000813", "prefecture": "山梨県", "id": 117 },
        { "address": "元紺屋町", "city": "甲府市", "postcode": "4000022", "prefecture": "山梨県", "id": 118 },
        { "address": "屋形", "city": "甲府市", "postcode": "4000017", "prefecture": "山梨県", "id": 119 },
        { "address": "山宮町", "city": "甲府市", "postcode": "4000075", "prefecture": "山梨県", "id": 120 },
        { "address": "湯田", "city": "甲府市", "postcode": "4000864", "prefecture": "山梨県", "id": 121 },
        { "address": "湯村", "city": "甲府市", "postcode": "4000073", "prefecture": "山梨県", "id": 122 },
        { "address": "横根町", "city": "甲府市", "postcode": "4000802", "prefecture": "山梨県", "id": 123 },
        { "address": "蓬沢", "city": "甲府市", "postcode": "4000827", "prefecture": "山梨県", "id": 124 },
        { "address": "蓬沢町", "city": "甲府市", "postcode": "4000824", "prefecture": "山梨県", "id": 125 },
        { "address": "若松町", "city": "甲府市", "postcode": "4000866", "prefecture": "山梨県", "id": 126 },
        { "address": "和田町", "city": "甲府市", "postcode": "4000001", "prefecture": "山梨県", "id": 127 },
        { "address": "和戸町", "city": "甲府市", "postcode": "4000812", "prefecture": "山梨県", "id": 128 },
        { "city": "富士吉田市", "postcode": "4030000", "prefecture": "山梨県", "id": 129 },
        { "address": "旭", "city": "富士吉田市", "postcode": "4030012", "prefecture": "山梨県", "id": 130 },
        { "address": "浅間", "city": "富士吉田市", "postcode": "4030031", "prefecture": "山梨県", "id": 131 },
        { "address": "新倉", "city": "富士吉田市", "postcode": "4030011", "prefecture": "山梨県", "id": 132 },
        { "address": "新屋", "city": "富士吉田市", "postcode": "4030006", "prefecture": "山梨県", "id": 133 },
        { "address": "大明見", "city": "富士吉田市", "postcode": "4030003", "prefecture": "山梨県", "id": 134 },
        { "address": "上暮地", "city": "富士吉田市", "postcode": "4030001", "prefecture": "山梨県", "id": 135 },
        { "address": "上吉田", "city": "富士吉田市", "postcode": "4030005", "prefecture": "山梨県", "id": 136 },
        { "address": "上吉田東", "city": "富士吉田市", "postcode": "4030032", "prefecture": "山梨県", "id": 137 },
        { "address": "小明見", "city": "富士吉田市", "postcode": "4030002", "prefecture": "山梨県", "id": 138 },
        { "address": "下吉田", "city": "富士吉田市", "postcode": "4030004", "prefecture": "山梨県", "id": 139 },
        { "address": "下吉田東", "city": "富士吉田市", "postcode": "4030008", "prefecture": "山梨県", "id": 140 },
        { "address": "新西原", "city": "富士吉田市", "postcode": "4030017", "prefecture": "山梨県", "id": 141 },
        { "address": "新町", "city": "富士吉田市", "postcode": "4030019", "prefecture": "山梨県", "id": 142 },
        { "address": "竜ケ丘", "city": "富士吉田市", "postcode": "4030014", "prefecture": "山梨県", "id": 143 },
        { "address": "ときわ台", "city": "富士吉田市", "postcode": "4030015", "prefecture": "山梨県", "id": 144 },
        { "address": "中曽根", "city": "富士吉田市", "postcode": "4030007", "prefecture": "山梨県", "id": 145 },
        { "address": "富士見", "city": "富士吉田市", "postcode": "4030009", "prefecture": "山梨県", "id": 146 },
        { "address": "松山", "city": "富士吉田市", "postcode": "4030016", "prefecture": "山梨県", "id": 147 },
        { "address": "緑ケ丘", "city": "富士吉田市", "postcode": "4030013", "prefecture": "山梨県", "id": 148 },
        { "address": "向原", "city": "富士吉田市", "postcode": "4030018", "prefecture": "山梨県", "id": 149 },
        { "city": "都留市", "postcode": "4020000", "prefecture": "山梨県", "id": 150 },
        { "address": "朝日曽雌", "city": "都留市", "postcode": "4020015", "prefecture": "山梨県", "id": 151 },
        { "address": "朝日馬場", "city": "都留市", "postcode": "4020014", "prefecture": "山梨県", "id": 152 },
        { "address": "厚原", "city": "都留市", "postcode": "4020042", "prefecture": "山梨県", "id": 153 },
        { "address": "井倉", "city": "都留市", "postcode": "4020011", "prefecture": "山梨県", "id": 154 },
        { "address": "大野", "city": "都留市", "postcode": "4020023", "prefecture": "山梨県", "id": 155 },
        { "address": "大幡", "city": "都留市", "postcode": "4020045", "prefecture": "山梨県", "id": 156 },
        { "address": "大原", "city": "都留市", "postcode": "4020002", "prefecture": "山梨県", "id": 157 },
        { "address": "小形山", "city": "都留市", "postcode": "4020006", "prefecture": "山梨県", "id": 158 },
        { "address": "小野", "city": "都留市", "postcode": "4020024", "prefecture": "山梨県", "id": 159 },
        { "address": "桂町", "city": "都留市", "postcode": "4020034", "prefecture": "山梨県", "id": 160 },
        { "address": "金井", "city": "都留市", "postcode": "4020041", "prefecture": "山梨県", "id": 161 },
        { "address": "加畑", "city": "都留市", "postcode": "4020044", "prefecture": "山梨県", "id": 162 },
        { "address": "上谷", "city": "都留市", "postcode": "4020053", "prefecture": "山梨県", "id": 163 },
        { "address": "川棚", "city": "都留市", "postcode": "4020055", "prefecture": "山梨県", "id": 164 },
        { "address": "川茂", "city": "都留市", "postcode": "4020003", "prefecture": "山梨県", "id": 165 },
        { "address": "境", "city": "都留市", "postcode": "4020033", "prefecture": "山梨県", "id": 166 },
        { "address": "鹿留", "city": "都留市", "postcode": "4020032", "prefecture": "山梨県", "id": 167 },
        { "address": "下谷", "city": "都留市", "postcode": "4020051", "prefecture": "山梨県", "id": 168 },
        { "address": "田野倉", "city": "都留市", "postcode": "4020001", "prefecture": "山梨県", "id": 169 },
        { "address": "田原", "city": "都留市", "postcode": "4020054", "prefecture": "山梨県", "id": 170 },
        { "address": "玉川", "city": "都留市", "postcode": "4020021", "prefecture": "山梨県", "id": 171 },
        { "address": "中央", "city": "都留市", "postcode": "4020052", "prefecture": "山梨県", "id": 172 },
        { "address": "つる", "city": "都留市", "postcode": "4020056", "prefecture": "山梨県", "id": 173 },
        { "address": "十日市場", "city": "都留市", "postcode": "4020031", "prefecture": "山梨県", "id": 174 },
        { "address": "戸沢", "city": "都留市", "postcode": "4020022", "prefecture": "山梨県", "id": 175 },
        { "address": "中津森", "city": "都留市", "postcode": "4020046", "prefecture": "山梨県", "id": 176 },
        { "address": "夏狩", "city": "都留市", "postcode": "4020035", "prefecture": "山梨県", "id": 177 },
        { "address": "平栗", "city": "都留市", "postcode": "4020043", "prefecture": "山梨県", "id": 178 },
        { "address": "古川渡", "city": "都留市", "postcode": "4020004", "prefecture": "山梨県", "id": 179 },
        { "address": "法能", "city": "都留市", "postcode": "4020025", "prefecture": "山梨県", "id": 180 },
        { "address": "盛里", "city": "都留市", "postcode": "4020013", "prefecture": "山梨県", "id": 181 },
        { "address": "四日市場", "city": "都留市", "postcode": "4020005", "prefecture": "山梨県", "id": 182 },
        { "address": "与縄", "city": "都留市", "postcode": "4020012", "prefecture": "山梨県", "id": 183 },
        { "city": "山梨市", "postcode": "4050000", "prefecture": "山梨県", "id": 184 },
        { "address": "市川", "city": "山梨市", "postcode": "4050044", "prefecture": "山梨県", "id": 185 },
        { "address": "一町田中", "city": "山梨市", "postcode": "4050025", "prefecture": "山梨県", "id": 186 },
        { "address": "歌田", "city": "山梨市", "postcode": "4050024", "prefecture": "山梨県", "id": 187 },
        { "address": "江曽原", "city": "山梨市", "postcode": "4050043", "prefecture": "山梨県", "id": 188 },
        { "address": "大野", "city": "山梨市", "postcode": "4050016", "prefecture": "山梨県", "id": 189 },
        { "address": "落合", "city": "山梨市", "postcode": "4050033", "prefecture": "山梨県", "id": 190 },
        { "address": "上石森", "city": "山梨市", "postcode": "4050014", "prefecture": "山梨県", "id": 191 },
        { "address": "上岩下", "city": "山梨市", "postcode": "4050034", "prefecture": "山梨県", "id": 192 },
        { "address": "上神内川", "city": "山梨市", "postcode": "4050018", "prefecture": "山梨県", "id": 193 },
        { "address": "上栗原", "city": "山梨市", "postcode": "4050022", "prefecture": "山梨県", "id": 194 },
        { "address": "上之割", "city": "山梨市", "postcode": "4050004", "prefecture": "山梨県", "id": 195 },
        { "address": "鴨居寺", "city": "山梨市", "postcode": "4050013", "prefecture": "山梨県", "id": 196 },
        { "address": "北", "city": "山梨市", "postcode": "4050041", "prefecture": "山梨県", "id": 197 },
        { "address": "切差", "city": "山梨市", "postcode": "4050048", "prefecture": "山梨県", "id": 198 },
        { "address": "小原東", "city": "山梨市", "postcode": "4050005", "prefecture": "山梨県", "id": 199 },
        { "address": "小原西", "city": "山梨市", "postcode": "4050006", "prefecture": "山梨県", "id": 200 },
        { "address": "三ケ所", "city": "山梨市", "postcode": "4050011", "prefecture": "山梨県", "id": 201 },
        { "address": "下石森", "city": "山梨市", "postcode": "4050015", "prefecture": "山梨県", "id": 202 },
        { "address": "下井尻", "city": "山梨市", "postcode": "4050003", "prefecture": "山梨県", "id": 203 },
        { "address": "下神内川", "city": "山梨市", "postcode": "4050017", "prefecture": "山梨県", "id": 204 },
        { "address": "下栗原", "city": "山梨市", "postcode": "4050023", "prefecture": "山梨県", "id": 205 },
        { "address": "正徳寺", "city": "山梨市", "postcode": "4050032", "prefecture": "山梨県", "id": 206 },
        { "address": "大工", "city": "山梨市", "postcode": "4050045", "prefecture": "山梨県", "id": 207 },
        { "address": "中村", "city": "山梨市", "postcode": "4050021", "prefecture": "山梨県", "id": 208 },
        { "address": "七日市場", "city": "山梨市", "postcode": "4050007", "prefecture": "山梨県", "id": 209 },
        { "address": "西", "city": "山梨市", "postcode": "4050001", "prefecture": "山梨県", "id": 210 },
        { "address": "東", "city": "山梨市", "postcode": "4050002", "prefecture": "山梨県", "id": 211 },
        { "address": "東後屋敷", "city": "山梨市", "postcode": "4050012", "prefecture": "山梨県", "id": 212 },
        { "address": "堀内", "city": "山梨市", "postcode": "4050046", "prefecture": "山梨県", "id": 213 },
        { "address": "牧丘町北原", "city": "山梨市", "postcode": "4040007", "prefecture": "山梨県", "id": 214 },
        { "address": "牧丘町窪平", "city": "山梨市", "postcode": "4040013", "prefecture": "山梨県", "id": 215 },
        { "address": "牧丘町倉科", "city": "山梨市", "postcode": "4040003", "prefecture": "山梨県", "id": 216 },
        { "address": "牧丘町城古寺", "city": "山梨市", "postcode": "4040015", "prefecture": "山梨県", "id": 217 },
        { "address": "牧丘町杣口", "city": "山梨市", "postcode": "4040002", "prefecture": "山梨県", "id": 218 },
        { "address": "牧丘町千野々宮", "city": "山梨市", "postcode": "4040016", "prefecture": "山梨県", "id": 219 },
        { "address": "牧丘町成沢", "city": "山梨市", "postcode": "4040011", "prefecture": "山梨県", "id": 220 },
        { "address": "牧丘町西保下", "city": "山梨市", "postcode": "4040004", "prefecture": "山梨県", "id": 221 },
        { "address": "牧丘町西保中", "city": "山梨市", "postcode": "4040005", "prefecture": "山梨県", "id": 222 },
        { "address": "牧丘町隼", "city": "山梨市", "postcode": "4040014", "prefecture": "山梨県", "id": 223 },
        { "address": "牧丘町牧平", "city": "山梨市", "postcode": "4040006", "prefecture": "山梨県", "id": 224 },
        { "address": "牧丘町室伏", "city": "山梨市", "postcode": "4040012", "prefecture": "山梨県", "id": 225 },
        { "address": "牧丘町柳平", "city": "山梨市", "postcode": "4040001", "prefecture": "山梨県", "id": 226 },
        { "address": "万力", "city": "山梨市", "postcode": "4050031", "prefecture": "山梨県", "id": 227 },
        { "address": "水口", "city": "山梨市", "postcode": "4050047", "prefecture": "山梨県", "id": 228 },
        { "address": "三富上釜口", "city": "山梨市", "postcode": "4040206", "prefecture": "山梨県", "id": 229 },
        { "address": "三富上柚木", "city": "山梨市", "postcode": "4040202", "prefecture": "山梨県", "id": 230 },
        { "address": "三富川浦", "city": "山梨市", "postcode": "4040201", "prefecture": "山梨県", "id": 231 },
        { "address": "三富下荻原", "city": "山梨市", "postcode": "4040203", "prefecture": "山梨県", "id": 232 },
        { "address": "三富下釜口", "city": "山梨市", "postcode": "4040204", "prefecture": "山梨県", "id": 233 },
        { "address": "三富徳和", "city": "山梨市", "postcode": "4040205", "prefecture": "山梨県", "id": 234 },
        { "address": "南", "city": "山梨市", "postcode": "4050042", "prefecture": "山梨県", "id": 235 },
        { "address": "矢坪", "city": "山梨市", "postcode": "4050036", "prefecture": "山梨県", "id": 236 },
        { "address": "山根", "city": "山梨市", "postcode": "4050035", "prefecture": "山梨県", "id": 237 },
        { "city": "大月市", "postcode": "4010000", "prefecture": "山梨県", "id": 238 },
        { "address": "大月", "city": "大月市", "postcode": "4010013", "prefecture": "山梨県", "id": 239 },
        { "address": "大月町大月", "city": "大月市", "postcode": "4010014", "prefecture": "山梨県", "id": 240 },
        { "address": "大月町花咲", "city": "大月市", "postcode": "4010015", "prefecture": "山梨県", "id": 241 },
        { "address": "大月町真木", "city": "大月市", "postcode": "4010016", "prefecture": "山梨県", "id": 242 },
        { "address": "駒橋", "city": "大月市", "postcode": "4010011", "prefecture": "山梨県", "id": 243 },
        { "address": "笹子町黒野田", "city": "大月市", "postcode": "4010025", "prefecture": "山梨県", "id": 244 },
        { "address": "笹子町白野", "city": "大月市", "postcode": "4010023", "prefecture": "山梨県", "id": 245 },
        { "address": "笹子町吉久保", "city": "大月市", "postcode": "4010024", "prefecture": "山梨県", "id": 246 },
        { "address": "猿橋町朝日小沢", "city": "大月市", "postcode": "4090615", "prefecture": "山梨県", "id": 247 },
        { "address": "猿橋町伊良原", "city": "大月市", "postcode": "4090613", "prefecture": "山梨県", "id": 248 },
        { "address": "猿橋町小沢", "city": "大月市", "postcode": "4090616", "prefecture": "山梨県", "id": 249 },
        { "address": "猿橋町小篠", "city": "大月市", "postcode": "4090611", "prefecture": "山梨県", "id": 250 },
        { "address": "猿橋町桂台", "city": "大月市", "postcode": "4090618", "prefecture": "山梨県", "id": 251 },
        { "address": "猿橋町猿橋", "city": "大月市", "postcode": "4090614", "prefecture": "山梨県", "id": 252 },
        { "address": "猿橋町殿上", "city": "大月市", "postcode": "4090617", "prefecture": "山梨県", "id": 253 },
        { "address": "猿橋町藤崎", "city": "大月市", "postcode": "4090612", "prefecture": "山梨県", "id": 254 },
        { "address": "富浜町鳥沢", "city": "大月市", "postcode": "4090502", "prefecture": "山梨県", "id": 255 },
        { "address": "富浜町宮谷", "city": "大月市", "postcode": "4090501", "prefecture": "山梨県", "id": 256 },
        { "address": "七保町浅川", "city": "大月市", "postcode": "4090621", "prefecture": "山梨県", "id": 257 },
        { "address": "七保町葛野", "city": "大月市", "postcode": "4090623", "prefecture": "山梨県", "id": 258 },
        { "address": "七保町駒宮", "city": "大月市", "postcode": "4090627", "prefecture": "山梨県", "id": 259 },
        { "address": "七保町下和田", "city": "大月市", "postcode": "4090622", "prefecture": "山梨県", "id": 260 },
        { "address": "七保町瀬戸", "city": "大月市", "postcode": "4090626", "prefecture": "山梨県", "id": 261 },
        { "address": "七保町奈良子", "city": "大月市", "postcode": "4090625", "prefecture": "山梨県", "id": 262 },
        { "address": "七保町林", "city": "大月市", "postcode": "4090624", "prefecture": "山梨県", "id": 263 },
        { "address": "賑岡町浅利", "city": "大月市", "postcode": "4010005", "prefecture": "山梨県", "id": 264 },
        { "address": "賑岡町岩殿", "city": "大月市", "postcode": "4010002", "prefecture": "山梨県", "id": 265 },
        { "address": "賑岡町奥山", "city": "大月市", "postcode": "4010006", "prefecture": "山梨県", "id": 266 },
        { "address": "賑岡町強瀬", "city": "大月市", "postcode": "4010004", "prefecture": "山梨県", "id": 267 },
        { "address": "賑岡町畑倉", "city": "大月市", "postcode": "4010001", "prefecture": "山梨県", "id": 268 },
        { "address": "賑岡町ゆりケ丘", "city": "大月市", "postcode": "4010003", "prefecture": "山梨県", "id": 269 },
        { "address": "初狩町下初狩", "city": "大月市", "postcode": "4010021", "prefecture": "山梨県", "id": 270 },
        { "address": "初狩町中初狩", "city": "大月市", "postcode": "4010022", "prefecture": "山梨県", "id": 271 },
        { "address": "御太刀", "city": "大月市", "postcode": "4010012", "prefecture": "山梨県", "id": 272 },
        { "address": "梁川町新倉", "city": "大月市", "postcode": "4090504", "prefecture": "山梨県", "id": 273 },
        { "address": "梁川町塩瀬", "city": "大月市", "postcode": "4090505", "prefecture": "山梨県", "id": 274 },
        { "address": "梁川町立野", "city": "大月市", "postcode": "4090506", "prefecture": "山梨県", "id": 275 },
        { "address": "梁川町綱の上", "city": "大月市", "postcode": "4090503", "prefecture": "山梨県", "id": 276 },
        { "city": "韮崎市", "postcode": "4070000", "prefecture": "山梨県", "id": 277 },
        { "address": "旭町上條中割", "city": "韮崎市", "postcode": "4070045", "prefecture": "山梨県", "id": 278 },
        { "address": "旭町上條南割", "city": "韮崎市", "postcode": "4070046", "prefecture": "山梨県", "id": 279 },
        { "address": "旭町上條北割", "city": "韮崎市", "postcode": "4070044", "prefecture": "山梨県", "id": 280 },
        { "address": "穴山町", "city": "韮崎市", "postcode": "4070263", "prefecture": "山梨県", "id": 281 },
        { "address": "岩下", "city": "韮崎市", "postcode": "4070012", "prefecture": "山梨県", "id": 282 },
        { "address": "上ノ山", "city": "韮崎市", "postcode": "4070011", "prefecture": "山梨県", "id": 283 },
        { "address": "大草町上條東割", "city": "韮崎市", "postcode": "4070036", "prefecture": "山梨県", "id": 284 },
        { "address": "大草町下條西割", "city": "韮崎市", "postcode": "4070035", "prefecture": "山梨県", "id": 285 },
        { "address": "大草町下條中割", "city": "韮崎市", "postcode": "4070034", "prefecture": "山梨県", "id": 286 },
        { "address": "大草町若尾", "city": "韮崎市", "postcode": "4070037", "prefecture": "山梨県", "id": 287 },
        { "address": "上祖母石", "city": "韮崎市", "postcode": "4070007", "prefecture": "山梨県", "id": 288 },
        { "address": "神山町北宮地", "city": "韮崎市", "postcode": "4070042", "prefecture": "山梨県", "id": 289 },
        { "address": "神山町武田", "city": "韮崎市", "postcode": "4070041", "prefecture": "山梨県", "id": 290 },
        { "address": "神山町鍋山", "city": "韮崎市", "postcode": "4070043", "prefecture": "山梨県", "id": 291 },
        { "address": "栄", "city": "韮崎市", "postcode": "4070025", "prefecture": "山梨県", "id": 292 },
        { "address": "下祖母石", "city": "韮崎市", "postcode": "4070006", "prefecture": "山梨県", "id": 293 },
        { "address": "水神", "city": "韮崎市", "postcode": "4070022", "prefecture": "山梨県", "id": 294 },
        { "address": "清哲町青木", "city": "韮崎市", "postcode": "4070055", "prefecture": "山梨県", "id": 295 },
        { "address": "清哲町折居", "city": "韮崎市", "postcode": "4070054", "prefecture": "山梨県", "id": 296 },
        { "address": "清哲町樋口", "city": "韮崎市", "postcode": "4070057", "prefecture": "山梨県", "id": 297 },
        { "address": "清哲町水上", "city": "韮崎市", "postcode": "4070058", "prefecture": "山梨県", "id": 298 },
        { "address": "龍岡町下條東割", "city": "韮崎市", "postcode": "4070032", "prefecture": "山梨県", "id": 299 },
        { "address": "龍岡町下條南割", "city": "韮崎市", "postcode": "4070033", "prefecture": "山梨県", "id": 300 },
        { "address": "龍岡町若尾新田", "city": "韮崎市", "postcode": "4070031", "prefecture": "山梨県", "id": 301 },
        { "address": "中央町", "city": "韮崎市", "postcode": "4070023", "prefecture": "山梨県", "id": 302 },
        { "address": "中島", "city": "韮崎市", "postcode": "4070013", "prefecture": "山梨県", "id": 303 },
        { "address": "中田町小田川", "city": "韮崎市", "postcode": "4070261", "prefecture": "山梨県", "id": 304 },
        { "address": "中田町中條", "city": "韮崎市", "postcode": "4070262", "prefecture": "山梨県", "id": 305 },
        { "address": "一ツ谷", "city": "韮崎市", "postcode": "4070005", "prefecture": "山梨県", "id": 306 },
        { "address": "藤井町駒井", "city": "韮崎市", "postcode": "4070001", "prefecture": "山梨県", "id": 307 },
        { "address": "藤井町坂井", "city": "韮崎市", "postcode": "4070002", "prefecture": "山梨県", "id": 308 },
        { "address": "藤井町南下條", "city": "韮崎市", "postcode": "4070004", "prefecture": "山梨県", "id": 309 },
        { "address": "藤井町北下條", "city": "韮崎市", "postcode": "4070003", "prefecture": "山梨県", "id": 310 },
        { "address": "富士見", "city": "韮崎市", "postcode": "4070014", "prefecture": "山梨県", "id": 311 },
        { "address": "富士見ケ丘", "city": "韮崎市", "postcode": "4070021", "prefecture": "山梨県", "id": 312 },
        { "address": "穂坂町上今井", "city": "韮崎市", "postcode": "4070172", "prefecture": "山梨県", "id": 313 },
        { "address": "穂坂町三之蔵", "city": "韮崎市", "postcode": "4070176", "prefecture": "山梨県", "id": 314 },
        { "address": "穂坂町長久保", "city": "韮崎市", "postcode": "4070173", "prefecture": "山梨県", "id": 315 },
        { "address": "穂坂町三ツ沢", "city": "韮崎市", "postcode": "4070174", "prefecture": "山梨県", "id": 316 },
        { "address": "穂坂町宮久保", "city": "韮崎市", "postcode": "4070175", "prefecture": "山梨県", "id": 317 },
        { "address": "穂坂町柳平", "city": "韮崎市", "postcode": "4070171", "prefecture": "山梨県", "id": 318 },
        { "address": "本町", "city": "韮崎市", "postcode": "4070024", "prefecture": "山梨県", "id": 319 },
        { "address": "円野町上円井", "city": "韮崎市", "postcode": "4070051", "prefecture": "山梨県", "id": 320 },
        { "address": "円野町下円井", "city": "韮崎市", "postcode": "4070052", "prefecture": "山梨県", "id": 321 },
        { "address": "円野町入戸野", "city": "韮崎市", "postcode": "4070053", "prefecture": "山梨県", "id": 322 },
        { "address": "若宮", "city": "韮崎市", "postcode": "4070015", "prefecture": "山梨県", "id": 323 },
        { "city": "南アルプス市", "postcode": "4000400", "prefecture": "山梨県", "id": 324 },
        { "address": "秋山", "city": "南アルプス市", "postcode": "4000424", "prefecture": "山梨県", "id": 325 },
        { "address": "浅原", "city": "南アルプス市", "postcode": "4000333", "prefecture": "山梨県", "id": 326 },
        { "address": "芦安芦倉", "city": "南アルプス市", "postcode": "4000241", "prefecture": "山梨県", "id": 327 },
        { "address": "芦安安通", "city": "南アルプス市", "postcode": "4000242", "prefecture": "山梨県", "id": 328 },
        { "address": "あやめが丘", "city": "南アルプス市", "postcode": "4000319", "prefecture": "山梨県", "id": 329 },
        { "address": "鮎沢", "city": "南アルプス市", "postcode": "4000403", "prefecture": "山梨県", "id": 330 },
        { "address": "有野", "city": "南アルプス市", "postcode": "4000226", "prefecture": "山梨県", "id": 331 },
        { "address": "飯野", "city": "南アルプス市", "postcode": "4000222", "prefecture": "山梨県", "id": 332 },
        { "address": "飯野新田", "city": "南アルプス市", "postcode": "4000224", "prefecture": "山梨県", "id": 333 },
        { "address": "和泉", "city": "南アルプス市", "postcode": "4000413", "prefecture": "山梨県", "id": 334 },
        { "address": "上野", "city": "南アルプス市", "postcode": "4000315", "prefecture": "山梨県", "id": 335 },
        { "address": "上八田", "city": "南アルプス市", "postcode": "4000215", "prefecture": "山梨県", "id": 336 },
        { "address": "榎原", "city": "南アルプス市", "postcode": "4000204", "prefecture": "山梨県", "id": 337 },
        { "address": "江原", "city": "南アルプス市", "postcode": "4000401", "prefecture": "山梨県", "id": 338 },
        { "address": "大嵐", "city": "南アルプス市", "postcode": "4000234", "prefecture": "山梨県", "id": 339 },
        { "address": "小笠原", "city": "南アルプス市", "postcode": "4000306", "prefecture": "山梨県", "id": 340 },
        { "address": "落合", "city": "南アルプス市", "postcode": "4000423", "prefecture": "山梨県", "id": 341 },
        { "address": "加賀美", "city": "南アルプス市", "postcode": "4000335", "prefecture": "山梨県", "id": 342 },
        { "address": "鏡中條", "city": "南アルプス市", "postcode": "4000332", "prefecture": "山梨県", "id": 343 },
        { "address": "上市之瀬", "city": "南アルプス市", "postcode": "4000317", "prefecture": "山梨県", "id": 344 },
        { "address": "上今井", "city": "南アルプス市", "postcode": "4000303", "prefecture": "山梨県", "id": 345 },
        { "address": "上今諏訪", "city": "南アルプス市", "postcode": "4000211", "prefecture": "山梨県", "id": 346 },
        { "address": "上高砂", "city": "南アルプス市", "postcode": "4000201", "prefecture": "山梨県", "id": 347 },
        { "address": "上宮地", "city": "南アルプス市", "postcode": "4000312", "prefecture": "山梨県", "id": 348 },
        { "address": "川上", "city": "南アルプス市", "postcode": "4000421", "prefecture": "山梨県", "id": 349 },
        { "address": "曲輪田", "city": "南アルプス市", "postcode": "4000311", "prefecture": "山梨県", "id": 350 },
        { "address": "曲輪田新田", "city": "南アルプス市", "postcode": "4000223", "prefecture": "山梨県", "id": 351 },
        { "address": "駒場", "city": "南アルプス市", "postcode": "4000232", "prefecture": "山梨県", "id": 352 },
        { "address": "在家塚", "city": "南アルプス市", "postcode": "4000221", "prefecture": "山梨県", "id": 353 },
        { "address": "沢登", "city": "南アルプス市", "postcode": "4000302", "prefecture": "山梨県", "id": 354 },
        { "address": "塩前", "city": "南アルプス市", "postcode": "4000231", "prefecture": "山梨県", "id": 355 },
        { "address": "清水", "city": "南アルプス市", "postcode": "4000417", "prefecture": "山梨県", "id": 356 },
        { "address": "下市之瀬", "city": "南アルプス市", "postcode": "4000314", "prefecture": "山梨県", "id": 357 },
        { "address": "下今井", "city": "南アルプス市", "postcode": "4000331", "prefecture": "山梨県", "id": 358 },
        { "address": "下今諏訪", "city": "南アルプス市", "postcode": "4000212", "prefecture": "山梨県", "id": 359 },
        { "address": "下高砂", "city": "南アルプス市", "postcode": "4000202", "prefecture": "山梨県", "id": 360 },
        { "address": "下宮地", "city": "南アルプス市", "postcode": "4000405", "prefecture": "山梨県", "id": 361 },
        { "address": "十五所", "city": "南アルプス市", "postcode": "4000305", "prefecture": "山梨県", "id": 362 },
        { "address": "須沢", "city": "南アルプス市", "postcode": "4000233", "prefecture": "山梨県", "id": 363 },
        { "address": "大師", "city": "南アルプス市", "postcode": "4000416", "prefecture": "山梨県", "id": 364 },
        { "address": "高尾", "city": "南アルプス市", "postcode": "4000318", "prefecture": "山梨県", "id": 365 },
        { "address": "田島", "city": "南アルプス市", "postcode": "4000402", "prefecture": "山梨県", "id": 366 },
        { "address": "塚原", "city": "南アルプス市", "postcode": "4000426", "prefecture": "山梨県", "id": 367 },
        { "address": "築山", "city": "南アルプス市", "postcode": "4000225", "prefecture": "山梨県", "id": 368 },
        { "address": "寺部", "city": "南アルプス市", "postcode": "4000337", "prefecture": "山梨県", "id": 369 },
        { "address": "藤田", "city": "南アルプス市", "postcode": "4000334", "prefecture": "山梨県", "id": 370 },
        { "address": "百々", "city": "南アルプス市", "postcode": "4000214", "prefecture": "山梨県", "id": 371 },
        { "address": "十日市場", "city": "南アルプス市", "postcode": "4000336", "prefecture": "山梨県", "id": 372 },
        { "address": "徳永", "city": "南アルプス市", "postcode": "4000203", "prefecture": "山梨県", "id": 373 },
        { "address": "戸田", "city": "南アルプス市", "postcode": "4000414", "prefecture": "山梨県", "id": 374 },
        { "address": "中野", "city": "南アルプス市", "postcode": "4000316", "prefecture": "山梨県", "id": 375 },
        { "address": "西南湖", "city": "南アルプス市", "postcode": "4000411", "prefecture": "山梨県", "id": 376 },
        { "address": "西野", "city": "南アルプス市", "postcode": "4000213", "prefecture": "山梨県", "id": 377 },
        { "address": "荊沢", "city": "南アルプス市", "postcode": "4000422", "prefecture": "山梨県", "id": 378 },
        { "address": "東南湖", "city": "南アルプス市", "postcode": "4000412", "prefecture": "山梨県", "id": 379 },
        { "address": "平岡", "city": "南アルプス市", "postcode": "4000313", "prefecture": "山梨県", "id": 380 },
        { "address": "古市場", "city": "南アルプス市", "postcode": "4000404", "prefecture": "山梨県", "id": 381 },
        { "address": "宮沢", "city": "南アルプス市", "postcode": "4000415", "prefecture": "山梨県", "id": 382 },
        { "address": "六科", "city": "南アルプス市", "postcode": "4000206", "prefecture": "山梨県", "id": 383 },
        { "address": "桃園", "city": "南アルプス市", "postcode": "4000301", "prefecture": "山梨県", "id": 384 },
        { "address": "野牛島", "city": "南アルプス市", "postcode": "4000205", "prefecture": "山梨県", "id": 385 },
        { "address": "山寺", "city": "南アルプス市", "postcode": "4000308", "prefecture": "山梨県", "id": 386 },
        { "address": "湯沢", "city": "南アルプス市", "postcode": "4000425", "prefecture": "山梨県", "id": 387 },
        { "address": "吉田", "city": "南アルプス市", "postcode": "4000304", "prefecture": "山梨県", "id": 388 },
        { "city": "北杜市", "postcode": "4080000", "prefecture": "山梨県", "id": 389 },
        { "address": "明野町浅尾", "city": "北杜市", "postcode": "4080201", "prefecture": "山梨県", "id": 390 },
        { "address": "明野町浅尾新田", "city": "北杜市", "postcode": "4080205", "prefecture": "山梨県", "id": 391 },
        { "address": "明野町上手", "city": "北杜市", "postcode": "4080204", "prefecture": "山梨県", "id": 392 },
        { "address": "明野町小笠原", "city": "北杜市", "postcode": "4080202", "prefecture": "山梨県", "id": 393 },
        { "address": "明野町上神取", "city": "北杜市", "postcode": "4080207", "prefecture": "山梨県", "id": 394 },
        { "address": "明野町三之蔵", "city": "北杜市", "postcode": "4080203", "prefecture": "山梨県", "id": 395 },
        { "address": "明野町下神取", "city": "北杜市", "postcode": "4080206", "prefecture": "山梨県", "id": 396 },
        {
            "address": "大泉町西井出８２４０－１",
            "city": "北杜市",
            "postcode": "4070311",
            "prefecture": "山梨県",
            "id": 397
        },
        { "address": "大泉町西井出", "city": "北杜市", "postcode": "4091501", "prefecture": "山梨県", "id": 398 },
        { "address": "大泉町谷戸", "city": "北杜市", "postcode": "4091502", "prefecture": "山梨県", "id": 399 },
        { "address": "小淵沢町", "city": "北杜市", "postcode": "4080044", "prefecture": "山梨県", "id": 400 },
        { "address": "小淵沢町上笹尾", "city": "北杜市", "postcode": "4080041", "prefecture": "山梨県", "id": 401 },
        { "address": "小淵沢町下笹尾", "city": "北杜市", "postcode": "4080043", "prefecture": "山梨県", "id": 402 },
        { "address": "小淵沢町松向", "city": "北杜市", "postcode": "4080042", "prefecture": "山梨県", "id": 403 },
        { "address": "須玉町穴平", "city": "北杜市", "postcode": "4080111", "prefecture": "山梨県", "id": 404 },
        { "address": "須玉町江草", "city": "北杜市", "postcode": "4080103", "prefecture": "山梨県", "id": 405 },
        { "address": "須玉町大蔵", "city": "北杜市", "postcode": "4080113", "prefecture": "山梨県", "id": 406 },
        { "address": "須玉町小尾", "city": "北杜市", "postcode": "4080101", "prefecture": "山梨県", "id": 407 },
        { "address": "須玉町上津金", "city": "北杜市", "postcode": "4070321", "prefecture": "山梨県", "id": 408 },
        { "address": "須玉町小倉", "city": "北杜市", "postcode": "4080104", "prefecture": "山梨県", "id": 409 },
        { "address": "須玉町境之澤", "city": "北杜市", "postcode": "4080116", "prefecture": "山梨県", "id": 410 },
        { "address": "須玉町下津金", "city": "北杜市", "postcode": "4070322", "prefecture": "山梨県", "id": 411 },
        { "address": "須玉町藤田", "city": "北杜市", "postcode": "4080114", "prefecture": "山梨県", "id": 412 },
        { "address": "須玉町東向", "city": "北杜市", "postcode": "4080105", "prefecture": "山梨県", "id": 413 },
        { "address": "須玉町比志", "city": "北杜市", "postcode": "4080102", "prefecture": "山梨県", "id": 414 },
        { "address": "須玉町大豆生田", "city": "北杜市", "postcode": "4080115", "prefecture": "山梨県", "id": 415 },
        { "address": "須玉町若神子", "city": "北杜市", "postcode": "4080112", "prefecture": "山梨県", "id": 416 },
        { "address": "須玉町若神子新町", "city": "北杜市", "postcode": "4080117", "prefecture": "山梨県", "id": 417 },
        { "address": "高根町浅川", "city": "北杜市", "postcode": "4070302", "prefecture": "山梨県", "id": 418 },
        { "address": "高根町上黒澤", "city": "北杜市", "postcode": "4080016", "prefecture": "山梨県", "id": 419 },
        { "address": "高根町清里", "city": "北杜市", "postcode": "4070301", "prefecture": "山梨県", "id": 420 },
        { "address": "高根町蔵原", "city": "北杜市", "postcode": "4080013", "prefecture": "山梨県", "id": 421 },
        { "address": "高根町小池", "city": "北杜市", "postcode": "4080014", "prefecture": "山梨県", "id": 422 },
        { "address": "高根町五町田", "city": "北杜市", "postcode": "4080017", "prefecture": "山梨県", "id": 423 },
        { "address": "高根町下黒澤", "city": "北杜市", "postcode": "4080015", "prefecture": "山梨県", "id": 424 },
        { "address": "高根町堤", "city": "北杜市", "postcode": "4080004", "prefecture": "山梨県", "id": 425 },
        { "address": "高根町長沢", "city": "北杜市", "postcode": "4080001", "prefecture": "山梨県", "id": 426 },
        { "address": "高根町東井出", "city": "北杜市", "postcode": "4080003", "prefecture": "山梨県", "id": 427 },
        { "address": "高根町箕輪", "city": "北杜市", "postcode": "4080012", "prefecture": "山梨県", "id": 428 },
        { "address": "高根町箕輪新町", "city": "北杜市", "postcode": "4080011", "prefecture": "山梨県", "id": 429 },
        { "address": "高根町村山北割", "city": "北杜市", "postcode": "4080002", "prefecture": "山梨県", "id": 430 },
        { "address": "高根町村山西割", "city": "北杜市", "postcode": "4080018", "prefecture": "山梨県", "id": 431 },
        { "address": "高根町村山東割", "city": "北杜市", "postcode": "4080019", "prefecture": "山梨県", "id": 432 },
        { "address": "長坂町大井ケ森", "city": "北杜市", "postcode": "4080032", "prefecture": "山梨県", "id": 433 },
        { "address": "長坂町大八田", "city": "北杜市", "postcode": "4080034", "prefecture": "山梨県", "id": 434 },
        { "address": "長坂町小荒間", "city": "北杜市", "postcode": "4080031", "prefecture": "山梨県", "id": 435 },
        { "address": "長坂町渋沢", "city": "北杜市", "postcode": "4080023", "prefecture": "山梨県", "id": 436 },
        { "address": "長坂町白井沢", "city": "北杜市", "postcode": "4080033", "prefecture": "山梨県", "id": 437 },
        { "address": "長坂町塚川", "city": "北杜市", "postcode": "4080022", "prefecture": "山梨県", "id": 438 },
        { "address": "長坂町富岡", "city": "北杜市", "postcode": "4080024", "prefecture": "山梨県", "id": 439 },
        { "address": "長坂町長坂上条", "city": "北杜市", "postcode": "4080021", "prefecture": "山梨県", "id": 440 },
        { "address": "長坂町長坂下条", "city": "北杜市", "postcode": "4080025", "prefecture": "山梨県", "id": 441 },
        { "address": "長坂町中島", "city": "北杜市", "postcode": "4080037", "prefecture": "山梨県", "id": 442 },
        { "address": "長坂町中丸", "city": "北杜市", "postcode": "4080036", "prefecture": "山梨県", "id": 443 },
        { "address": "長坂町夏秋", "city": "北杜市", "postcode": "4080035", "prefecture": "山梨県", "id": 444 },
        { "address": "長坂町日野", "city": "北杜市", "postcode": "4080026", "prefecture": "山梨県", "id": 445 },
        { "address": "白州町大武川", "city": "北杜市", "postcode": "4080319", "prefecture": "山梨県", "id": 446 },
        { "address": "白州町上教来石", "city": "北杜市", "postcode": "4080318", "prefecture": "山梨県", "id": 447 },
        { "address": "白州町下教来石", "city": "北杜市", "postcode": "4080317", "prefecture": "山梨県", "id": 448 },
        { "address": "白州町白須", "city": "北杜市", "postcode": "4080315", "prefecture": "山梨県", "id": 449 },
        { "address": "白州町台ケ原", "city": "北杜市", "postcode": "4080312", "prefecture": "山梨県", "id": 450 },
        { "address": "白州町大坊", "city": "北杜市", "postcode": "4080314", "prefecture": "山梨県", "id": 451 },
        { "address": "白州町鳥原", "city": "北杜市", "postcode": "4080316", "prefecture": "山梨県", "id": 452 },
        { "address": "白州町花水", "city": "北杜市", "postcode": "4080311", "prefecture": "山梨県", "id": 453 },
        { "address": "白州町横手", "city": "北杜市", "postcode": "4080313", "prefecture": "山梨県", "id": 454 },
        { "address": "武川町黒澤", "city": "北杜市", "postcode": "4080305", "prefecture": "山梨県", "id": 455 },
        { "address": "武川町新奥", "city": "北杜市", "postcode": "4080304", "prefecture": "山梨県", "id": 456 },
        { "address": "武川町牧原", "city": "北杜市", "postcode": "4080302", "prefecture": "山梨県", "id": 457 },
        { "address": "武川町三吹", "city": "北杜市", "postcode": "4080301", "prefecture": "山梨県", "id": 458 },
        { "address": "武川町宮脇", "city": "北杜市", "postcode": "4080303", "prefecture": "山梨県", "id": 459 },
        { "address": "武川町柳澤", "city": "北杜市", "postcode": "4080307", "prefecture": "山梨県", "id": 460 },
        { "address": "武川町山高", "city": "北杜市", "postcode": "4080306", "prefecture": "山梨県", "id": 461 },
        { "city": "甲斐市", "postcode": "4000100", "prefecture": "山梨県", "id": 462 },
        { "address": "安寺", "city": "甲斐市", "postcode": "4001126", "prefecture": "山梨県", "id": 463 },
        { "address": "岩森", "city": "甲斐市", "postcode": "4000106", "prefecture": "山梨県", "id": 464 },
        { "address": "牛句", "city": "甲斐市", "postcode": "4000121", "prefecture": "山梨県", "id": 465 },
        { "address": "打返", "city": "甲斐市", "postcode": "4001114", "prefecture": "山梨県", "id": 466 },
        { "address": "宇津谷", "city": "甲斐市", "postcode": "4000108", "prefecture": "山梨県", "id": 467 },
        { "address": "漆戸", "city": "甲斐市", "postcode": "4001115", "prefecture": "山梨県", "id": 468 },
        { "address": "大久保", "city": "甲斐市", "postcode": "4000128", "prefecture": "山梨県", "id": 469 },
        { "address": "大下条", "city": "甲斐市", "postcode": "4000126", "prefecture": "山梨県", "id": 470 },
        { "address": "大垈", "city": "甲斐市", "postcode": "4000103", "prefecture": "山梨県", "id": 471 },
        { "address": "上芦沢", "city": "甲斐市", "postcode": "4001121", "prefecture": "山梨県", "id": 472 },
        { "address": "上菅口", "city": "甲斐市", "postcode": "4001117", "prefecture": "山梨県", "id": 473 },
        { "address": "上福沢", "city": "甲斐市", "postcode": "4001123", "prefecture": "山梨県", "id": 474 },
        { "address": "亀沢", "city": "甲斐市", "postcode": "4001113", "prefecture": "山梨県", "id": 475 },
        { "address": "亀沢", "city": "甲斐市", "postcode": "4001131", "prefecture": "山梨県", "id": 476 },
        { "address": "吉沢", "city": "甲斐市", "postcode": "4001112", "prefecture": "山梨県", "id": 477 },
        { "address": "神戸", "city": "甲斐市", "postcode": "4001127", "prefecture": "山梨県", "id": 478 },
        { "address": "境", "city": "甲斐市", "postcode": "4000122", "prefecture": "山梨県", "id": 479 },
        { "address": "獅子平", "city": "甲斐市", "postcode": "4001116", "prefecture": "山梨県", "id": 480 },
        { "address": "志田", "city": "甲斐市", "postcode": "4000107", "prefecture": "山梨県", "id": 481 },
        { "address": "篠原", "city": "甲斐市", "postcode": "4000115", "prefecture": "山梨県", "id": 482 },
        { "address": "島上条", "city": "甲斐市", "postcode": "4000123", "prefecture": "山梨県", "id": 483 },
        { "address": "下芦沢", "city": "甲斐市", "postcode": "4001122", "prefecture": "山梨県", "id": 484 },
        { "address": "下今井", "city": "甲斐市", "postcode": "4000105", "prefecture": "山梨県", "id": 485 },
        { "address": "下菅口", "city": "甲斐市", "postcode": "4001125", "prefecture": "山梨県", "id": 486 },
        { "address": "下福沢", "city": "甲斐市", "postcode": "4001124", "prefecture": "山梨県", "id": 487 },
        { "address": "菖蒲沢", "city": "甲斐市", "postcode": "4000101", "prefecture": "山梨県", "id": 488 },
        { "address": "千田", "city": "甲斐市", "postcode": "4001111", "prefecture": "山梨県", "id": 489 },
        { "address": "玉川", "city": "甲斐市", "postcode": "4000116", "prefecture": "山梨県", "id": 490 },
        { "address": "団子新居", "city": "甲斐市", "postcode": "4000102", "prefecture": "山梨県", "id": 491 },
        { "address": "天狗沢", "city": "甲斐市", "postcode": "4000127", "prefecture": "山梨県", "id": 492 },
        { "address": "富竹新田", "city": "甲斐市", "postcode": "4000113", "prefecture": "山梨県", "id": 493 },
        { "address": "中下条", "city": "甲斐市", "postcode": "4000124", "prefecture": "山梨県", "id": 494 },
        { "address": "長塚", "city": "甲斐市", "postcode": "4000125", "prefecture": "山梨県", "id": 495 },
        { "address": "名取", "city": "甲斐市", "postcode": "4000112", "prefecture": "山梨県", "id": 496 },
        { "address": "西八幡", "city": "甲斐市", "postcode": "4000117", "prefecture": "山梨県", "id": 497 },
        { "address": "万才", "city": "甲斐市", "postcode": "4000114", "prefecture": "山梨県", "id": 498 },
        { "address": "竜王", "city": "甲斐市", "postcode": "4000118", "prefecture": "山梨県", "id": 499 },
        { "address": "竜王新町", "city": "甲斐市", "postcode": "4000111", "prefecture": "山梨県", "id": 500 },
        { "address": "龍地", "city": "甲斐市", "postcode": "4000104", "prefecture": "山梨県", "id": 501 },
        { "city": "笛吹市", "postcode": "4060000", "prefecture": "山梨県", "id": 502 },
        { "address": "芦川町新井原", "city": "笛吹市", "postcode": "4093702", "prefecture": "山梨県", "id": 503 },
        { "address": "芦川町鶯宿", "city": "笛吹市", "postcode": "4093704", "prefecture": "山梨県", "id": 504 },
        { "address": "芦川町上芦川", "city": "笛吹市", "postcode": "4093701", "prefecture": "山梨県", "id": 505 },
        { "address": "芦川町中芦川", "city": "笛吹市", "postcode": "4093703", "prefecture": "山梨県", "id": 506 },
        { "address": "石和町市部", "city": "笛吹市", "postcode": "4060031", "prefecture": "山梨県", "id": 507 },
        { "address": "石和町井戸", "city": "笛吹市", "postcode": "4060045", "prefecture": "山梨県", "id": 508 },
        { "address": "石和町今井", "city": "笛吹市", "postcode": "4060042", "prefecture": "山梨県", "id": 509 },
        { "address": "石和町駅前", "city": "笛吹市", "postcode": "4060028", "prefecture": "山梨県", "id": 510 },
        { "address": "石和町上平井", "city": "笛吹市", "postcode": "4060025", "prefecture": "山梨県", "id": 511 },
        { "address": "石和町唐柏", "city": "笛吹市", "postcode": "4060034", "prefecture": "山梨県", "id": 512 },
        { "address": "石和町川中島", "city": "笛吹市", "postcode": "4060024", "prefecture": "山梨県", "id": 513 },
        { "address": "石和町窪中島", "city": "笛吹市", "postcode": "4060036", "prefecture": "山梨県", "id": 514 },
        { "address": "石和町小石和", "city": "笛吹市", "postcode": "4060033", "prefecture": "山梨県", "id": 515 },
        { "address": "石和町河内", "city": "笛吹市", "postcode": "4060043", "prefecture": "山梨県", "id": 516 },
        { "address": "石和町下平井", "city": "笛吹市", "postcode": "4060027", "prefecture": "山梨県", "id": 517 },
        { "address": "石和町砂原", "city": "笛吹市", "postcode": "4060044", "prefecture": "山梨県", "id": 518 },
        { "address": "石和町中川", "city": "笛吹市", "postcode": "4060026", "prefecture": "山梨県", "id": 519 },
        { "address": "石和町八田", "city": "笛吹市", "postcode": "4060023", "prefecture": "山梨県", "id": 520 },
        { "address": "石和町東油川", "city": "笛吹市", "postcode": "4060046", "prefecture": "山梨県", "id": 521 },
        { "address": "石和町東高橋", "city": "笛吹市", "postcode": "4060041", "prefecture": "山梨県", "id": 522 },
        { "address": "石和町広瀬", "city": "笛吹市", "postcode": "4060035", "prefecture": "山梨県", "id": 523 },
        { "address": "石和町松本", "city": "笛吹市", "postcode": "4060021", "prefecture": "山梨県", "id": 524 },
        { "address": "石和町山崎", "city": "笛吹市", "postcode": "4060022", "prefecture": "山梨県", "id": 525 },
        { "address": "石和町四日市場", "city": "笛吹市", "postcode": "4060032", "prefecture": "山梨県", "id": 526 },
        { "address": "一宮町新巻", "city": "笛吹市", "postcode": "4050065", "prefecture": "山梨県", "id": 527 },
        { "address": "一宮町石", "city": "笛吹市", "postcode": "4050061", "prefecture": "山梨県", "id": 528 },
        { "address": "一宮町市之蔵", "city": "笛吹市", "postcode": "4050063", "prefecture": "山梨県", "id": 529 },
        { "address": "一宮町一ノ宮", "city": "笛吹市", "postcode": "4050056", "prefecture": "山梨県", "id": 530 },
        { "address": "一宮町金沢", "city": "笛吹市", "postcode": "4050062", "prefecture": "山梨県", "id": 531 },
        { "address": "一宮町金田", "city": "笛吹市", "postcode": "4050079", "prefecture": "山梨県", "id": 532 },
        { "address": "一宮町上矢作", "city": "笛吹市", "postcode": "4050059", "prefecture": "山梨県", "id": 533 },
        { "address": "一宮町神沢", "city": "笛吹市", "postcode": "4050066", "prefecture": "山梨県", "id": 534 },
        { "address": "一宮町北野呂", "city": "笛吹市", "postcode": "4050051", "prefecture": "山梨県", "id": 535 },
        { "address": "一宮町北都塚", "city": "笛吹市", "postcode": "4050071", "prefecture": "山梨県", "id": 536 },
        { "address": "一宮町狐新居", "city": "笛吹市", "postcode": "4050068", "prefecture": "山梨県", "id": 537 },
        { "address": "一宮町国分", "city": "笛吹市", "postcode": "4050074", "prefecture": "山梨県", "id": 538 },
        { "address": "一宮町小城", "city": "笛吹市", "postcode": "4050058", "prefecture": "山梨県", "id": 539 },
        { "address": "一宮町塩田", "city": "笛吹市", "postcode": "4050064", "prefecture": "山梨県", "id": 540 },
        { "address": "一宮町地蔵堂", "city": "笛吹市", "postcode": "4050055", "prefecture": "山梨県", "id": 541 },
        { "address": "一宮町下矢作", "city": "笛吹市", "postcode": "4050057", "prefecture": "山梨県", "id": 542 },
        { "address": "一宮町末木", "city": "笛吹市", "postcode": "4050073", "prefecture": "山梨県", "id": 543 },
        { "address": "一宮町千米寺", "city": "笛吹市", "postcode": "4050054", "prefecture": "山梨県", "id": 544 },
        { "address": "一宮町竹原田", "city": "笛吹市", "postcode": "4050076", "prefecture": "山梨県", "id": 545 },
        { "address": "一宮町田中", "city": "笛吹市", "postcode": "4050078", "prefecture": "山梨県", "id": 546 },
        { "address": "一宮町土塚", "city": "笛吹市", "postcode": "4050067", "prefecture": "山梨県", "id": 547 },
        { "address": "一宮町坪井", "city": "笛吹市", "postcode": "4050077", "prefecture": "山梨県", "id": 548 },
        { "address": "一宮町中尾", "city": "笛吹市", "postcode": "4050053", "prefecture": "山梨県", "id": 549 },
        { "address": "一宮町橋立", "city": "笛吹市", "postcode": "4050075", "prefecture": "山梨県", "id": 550 },
        { "address": "一宮町東新居", "city": "笛吹市", "postcode": "4050069", "prefecture": "山梨県", "id": 551 },
        { "address": "一宮町南野呂", "city": "笛吹市", "postcode": "4050052", "prefecture": "山梨県", "id": 552 },
        { "address": "一宮町本都塚", "city": "笛吹市", "postcode": "4050072", "prefecture": "山梨県", "id": 553 },
        { "address": "春日居町加茂", "city": "笛吹市", "postcode": "4060005", "prefecture": "山梨県", "id": 554 },
        { "address": "春日居町熊野堂", "city": "笛吹市", "postcode": "4060012", "prefecture": "山梨県", "id": 555 },
        { "address": "春日居町桑戸", "city": "笛吹市", "postcode": "4060003", "prefecture": "山梨県", "id": 556 },
        { "address": "春日居町国府", "city": "笛吹市", "postcode": "4060014", "prefecture": "山梨県", "id": 557 },
        { "address": "春日居町小松", "city": "笛吹市", "postcode": "4060004", "prefecture": "山梨県", "id": 558 },
        { "address": "春日居町鎮目", "city": "笛吹市", "postcode": "4060015", "prefecture": "山梨県", "id": 559 },
        { "address": "春日居町下岩下", "city": "笛吹市", "postcode": "4060001", "prefecture": "山梨県", "id": 560 },
        { "address": "春日居町寺本", "city": "笛吹市", "postcode": "4060013", "prefecture": "山梨県", "id": 561 },
        { "address": "春日居町徳条", "city": "笛吹市", "postcode": "4060011", "prefecture": "山梨県", "id": 562 },
        { "address": "春日居町別田", "city": "笛吹市", "postcode": "4060002", "prefecture": "山梨県", "id": 563 },
        { "address": "境川町石橋", "city": "笛吹市", "postcode": "4060842", "prefecture": "山梨県", "id": 564 },
        { "address": "境川町大窪", "city": "笛吹市", "postcode": "4060855", "prefecture": "山梨県", "id": 565 },
        { "address": "境川町大黒坂", "city": "笛吹市", "postcode": "4060852", "prefecture": "山梨県", "id": 566 },
        { "address": "境川町大坪", "city": "笛吹市", "postcode": "4060841", "prefecture": "山梨県", "id": 567 },
        { "address": "境川町小黒坂", "city": "笛吹市", "postcode": "4060851", "prefecture": "山梨県", "id": 568 },
        { "address": "境川町小山", "city": "笛吹市", "postcode": "4060844", "prefecture": "山梨県", "id": 569 },
        { "address": "境川町寺尾", "city": "笛吹市", "postcode": "4060854", "prefecture": "山梨県", "id": 570 },
        { "address": "境川町藤垈", "city": "笛吹市", "postcode": "4060853", "prefecture": "山梨県", "id": 571 },
        { "address": "境川町坊ケ峰", "city": "笛吹市", "postcode": "4060845", "prefecture": "山梨県", "id": 572 },
        { "address": "境川町前間田", "city": "笛吹市", "postcode": "4060843", "prefecture": "山梨県", "id": 573 },
        { "address": "境川町三椚", "city": "笛吹市", "postcode": "4060846", "prefecture": "山梨県", "id": 574 },
        { "address": "御坂町井之上", "city": "笛吹市", "postcode": "4060803", "prefecture": "山梨県", "id": 575 },
        { "address": "御坂町大野寺", "city": "笛吹市", "postcode": "4060817", "prefecture": "山梨県", "id": 576 },
        { "address": "御坂町尾山", "city": "笛吹市", "postcode": "4060815", "prefecture": "山梨県", "id": 577 },
        { "address": "御坂町金川原", "city": "笛吹市", "postcode": "4060802", "prefecture": "山梨県", "id": 578 },
        { "address": "御坂町上黒駒", "city": "笛吹市", "postcode": "4060813", "prefecture": "山梨県", "id": 579 },
        { "address": "御坂町栗合", "city": "笛吹市", "postcode": "4060805", "prefecture": "山梨県", "id": 580 },
        { "address": "御坂町国衙", "city": "笛吹市", "postcode": "4060808", "prefecture": "山梨県", "id": 581 },
        { "address": "御坂町下黒駒", "city": "笛吹市", "postcode": "4060812", "prefecture": "山梨県", "id": 582 },
        { "address": "御坂町下野原", "city": "笛吹市", "postcode": "4060811", "prefecture": "山梨県", "id": 583 },
        { "address": "御坂町蕎麦塚", "city": "笛吹市", "postcode": "4060818", "prefecture": "山梨県", "id": 584 },
        { "address": "御坂町竹居", "city": "笛吹市", "postcode": "4060816", "prefecture": "山梨県", "id": 585 },
        { "address": "御坂町藤野木", "city": "笛吹市", "postcode": "4060814", "prefecture": "山梨県", "id": 586 },
        { "address": "御坂町夏目原", "city": "笛吹市", "postcode": "4060804", "prefecture": "山梨県", "id": 587 },
        { "address": "御坂町成田", "city": "笛吹市", "postcode": "4060801", "prefecture": "山梨県", "id": 588 },
        { "address": "御坂町二之宮", "city": "笛吹市", "postcode": "4060807", "prefecture": "山梨県", "id": 589 },
        { "address": "御坂町八千蔵", "city": "笛吹市", "postcode": "4060806", "prefecture": "山梨県", "id": 590 },
        { "address": "八代町大間田", "city": "笛吹市", "postcode": "4060825", "prefecture": "山梨県", "id": 591 },
        { "address": "八代町岡", "city": "笛吹市", "postcode": "4060834", "prefecture": "山梨県", "id": 592 },
        { "address": "八代町北", "city": "笛吹市", "postcode": "4060821", "prefecture": "山梨県", "id": 593 },
        { "address": "八代町高家", "city": "笛吹市", "postcode": "4060831", "prefecture": "山梨県", "id": 594 },
        { "address": "八代町竹居", "city": "笛吹市", "postcode": "4060832", "prefecture": "山梨県", "id": 595 },
        { "address": "八代町永井", "city": "笛吹市", "postcode": "4060823", "prefecture": "山梨県", "id": 596 },
        { "address": "八代町奈良原", "city": "笛吹市", "postcode": "4060833", "prefecture": "山梨県", "id": 597 },
        { "address": "八代町増利", "city": "笛吹市", "postcode": "4060824", "prefecture": "山梨県", "id": 598 },
        { "address": "八代町南", "city": "笛吹市", "postcode": "4060822", "prefecture": "山梨県", "id": 599 },
        { "address": "八代町米倉", "city": "笛吹市", "postcode": "4060835", "prefecture": "山梨県", "id": 600 },
        { "city": "上野原市", "postcode": "4090100", "prefecture": "山梨県", "id": 601 },
        { "address": "秋山", "city": "上野原市", "postcode": "4010201", "prefecture": "山梨県", "id": 602 },
        { "address": "芦垣", "city": "上野原市", "postcode": "4090135", "prefecture": "山梨県", "id": 603 },
        { "address": "新田", "city": "上野原市", "postcode": "4090113", "prefecture": "山梨県", "id": 604 },
        { "address": "犬目", "city": "上野原市", "postcode": "4090124", "prefecture": "山梨県", "id": 605 },
        { "address": "上野原", "city": "上野原市", "postcode": "4090112", "prefecture": "山梨県", "id": 606 },
        { "address": "大椚", "city": "上野原市", "postcode": "4090134", "prefecture": "山梨県", "id": 607 },
        { "address": "大倉", "city": "上野原市", "postcode": "4090138", "prefecture": "山梨県", "id": 608 },
        { "address": "大曽根", "city": "上野原市", "postcode": "4090131", "prefecture": "山梨県", "id": 609 },
        { "address": "大野", "city": "上野原市", "postcode": "4090123", "prefecture": "山梨県", "id": 610 },
        { "address": "川合", "city": "上野原市", "postcode": "4090122", "prefecture": "山梨県", "id": 611 },
        { "address": "桑久保", "city": "上野原市", "postcode": "4090136", "prefecture": "山梨県", "id": 612 },
        { "address": "コモアしおつ", "city": "上野原市", "postcode": "4090126", "prefecture": "山梨県", "id": 613 },
        { "address": "西原", "city": "上野原市", "postcode": "4090141", "prefecture": "山梨県", "id": 614 },
        { "address": "四方津", "city": "上野原市", "postcode": "4090121", "prefecture": "山梨県", "id": 615 },
        { "address": "鶴川", "city": "上野原市", "postcode": "4090132", "prefecture": "山梨県", "id": 616 },
        { "address": "鶴島", "city": "上野原市", "postcode": "4090114", "prefecture": "山梨県", "id": 617 },
        { "address": "野田尻", "city": "上野原市", "postcode": "4090125", "prefecture": "山梨県", "id": 618 },
        { "address": "松留", "city": "上野原市", "postcode": "4090115", "prefecture": "山梨県", "id": 619 },
        { "address": "八ツ沢", "city": "上野原市", "postcode": "4090133", "prefecture": "山梨県", "id": 620 },
        { "address": "棡原", "city": "上野原市", "postcode": "4090111", "prefecture": "山梨県", "id": 621 },
        { "address": "和見", "city": "上野原市", "postcode": "4090137", "prefecture": "山梨県", "id": 622 },
        { "city": "甲州市", "postcode": "4040000", "prefecture": "山梨県", "id": 623 },
        { "address": "塩山赤尾", "city": "甲州市", "postcode": "4040033", "prefecture": "山梨県", "id": 624 },
        { "address": "塩山一之瀬高橋", "city": "甲州市", "postcode": "4040021", "prefecture": "山梨県", "id": 625 },
        { "address": "塩山牛奥", "city": "甲州市", "postcode": "4091213", "prefecture": "山梨県", "id": 626 },
        { "address": "塩山牛奥", "city": "甲州市", "postcode": "4091321", "prefecture": "山梨県", "id": 627 },
        { "address": "塩山牛奥", "city": "甲州市", "postcode": "4040034", "prefecture": "山梨県", "id": 628 },
        { "address": "塩山小屋敷", "city": "甲州市", "postcode": "4040211", "prefecture": "山梨県", "id": 629 },
        { "address": "塩山小屋敷", "city": "甲州市", "postcode": "4040053", "prefecture": "山梨県", "id": 630 },
        { "address": "塩山上粟生野", "city": "甲州市", "postcode": "4040031", "prefecture": "山梨県", "id": 631 },
        { "address": "塩山上井尻", "city": "甲州市", "postcode": "4040046", "prefecture": "山梨県", "id": 632 },
        { "address": "塩山上於曽", "city": "甲州市", "postcode": "4040042", "prefecture": "山梨県", "id": 633 },
        { "address": "塩山上小田原", "city": "甲州市", "postcode": "4040026", "prefecture": "山梨県", "id": 634 },
        { "address": "塩山上塩後", "city": "甲州市", "postcode": "4040045", "prefecture": "山梨県", "id": 635 },
        { "address": "塩山上萩原", "city": "甲州市", "postcode": "4091211", "prefecture": "山梨県", "id": 636 },
        { "address": "塩山上萩原", "city": "甲州市", "postcode": "4040022", "prefecture": "山梨県", "id": 637 },
        { "address": "塩山西広門田", "city": "甲州市", "postcode": "4040037", "prefecture": "山梨県", "id": 638 },
        { "address": "塩山熊野", "city": "甲州市", "postcode": "4040036", "prefecture": "山梨県", "id": 639 },
        { "address": "塩山下粟生野", "city": "甲州市", "postcode": "4040032", "prefecture": "山梨県", "id": 640 },
        { "address": "塩山下於曽", "city": "甲州市", "postcode": "4040043", "prefecture": "山梨県", "id": 641 },
        { "address": "塩山下小田原", "city": "甲州市", "postcode": "4040025", "prefecture": "山梨県", "id": 642 },
        { "address": "塩山下塩後", "city": "甲州市", "postcode": "4040044", "prefecture": "山梨県", "id": 643 },
        { "address": "塩山下萩原", "city": "甲州市", "postcode": "4040024", "prefecture": "山梨県", "id": 644 },
        { "address": "塩山下柚木", "city": "甲州市", "postcode": "4040055", "prefecture": "山梨県", "id": 645 },
        { "address": "塩山竹森", "city": "甲州市", "postcode": "4040051", "prefecture": "山梨県", "id": 646 },
        { "address": "塩山千野", "city": "甲州市", "postcode": "4040041", "prefecture": "山梨県", "id": 647 },
        { "address": "塩山中萩原", "city": "甲州市", "postcode": "4091212", "prefecture": "山梨県", "id": 648 },
        { "address": "塩山中萩原", "city": "甲州市", "postcode": "4040023", "prefecture": "山梨県", "id": 649 },
        { "address": "塩山西野原", "city": "甲州市", "postcode": "4040035", "prefecture": "山梨県", "id": 650 },
        { "address": "塩山平沢", "city": "甲州市", "postcode": "4040052", "prefecture": "山梨県", "id": 651 },
        { "address": "塩山福生里", "city": "甲州市", "postcode": "4040056", "prefecture": "山梨県", "id": 652 },
        { "address": "塩山藤木", "city": "甲州市", "postcode": "4040054", "prefecture": "山梨県", "id": 653 },
        { "address": "塩山三日市場", "city": "甲州市", "postcode": "4040047", "prefecture": "山梨県", "id": 654 },
        { "address": "勝沼町小佐手", "city": "甲州市", "postcode": "4091303", "prefecture": "山梨県", "id": 655 },
        { "address": "勝沼町勝沼", "city": "甲州市", "postcode": "4091316", "prefecture": "山梨県", "id": 656 },
        { "address": "勝沼町上岩崎", "city": "甲州市", "postcode": "4091312", "prefecture": "山梨県", "id": 657 },
        { "address": "勝沼町休息", "city": "甲州市", "postcode": "4091304", "prefecture": "山梨県", "id": 658 },
        { "address": "勝沼町下岩崎", "city": "甲州市", "postcode": "4091313", "prefecture": "山梨県", "id": 659 },
        { "address": "勝沼町等々力", "city": "甲州市", "postcode": "4091315", "prefecture": "山梨県", "id": 660 },
        { "address": "勝沼町中原", "city": "甲州市", "postcode": "4091301", "prefecture": "山梨県", "id": 661 },
        { "address": "勝沼町菱山", "city": "甲州市", "postcode": "4091302", "prefecture": "山梨県", "id": 662 },
        { "address": "勝沼町深沢", "city": "甲州市", "postcode": "4091311", "prefecture": "山梨県", "id": 663 },
        { "address": "勝沼町藤井", "city": "甲州市", "postcode": "4091314", "prefecture": "山梨県", "id": 664 },
        { "address": "勝沼町山", "city": "甲州市", "postcode": "4091306", "prefecture": "山梨県", "id": 665 },
        { "address": "勝沼町綿塚", "city": "甲州市", "postcode": "4091305", "prefecture": "山梨県", "id": 666 },
        { "address": "大和町田野", "city": "甲州市", "postcode": "4091202", "prefecture": "山梨県", "id": 667 },
        { "address": "大和町鶴瀬", "city": "甲州市", "postcode": "4091205", "prefecture": "山梨県", "id": 668 },
        { "address": "大和町木賊", "city": "甲州市", "postcode": "4091201", "prefecture": "山梨県", "id": 669 },
        { "address": "大和町初鹿野", "city": "甲州市", "postcode": "4091203", "prefecture": "山梨県", "id": 670 },
        { "address": "大和町日影", "city": "甲州市", "postcode": "4091204", "prefecture": "山梨県", "id": 671 },
        { "city": "中央市", "postcode": "4093800", "prefecture": "山梨県", "id": 672 },
        { "address": "浅利", "city": "中央市", "postcode": "4001514", "prefecture": "山梨県", "id": 673 },
        { "address": "一町畑", "city": "中央市", "postcode": "4093813", "prefecture": "山梨県", "id": 674 },
        { "address": "井之口", "city": "中央市", "postcode": "4093804", "prefecture": "山梨県", "id": 675 },
        { "address": "今福", "city": "中央市", "postcode": "4093834", "prefecture": "山梨県", "id": 676 },
        { "address": "今福新田", "city": "中央市", "postcode": "4093835", "prefecture": "山梨県", "id": 677 },
        { "address": "臼井阿原", "city": "中央市", "postcode": "4093844", "prefecture": "山梨県", "id": 678 },
        { "address": "大田和", "city": "中央市", "postcode": "4093831", "prefecture": "山梨県", "id": 679 },
        { "address": "大鳥居", "city": "中央市", "postcode": "4001513", "prefecture": "山梨県", "id": 680 },
        { "address": "乙黒", "city": "中央市", "postcode": "4093812", "prefecture": "山梨県", "id": 681 },
        { "address": "上三條", "city": "中央市", "postcode": "4093823", "prefecture": "山梨県", "id": 682 },
        { "address": "木原", "city": "中央市", "postcode": "4001511", "prefecture": "山梨県", "id": 683 },
        { "address": "極楽寺", "city": "中央市", "postcode": "4093811", "prefecture": "山梨県", "id": 684 },
        { "address": "下河東", "city": "中央市", "postcode": "4093821", "prefecture": "山梨県", "id": 685 },
        { "address": "下三條", "city": "中央市", "postcode": "4093822", "prefecture": "山梨県", "id": 686 },
        { "address": "関原", "city": "中央市", "postcode": "4001512", "prefecture": "山梨県", "id": 687 },
        { "address": "高部", "city": "中央市", "postcode": "4001515", "prefecture": "山梨県", "id": 688 },
        { "address": "中楯", "city": "中央市", "postcode": "4093801", "prefecture": "山梨県", "id": 689 },
        { "address": "成島", "city": "中央市", "postcode": "4093815", "prefecture": "山梨県", "id": 690 },
        { "address": "西新居", "city": "中央市", "postcode": "4093802", "prefecture": "山梨県", "id": 691 },
        { "address": "西花輪", "city": "中央市", "postcode": "4093843", "prefecture": "山梨県", "id": 692 },
        { "address": "東花輪", "city": "中央市", "postcode": "4093842", "prefecture": "山梨県", "id": 693 },
        { "address": "藤巻", "city": "中央市", "postcode": "4093833", "prefecture": "山梨県", "id": 694 },
        { "address": "布施", "city": "中央市", "postcode": "4093841", "prefecture": "山梨県", "id": 695 },
        { "address": "馬籠", "city": "中央市", "postcode": "4093832", "prefecture": "山梨県", "id": 696 },
        { "address": "町之田", "city": "中央市", "postcode": "4093814", "prefecture": "山梨県", "id": 697 },
        { "address": "山之神", "city": "中央市", "postcode": "4093845", "prefecture": "山梨県", "id": 698 },
        { "address": "若宮", "city": "中央市", "postcode": "4093803", "prefecture": "山梨県", "id": 699 },
        { "city": "西八代郡市川三郷町", "postcode": "4093600", "prefecture": "山梨県", "id": 700 },
        {
            "address": "市川大門",
            "city": "西八代郡市川三郷町",
            "postcode": "4093601",
            "prefecture": "山梨県",
            "id": 701
        },
        { "address": "岩下", "city": "西八代郡市川三郷町", "postcode": "4093234", "prefecture": "山梨県", "id": 702 },
        { "address": "岩間", "city": "西八代郡市川三郷町", "postcode": "4093244", "prefecture": "山梨県", "id": 703 },
        { "address": "印沢", "city": "西八代郡市川三郷町", "postcode": "4093607", "prefecture": "山梨県", "id": 704 },
        { "address": "上野", "city": "西八代郡市川三郷町", "postcode": "4093612", "prefecture": "山梨県", "id": 705 },
        { "address": "大塚", "city": "西八代郡市川三郷町", "postcode": "4093611", "prefecture": "山梨県", "id": 706 },
        { "address": "落居", "city": "西八代郡市川三郷町", "postcode": "4093231", "prefecture": "山梨県", "id": 707 },
        {
            "address": "鴨狩津向",
            "city": "西八代郡市川三郷町",
            "postcode": "4093243",
            "prefecture": "山梨県",
            "id": 708
        },
        { "address": "楠甫", "city": "西八代郡市川三郷町", "postcode": "4093245", "prefecture": "山梨県", "id": 709 },
        { "address": "黒沢", "city": "西八代郡市川三郷町", "postcode": "4093603", "prefecture": "山梨県", "id": 710 },
        { "address": "五八", "city": "西八代郡市川三郷町", "postcode": "4093233", "prefecture": "山梨県", "id": 711 },
        { "address": "三帳", "city": "西八代郡市川三郷町", "postcode": "4093622", "prefecture": "山梨県", "id": 712 },
        { "address": "下芦川", "city": "西八代郡市川三郷町", "postcode": "4093621", "prefecture": "山梨県", "id": 713 },
        {
            "address": "下大鳥居",
            "city": "西八代郡市川三郷町",
            "postcode": "4093605",
            "prefecture": "山梨県",
            "id": 714
        },
        { "address": "高田", "city": "西八代郡市川三郷町", "postcode": "4093606", "prefecture": "山梨県", "id": 715 },
        { "address": "高萩", "city": "西八代郡市川三郷町", "postcode": "4093623", "prefecture": "山梨県", "id": 716 },
        { "address": "葛籠沢", "city": "西八代郡市川三郷町", "postcode": "4093241", "prefecture": "山梨県", "id": 717 },
        { "address": "寺所", "city": "西八代郡市川三郷町", "postcode": "4093232", "prefecture": "山梨県", "id": 718 },
        { "address": "中山", "city": "西八代郡市川三郷町", "postcode": "4093625", "prefecture": "山梨県", "id": 719 },
        { "address": "垈", "city": "西八代郡市川三郷町", "postcode": "4093624", "prefecture": "山梨県", "id": 720 },
        { "address": "畑熊", "city": "西八代郡市川三郷町", "postcode": "4093626", "prefecture": "山梨県", "id": 721 },
        { "address": "八之尻", "city": "西八代郡市川三郷町", "postcode": "4093604", "prefecture": "山梨県", "id": 722 },
        { "address": "宮原", "city": "西八代郡市川三郷町", "postcode": "4093242", "prefecture": "山梨県", "id": 723 },
        { "address": "山保", "city": "西八代郡市川三郷町", "postcode": "4093602", "prefecture": "山梨県", "id": 724 },
        { "city": "南巨摩郡早川町", "postcode": "4092700", "prefecture": "山梨県", "id": 725 },
        { "address": "赤沢", "city": "南巨摩郡早川町", "postcode": "4092733", "prefecture": "山梨県", "id": 726 },
        { "address": "雨畑", "city": "南巨摩郡早川町", "postcode": "4092734", "prefecture": "山梨県", "id": 727 },
        { "address": "新倉", "city": "南巨摩郡早川町", "postcode": "4092703", "prefecture": "山梨県", "id": 728 },
        { "address": "大島", "city": "南巨摩郡早川町", "postcode": "4092731", "prefecture": "山梨県", "id": 729 },
        { "address": "大原野", "city": "南巨摩郡早川町", "postcode": "4092704", "prefecture": "山梨県", "id": 730 },
        { "address": "京ケ島", "city": "南巨摩郡早川町", "postcode": "4092715", "prefecture": "山梨県", "id": 731 },
        { "address": "草塩", "city": "南巨摩郡早川町", "postcode": "4092714", "prefecture": "山梨県", "id": 732 },
        { "address": "榑坪", "city": "南巨摩郡早川町", "postcode": "4092723", "prefecture": "山梨県", "id": 733 },
        { "address": "高住", "city": "南巨摩郡早川町", "postcode": "4092732", "prefecture": "山梨県", "id": 734 },
        { "address": "小縄", "city": "南巨摩郡早川町", "postcode": "4092725", "prefecture": "山梨県", "id": 735 },
        { "address": "笹走", "city": "南巨摩郡早川町", "postcode": "4092722", "prefecture": "山梨県", "id": 736 },
        { "address": "塩之上", "city": "南巨摩郡早川町", "postcode": "4092721", "prefecture": "山梨県", "id": 737 },
        { "address": "千須和", "city": "南巨摩郡早川町", "postcode": "4092726", "prefecture": "山梨県", "id": 738 },
        { "address": "黒桂", "city": "南巨摩郡早川町", "postcode": "4092711", "prefecture": "山梨県", "id": 739 },
        { "address": "奈良田", "city": "南巨摩郡早川町", "postcode": "4092701", "prefecture": "山梨県", "id": 740 },
        { "address": "西之宮", "city": "南巨摩郡早川町", "postcode": "4092712", "prefecture": "山梨県", "id": 741 },
        { "address": "初鹿島", "city": "南巨摩郡早川町", "postcode": "4092724", "prefecture": "山梨県", "id": 742 },
        { "address": "早川", "city": "南巨摩郡早川町", "postcode": "4092705", "prefecture": "山梨県", "id": 743 },
        { "address": "保", "city": "南巨摩郡早川町", "postcode": "4092713", "prefecture": "山梨県", "id": 744 },
        { "address": "薬袋", "city": "南巨摩郡早川町", "postcode": "4092727", "prefecture": "山梨県", "id": 745 },
        { "address": "湯島", "city": "南巨摩郡早川町", "postcode": "4092702", "prefecture": "山梨県", "id": 746 },
        { "city": "南巨摩郡身延町", "postcode": "4092500", "prefecture": "山梨県", "id": 747 },
        { "address": "相又", "city": "南巨摩郡身延町", "postcode": "4092536", "prefecture": "山梨県", "id": 748 },
        { "address": "粟倉", "city": "南巨摩郡身延町", "postcode": "4092521", "prefecture": "山梨県", "id": 749 },
        { "address": "飯富", "city": "南巨摩郡身延町", "postcode": "4093423", "prefecture": "山梨県", "id": 750 },
        { "address": "市之瀬", "city": "南巨摩郡身延町", "postcode": "4092938", "prefecture": "山梨県", "id": 751 },
        { "address": "一色", "city": "南巨摩郡身延町", "postcode": "4092937", "prefecture": "山梨県", "id": 752 },
        { "address": "伊沼", "city": "南巨摩郡身延町", "postcode": "4093424", "prefecture": "山梨県", "id": 753 },
        { "address": "岩欠", "city": "南巨摩郡身延町", "postcode": "4092933", "prefecture": "山梨県", "id": 754 },
        { "address": "上之平", "city": "南巨摩郡身延町", "postcode": "4092947", "prefecture": "山梨県", "id": 755 },
        { "address": "梅平", "city": "南巨摩郡身延町", "postcode": "4092531", "prefecture": "山梨県", "id": 756 },
        { "address": "江尻窪", "city": "南巨摩郡身延町", "postcode": "4093434", "prefecture": "山梨県", "id": 757 },
        { "address": "大炊平", "city": "南巨摩郡身延町", "postcode": "4092934", "prefecture": "山梨県", "id": 758 },
        { "address": "大磯小磯", "city": "南巨摩郡身延町", "postcode": "4093111", "prefecture": "山梨県", "id": 759 },
        { "address": "大崩", "city": "南巨摩郡身延町", "postcode": "4092406", "prefecture": "山梨県", "id": 760 },
        { "address": "大塩", "city": "南巨摩郡身延町", "postcode": "4093311", "prefecture": "山梨県", "id": 761 },
        { "address": "大島", "city": "南巨摩郡身延町", "postcode": "4092415", "prefecture": "山梨県", "id": 762 },
        { "address": "大城", "city": "南巨摩郡身延町", "postcode": "4092537", "prefecture": "山梨県", "id": 763 },
        { "address": "大垈", "city": "南巨摩郡身延町", "postcode": "4092404", "prefecture": "山梨県", "id": 764 },
        { "address": "大野", "city": "南巨摩郡身延町", "postcode": "4092532", "prefecture": "山梨県", "id": 765 },
        { "address": "大山", "city": "南巨摩郡身延町", "postcode": "4093121", "prefecture": "山梨県", "id": 766 },
        { "address": "遅沢", "city": "南巨摩郡身延町", "postcode": "4093433", "prefecture": "山梨県", "id": 767 },
        { "address": "小田船原", "city": "南巨摩郡身延町", "postcode": "4092539", "prefecture": "山梨県", "id": 768 },
        { "address": "帯金", "city": "南巨摩郡身延町", "postcode": "4092403", "prefecture": "山梨県", "id": 769 },
        { "address": "折門", "city": "南巨摩郡身延町", "postcode": "4093101", "prefecture": "山梨県", "id": 770 },
        { "address": "門野", "city": "南巨摩郡身延町", "postcode": "4092538", "prefecture": "山梨県", "id": 771 },
        { "address": "釜額", "city": "南巨摩郡身延町", "postcode": "4093105", "prefecture": "山梨県", "id": 772 },
        { "address": "上田原", "city": "南巨摩郡身延町", "postcode": "4093118", "prefecture": "山梨県", "id": 773 },
        { "address": "上八木沢", "city": "南巨摩郡身延町", "postcode": "4092401", "prefecture": "山梨県", "id": 774 },
        { "address": "川向", "city": "南巨摩郡身延町", "postcode": "4092943", "prefecture": "山梨県", "id": 775 },
        { "address": "北川", "city": "南巨摩郡身延町", "postcode": "4092931", "prefecture": "山梨県", "id": 776 },
        { "address": "清沢", "city": "南巨摩郡身延町", "postcode": "4092935", "prefecture": "山梨県", "id": 777 },
        { "address": "切石", "city": "南巨摩郡身延町", "postcode": "4093304", "prefecture": "山梨県", "id": 778 },
        { "address": "切房木", "city": "南巨摩郡身延町", "postcode": "4093115", "prefecture": "山梨県", "id": 779 },
        { "address": "久成", "city": "南巨摩郡身延町", "postcode": "4093312", "prefecture": "山梨県", "id": 780 },
        { "address": "久保", "city": "南巨摩郡身延町", "postcode": "4093122", "prefecture": "山梨県", "id": 781 },
        { "address": "熊沢", "city": "南巨摩郡身延町", "postcode": "4093123", "prefecture": "山梨県", "id": 782 },
        { "address": "車田", "city": "南巨摩郡身延町", "postcode": "4093116", "prefecture": "山梨県", "id": 783 },
        { "address": "芝草", "city": "南巨摩郡身延町", "postcode": "4093112", "prefecture": "山梨県", "id": 784 },
        { "address": "下田原", "city": "南巨摩郡身延町", "postcode": "4093305", "prefecture": "山梨県", "id": 785 },
        { "address": "下部", "city": "南巨摩郡身延町", "postcode": "4092942", "prefecture": "山梨県", "id": 786 },
        { "address": "下八木沢", "city": "南巨摩郡身延町", "postcode": "4092402", "prefecture": "山梨県", "id": 787 },
        { "address": "下山", "city": "南巨摩郡身延町", "postcode": "4092522", "prefecture": "山梨県", "id": 788 },
        { "address": "杉山", "city": "南巨摩郡身延町", "postcode": "4092932", "prefecture": "山梨県", "id": 789 },
        { "address": "清子", "city": "南巨摩郡身延町", "postcode": "4092533", "prefecture": "山梨県", "id": 790 },
        { "address": "瀬戸", "city": "南巨摩郡身延町", "postcode": "4093107", "prefecture": "山梨県", "id": 791 },
        { "address": "大子", "city": "南巨摩郡身延町", "postcode": "4092946", "prefecture": "山梨県", "id": 792 },
        { "address": "角打", "city": "南巨摩郡身延町", "postcode": "4092412", "prefecture": "山梨県", "id": 793 },
        { "address": "椿草里", "city": "南巨摩郡身延町", "postcode": "4092405", "prefecture": "山梨県", "id": 794 },
        { "address": "手打沢", "city": "南巨摩郡身延町", "postcode": "4093302", "prefecture": "山梨県", "id": 795 },
        { "address": "寺沢", "city": "南巨摩郡身延町", "postcode": "4093303", "prefecture": "山梨県", "id": 796 },
        { "address": "樋田", "city": "南巨摩郡身延町", "postcode": "4093124", "prefecture": "山梨県", "id": 797 },
        { "address": "常葉", "city": "南巨摩郡身延町", "postcode": "4092936", "prefecture": "山梨県", "id": 798 },
        { "address": "中之倉", "city": "南巨摩郡身延町", "postcode": "4093104", "prefecture": "山梨県", "id": 799 },
        { "address": "中山", "city": "南巨摩郡身延町", "postcode": "4093432", "prefecture": "山梨県", "id": 800 },
        { "address": "梨子", "city": "南巨摩郡身延町", "postcode": "4093435", "prefecture": "山梨県", "id": 801 },
        { "address": "西嶋", "city": "南巨摩郡身延町", "postcode": "4093301", "prefecture": "山梨県", "id": 802 },
        { "address": "根子", "city": "南巨摩郡身延町", "postcode": "4093103", "prefecture": "山梨県", "id": 803 },
        { "address": "波木井", "city": "南巨摩郡身延町", "postcode": "4092523", "prefecture": "山梨県", "id": 804 },
        { "address": "波高島", "city": "南巨摩郡身延町", "postcode": "4092945", "prefecture": "山梨県", "id": 805 },
        { "address": "八坂", "city": "南巨摩郡身延町", "postcode": "4093102", "prefecture": "山梨県", "id": 806 },
        { "address": "日向南沢", "city": "南巨摩郡身延町", "postcode": "4093307", "prefecture": "山梨県", "id": 807 },
        { "address": "樋之上", "city": "南巨摩郡身延町", "postcode": "4092414", "prefecture": "山梨県", "id": 808 },
        { "address": "平須", "city": "南巨摩郡身延町", "postcode": "4093313", "prefecture": "山梨県", "id": 809 },
        { "address": "福原", "city": "南巨摩郡身延町", "postcode": "4093436", "prefecture": "山梨県", "id": 810 },
        { "address": "古関", "city": "南巨摩郡身延町", "postcode": "4093106", "prefecture": "山梨県", "id": 811 },
        { "address": "古長谷", "city": "南巨摩郡身延町", "postcode": "4093437", "prefecture": "山梨県", "id": 812 },
        { "address": "丸滝", "city": "南巨摩郡身延町", "postcode": "4092411", "prefecture": "山梨県", "id": 813 },
        { "address": "三沢", "city": "南巨摩郡身延町", "postcode": "4093117", "prefecture": "山梨県", "id": 814 },
        { "address": "水船", "city": "南巨摩郡身延町", "postcode": "4093113", "prefecture": "山梨県", "id": 815 },
        { "address": "道", "city": "南巨摩郡身延町", "postcode": "4093114", "prefecture": "山梨県", "id": 816 },
        { "address": "光子沢", "city": "南巨摩郡身延町", "postcode": "4092534", "prefecture": "山梨県", "id": 817 },
        { "address": "嶺", "city": "南巨摩郡身延町", "postcode": "4093125", "prefecture": "山梨県", "id": 818 },
        { "address": "身延", "city": "南巨摩郡身延町", "postcode": "4092524", "prefecture": "山梨県", "id": 819 },
        { "address": "宮木", "city": "南巨摩郡身延町", "postcode": "4093422", "prefecture": "山梨県", "id": 820 },
        { "address": "桃ケ窪", "city": "南巨摩郡身延町", "postcode": "4092944", "prefecture": "山梨県", "id": 821 },
        { "address": "矢細工", "city": "南巨摩郡身延町", "postcode": "4093431", "prefecture": "山梨県", "id": 822 },
        { "address": "山家", "city": "南巨摩郡身延町", "postcode": "4093126", "prefecture": "山梨県", "id": 823 },
        { "address": "湯之奥", "city": "南巨摩郡身延町", "postcode": "4092941", "prefecture": "山梨県", "id": 824 },
        { "address": "八日市場", "city": "南巨摩郡身延町", "postcode": "4093421", "prefecture": "山梨県", "id": 825 },
        { "address": "夜子沢", "city": "南巨摩郡身延町", "postcode": "4093306", "prefecture": "山梨県", "id": 826 },
        { "address": "横根中", "city": "南巨摩郡身延町", "postcode": "4092535", "prefecture": "山梨県", "id": 827 },
        { "address": "和田", "city": "南巨摩郡身延町", "postcode": "4092413", "prefecture": "山梨県", "id": 828 },
        { "city": "南巨摩郡南部町", "postcode": "4092100", "prefecture": "山梨県", "id": 829 },
        { "address": "井出", "city": "南巨摩郡南部町", "postcode": "4092304", "prefecture": "山梨県", "id": 830 },
        { "address": "内船", "city": "南巨摩郡南部町", "postcode": "4092305", "prefecture": "山梨県", "id": 831 },
        { "address": "大和", "city": "南巨摩郡南部町", "postcode": "4092213", "prefecture": "山梨県", "id": 832 },
        { "address": "楮根", "city": "南巨摩郡南部町", "postcode": "4092101", "prefecture": "山梨県", "id": 833 },
        { "address": "上佐野", "city": "南巨摩郡南部町", "postcode": "4092301", "prefecture": "山梨県", "id": 834 },
        { "address": "塩沢", "city": "南巨摩郡南部町", "postcode": "4092214", "prefecture": "山梨県", "id": 835 },
        { "address": "下佐野", "city": "南巨摩郡南部町", "postcode": "4092302", "prefecture": "山梨県", "id": 836 },
        { "address": "十島", "city": "南巨摩郡南部町", "postcode": "4092303", "prefecture": "山梨県", "id": 837 },
        { "address": "中野", "city": "南巨摩郡南部町", "postcode": "4092211", "prefecture": "山梨県", "id": 838 },
        { "address": "成島", "city": "南巨摩郡南部町", "postcode": "4092216", "prefecture": "山梨県", "id": 839 },
        { "address": "南部", "city": "南巨摩郡南部町", "postcode": "4092212", "prefecture": "山梨県", "id": 840 },
        { "address": "福士", "city": "南巨摩郡南部町", "postcode": "4092102", "prefecture": "山梨県", "id": 841 },
        { "address": "本郷", "city": "南巨摩郡南部町", "postcode": "4092217", "prefecture": "山梨県", "id": 842 },
        { "address": "万沢", "city": "南巨摩郡南部町", "postcode": "4092103", "prefecture": "山梨県", "id": 843 },
        { "address": "柳島", "city": "南巨摩郡南部町", "postcode": "4092215", "prefecture": "山梨県", "id": 844 },
        { "city": "南巨摩郡富士川町", "postcode": "4000500", "prefecture": "山梨県", "id": 845 },
        { "address": "青柳町", "city": "南巨摩郡富士川町", "postcode": "4000501", "prefecture": "山梨県", "id": 846 },
        { "address": "駅前通", "city": "南巨摩郡富士川町", "postcode": "4000602", "prefecture": "山梨県", "id": 847 },
        { "address": "大椚", "city": "南巨摩郡富士川町", "postcode": "4000506", "prefecture": "山梨県", "id": 848 },
        { "address": "大久保", "city": "南巨摩郡富士川町", "postcode": "4000511", "prefecture": "山梨県", "id": 849 },
        { "address": "鰍沢", "city": "南巨摩郡富士川町", "postcode": "4000601", "prefecture": "山梨県", "id": 850 },
        { "address": "鹿島", "city": "南巨摩郡富士川町", "postcode": "4000603", "prefecture": "山梨県", "id": 851 },
        { "address": "小林", "city": "南巨摩郡富士川町", "postcode": "4000504", "prefecture": "山梨県", "id": 852 },
        { "address": "小室", "city": "南巨摩郡富士川町", "postcode": "4000512", "prefecture": "山梨県", "id": 853 },
        { "address": "最勝寺", "city": "南巨摩郡富士川町", "postcode": "4000502", "prefecture": "山梨県", "id": 854 },
        { "address": "十谷", "city": "南巨摩郡富士川町", "postcode": "4000606", "prefecture": "山梨県", "id": 855 },
        { "address": "高下", "city": "南巨摩郡富士川町", "postcode": "4000513", "prefecture": "山梨県", "id": 856 },
        { "address": "長知沢", "city": "南巨摩郡富士川町", "postcode": "4000608", "prefecture": "山梨県", "id": 857 },
        { "address": "舂米", "city": "南巨摩郡富士川町", "postcode": "4000515", "prefecture": "山梨県", "id": 858 },
        { "address": "天神中條", "city": "南巨摩郡富士川町", "postcode": "4000503", "prefecture": "山梨県", "id": 859 },
        { "address": "鳥屋", "city": "南巨摩郡富士川町", "postcode": "4000607", "prefecture": "山梨県", "id": 860 },
        { "address": "長澤", "city": "南巨摩郡富士川町", "postcode": "4000505", "prefecture": "山梨県", "id": 861 },
        { "address": "箱原", "city": "南巨摩郡富士川町", "postcode": "4000604", "prefecture": "山梨県", "id": 862 },
        { "address": "平林", "city": "南巨摩郡富士川町", "postcode": "4000514", "prefecture": "山梨県", "id": 863 },
        { "address": "柳川", "city": "南巨摩郡富士川町", "postcode": "4000605", "prefecture": "山梨県", "id": 864 },
        { "address": "飯喰", "city": "中巨摩郡昭和町", "postcode": "4093852", "prefecture": "山梨県", "id": 865 },
        { "address": "押越", "city": "中巨摩郡昭和町", "postcode": "4093864", "prefecture": "山梨県", "id": 866 },
        { "address": "河西", "city": "中巨摩郡昭和町", "postcode": "4093851", "prefecture": "山梨県", "id": 867 },
        { "address": "河東中島", "city": "中巨摩郡昭和町", "postcode": "4093863", "prefecture": "山梨県", "id": 868 },
        { "address": "上河東", "city": "中巨摩郡昭和町", "postcode": "4093862", "prefecture": "山梨県", "id": 869 },
        { "address": "紙漉阿原", "city": "中巨摩郡昭和町", "postcode": "4093861", "prefecture": "山梨県", "id": 870 },
        { "address": "西条", "city": "中巨摩郡昭和町", "postcode": "4093866", "prefecture": "山梨県", "id": 871 },
        { "address": "西条新田", "city": "中巨摩郡昭和町", "postcode": "4093865", "prefecture": "山梨県", "id": 872 },
        { "address": "清水新居", "city": "中巨摩郡昭和町", "postcode": "4093867", "prefecture": "山梨県", "id": 873 },
        { "address": "築地新居", "city": "中巨摩郡昭和町", "postcode": "4093853", "prefecture": "山梨県", "id": 874 },
        { "address": "築地新田", "city": "中巨摩郡昭和町", "postcode": "4093854", "prefecture": "山梨県", "id": 875 },
        { "city": "南都留郡道志村", "postcode": "4020200", "prefecture": "山梨県", "id": 876 },
        { "address": "板橋", "city": "南都留郡道志村", "postcode": "4020225", "prefecture": "山梨県", "id": 877 },
        { "address": "大栗", "city": "南都留郡道志村", "postcode": "4020207", "prefecture": "山梨県", "id": 878 },
        { "address": "大指", "city": "南都留郡道志村", "postcode": "4020215", "prefecture": "山梨県", "id": 879 },
        { "address": "大野", "city": "南都留郡道志村", "postcode": "4020202", "prefecture": "山梨県", "id": 880 },
        { "address": "大室指", "city": "南都留郡道志村", "postcode": "4020204", "prefecture": "山梨県", "id": 881 },
        { "address": "川原畑", "city": "南都留郡道志村", "postcode": "4020214", "prefecture": "山梨県", "id": 882 },
        { "address": "釜之前", "city": "南都留郡道志村", "postcode": "4020216", "prefecture": "山梨県", "id": 883 },
        { "address": "上白井平", "city": "南都留郡道志村", "postcode": "4020227", "prefecture": "山梨県", "id": 884 },
        { "address": "上善之木", "city": "南都留郡道志村", "postcode": "4020223", "prefecture": "山梨県", "id": 885 },
        { "address": "上中山", "city": "南都留郡道志村", "postcode": "4020221", "prefecture": "山梨県", "id": 886 },
        { "address": "川村", "city": "南都留郡道志村", "postcode": "4020224", "prefecture": "山梨県", "id": 887 },
        { "address": "久保", "city": "南都留郡道志村", "postcode": "4020203", "prefecture": "山梨県", "id": 888 },
        { "address": "小善地", "city": "南都留郡道志村", "postcode": "4020206", "prefecture": "山梨県", "id": 889 },
        { "address": "下白井平", "city": "南都留郡道志村", "postcode": "4020226", "prefecture": "山梨県", "id": 890 },
        { "address": "下善之木", "city": "南都留郡道志村", "postcode": "4020222", "prefecture": "山梨県", "id": 891 },
        { "address": "下中山", "city": "南都留郡道志村", "postcode": "4020219", "prefecture": "山梨県", "id": 892 },
        { "address": "竹之本", "city": "南都留郡道志村", "postcode": "4020209", "prefecture": "山梨県", "id": 893 },
        { "address": "月夜野", "city": "南都留郡道志村", "postcode": "4020201", "prefecture": "山梨県", "id": 894 },
        { "address": "椿", "city": "南都留郡道志村", "postcode": "4020205", "prefecture": "山梨県", "id": 895 },
        { "address": "中神地", "city": "南都留郡道志村", "postcode": "4020218", "prefecture": "山梨県", "id": 896 },
        { "address": "長又", "city": "南都留郡道志村", "postcode": "4020228", "prefecture": "山梨県", "id": 897 },
        { "address": "西和出村", "city": "南都留郡道志村", "postcode": "4020212", "prefecture": "山梨県", "id": 898 },
        { "address": "馬場", "city": "南都留郡道志村", "postcode": "4020208", "prefecture": "山梨県", "id": 899 },
        { "address": "東神地", "city": "南都留郡道志村", "postcode": "4020217", "prefecture": "山梨県", "id": 900 },
        { "address": "東和出村", "city": "南都留郡道志村", "postcode": "4020211", "prefecture": "山梨県", "id": 901 },
        { "address": "谷相", "city": "南都留郡道志村", "postcode": "4020213", "prefecture": "山梨県", "id": 902 },
        { "address": "小沼", "city": "南都留郡西桂町", "postcode": "4030022", "prefecture": "山梨県", "id": 903 },
        { "address": "倉見", "city": "南都留郡西桂町", "postcode": "4030023", "prefecture": "山梨県", "id": 904 },
        { "address": "下暮地", "city": "南都留郡西桂町", "postcode": "4030021", "prefecture": "山梨県", "id": 905 },
        { "city": "南都留郡忍野村", "postcode": "4010500", "prefecture": "山梨県", "id": 906 },
        { "address": "内野", "city": "南都留郡忍野村", "postcode": "4010512", "prefecture": "山梨県", "id": 907 },
        { "address": "忍草", "city": "南都留郡忍野村", "postcode": "4010511", "prefecture": "山梨県", "id": 908 },
        { "address": "平野", "city": "南都留郡山中湖村", "postcode": "4010502", "prefecture": "山梨県", "id": 909 },
        { "address": "山中", "city": "南都留郡山中湖村", "postcode": "4010501", "prefecture": "山梨県", "id": 910 },
        { "city": "南都留郡鳴沢村", "postcode": "4010320", "prefecture": "山梨県", "id": 911 },
        { "city": "南都留郡富士河口湖町", "postcode": "4010300", "prefecture": "山梨県", "id": 912 },
        { "address": "浅川", "city": "南都留郡富士河口湖町", "postcode": "4010303", "prefecture": "山梨県", "id": 913 },
        { "address": "大嵐", "city": "南都留郡富士河口湖町", "postcode": "4010335", "prefecture": "山梨県", "id": 914 },
        { "address": "大石", "city": "南都留郡富士河口湖町", "postcode": "4010305", "prefecture": "山梨県", "id": 915 },
        { "address": "勝山", "city": "南都留郡富士河口湖町", "postcode": "4010310", "prefecture": "山梨県", "id": 916 },
        { "address": "河口", "city": "南都留郡富士河口湖町", "postcode": "4010304", "prefecture": "山梨県", "id": 917 },
        { "address": "小立", "city": "南都留郡富士河口湖町", "postcode": "4010302", "prefecture": "山梨県", "id": 918 },
        { "address": "西湖", "city": "南都留郡富士河口湖町", "postcode": "4010332", "prefecture": "山梨県", "id": 919 },
        {
            "address": "西湖西",
            "city": "南都留郡富士河口湖町",
            "postcode": "4010333",
            "prefecture": "山梨県",
            "id": 920
        },
        {
            "address": "西湖南",
            "city": "南都留郡富士河口湖町",
            "postcode": "4010334",
            "prefecture": "山梨県",
            "id": 921
        },
        { "address": "精進", "city": "南都留郡富士河口湖町", "postcode": "4010336", "prefecture": "山梨県", "id": 922 },
        { "address": "長浜", "city": "南都留郡富士河口湖町", "postcode": "4010331", "prefecture": "山梨県", "id": 923 },
        {
            "address": "富士ケ嶺",
            "city": "南都留郡富士河口湖町",
            "postcode": "4010338",
            "prefecture": "山梨県",
            "id": 924
        },
        { "address": "船津", "city": "南都留郡富士河口湖町", "postcode": "4010301", "prefecture": "山梨県", "id": 925 },
        { "address": "本栖", "city": "南都留郡富士河口湖町", "postcode": "4010337", "prefecture": "山梨県", "id": 926 },
        { "city": "北都留郡小菅村", "postcode": "4090200", "prefecture": "山梨県", "id": 927 },
        { "city": "北都留郡小菅村", "postcode": "4090142", "prefecture": "山梨県", "id": 928 },
        { "city": "北都留郡小菅村", "postcode": "4090211", "prefecture": "山梨県", "id": 929 },
        { "city": "北都留郡丹波山村", "postcode": "4090300", "prefecture": "山梨県", "id": 930 },
        { "address": "奥秋", "city": "北都留郡丹波山村", "postcode": "4090301", "prefecture": "山梨県", "id": 931 },
        { "address": "押垣外", "city": "北都留郡丹波山村", "postcode": "4090306", "prefecture": "山梨県", "id": 932 },
        { "address": "御祭", "city": "北都留郡丹波山村", "postcode": "4090314", "prefecture": "山梨県", "id": 933 },
        { "address": "親川", "city": "北都留郡丹波山村", "postcode": "4090313", "prefecture": "山梨県", "id": 934 },
        { "address": "上組", "city": "北都留郡丹波山村", "postcode": "4090302", "prefecture": "山梨県", "id": 935 },
        { "address": "鴨沢", "city": "北都留郡丹波山村", "postcode": "4090318", "prefecture": "山梨県", "id": 936 },
        { "address": "小袖", "city": "北都留郡丹波山村", "postcode": "4090317", "prefecture": "山梨県", "id": 937 },
        { "address": "下組", "city": "北都留郡丹波山村", "postcode": "4090304", "prefecture": "山梨県", "id": 938 },
        { "address": "杉奈久保", "city": "北都留郡丹波山村", "postcode": "4090315", "prefecture": "山梨県", "id": 939 },
        { "address": "高尾", "city": "北都留郡丹波山村", "postcode": "4090305", "prefecture": "山梨県", "id": 940 },
        { "address": "高畑", "city": "北都留郡丹波山村", "postcode": "4090312", "prefecture": "山梨県", "id": 941 },
        { "address": "所畑", "city": "北都留郡丹波山村", "postcode": "4090316", "prefecture": "山梨県", "id": 942 },
        { "address": "中組", "city": "北都留郡丹波山村", "postcode": "4090303", "prefecture": "山梨県", "id": 943 },
        { "address": "保之瀬", "city": "北都留郡丹波山村", "postcode": "4090311", "prefecture": "山梨県", "id": 944 }
    ]
}
