{
    "postcodes": [
        { "city": "盛岡市", "postcode": "0200000", "prefecture": "岩手県", "id": 0 },
        { "address": "青山", "city": "盛岡市", "postcode": "0200133", "prefecture": "岩手県", "id": 1 },
        { "address": "浅岸", "city": "盛岡市", "postcode": "0200801", "prefecture": "岩手県", "id": 2 },
        { "address": "愛宕下", "city": "盛岡市", "postcode": "0200014", "prefecture": "岩手県", "id": 3 },
        { "address": "愛宕町", "city": "盛岡市", "postcode": "0200013", "prefecture": "岩手県", "id": 4 },
        { "address": "安倍館町", "city": "盛岡市", "postcode": "0200126", "prefecture": "岩手県", "id": 5 },
        { "address": "飯岡新田", "city": "盛岡市", "postcode": "0200852", "prefecture": "岩手県", "id": 6 },
        { "address": "砂子沢", "city": "盛岡市", "postcode": "0200312", "prefecture": "岩手県", "id": 7 },
        { "address": "猪去", "city": "盛岡市", "postcode": "0200054", "prefecture": "岩手県", "id": 8 },
        { "address": "稲荷町", "city": "盛岡市", "postcode": "0200142", "prefecture": "岩手県", "id": 9 },
        { "address": "芋田", "city": "盛岡市", "postcode": "0284131", "prefecture": "岩手県", "id": 10 },
        { "address": "岩清水", "city": "盛岡市", "postcode": "0200012", "prefecture": "岩手県", "id": 11 },
        { "address": "岩脇町", "city": "盛岡市", "postcode": "0200101", "prefecture": "岩手県", "id": 12 },
        { "address": "上田", "city": "盛岡市", "postcode": "0200066", "prefecture": "岩手県", "id": 13 },
        { "address": "上田", "city": "盛岡市", "postcode": "0200204", "prefecture": "岩手県", "id": 14 },
        { "address": "上田", "city": "盛岡市", "postcode": "0200102", "prefecture": "岩手県", "id": 15 },
        { "address": "上田堤", "city": "盛岡市", "postcode": "0200113", "prefecture": "岩手県", "id": 16 },
        { "address": "内丸", "city": "盛岡市", "postcode": "0200023", "prefecture": "岩手県", "id": 17 },
        { "address": "大ケ生", "city": "盛岡市", "postcode": "0200404", "prefecture": "岩手県", "id": 18 },
        { "address": "大沢川原", "city": "盛岡市", "postcode": "0200025", "prefecture": "岩手県", "id": 19 },
        { "address": "大館町", "city": "盛岡市", "postcode": "0200147", "prefecture": "岩手県", "id": 20 },
        { "address": "大通", "city": "盛岡市", "postcode": "0200022", "prefecture": "岩手県", "id": 21 },
        { "address": "乙部", "city": "盛岡市", "postcode": "0200403", "prefecture": "岩手県", "id": 22 },
        { "address": "開運橋通", "city": "盛岡市", "postcode": "0200026", "prefecture": "岩手県", "id": 23 },
        { "address": "加賀野", "city": "盛岡市", "postcode": "0200807", "prefecture": "岩手県", "id": 24 },
        { "address": "門", "city": "盛岡市", "postcode": "0200823", "prefecture": "岩手県", "id": 25 },
        { "address": "上飯岡", "city": "盛岡市", "postcode": "0200854", "prefecture": "岩手県", "id": 26 },
        { "address": "上太田", "city": "盛岡市", "postcode": "0200053", "prefecture": "岩手県", "id": 27 },
        { "address": "上鹿妻", "city": "盛岡市", "postcode": "0200855", "prefecture": "岩手県", "id": 28 },
        { "address": "上厨川", "city": "盛岡市", "postcode": "0200143", "prefecture": "岩手県", "id": 29 },
        { "address": "上堂", "city": "盛岡市", "postcode": "0200125", "prefecture": "岩手県", "id": 30 },
        { "address": "上ノ橋町", "city": "盛岡市", "postcode": "0200887", "prefecture": "岩手県", "id": 31 },
        { "address": "上米内", "city": "盛岡市", "postcode": "0200001", "prefecture": "岩手県", "id": 32 },
        { "address": "川崎", "city": "盛岡市", "postcode": "0284135", "prefecture": "岩手県", "id": 33 },
        { "address": "川又", "city": "盛岡市", "postcode": "0200203", "prefecture": "岩手県", "id": 34 },
        { "address": "川目", "city": "盛岡市", "postcode": "0200812", "prefecture": "岩手県", "id": 35 },
        { "address": "川目町", "city": "盛岡市", "postcode": "0200811", "prefecture": "岩手県", "id": 36 },
        { "address": "北飯岡", "city": "盛岡市", "postcode": "0200857", "prefecture": "岩手県", "id": 37 },
        { "address": "北天昌寺町", "city": "盛岡市", "postcode": "0200136", "prefecture": "岩手県", "id": 38 },
        { "address": "北松園", "city": "盛岡市", "postcode": "0200105", "prefecture": "岩手県", "id": 39 },
        { "address": "北山", "city": "盛岡市", "postcode": "0200061", "prefecture": "岩手県", "id": 40 },
        { "address": "北夕顔瀬町", "city": "盛岡市", "postcode": "0200031", "prefecture": "岩手県", "id": 41 },
        { "address": "厨川", "city": "盛岡市", "postcode": "0200124", "prefecture": "岩手県", "id": 42 },
        { "address": "黒石野", "city": "盛岡市", "postcode": "0200111", "prefecture": "岩手県", "id": 43 },
        { "address": "黒川", "city": "盛岡市", "postcode": "0200402", "prefecture": "岩手県", "id": 44 },
        { "address": "好摩", "city": "盛岡市", "postcode": "0284125", "prefecture": "岩手県", "id": 45 },
        { "address": "小杉山", "city": "盛岡市", "postcode": "0200815", "prefecture": "岩手県", "id": 46 },
        { "address": "小鳥沢", "city": "盛岡市", "postcode": "0200104", "prefecture": "岩手県", "id": 47 },
        { "address": "紺屋町", "city": "盛岡市", "postcode": "0200885", "prefecture": "岩手県", "id": 48 },
        { "address": "菜園", "city": "盛岡市", "postcode": "0200024", "prefecture": "岩手県", "id": 49 },
        { "address": "材木町", "city": "盛岡市", "postcode": "0200063", "prefecture": "岩手県", "id": 50 },
        { "address": "境田町", "city": "盛岡市", "postcode": "0200041", "prefecture": "岩手県", "id": 51 },
        { "address": "肴町", "city": "盛岡市", "postcode": "0200878", "prefecture": "岩手県", "id": 52 },
        { "address": "桜台", "city": "盛岡市", "postcode": "0200002", "prefecture": "岩手県", "id": 53 },
        { "address": "山王町", "city": "盛岡市", "postcode": "0200821", "prefecture": "岩手県", "id": 54 },
        { "address": "三本柳", "city": "盛岡市", "postcode": "0200831", "prefecture": "岩手県", "id": 55 },
        { "address": "志家町", "city": "盛岡市", "postcode": "0200883", "prefecture": "岩手県", "id": 56 },
        { "address": "渋民", "city": "盛岡市", "postcode": "0284132", "prefecture": "岩手県", "id": 57 },
        { "address": "清水町", "city": "盛岡市", "postcode": "0200875", "prefecture": "岩手県", "id": 58 },
        { "address": "下飯岡", "city": "盛岡市", "postcode": "0200853", "prefecture": "岩手県", "id": 59 },
        { "address": "下田", "city": "盛岡市", "postcode": "0284134", "prefecture": "岩手県", "id": 60 },
        { "address": "下ノ橋町", "city": "盛岡市", "postcode": "0200877", "prefecture": "岩手県", "id": 61 },
        { "address": "下太田", "city": "盛岡市", "postcode": "0200051", "prefecture": "岩手県", "id": 62 },
        { "address": "下鹿妻", "city": "盛岡市", "postcode": "0200856", "prefecture": "岩手県", "id": 63 },
        { "address": "下厨川", "city": "盛岡市", "postcode": "0200123", "prefecture": "岩手県", "id": 64 },
        { "address": "下米内", "city": "盛岡市", "postcode": "0200003", "prefecture": "岩手県", "id": 65 },
        { "address": "城西町", "city": "盛岡市", "postcode": "0200044", "prefecture": "岩手県", "id": 66 },
        { "address": "新庄", "city": "盛岡市", "postcode": "0200803", "prefecture": "岩手県", "id": 67 },
        { "address": "新庄町", "city": "盛岡市", "postcode": "0200806", "prefecture": "岩手県", "id": 68 },
        { "address": "新田町", "city": "盛岡市", "postcode": "0200042", "prefecture": "岩手県", "id": 69 },
        { "address": "神明町", "city": "盛岡市", "postcode": "0200884", "prefecture": "岩手県", "id": 70 },
        { "address": "住吉町", "city": "盛岡市", "postcode": "0200882", "prefecture": "岩手県", "id": 71 },
        { "address": "前九年", "city": "盛岡市", "postcode": "0200127", "prefecture": "岩手県", "id": 72 },
        { "address": "仙北", "city": "盛岡市", "postcode": "0200861", "prefecture": "岩手県", "id": 73 },
        { "address": "仙北町", "city": "盛岡市", "postcode": "0200865", "prefecture": "岩手県", "id": 74 },
        { "address": "大慈寺町", "city": "盛岡市", "postcode": "0200828", "prefecture": "岩手県", "id": 75 },
        { "address": "大新町", "city": "盛岡市", "postcode": "0200135", "prefecture": "岩手県", "id": 76 },
        { "address": "高崩", "city": "盛岡市", "postcode": "0200825", "prefecture": "岩手県", "id": 77 },
        { "address": "高松", "city": "盛岡市", "postcode": "0200114", "prefecture": "岩手県", "id": 78 },
        { "address": "館向町", "city": "盛岡市", "postcode": "0200115", "prefecture": "岩手県", "id": 79 },
        { "address": "玉山", "city": "盛岡市", "postcode": "0200202", "prefecture": "岩手県", "id": 80 },
        { "address": "玉山永井", "city": "盛岡市", "postcode": "0284121", "prefecture": "岩手県", "id": 81 },
        { "address": "玉山馬場", "city": "盛岡市", "postcode": "0284124", "prefecture": "岩手県", "id": 82 },
        { "address": "茶畑", "city": "盛岡市", "postcode": "0200822", "prefecture": "岩手県", "id": 83 },
        { "address": "中央通", "city": "盛岡市", "postcode": "0200021", "prefecture": "岩手県", "id": 84 },
        { "address": "月が丘", "city": "盛岡市", "postcode": "0200121", "prefecture": "岩手県", "id": 85 },
        { "address": "津志田", "city": "盛岡市", "postcode": "0200835", "prefecture": "岩手県", "id": 86 },
        { "address": "津志田中央", "city": "盛岡市", "postcode": "0200838", "prefecture": "岩手県", "id": 87 },
        { "address": "津志田西", "city": "盛岡市", "postcode": "0200836", "prefecture": "岩手県", "id": 88 },
        { "address": "津志田町", "city": "盛岡市", "postcode": "0200837", "prefecture": "岩手県", "id": 89 },
        { "address": "津志田南", "city": "盛岡市", "postcode": "0200839", "prefecture": "岩手県", "id": 90 },
        { "address": "土淵", "city": "盛岡市", "postcode": "0200144", "prefecture": "岩手県", "id": 91 },
        { "address": "つつじが丘", "city": "盛岡市", "postcode": "0200802", "prefecture": "岩手県", "id": 92 },
        { "address": "繋", "city": "盛岡市", "postcode": "0200055", "prefecture": "岩手県", "id": 93 },
        { "address": "手代森", "city": "盛岡市", "postcode": "0200401", "prefecture": "岩手県", "id": 94 },
        { "address": "寺林", "city": "盛岡市", "postcode": "0284122", "prefecture": "岩手県", "id": 95 },
        { "address": "天昌寺町", "city": "盛岡市", "postcode": "0200137", "prefecture": "岩手県", "id": 96 },
        { "address": "天神町", "city": "盛岡市", "postcode": "0200881", "prefecture": "岩手県", "id": 97 },
        { "address": "中太田", "city": "盛岡市", "postcode": "0200052", "prefecture": "岩手県", "id": 98 },
        { "address": "中川町", "city": "盛岡市", "postcode": "0200043", "prefecture": "岩手県", "id": 99 },
        { "address": "中堤町", "city": "盛岡市", "postcode": "0200131", "prefecture": "岩手県", "id": 100 },
        { "address": "中野", "city": "盛岡市", "postcode": "0200816", "prefecture": "岩手県", "id": 101 },
        { "address": "中ノ橋通", "city": "盛岡市", "postcode": "0200871", "prefecture": "岩手県", "id": 102 },
        { "address": "中屋敷町", "city": "盛岡市", "postcode": "0200141", "prefecture": "岩手県", "id": 103 },
        { "address": "永井", "city": "盛岡市", "postcode": "0200834", "prefecture": "岩手県", "id": 104 },
        { "address": "長田町", "city": "盛岡市", "postcode": "0200062", "prefecture": "岩手県", "id": 105 },
        { "address": "長橋町", "city": "盛岡市", "postcode": "0200146", "prefecture": "岩手県", "id": 106 },
        { "address": "梨木町", "city": "盛岡市", "postcode": "0200064", "prefecture": "岩手県", "id": 107 },
        { "address": "名須川町", "city": "盛岡市", "postcode": "0200016", "prefecture": "岩手県", "id": 108 },
        { "address": "鉈屋町", "city": "盛岡市", "postcode": "0200827", "prefecture": "岩手県", "id": 109 },
        { "address": "西青山", "city": "盛岡市", "postcode": "0200132", "prefecture": "岩手県", "id": 110 },
        { "address": "西下台町", "city": "盛岡市", "postcode": "0200065", "prefecture": "岩手県", "id": 111 },
        { "address": "西仙北", "city": "盛岡市", "postcode": "0200864", "prefecture": "岩手県", "id": 112 },
        { "address": "西松園", "city": "盛岡市", "postcode": "0200103", "prefecture": "岩手県", "id": 113 },
        { "address": "西見前", "city": "盛岡市", "postcode": "0200833", "prefecture": "岩手県", "id": 114 },
        { "address": "根田茂", "city": "盛岡市", "postcode": "0200313", "prefecture": "岩手県", "id": 115 },
        { "address": "箱清水", "city": "盛岡市", "postcode": "0200116", "prefecture": "岩手県", "id": 116 },
        { "address": "八幡町", "city": "盛岡市", "postcode": "0200872", "prefecture": "岩手県", "id": 117 },
        { "address": "羽場", "city": "盛岡市", "postcode": "0200841", "prefecture": "岩手県", "id": 118 },
        { "address": "馬場町", "city": "盛岡市", "postcode": "0200876", "prefecture": "岩手県", "id": 119 },
        { "address": "東安庭", "city": "盛岡市", "postcode": "0200824", "prefecture": "岩手県", "id": 120 },
        { "address": "東黒石野", "city": "盛岡市", "postcode": "0200108", "prefecture": "岩手県", "id": 121 },
        { "address": "東桜山", "city": "盛岡市", "postcode": "0200804", "prefecture": "岩手県", "id": 122 },
        { "address": "東新庄", "city": "盛岡市", "postcode": "0200805", "prefecture": "岩手県", "id": 123 },
        { "address": "東仙北", "city": "盛岡市", "postcode": "0200862", "prefecture": "岩手県", "id": 124 },
        { "address": "東中野", "city": "盛岡市", "postcode": "0200817", "prefecture": "岩手県", "id": 125 },
        { "address": "東中野町", "city": "盛岡市", "postcode": "0200814", "prefecture": "岩手県", "id": 126 },
        { "address": "東松園", "city": "盛岡市", "postcode": "0200106", "prefecture": "岩手県", "id": 127 },
        { "address": "東緑が丘", "city": "盛岡市", "postcode": "0200112", "prefecture": "岩手県", "id": 128 },
        { "address": "東見前", "city": "盛岡市", "postcode": "0200832", "prefecture": "岩手県", "id": 129 },
        { "address": "東山", "city": "盛岡市", "postcode": "0200813", "prefecture": "岩手県", "id": 130 },
        { "address": "日戸", "city": "盛岡市", "postcode": "0200201", "prefecture": "岩手県", "id": 131 },
        { "address": "平賀新田", "city": "盛岡市", "postcode": "0200145", "prefecture": "岩手県", "id": 132 },
        { "address": "本町通", "city": "盛岡市", "postcode": "0200015", "prefecture": "岩手県", "id": 133 },
        { "address": "前潟", "city": "盛岡市", "postcode": "0200148", "prefecture": "岩手県", "id": 134 },
        { "address": "巻堀", "city": "盛岡市", "postcode": "0284123", "prefecture": "岩手県", "id": 135 },
        { "address": "松尾町", "city": "盛岡市", "postcode": "0200873", "prefecture": "岩手県", "id": 136 },
        { "address": "松園", "city": "盛岡市", "postcode": "0200107", "prefecture": "岩手県", "id": 137 },
        { "address": "松内", "city": "盛岡市", "postcode": "0284136", "prefecture": "岩手県", "id": 138 },
        { "address": "神子田町", "city": "盛岡市", "postcode": "0200826", "prefecture": "岩手県", "id": 139 },
        { "address": "みたけ", "city": "盛岡市", "postcode": "0200122", "prefecture": "岩手県", "id": 140 },
        { "address": "三ツ割", "city": "盛岡市", "postcode": "0200011", "prefecture": "岩手県", "id": 141 },
        { "address": "緑が丘", "city": "盛岡市", "postcode": "0200117", "prefecture": "岩手県", "id": 142 },
        { "address": "南青山町", "city": "盛岡市", "postcode": "0200134", "prefecture": "岩手県", "id": 143 },
        { "address": "南大通", "city": "盛岡市", "postcode": "0200874", "prefecture": "岩手県", "id": 144 },
        { "address": "南仙北", "city": "盛岡市", "postcode": "0200863", "prefecture": "岩手県", "id": 145 },
        { "address": "向中野", "city": "盛岡市", "postcode": "0200851", "prefecture": "岩手県", "id": 146 },
        { "address": "本宮", "city": "盛岡市", "postcode": "0200866", "prefecture": "岩手県", "id": 147 },
        { "address": "紅葉が丘", "city": "盛岡市", "postcode": "0200005", "prefecture": "岩手県", "id": 148 },
        { "address": "盛岡駅西通", "city": "盛岡市", "postcode": "0200045", "prefecture": "岩手県", "id": 149 },
        { "address": "盛岡駅前北通", "city": "盛岡市", "postcode": "0200033", "prefecture": "岩手県", "id": 150 },
        { "address": "盛岡駅前通", "city": "盛岡市", "postcode": "0200034", "prefecture": "岩手県", "id": 151 },
        { "address": "門前寺", "city": "盛岡市", "postcode": "0284133", "prefecture": "岩手県", "id": 152 },
        { "address": "簗川", "city": "盛岡市", "postcode": "0200311", "prefecture": "岩手県", "id": 153 },
        { "address": "薮川", "city": "盛岡市", "postcode": "0282711", "prefecture": "岩手県", "id": 154 },
        { "address": "山岸", "city": "盛岡市", "postcode": "0200004", "prefecture": "岩手県", "id": 155 },
        { "address": "夕顔瀬町", "city": "盛岡市", "postcode": "0200032", "prefecture": "岩手県", "id": 156 },
        { "address": "湯沢", "city": "盛岡市", "postcode": "0200842", "prefecture": "岩手県", "id": 157 },
        { "address": "湯沢東", "city": "盛岡市", "postcode": "0200844", "prefecture": "岩手県", "id": 158 },
        { "address": "湯沢西", "city": "盛岡市", "postcode": "0200843", "prefecture": "岩手県", "id": 159 },
        { "address": "湯沢南", "city": "盛岡市", "postcode": "0200845", "prefecture": "岩手県", "id": 160 },
        { "address": "流通センター北", "city": "盛岡市", "postcode": "0200846", "prefecture": "岩手県", "id": 161 },
        { "address": "若園町", "city": "盛岡市", "postcode": "0200886", "prefecture": "岩手県", "id": 162 },
        { "city": "宮古市", "postcode": "0270000", "prefecture": "岩手県", "id": 163 },
        { "address": "赤前", "city": "宮古市", "postcode": "0270202", "prefecture": "岩手県", "id": 164 },
        { "address": "愛宕", "city": "宮古市", "postcode": "0270092", "prefecture": "岩手県", "id": 165 },
        { "address": "新町", "city": "宮古市", "postcode": "0270086", "prefecture": "岩手県", "id": 166 },
        { "address": "泉町", "city": "宮古市", "postcode": "0270062", "prefecture": "岩手県", "id": 167 },
        { "address": "板屋", "city": "宮古市", "postcode": "0270048", "prefecture": "岩手県", "id": 168 },
        { "address": "江繋", "city": "宮古市", "postcode": "0282421", "prefecture": "岩手県", "id": 169 },
        { "address": "太田", "city": "宮古市", "postcode": "0270054", "prefecture": "岩手県", "id": 170 },
        { "address": "大通", "city": "宮古市", "postcode": "0270083", "prefecture": "岩手県", "id": 171 },
        { "address": "小国", "city": "宮古市", "postcode": "0282422", "prefecture": "岩手県", "id": 172 },
        { "address": "音部", "city": "宮古市", "postcode": "0270112", "prefecture": "岩手県", "id": 173 },
        { "address": "重茂", "city": "宮古市", "postcode": "0270111", "prefecture": "岩手県", "id": 174 },
        { "address": "片巣", "city": "宮古市", "postcode": "0282303", "prefecture": "岩手県", "id": 175 },
        { "address": "門馬", "city": "宮古市", "postcode": "0282632", "prefecture": "岩手県", "id": 176 },
        { "address": "金浜", "city": "宮古市", "postcode": "0270033", "prefecture": "岩手県", "id": 177 },
        { "address": "河南", "city": "宮古市", "postcode": "0270039", "prefecture": "岩手県", "id": 178 },
        { "address": "鴨崎町", "city": "宮古市", "postcode": "0270078", "prefecture": "岩手県", "id": 179 },
        { "address": "刈屋", "city": "宮古市", "postcode": "0282104", "prefecture": "岩手県", "id": 180 },
        { "address": "川井", "city": "宮古市", "postcode": "0282402", "prefecture": "岩手県", "id": 181 },
        { "address": "川井", "city": "宮古市", "postcode": "0282302", "prefecture": "岩手県", "id": 182 },
        { "address": "川内", "city": "宮古市", "postcode": "0282513", "prefecture": "岩手県", "id": 183 },
        { "address": "神田沢町", "city": "宮古市", "postcode": "0270042", "prefecture": "岩手県", "id": 184 },
        { "address": "上鼻", "city": "宮古市", "postcode": "0270044", "prefecture": "岩手県", "id": 185 },
        { "address": "神林", "city": "宮古市", "postcode": "0270028", "prefecture": "岩手県", "id": 186 },
        { "address": "区界", "city": "宮古市", "postcode": "0282631", "prefecture": "岩手県", "id": 187 },
        { "address": "熊野町", "city": "宮古市", "postcode": "0270008", "prefecture": "岩手県", "id": 188 },
        { "address": "黒田町", "city": "宮古市", "postcode": "0270085", "prefecture": "岩手県", "id": 189 },
        { "address": "黒森町", "city": "宮古市", "postcode": "0270065", "prefecture": "岩手県", "id": 190 },
        { "address": "鍬ケ崎", "city": "宮古市", "postcode": "0270006", "prefecture": "岩手県", "id": 191 },
        { "address": "花原市", "city": "宮古市", "postcode": "0270046", "prefecture": "岩手県", "id": 192 },
        { "address": "光岸地", "city": "宮古市", "postcode": "0270005", "prefecture": "岩手県", "id": 193 },
        { "address": "小沢", "city": "宮古市", "postcode": "0270071", "prefecture": "岩手県", "id": 194 },
        { "address": "小山田", "city": "宮古市", "postcode": "0270038", "prefecture": "岩手県", "id": 195 },
        { "address": "栄町", "city": "宮古市", "postcode": "0270076", "prefecture": "岩手県", "id": 196 },
        { "address": "崎鍬ケ崎", "city": "宮古市", "postcode": "0270096", "prefecture": "岩手県", "id": 197 },
        { "address": "崎山", "city": "宮古市", "postcode": "0270097", "prefecture": "岩手県", "id": 198 },
        { "address": "五月町", "city": "宮古市", "postcode": "0270072", "prefecture": "岩手県", "id": 199 },
        { "address": "佐原", "city": "宮古市", "postcode": "0270095", "prefecture": "岩手県", "id": 200 },
        { "address": "沢田", "city": "宮古市", "postcode": "0270088", "prefecture": "岩手県", "id": 201 },
        { "address": "白浜", "city": "宮古市", "postcode": "0270201", "prefecture": "岩手県", "id": 202 },
        { "address": "新川町", "city": "宮古市", "postcode": "0270081", "prefecture": "岩手県", "id": 203 },
        { "address": "末広町", "city": "宮古市", "postcode": "0270084", "prefecture": "岩手県", "id": 204 },
        { "address": "鈴久名", "city": "宮古市", "postcode": "0282512", "prefecture": "岩手県", "id": 205 },
        { "address": "千徳", "city": "宮古市", "postcode": "0270058", "prefecture": "岩手県", "id": 206 },
        { "address": "千徳町", "city": "宮古市", "postcode": "0270043", "prefecture": "岩手県", "id": 207 },
        { "address": "磯鶏", "city": "宮古市", "postcode": "0270024", "prefecture": "岩手県", "id": 208 },
        { "address": "磯鶏石崎", "city": "宮古市", "postcode": "0270022", "prefecture": "岩手県", "id": 209 },
        { "address": "磯鶏沖", "city": "宮古市", "postcode": "0270023", "prefecture": "岩手県", "id": 210 },
        { "address": "磯鶏西", "city": "宮古市", "postcode": "0270027", "prefecture": "岩手県", "id": 211 },
        { "address": "高浜", "city": "宮古市", "postcode": "0270032", "prefecture": "岩手県", "id": 212 },
        { "address": "田鎖", "city": "宮古市", "postcode": "0270036", "prefecture": "岩手県", "id": 213 },
        { "address": "蛸の浜町", "city": "宮古市", "postcode": "0270009", "prefecture": "岩手県", "id": 214 },
        { "address": "田代", "city": "宮古市", "postcode": "0270067", "prefecture": "岩手県", "id": 215 },
        { "address": "舘合町", "city": "宮古市", "postcode": "0270077", "prefecture": "岩手県", "id": 216 },
        { "address": "田の神", "city": "宮古市", "postcode": "0270066", "prefecture": "岩手県", "id": 217 },
        { "address": "田老", "city": "宮古市", "postcode": "0270307", "prefecture": "岩手県", "id": 218 },
        { "address": "田老青倉", "city": "宮古市", "postcode": "0270359", "prefecture": "岩手県", "id": 219 },
        { "address": "田老青砂里", "city": "宮古市", "postcode": "0270322", "prefecture": "岩手県", "id": 220 },
        { "address": "田老青野滝", "city": "宮古市", "postcode": "0270375", "prefecture": "岩手県", "id": 221 },
        { "address": "田老青野滝北", "city": "宮古市", "postcode": "0270374", "prefecture": "岩手県", "id": 222 },
        { "address": "田老青野滝南", "city": "宮古市", "postcode": "0270376", "prefecture": "岩手県", "id": 223 },
        { "address": "田老荒谷", "city": "宮古市", "postcode": "0270305", "prefecture": "岩手県", "id": 224 },
        { "address": "田老乙部", "city": "宮古市", "postcode": "0270321", "prefecture": "岩手県", "id": 225 },
        { "address": "田老乙部野", "city": "宮古市", "postcode": "0270379", "prefecture": "岩手県", "id": 226 },
        { "address": "田老重津部", "city": "宮古市", "postcode": "0270378", "prefecture": "岩手県", "id": 227 },
        { "address": "田老重津部北", "city": "宮古市", "postcode": "0270377", "prefecture": "岩手県", "id": 228 },
        { "address": "田老樫内", "city": "宮古市", "postcode": "0270332", "prefecture": "岩手県", "id": 229 },
        { "address": "田老片巻", "city": "宮古市", "postcode": "0270382", "prefecture": "岩手県", "id": 230 },
        { "address": "田老上沖", "city": "宮古市", "postcode": "0270388", "prefecture": "岩手県", "id": 231 },
        { "address": "田老上小田代", "city": "宮古市", "postcode": "0270343", "prefecture": "岩手県", "id": 232 },
        { "address": "田老上摂待", "city": "宮古市", "postcode": "0270383", "prefecture": "岩手県", "id": 233 },
        { "address": "田老川向", "city": "宮古市", "postcode": "0270306", "prefecture": "岩手県", "id": 234 },
        { "address": "田老胡桃畑", "city": "宮古市", "postcode": "0270386", "prefecture": "岩手県", "id": 235 },
        { "address": "田老ケラス", "city": "宮古市", "postcode": "0270304", "prefecture": "岩手県", "id": 236 },
        { "address": "田老越田", "city": "宮古市", "postcode": "0270312", "prefecture": "岩手県", "id": 237 },
        { "address": "田老小田代", "city": "宮古市", "postcode": "0270342", "prefecture": "岩手県", "id": 238 },
        { "address": "田老小林", "city": "宮古市", "postcode": "0270351", "prefecture": "岩手県", "id": 239 },
        { "address": "田老小堀内", "city": "宮古市", "postcode": "0270361", "prefecture": "岩手県", "id": 240 },
        { "address": "田老小堀内南", "city": "宮古市", "postcode": "0270362", "prefecture": "岩手県", "id": 241 },
        { "address": "田老笹見平", "city": "宮古市", "postcode": "0270347", "prefecture": "岩手県", "id": 242 },
        { "address": "田老三王", "city": "宮古市", "postcode": "0270325", "prefecture": "岩手県", "id": 243 },
        { "address": "田老篠倉", "city": "宮古市", "postcode": "0270345", "prefecture": "岩手県", "id": 244 },
        { "address": "田老下摂待", "city": "宮古市", "postcode": "0270385", "prefecture": "岩手県", "id": 245 },
        { "address": "田老駿達", "city": "宮古市", "postcode": "0270313", "prefecture": "岩手県", "id": 246 },
        { "address": "田老新田", "city": "宮古市", "postcode": "0270364", "prefecture": "岩手県", "id": 247 },
        { "address": "田老末前", "city": "宮古市", "postcode": "0270355", "prefecture": "岩手県", "id": 248 },
        { "address": "田老鈴子沢", "city": "宮古市", "postcode": "0270367", "prefecture": "岩手県", "id": 249 },
        { "address": "田老摂待", "city": "宮古市", "postcode": "0270384", "prefecture": "岩手県", "id": 250 },
        { "address": "田老滝の沢", "city": "宮古市", "postcode": "0270365", "prefecture": "岩手県", "id": 251 },
        { "address": "田老辰の口", "city": "宮古市", "postcode": "0270344", "prefecture": "岩手県", "id": 252 },
        { "address": "田老館が森", "city": "宮古市", "postcode": "0270301", "prefecture": "岩手県", "id": 253 },
        { "address": "田老立腰", "city": "宮古市", "postcode": "0270358", "prefecture": "岩手県", "id": 254 },
        { "address": "田老田中", "city": "宮古市", "postcode": "0270302", "prefecture": "岩手県", "id": 255 },
        { "address": "田老田の沢", "city": "宮古市", "postcode": "0270303", "prefecture": "岩手県", "id": 256 },
        { "address": "田老長畑", "city": "宮古市", "postcode": "0270363", "prefecture": "岩手県", "id": 257 },
        { "address": "田老七滝", "city": "宮古市", "postcode": "0270346", "prefecture": "岩手県", "id": 258 },
        { "address": "田老西向山", "city": "宮古市", "postcode": "0270331", "prefecture": "岩手県", "id": 259 },
        { "address": "田老新田平", "city": "宮古市", "postcode": "0270366", "prefecture": "岩手県", "id": 260 },
        { "address": "田老野原", "city": "宮古市", "postcode": "0270323", "prefecture": "岩手県", "id": 261 },
        { "address": "田老畑", "city": "宮古市", "postcode": "0270387", "prefecture": "岩手県", "id": 262 },
        { "address": "田老古田", "city": "宮古市", "postcode": "0270333", "prefecture": "岩手県", "id": 263 },
        { "address": "田老星山", "city": "宮古市", "postcode": "0270381", "prefecture": "岩手県", "id": 264 },
        { "address": "田老水沢", "city": "宮古市", "postcode": "0270371", "prefecture": "岩手県", "id": 265 },
        { "address": "田老水沢南", "city": "宮古市", "postcode": "0270372", "prefecture": "岩手県", "id": 266 },
        { "address": "田老向桑畑", "city": "宮古市", "postcode": "0270357", "prefecture": "岩手県", "id": 267 },
        { "address": "田老向新田", "city": "宮古市", "postcode": "0270373", "prefecture": "岩手県", "id": 268 },
        { "address": "田老向山", "city": "宮古市", "postcode": "0270324", "prefecture": "岩手県", "id": 269 },
        { "address": "田老森崎", "city": "宮古市", "postcode": "0270354", "prefecture": "岩手県", "id": 270 },
        { "address": "田老八幡水神", "city": "宮古市", "postcode": "0270352", "prefecture": "岩手県", "id": 271 },
        { "address": "田老養呂地", "city": "宮古市", "postcode": "0270341", "prefecture": "岩手県", "id": 272 },
        { "address": "田老和野", "city": "宮古市", "postcode": "0270311", "prefecture": "岩手県", "id": 273 },
        { "address": "田老和蒔", "city": "宮古市", "postcode": "0270353", "prefecture": "岩手県", "id": 274 },
        { "address": "田老和山", "city": "宮古市", "postcode": "0270356", "prefecture": "岩手県", "id": 275 },
        { "address": "近内", "city": "宮古市", "postcode": "0270056", "prefecture": "岩手県", "id": 276 },
        { "address": "津軽石", "city": "宮古市", "postcode": "0270203", "prefecture": "岩手県", "id": 277 },
        { "address": "築地", "city": "宮古市", "postcode": "0270091", "prefecture": "岩手県", "id": 278 },
        { "address": "中里団地", "city": "宮古市", "postcode": "0270093", "prefecture": "岩手県", "id": 279 },
        { "address": "長沢", "city": "宮古市", "postcode": "0270034", "prefecture": "岩手県", "id": 280 },
        { "address": "長根", "city": "宮古市", "postcode": "0270055", "prefecture": "岩手県", "id": 281 },
        { "address": "長町", "city": "宮古市", "postcode": "0270053", "prefecture": "岩手県", "id": 282 },
        { "address": "夏屋", "city": "宮古市", "postcode": "0282511", "prefecture": "岩手県", "id": 283 },
        { "address": "西ケ丘", "city": "宮古市", "postcode": "0270041", "prefecture": "岩手県", "id": 284 },
        { "address": "西町", "city": "宮古市", "postcode": "0270061", "prefecture": "岩手県", "id": 285 },
        { "address": "根市", "city": "宮古市", "postcode": "0270047", "prefecture": "岩手県", "id": 286 },
        { "address": "箱石", "city": "宮古市", "postcode": "0282504", "prefecture": "岩手県", "id": 287 },
        { "address": "箱石", "city": "宮古市", "postcode": "0282304", "prefecture": "岩手県", "id": 288 },
        { "address": "花輪", "city": "宮古市", "postcode": "0270035", "prefecture": "岩手県", "id": 289 },
        { "address": "腹帯", "city": "宮古市", "postcode": "0282103", "prefecture": "岩手県", "id": 290 },
        { "address": "日影町", "city": "宮古市", "postcode": "0270007", "prefecture": "岩手県", "id": 291 },
        { "address": "蟇目", "city": "宮古市", "postcode": "0282102", "prefecture": "岩手県", "id": 292 },
        { "address": "日立浜町", "city": "宮古市", "postcode": "0270001", "prefecture": "岩手県", "id": 293 },
        { "address": "日の出町", "city": "宮古市", "postcode": "0270094", "prefecture": "岩手県", "id": 294 },
        { "address": "平津戸", "city": "宮古市", "postcode": "0282633", "prefecture": "岩手県", "id": 295 },
        { "address": "藤の川", "city": "宮古市", "postcode": "0270029", "prefecture": "岩手県", "id": 296 },
        { "address": "藤原", "city": "宮古市", "postcode": "0270021", "prefecture": "岩手県", "id": 297 },
        { "address": "古田", "city": "宮古市", "postcode": "0282301", "prefecture": "岩手県", "id": 298 },
        { "address": "保久田", "city": "宮古市", "postcode": "0270074", "prefecture": "岩手県", "id": 299 },
        { "address": "松山", "city": "宮古市", "postcode": "0270037", "prefecture": "岩手県", "id": 300 },
        { "address": "実田", "city": "宮古市", "postcode": "0270025", "prefecture": "岩手県", "id": 301 },
        { "address": "緑ケ丘", "city": "宮古市", "postcode": "0270073", "prefecture": "岩手県", "id": 302 },
        { "address": "港町", "city": "宮古市", "postcode": "0270003", "prefecture": "岩手県", "id": 303 },
        { "address": "南町", "city": "宮古市", "postcode": "0270051", "prefecture": "岩手県", "id": 304 },
        { "address": "宮園", "city": "宮古市", "postcode": "0270064", "prefecture": "岩手県", "id": 305 },
        { "address": "宮町", "city": "宮古市", "postcode": "0270052", "prefecture": "岩手県", "id": 306 },
        { "address": "向町", "city": "宮古市", "postcode": "0270082", "prefecture": "岩手県", "id": 307 },
        { "address": "茂市", "city": "宮古市", "postcode": "0282101", "prefecture": "岩手県", "id": 308 },
        { "address": "本町", "city": "宮古市", "postcode": "0270089", "prefecture": "岩手県", "id": 309 },
        { "address": "八木沢", "city": "宮古市", "postcode": "0270031", "prefecture": "岩手県", "id": 310 },
        { "address": "山口", "city": "宮古市", "postcode": "0270063", "prefecture": "岩手県", "id": 311 },
        { "address": "山根町", "city": "宮古市", "postcode": "0270002", "prefecture": "岩手県", "id": 312 },
        { "address": "横町", "city": "宮古市", "postcode": "0270087", "prefecture": "岩手県", "id": 313 },
        { "address": "臨港通", "city": "宮古市", "postcode": "0270004", "prefecture": "岩手県", "id": 314 },
        { "address": "老木", "city": "宮古市", "postcode": "0270045", "prefecture": "岩手県", "id": 315 },
        { "address": "和井内", "city": "宮古市", "postcode": "0282105", "prefecture": "岩手県", "id": 316 },
        { "address": "和見町", "city": "宮古市", "postcode": "0270075", "prefecture": "岩手県", "id": 317 },
        { "address": "上村", "city": "宮古市", "postcode": "0270026", "prefecture": "岩手県", "id": 318 },
        { "city": "大船渡市", "postcode": "0220000", "prefecture": "岩手県", "id": 319 },
        { "address": "赤崎町", "city": "大船渡市", "postcode": "0220007", "prefecture": "岩手県", "id": 320 },
        { "address": "猪川町", "city": "大船渡市", "postcode": "0220004", "prefecture": "岩手県", "id": 321 },
        { "address": "大船渡町", "city": "大船渡市", "postcode": "0220002", "prefecture": "岩手県", "id": 322 },
        { "address": "盛町", "city": "大船渡市", "postcode": "0220003", "prefecture": "岩手県", "id": 323 },
        { "address": "三陸町越喜来", "city": "大船渡市", "postcode": "0220101", "prefecture": "岩手県", "id": 324 },
        { "address": "三陸町吉浜", "city": "大船渡市", "postcode": "0220102", "prefecture": "岩手県", "id": 325 },
        { "address": "三陸町綾里", "city": "大船渡市", "postcode": "0220211", "prefecture": "岩手県", "id": 326 },
        { "address": "立根町", "city": "大船渡市", "postcode": "0220006", "prefecture": "岩手県", "id": 327 },
        { "address": "日頃市町", "city": "大船渡市", "postcode": "0220005", "prefecture": "岩手県", "id": 328 },
        { "address": "末崎町", "city": "大船渡市", "postcode": "0220001", "prefecture": "岩手県", "id": 329 },
        { "city": "花巻市", "postcode": "0250000", "prefecture": "岩手県", "id": 330 },
        { "address": "浅沢", "city": "花巻市", "postcode": "0250067", "prefecture": "岩手県", "id": 331 },
        { "address": "東町", "city": "花巻市", "postcode": "0250088", "prefecture": "岩手県", "id": 332 },
        { "address": "愛宕町", "city": "花巻市", "postcode": "0250071", "prefecture": "岩手県", "id": 333 },
        { "address": "石神町", "city": "花巻市", "postcode": "0250095", "prefecture": "岩手県", "id": 334 },
        { "address": "石鳥谷町猪鼻", "city": "花巻市", "postcode": "0283131", "prefecture": "岩手県", "id": 335 },
        { "address": "石鳥谷町江曽", "city": "花巻市", "postcode": "0283151", "prefecture": "岩手県", "id": 336 },
        { "address": "石鳥谷町大瀬川", "city": "花巻市", "postcode": "0283185", "prefecture": "岩手県", "id": 337 },
        { "address": "石鳥谷町上口", "city": "花巻市", "postcode": "0283102", "prefecture": "岩手県", "id": 338 },
        { "address": "石鳥谷町北寺林", "city": "花巻市", "postcode": "0283172", "prefecture": "岩手県", "id": 339 },
        { "address": "石鳥谷町黒沼", "city": "花巻市", "postcode": "0283161", "prefecture": "岩手県", "id": 340 },
        { "address": "石鳥谷町好地", "city": "花巻市", "postcode": "0283101", "prefecture": "岩手県", "id": 341 },
        { "address": "石鳥谷町五大堂", "city": "花巻市", "postcode": "0283141", "prefecture": "岩手県", "id": 342 },
        { "address": "石鳥谷町小森林", "city": "花巻市", "postcode": "0283153", "prefecture": "岩手県", "id": 343 },
        { "address": "石鳥谷町松林寺", "city": "花巻市", "postcode": "0283182", "prefecture": "岩手県", "id": 344 },
        { "address": "石鳥谷町関口", "city": "花巻市", "postcode": "0283133", "prefecture": "岩手県", "id": 345 },
        { "address": "石鳥谷町大興寺", "city": "花巻市", "postcode": "0283181", "prefecture": "岩手県", "id": 346 },
        { "address": "石鳥谷町滝田", "city": "花巻市", "postcode": "0283122", "prefecture": "岩手県", "id": 347 },
        { "address": "石鳥谷町戸塚", "city": "花巻市", "postcode": "0283121", "prefecture": "岩手県", "id": 348 },
        { "address": "石鳥谷町富沢", "city": "花巻市", "postcode": "0283184", "prefecture": "岩手県", "id": 349 },
        { "address": "石鳥谷町中寺林", "city": "花巻市", "postcode": "0283171", "prefecture": "岩手県", "id": 350 },
        { "address": "石鳥谷町新堀", "city": "花巻市", "postcode": "0283111", "prefecture": "岩手県", "id": 351 },
        { "address": "石鳥谷町西中島", "city": "花巻市", "postcode": "0283162", "prefecture": "岩手県", "id": 352 },
        { "address": "石鳥谷町長谷堂", "city": "花巻市", "postcode": "0283183", "prefecture": "岩手県", "id": 353 },
        { "address": "石鳥谷町八幡", "city": "花巻市", "postcode": "0283163", "prefecture": "岩手県", "id": 354 },
        { "address": "石鳥谷町東中島", "city": "花巻市", "postcode": "0283132", "prefecture": "岩手県", "id": 355 },
        { "address": "石鳥谷町南寺林", "city": "花巻市", "postcode": "0283152", "prefecture": "岩手県", "id": 356 },
        { "address": "石鳥谷町八重畑", "city": "花巻市", "postcode": "0283142", "prefecture": "岩手県", "id": 357 },
        { "address": "一本杉", "city": "花巻市", "postcode": "0250058", "prefecture": "岩手県", "id": 358 },
        { "address": "円万寺", "city": "花巻市", "postcode": "0250042", "prefecture": "岩手県", "id": 359 },
        { "address": "狼沢", "city": "花巻市", "postcode": "0250322", "prefecture": "岩手県", "id": 360 },
        { "address": "太田", "city": "花巻市", "postcode": "0250037", "prefecture": "岩手県", "id": 361 },
        { "address": "大通り", "city": "花巻市", "postcode": "0250092", "prefecture": "岩手県", "id": 362 },
        { "address": "大迫町内川目", "city": "花巻市", "postcode": "0283201", "prefecture": "岩手県", "id": 363 },
        { "address": "大迫町大迫", "city": "花巻市", "postcode": "0283203", "prefecture": "岩手県", "id": 364 },
        { "address": "大迫町亀ケ森", "city": "花巻市", "postcode": "0283204", "prefecture": "岩手県", "id": 365 },
        { "address": "大迫町外川目", "city": "花巻市", "postcode": "0283202", "prefecture": "岩手県", "id": 366 },
        { "address": "大畑", "city": "花巻市", "postcode": "0250303", "prefecture": "岩手県", "id": 367 },
        { "address": "大谷地", "city": "花巻市", "postcode": "0250026", "prefecture": "岩手県", "id": 368 },
        { "address": "御田屋町", "city": "花巻市", "postcode": "0250082", "prefecture": "岩手県", "id": 369 },
        { "address": "卸町", "city": "花巻市", "postcode": "0250311", "prefecture": "岩手県", "id": 370 },
        { "address": "鍛治町", "city": "花巻市", "postcode": "0250086", "prefecture": "岩手県", "id": 371 },
        { "address": "花城町", "city": "花巻市", "postcode": "0250075", "prefecture": "岩手県", "id": 372 },
        { "address": "金矢", "city": "花巻市", "postcode": "0250321", "prefecture": "岩手県", "id": 373 },
        { "address": "上北万丁目", "city": "花巻市", "postcode": "0250056", "prefecture": "岩手県", "id": 374 },
        { "address": "上小舟渡", "city": "花巻市", "postcode": "0250062", "prefecture": "岩手県", "id": 375 },
        { "address": "上諏訪", "city": "花巻市", "postcode": "0250032", "prefecture": "岩手県", "id": 376 },
        { "address": "上町", "city": "花巻市", "postcode": "0250087", "prefecture": "岩手県", "id": 377 },
        { "address": "上似内", "city": "花巻市", "postcode": "0250007", "prefecture": "岩手県", "id": 378 },
        { "address": "上根子", "city": "花巻市", "postcode": "0250043", "prefecture": "岩手県", "id": 379 },
        { "address": "北笹間", "city": "花巻市", "postcode": "0250132", "prefecture": "岩手県", "id": 380 },
        { "address": "北湯口", "city": "花巻市", "postcode": "0250301", "prefecture": "岩手県", "id": 381 },
        { "address": "空港南", "city": "花巻市", "postcode": "0250008", "prefecture": "岩手県", "id": 382 },
        { "address": "葛", "city": "花巻市", "postcode": "0250004", "prefecture": "岩手県", "id": 383 },
        { "address": "下シ沢", "city": "花巻市", "postcode": "0250253", "prefecture": "岩手県", "id": 384 },
        { "address": "椚ノ目", "city": "花巻市", "postcode": "0250323", "prefecture": "岩手県", "id": 385 },
        { "address": "幸田", "city": "花巻市", "postcode": "0250013", "prefecture": "岩手県", "id": 386 },
        { "address": "胡四王", "city": "花巻市", "postcode": "0250012", "prefecture": "岩手県", "id": 387 },
        { "address": "小瀬川", "city": "花巻市", "postcode": "0250324", "prefecture": "岩手県", "id": 388 },
        { "address": "材木町", "city": "花巻市", "postcode": "0250098", "prefecture": "岩手県", "id": 389 },
        { "address": "坂本町", "city": "花巻市", "postcode": "0250074", "prefecture": "岩手県", "id": 390 },
        { "address": "桜木町", "city": "花巻市", "postcode": "0250094", "prefecture": "岩手県", "id": 391 },
        { "address": "桜台", "city": "花巻市", "postcode": "0250064", "prefecture": "岩手県", "id": 392 },
        { "address": "桜町", "city": "花巻市", "postcode": "0250084", "prefecture": "岩手県", "id": 393 },
        { "address": "里川口町", "city": "花巻市", "postcode": "0250081", "prefecture": "岩手県", "id": 394 },
        { "address": "下幅", "city": "花巻市", "postcode": "0250068", "prefecture": "岩手県", "id": 395 },
        { "address": "実相寺", "city": "花巻市", "postcode": "0250035", "prefecture": "岩手県", "id": 396 },
        { "address": "下北万丁目", "city": "花巻市", "postcode": "0250054", "prefecture": "岩手県", "id": 397 },
        { "address": "下小舟渡", "city": "花巻市", "postcode": "0250063", "prefecture": "岩手県", "id": 398 },
        { "address": "下似内", "city": "花巻市", "postcode": "0250006", "prefecture": "岩手県", "id": 399 },
        { "address": "下根子", "city": "花巻市", "postcode": "0250025", "prefecture": "岩手県", "id": 400 },
        { "address": "十二丁目", "city": "花巻市", "postcode": "0250022", "prefecture": "岩手県", "id": 401 },
        { "address": "城内", "city": "花巻市", "postcode": "0250076", "prefecture": "岩手県", "id": 402 },
        { "address": "尻平川", "city": "花巻市", "postcode": "0250137", "prefecture": "岩手県", "id": 403 },
        { "address": "新田", "city": "花巻市", "postcode": "0250057", "prefecture": "岩手県", "id": 404 },
        { "address": "末広町", "city": "花巻市", "postcode": "0250079", "prefecture": "岩手県", "id": 405 },
        { "address": "諏訪", "city": "花巻市", "postcode": "0250033", "prefecture": "岩手県", "id": 406 },
        { "address": "諏訪町", "city": "花巻市", "postcode": "0250039", "prefecture": "岩手県", "id": 407 },
        { "address": "台", "city": "花巻市", "postcode": "0250305", "prefecture": "岩手県", "id": 408 },
        { "address": "高木", "city": "花巻市", "postcode": "0250016", "prefecture": "岩手県", "id": 409 },
        { "address": "高田", "city": "花巻市", "postcode": "0250083", "prefecture": "岩手県", "id": 410 },
        { "address": "高松", "city": "花巻市", "postcode": "0250014", "prefecture": "岩手県", "id": 411 },
        { "address": "田力", "city": "花巻市", "postcode": "0250005", "prefecture": "岩手県", "id": 412 },
        { "address": "天下田", "city": "花巻市", "postcode": "0250001", "prefecture": "岩手県", "id": 413 },
        { "address": "東和町安俵", "city": "花巻市", "postcode": "0280115", "prefecture": "岩手県", "id": 414 },
        { "address": "東和町砂子", "city": "花巻市", "postcode": "0280134", "prefecture": "岩手県", "id": 415 },
        { "address": "東和町石鳩岡", "city": "花巻市", "postcode": "0280103", "prefecture": "岩手県", "id": 416 },
        { "address": "東和町石持", "city": "花巻市", "postcode": "0280154", "prefecture": "岩手県", "id": 417 },
        { "address": "東和町落合", "city": "花巻市", "postcode": "0280151", "prefecture": "岩手県", "id": 418 },
        { "address": "東和町小友", "city": "花巻市", "postcode": "0280121", "prefecture": "岩手県", "id": 419 },
        { "address": "東和町小原", "city": "花巻市", "postcode": "0280136", "prefecture": "岩手県", "id": 420 },
        { "address": "東和町上浮田", "city": "花巻市", "postcode": "0280143", "prefecture": "岩手県", "id": 421 },
        { "address": "東和町北小山田", "city": "花巻市", "postcode": "0280107", "prefecture": "岩手県", "id": 422 },
        { "address": "東和町北川目", "city": "花巻市", "postcode": "0280102", "prefecture": "岩手県", "id": 423 },
        { "address": "東和町北成島", "city": "花巻市", "postcode": "0280116", "prefecture": "岩手県", "id": 424 },
        { "address": "東和町北前田", "city": "花巻市", "postcode": "0280101", "prefecture": "岩手県", "id": 425 },
        { "address": "東和町倉沢", "city": "花巻市", "postcode": "0280135", "prefecture": "岩手県", "id": 426 },
        { "address": "東和町小通", "city": "花巻市", "postcode": "0280156", "prefecture": "岩手県", "id": 427 },
        { "address": "東和町駒籠", "city": "花巻市", "postcode": "0280142", "prefecture": "岩手県", "id": 428 },
        { "address": "東和町下浮田", "city": "花巻市", "postcode": "0280141", "prefecture": "岩手県", "id": 429 },
        { "address": "東和町新地", "city": "花巻市", "postcode": "0280112", "prefecture": "岩手県", "id": 430 },
        { "address": "東和町外谷地", "city": "花巻市", "postcode": "0280106", "prefecture": "岩手県", "id": 431 },
        { "address": "東和町鷹巣堂", "city": "花巻市", "postcode": "0280133", "prefecture": "岩手県", "id": 432 },
        { "address": "東和町田瀬", "city": "花巻市", "postcode": "0280123", "prefecture": "岩手県", "id": 433 },
        { "address": "東和町舘迫", "city": "花巻市", "postcode": "0280132", "prefecture": "岩手県", "id": 434 },
        { "address": "東和町谷内", "city": "花巻市", "postcode": "0280122", "prefecture": "岩手県", "id": 435 },
        { "address": "東和町土沢", "city": "花巻市", "postcode": "0280114", "prefecture": "岩手県", "id": 436 },
        { "address": "東和町毒沢", "city": "花巻市", "postcode": "0280152", "prefecture": "岩手県", "id": 437 },
        { "address": "東和町中内", "city": "花巻市", "postcode": "0280153", "prefecture": "岩手県", "id": 438 },
        { "address": "東和町東晴山", "city": "花巻市", "postcode": "0280113", "prefecture": "岩手県", "id": 439 },
        { "address": "東和町前田", "city": "花巻市", "postcode": "0280105", "prefecture": "岩手県", "id": 440 },
        { "address": "東和町町井", "city": "花巻市", "postcode": "0280131", "prefecture": "岩手県", "id": 441 },
        { "address": "東和町南川目", "city": "花巻市", "postcode": "0280104", "prefecture": "岩手県", "id": 442 },
        { "address": "東和町南成島", "city": "花巻市", "postcode": "0280155", "prefecture": "岩手県", "id": 443 },
        { "address": "東和町宮田", "city": "花巻市", "postcode": "0280144", "prefecture": "岩手県", "id": 444 },
        { "address": "東和町百ノ沢", "city": "花巻市", "postcode": "0280111", "prefecture": "岩手県", "id": 445 },
        { "address": "栃内", "city": "花巻市", "postcode": "0250135", "prefecture": "岩手県", "id": 446 },
        { "address": "轟木", "city": "花巻市", "postcode": "0250131", "prefecture": "岩手県", "id": 447 },
        { "address": "豊沢", "city": "花巻市", "postcode": "0250251", "prefecture": "岩手県", "id": 448 },
        { "address": "豊沢町", "city": "花巻市", "postcode": "0250089", "prefecture": "岩手県", "id": 449 },
        { "address": "中北万丁目", "city": "花巻市", "postcode": "0250053", "prefecture": "岩手県", "id": 450 },
        { "address": "中笹間", "city": "花巻市", "postcode": "0250133", "prefecture": "岩手県", "id": 451 },
        { "address": "中根子", "city": "花巻市", "postcode": "0250036", "prefecture": "岩手県", "id": 452 },
        { "address": "仲町", "city": "花巻市", "postcode": "0250077", "prefecture": "岩手県", "id": 453 },
        { "address": "鍋倉", "city": "花巻市", "postcode": "0250046", "prefecture": "岩手県", "id": 454 },
        { "address": "鉛", "city": "花巻市", "postcode": "0250252", "prefecture": "岩手県", "id": 455 },
        { "address": "成田", "city": "花巻市", "postcode": "0250023", "prefecture": "岩手県", "id": 456 },
        { "address": "南城", "city": "花巻市", "postcode": "0250021", "prefecture": "岩手県", "id": 457 },
        { "address": "西大通り", "city": "花巻市", "postcode": "0250091", "prefecture": "岩手県", "id": 458 },
        { "address": "西晴山", "city": "花巻市", "postcode": "0250045", "prefecture": "岩手県", "id": 459 },
        { "address": "西宮野目", "city": "花巻市", "postcode": "0250002", "prefecture": "岩手県", "id": 460 },
        { "address": "二枚橋", "city": "花巻市", "postcode": "0250312", "prefecture": "岩手県", "id": 461 },
        { "address": "二枚橋町大通り", "city": "花巻市", "postcode": "0250314", "prefecture": "岩手県", "id": 462 },
        { "address": "二枚橋町南", "city": "花巻市", "postcode": "0250315", "prefecture": "岩手県", "id": 463 },
        { "address": "二枚橋町北", "city": "花巻市", "postcode": "0250313", "prefecture": "岩手県", "id": 464 },
        { "address": "糠塚", "city": "花巻市", "postcode": "0250302", "prefecture": "岩手県", "id": 465 },
        { "address": "野田", "city": "花巻市", "postcode": "0250052", "prefecture": "岩手県", "id": 466 },
        { "address": "東十二丁目", "city": "花巻市", "postcode": "0250015", "prefecture": "岩手県", "id": 467 },
        { "address": "東宮野目", "city": "花巻市", "postcode": "0250003", "prefecture": "岩手県", "id": 468 },
        { "address": "膝立", "city": "花巻市", "postcode": "0250041", "prefecture": "岩手県", "id": 469 },
        { "address": "一日市", "city": "花巻市", "postcode": "0250073", "prefecture": "岩手県", "id": 470 },
        { "address": "藤沢町", "city": "花巻市", "postcode": "0250096", "prefecture": "岩手県", "id": 471 },
        { "address": "双葉町", "city": "花巻市", "postcode": "0250085", "prefecture": "岩手県", "id": 472 },
        { "address": "吹張町", "city": "花巻市", "postcode": "0250078", "prefecture": "岩手県", "id": 473 },
        { "address": "不動", "city": "花巻市", "postcode": "0250031", "prefecture": "岩手県", "id": 474 },
        { "address": "不動町", "city": "花巻市", "postcode": "0250038", "prefecture": "岩手県", "id": 475 },
        { "address": "星が丘", "city": "花巻市", "postcode": "0250065", "prefecture": "岩手県", "id": 476 },
        { "address": "松園町", "city": "花巻市", "postcode": "0250066", "prefecture": "岩手県", "id": 477 },
        { "address": "南川原町", "city": "花巻市", "postcode": "0250093", "prefecture": "岩手県", "id": 478 },
        { "address": "南笹間", "city": "花巻市", "postcode": "0250134", "prefecture": "岩手県", "id": 479 },
        { "address": "南新田", "city": "花巻市", "postcode": "0250051", "prefecture": "岩手県", "id": 480 },
        { "address": "南諏訪町", "city": "花巻市", "postcode": "0250034", "prefecture": "岩手県", "id": 481 },
        { "address": "南万丁目", "city": "花巻市", "postcode": "0250055", "prefecture": "岩手県", "id": 482 },
        { "address": "本館", "city": "花巻市", "postcode": "0250061", "prefecture": "岩手県", "id": 483 },
        { "address": "矢沢", "city": "花巻市", "postcode": "0250011", "prefecture": "岩手県", "id": 484 },
        { "address": "山の神", "city": "花巻市", "postcode": "0250024", "prefecture": "岩手県", "id": 485 },
        { "address": "湯口", "city": "花巻市", "postcode": "0250044", "prefecture": "岩手県", "id": 486 },
        { "address": "湯口", "city": "花巻市", "postcode": "0250244", "prefecture": "岩手県", "id": 487 },
        { "address": "湯本", "city": "花巻市", "postcode": "0250304", "prefecture": "岩手県", "id": 488 },
        { "address": "横志田", "city": "花巻市", "postcode": "0250136", "prefecture": "岩手県", "id": 489 },
        { "address": "四日町", "city": "花巻市", "postcode": "0250072", "prefecture": "岩手県", "id": 490 },
        { "address": "若葉町", "city": "花巻市", "postcode": "0250097", "prefecture": "岩手県", "id": 491 },
        { "city": "北上市", "postcode": "0240000", "prefecture": "岩手県", "id": 492 },
        { "address": "相去町", "city": "北上市", "postcode": "0240051", "prefecture": "岩手県", "id": 493 },
        { "address": "青柳町", "city": "北上市", "postcode": "0240031", "prefecture": "岩手県", "id": 494 },
        { "address": "有田町", "city": "北上市", "postcode": "0240081", "prefecture": "岩手県", "id": 495 },
        { "address": "飯豊", "city": "北上市", "postcode": "0240001", "prefecture": "岩手県", "id": 496 },
        { "address": "稲瀬町", "city": "北上市", "postcode": "0240041", "prefecture": "岩手県", "id": 497 },
        { "address": "上野町", "city": "北上市", "postcode": "0240021", "prefecture": "岩手県", "id": 498 },
        { "address": "大堤東", "city": "北上市", "postcode": "0240054", "prefecture": "岩手県", "id": 499 },
        { "address": "大堤西", "city": "北上市", "postcode": "0240053", "prefecture": "岩手県", "id": 500 },
        { "address": "大堤南", "city": "北上市", "postcode": "0240055", "prefecture": "岩手県", "id": 501 },
        { "address": "大堤北", "city": "北上市", "postcode": "0240052", "prefecture": "岩手県", "id": 502 },
        { "address": "大通り", "city": "北上市", "postcode": "0240061", "prefecture": "岩手県", "id": 503 },
        { "address": "大曲町", "city": "北上市", "postcode": "0240091", "prefecture": "岩手県", "id": 504 },
        { "address": "鬼柳町", "city": "北上市", "postcode": "0240056", "prefecture": "岩手県", "id": 505 },
        { "address": "鍛冶町", "city": "北上市", "postcode": "0240062", "prefecture": "岩手県", "id": 506 },
        { "address": "上江釣子", "city": "北上市", "postcode": "0240071", "prefecture": "岩手県", "id": 507 },
        { "address": "上鬼柳", "city": "北上市", "postcode": "0240057", "prefecture": "岩手県", "id": 508 },
        { "address": "川岸", "city": "北上市", "postcode": "0240032", "prefecture": "岩手県", "id": 509 },
        { "address": "北鬼柳", "city": "北上市", "postcode": "0240072", "prefecture": "岩手県", "id": 510 },
        { "address": "北工業団地", "city": "北上市", "postcode": "0240102", "prefecture": "岩手県", "id": 511 },
        { "address": "北工業団地", "city": "北上市", "postcode": "0240002", "prefecture": "岩手県", "id": 512 },
        { "address": "口内町", "city": "北上市", "postcode": "0240211", "prefecture": "岩手県", "id": 513 },
        { "address": "九年橋", "city": "北上市", "postcode": "0240063", "prefecture": "岩手県", "id": 514 },
        { "address": "黒岩", "city": "北上市", "postcode": "0240042", "prefecture": "岩手県", "id": 515 },
        { "address": "黒沢尻", "city": "北上市", "postcode": "0240022", "prefecture": "岩手県", "id": 516 },
        { "address": "小鳥崎", "city": "北上市", "postcode": "0240105", "prefecture": "岩手県", "id": 517 },
        { "address": "幸町", "city": "北上市", "postcode": "0240033", "prefecture": "岩手県", "id": 518 },
        { "address": "さくら通り", "city": "北上市", "postcode": "0240084", "prefecture": "岩手県", "id": 519 },
        { "address": "里分", "city": "北上市", "postcode": "0240023", "prefecture": "岩手県", "id": 520 },
        { "address": "更木", "city": "北上市", "postcode": "0240103", "prefecture": "岩手県", "id": 521 },
        { "address": "下江釣子", "city": "北上市", "postcode": "0240073", "prefecture": "岩手県", "id": 522 },
        { "address": "下鬼柳", "city": "北上市", "postcode": "0240058", "prefecture": "岩手県", "id": 523 },
        { "address": "しらゆり", "city": "北上市", "postcode": "0240085", "prefecture": "岩手県", "id": 524 },
        { "address": "新穀町", "city": "北上市", "postcode": "0240092", "prefecture": "岩手県", "id": 525 },
        { "address": "諏訪町", "city": "北上市", "postcode": "0240034", "prefecture": "岩手県", "id": 526 },
        { "address": "立花", "city": "北上市", "postcode": "0240043", "prefecture": "岩手県", "id": 527 },
        { "address": "堤ケ丘", "city": "北上市", "postcode": "0240011", "prefecture": "岩手県", "id": 528 },
        { "address": "常盤台", "city": "北上市", "postcode": "0240012", "prefecture": "岩手県", "id": 529 },
        { "address": "中野町", "city": "北上市", "postcode": "0240024", "prefecture": "岩手県", "id": 530 },
        { "address": "滑田", "city": "北上市", "postcode": "0240074", "prefecture": "岩手県", "id": 531 },
        { "address": "成田", "city": "北上市", "postcode": "0240003", "prefecture": "岩手県", "id": 532 },
        { "address": "新平", "city": "北上市", "postcode": "0240075", "prefecture": "岩手県", "id": 533 },
        { "address": "鳩岡崎", "city": "北上市", "postcode": "0240076", "prefecture": "岩手県", "id": 534 },
        { "address": "花園町", "city": "北上市", "postcode": "0240035", "prefecture": "岩手県", "id": 535 },
        { "address": "平沢", "city": "北上市", "postcode": "0240044", "prefecture": "岩手県", "id": 536 },
        { "address": "臥牛", "city": "北上市", "postcode": "0240101", "prefecture": "岩手県", "id": 537 },
        { "address": "藤沢", "city": "北上市", "postcode": "0240013", "prefecture": "岩手県", "id": 538 },
        { "address": "二子町", "city": "北上市", "postcode": "0240104", "prefecture": "岩手県", "id": 539 },
        { "address": "本石町", "city": "北上市", "postcode": "0240093", "prefecture": "岩手県", "id": 540 },
        { "address": "本通り", "city": "北上市", "postcode": "0240094", "prefecture": "岩手県", "id": 541 },
        { "address": "孫屋敷", "city": "北上市", "postcode": "0240025", "prefecture": "岩手県", "id": 542 },
        { "address": "町分", "city": "北上市", "postcode": "0240082", "prefecture": "岩手県", "id": 543 },
        { "address": "村崎野", "city": "北上市", "postcode": "0240004", "prefecture": "岩手県", "id": 544 },
        { "address": "柳原町", "city": "北上市", "postcode": "0240083", "prefecture": "岩手県", "id": 545 },
        { "address": "湯沢", "city": "北上市", "postcode": "0240045", "prefecture": "岩手県", "id": 546 },
        { "address": "芳町", "city": "北上市", "postcode": "0240095", "prefecture": "岩手県", "id": 547 },
        { "address": "流通センター", "city": "北上市", "postcode": "0240014", "prefecture": "岩手県", "id": 548 },
        { "address": "若宮町", "city": "北上市", "postcode": "0240064", "prefecture": "岩手県", "id": 549 },
        { "address": "和賀町岩崎", "city": "北上市", "postcode": "0240321", "prefecture": "岩手県", "id": 550 },
        { "address": "和賀町岩崎新田", "city": "北上市", "postcode": "0240322", "prefecture": "岩手県", "id": 551 },
        { "address": "和賀町岩沢", "city": "北上市", "postcode": "0240325", "prefecture": "岩手県", "id": 552 },
        { "address": "和賀町後藤", "city": "北上市", "postcode": "0240335", "prefecture": "岩手県", "id": 553 },
        { "address": "和賀町煤孫", "city": "北上市", "postcode": "0240323", "prefecture": "岩手県", "id": 554 },
        { "address": "和賀町仙人", "city": "北上市", "postcode": "0240326", "prefecture": "岩手県", "id": 555 },
        { "address": "和賀町竪川目", "city": "北上市", "postcode": "0240332", "prefecture": "岩手県", "id": 556 },
        { "address": "和賀町長沼", "city": "北上市", "postcode": "0240333", "prefecture": "岩手県", "id": 557 },
        { "address": "和賀町藤根", "city": "北上市", "postcode": "0240334", "prefecture": "岩手県", "id": 558 },
        { "address": "和賀町山口", "city": "北上市", "postcode": "0240324", "prefecture": "岩手県", "id": 559 },
        { "address": "和賀町横川目", "city": "北上市", "postcode": "0240331", "prefecture": "岩手県", "id": 560 },
        { "city": "久慈市", "postcode": "0280000", "prefecture": "岩手県", "id": 561 },
        { "address": "旭町", "city": "久慈市", "postcode": "0280014", "prefecture": "岩手県", "id": 562 },
        { "address": "荒町", "city": "久慈市", "postcode": "0280063", "prefecture": "岩手県", "id": 563 },
        { "address": "宇部町", "city": "久慈市", "postcode": "0288111", "prefecture": "岩手県", "id": 564 },
        { "address": "枝成沢", "city": "久慈市", "postcode": "0280034", "prefecture": "岩手県", "id": 565 },
        { "address": "大川目町", "city": "久慈市", "postcode": "0280091", "prefecture": "岩手県", "id": 566 },
        { "address": "大沢", "city": "久慈市", "postcode": "0280083", "prefecture": "岩手県", "id": 567 },
        { "address": "長内町", "city": "久慈市", "postcode": "0280041", "prefecture": "岩手県", "id": 568 },
        { "address": "柏崎", "city": "久慈市", "postcode": "0280054", "prefecture": "岩手県", "id": 569 },
        { "address": "川崎町", "city": "久慈市", "postcode": "0280051", "prefecture": "岩手県", "id": 570 },
        { "address": "川貫", "city": "久慈市", "postcode": "0280082", "prefecture": "岩手県", "id": 571 },
        { "address": "京の森", "city": "久慈市", "postcode": "0280013", "prefecture": "岩手県", "id": 572 },
        { "address": "源道", "city": "久慈市", "postcode": "0280015", "prefecture": "岩手県", "id": 573 },
        { "address": "小久慈町", "city": "久慈市", "postcode": "0280071", "prefecture": "岩手県", "id": 574 },
        { "address": "栄町", "city": "久慈市", "postcode": "0280024", "prefecture": "岩手県", "id": 575 },
        { "address": "侍浜町", "city": "久慈市", "postcode": "0287801", "prefecture": "岩手県", "id": 576 },
        { "address": "沢里", "city": "久慈市", "postcode": "0280035", "prefecture": "岩手県", "id": 577 },
        { "address": "十八日町", "city": "久慈市", "postcode": "0280065", "prefecture": "岩手県", "id": 578 },
        { "address": "新中の橋", "city": "久慈市", "postcode": "0280023", "prefecture": "岩手県", "id": 579 },
        { "address": "田高", "city": "久慈市", "postcode": "0280053", "prefecture": "岩手県", "id": 580 },
        { "address": "巽町", "city": "久慈市", "postcode": "0280055", "prefecture": "岩手県", "id": 581 },
        { "address": "田屋町", "city": "久慈市", "postcode": "0280022", "prefecture": "岩手県", "id": 582 },
        { "address": "中央", "city": "久慈市", "postcode": "0280061", "prefecture": "岩手県", "id": 583 },
        { "address": "寺里", "city": "久慈市", "postcode": "0280032", "prefecture": "岩手県", "id": 584 },
        { "address": "天神堂", "city": "久慈市", "postcode": "0280031", "prefecture": "岩手県", "id": 585 },
        { "address": "中の橋", "city": "久慈市", "postcode": "0280066", "prefecture": "岩手県", "id": 586 },
        { "address": "中町", "city": "久慈市", "postcode": "0280056", "prefecture": "岩手県", "id": 587 },
        { "address": "夏井町", "city": "久慈市", "postcode": "0280001", "prefecture": "岩手県", "id": 588 },
        { "address": "新井田", "city": "久慈市", "postcode": "0280012", "prefecture": "岩手県", "id": 589 },
        { "address": "西の沢", "city": "久慈市", "postcode": "0280081", "prefecture": "岩手県", "id": 590 },
        { "address": "二十八日町", "city": "久慈市", "postcode": "0280062", "prefecture": "岩手県", "id": 591 },
        { "address": "畑田", "city": "久慈市", "postcode": "0280033", "prefecture": "岩手県", "id": 592 },
        { "address": "本町", "city": "久慈市", "postcode": "0280052", "prefecture": "岩手県", "id": 593 },
        { "address": "湊町", "city": "久慈市", "postcode": "0280011", "prefecture": "岩手県", "id": 594 },
        { "address": "門前", "city": "久慈市", "postcode": "0280021", "prefecture": "岩手県", "id": 595 },
        { "address": "山形町小国", "city": "久慈市", "postcode": "0288712", "prefecture": "岩手県", "id": 596 },
        { "address": "山形町川井", "city": "久慈市", "postcode": "0288602", "prefecture": "岩手県", "id": 597 },
        { "address": "山形町霜畑", "city": "久慈市", "postcode": "0288713", "prefecture": "岩手県", "id": 598 },
        { "address": "山形町繋", "city": "久慈市", "postcode": "0288711", "prefecture": "岩手県", "id": 599 },
        { "address": "山形町荷軽部", "city": "久慈市", "postcode": "0288603", "prefecture": "岩手県", "id": 600 },
        { "address": "山形町日野沢", "city": "久慈市", "postcode": "0288604", "prefecture": "岩手県", "id": 601 },
        { "address": "山形町戸呂町", "city": "久慈市", "postcode": "0288601", "prefecture": "岩手県", "id": 602 },
        { "address": "山形町来内", "city": "久慈市", "postcode": "0288605", "prefecture": "岩手県", "id": 603 },
        { "address": "山根町", "city": "久慈市", "postcode": "0288521", "prefecture": "岩手県", "id": 604 },
        { "address": "八日町", "city": "久慈市", "postcode": "0280064", "prefecture": "岩手県", "id": 605 },
        { "city": "遠野市", "postcode": "0280500", "prefecture": "岩手県", "id": 606 },
        { "address": "青笹町青笹", "city": "遠野市", "postcode": "0280503", "prefecture": "岩手県", "id": 607 },
        { "address": "青笹町中沢", "city": "遠野市", "postcode": "0280502", "prefecture": "岩手県", "id": 608 },
        { "address": "青笹町糠前", "city": "遠野市", "postcode": "0280501", "prefecture": "岩手県", "id": 609 },
        { "address": "綾織町上綾織", "city": "遠野市", "postcode": "0280533", "prefecture": "岩手県", "id": 610 },
        { "address": "綾織町下綾織", "city": "遠野市", "postcode": "0280532", "prefecture": "岩手県", "id": 611 },
        { "address": "綾織町新里", "city": "遠野市", "postcode": "0280531", "prefecture": "岩手県", "id": 612 },
        { "address": "綾織町みさ崎", "city": "遠野市", "postcode": "0280534", "prefecture": "岩手県", "id": 613 },
        { "address": "鶯崎町", "city": "遠野市", "postcode": "0280511", "prefecture": "岩手県", "id": 614 },
        { "address": "小友町", "city": "遠野市", "postcode": "0280481", "prefecture": "岩手県", "id": 615 },
        { "address": "上組町", "city": "遠野市", "postcode": "0280517", "prefecture": "岩手県", "id": 616 },
        { "address": "上郷町板沢", "city": "遠野市", "postcode": "0280776", "prefecture": "岩手県", "id": 617 },
        { "address": "上郷町佐比内", "city": "遠野市", "postcode": "0280771", "prefecture": "岩手県", "id": 618 },
        { "address": "上郷町平倉", "city": "遠野市", "postcode": "0280775", "prefecture": "岩手県", "id": 619 },
        { "address": "上郷町平野原", "city": "遠野市", "postcode": "0280773", "prefecture": "岩手県", "id": 620 },
        { "address": "上郷町細越", "city": "遠野市", "postcode": "0280772", "prefecture": "岩手県", "id": 621 },
        { "address": "上郷町来内", "city": "遠野市", "postcode": "0280774", "prefecture": "岩手県", "id": 622 },
        { "address": "穀町", "city": "遠野市", "postcode": "0280516", "prefecture": "岩手県", "id": 623 },
        { "address": "材木町", "city": "遠野市", "postcode": "0280521", "prefecture": "岩手県", "id": 624 },
        { "address": "下組町", "city": "遠野市", "postcode": "0280526", "prefecture": "岩手県", "id": 625 },
        { "address": "新穀町", "city": "遠野市", "postcode": "0280522", "prefecture": "岩手県", "id": 626 },
        { "address": "新町", "city": "遠野市", "postcode": "0280524", "prefecture": "岩手県", "id": 627 },
        { "address": "大工町", "city": "遠野市", "postcode": "0280527", "prefecture": "岩手県", "id": 628 },
        { "address": "中央通り", "city": "遠野市", "postcode": "0280523", "prefecture": "岩手県", "id": 629 },
        { "address": "附馬牛町安居台", "city": "遠野市", "postcode": "0280662", "prefecture": "岩手県", "id": 630 },
        { "address": "附馬牛町上附馬牛", "city": "遠野市", "postcode": "0280661", "prefecture": "岩手県", "id": 631 },
        { "address": "附馬牛町下附馬牛", "city": "遠野市", "postcode": "0280663", "prefecture": "岩手県", "id": 632 },
        { "address": "附馬牛町東禅寺", "city": "遠野市", "postcode": "0280664", "prefecture": "岩手県", "id": 633 },
        { "address": "土淵町飯豊", "city": "遠野市", "postcode": "0280554", "prefecture": "岩手県", "id": 634 },
        { "address": "土淵町柏崎", "city": "遠野市", "postcode": "0280553", "prefecture": "岩手県", "id": 635 },
        { "address": "土淵町土淵", "city": "遠野市", "postcode": "0280555", "prefecture": "岩手県", "id": 636 },
        { "address": "土淵町栃内", "city": "遠野市", "postcode": "0280551", "prefecture": "岩手県", "id": 637 },
        { "address": "土淵町山口", "city": "遠野市", "postcode": "0280552", "prefecture": "岩手県", "id": 638 },
        { "address": "遠野町", "city": "遠野市", "postcode": "0280514", "prefecture": "岩手県", "id": 639 },
        { "address": "早瀬町", "city": "遠野市", "postcode": "0280542", "prefecture": "岩手県", "id": 640 },
        { "address": "東上組町", "city": "遠野市", "postcode": "0280512", "prefecture": "岩手県", "id": 641 },
        { "address": "東穀町", "city": "遠野市", "postcode": "0280513", "prefecture": "岩手県", "id": 642 },
        { "address": "東舘町", "city": "遠野市", "postcode": "0280515", "prefecture": "岩手県", "id": 643 },
        { "address": "松崎町光興寺", "city": "遠野市", "postcode": "0280543", "prefecture": "岩手県", "id": 644 },
        { "address": "松崎町駒木", "city": "遠野市", "postcode": "0280545", "prefecture": "岩手県", "id": 645 },
        { "address": "松崎町白岩", "city": "遠野市", "postcode": "0280541", "prefecture": "岩手県", "id": 646 },
        { "address": "松崎町松崎", "city": "遠野市", "postcode": "0280544", "prefecture": "岩手県", "id": 647 },
        { "address": "宮守町上鱒沢", "city": "遠野市", "postcode": "0280302", "prefecture": "岩手県", "id": 648 },
        { "address": "宮守町上宮守", "city": "遠野市", "postcode": "0280301", "prefecture": "岩手県", "id": 649 },
        { "address": "宮守町下鱒沢", "city": "遠野市", "postcode": "0280303", "prefecture": "岩手県", "id": 650 },
        { "address": "宮守町下宮守", "city": "遠野市", "postcode": "0280304", "prefecture": "岩手県", "id": 651 },
        { "address": "宮守町達曽部", "city": "遠野市", "postcode": "0280305", "prefecture": "岩手県", "id": 652 },
        { "address": "六日町", "city": "遠野市", "postcode": "0280525", "prefecture": "岩手県", "id": 653 },
        { "city": "一関市", "postcode": "0210000", "prefecture": "岩手県", "id": 654 },
        { "address": "相去", "city": "一関市", "postcode": "0210853", "prefecture": "岩手県", "id": 655 },
        { "address": "青葉", "city": "一関市", "postcode": "0210031", "prefecture": "岩手県", "id": 656 },
        { "address": "赤荻", "city": "一関市", "postcode": "0210041", "prefecture": "岩手県", "id": 657 },
        { "address": "旭町", "city": "一関市", "postcode": "0210864", "prefecture": "岩手県", "id": 658 },
        { "address": "石畑", "city": "一関市", "postcode": "0210008", "prefecture": "岩手県", "id": 659 },
        { "address": "磐井町", "city": "一関市", "postcode": "0210894", "prefecture": "岩手県", "id": 660 },
        { "address": "宇南", "city": "一関市", "postcode": "0210834", "prefecture": "岩手県", "id": 661 },
        { "address": "駅前", "city": "一関市", "postcode": "0210867", "prefecture": "岩手県", "id": 662 },
        { "address": "大手町", "city": "一関市", "postcode": "0210884", "prefecture": "岩手県", "id": 663 },
        { "address": "大町", "city": "一関市", "postcode": "0210881", "prefecture": "岩手県", "id": 664 },
        { "address": "上大槻街", "city": "一関市", "postcode": "0210882", "prefecture": "岩手県", "id": 665 },
        { "address": "上日照", "city": "一関市", "postcode": "0210007", "prefecture": "岩手県", "id": 666 },
        { "address": "柄貝", "city": "一関市", "postcode": "0210833", "prefecture": "岩手県", "id": 667 },
        { "address": "川崎町薄衣", "city": "一関市", "postcode": "0290202", "prefecture": "岩手県", "id": 668 },
        { "address": "川崎町門崎", "city": "一関市", "postcode": "0290201", "prefecture": "岩手県", "id": 669 },
        { "address": "北十軒街", "city": "一関市", "postcode": "0210802", "prefecture": "岩手県", "id": 670 },
        { "address": "北ほうりょう", "city": "一関市", "postcode": "0210814", "prefecture": "岩手県", "id": 671 },
        { "address": "久保", "city": "一関市", "postcode": "0210811", "prefecture": "岩手県", "id": 672 },
        { "address": "厳美町", "city": "一関市", "postcode": "0210101", "prefecture": "岩手県", "id": 673 },
        { "address": "五十人町", "city": "一関市", "postcode": "0210804", "prefecture": "岩手県", "id": 674 },
        { "address": "狐禅寺", "city": "一関市", "postcode": "0290131", "prefecture": "岩手県", "id": 675 },
        { "address": "五代町", "city": "一関市", "postcode": "0210022", "prefecture": "岩手県", "id": 676 },
        { "address": "寿町", "city": "一関市", "postcode": "0210052", "prefecture": "岩手県", "id": 677 },
        { "address": "幸町", "city": "一関市", "postcode": "0210024", "prefecture": "岩手県", "id": 678 },
        { "address": "桜木町", "city": "一関市", "postcode": "0210891", "prefecture": "岩手県", "id": 679 },
        { "address": "桜街", "city": "一関市", "postcode": "0210801", "prefecture": "岩手県", "id": 680 },
        { "address": "沢", "city": "一関市", "postcode": "0210852", "prefecture": "岩手県", "id": 681 },
        { "address": "散田", "city": "一関市", "postcode": "0210832", "prefecture": "岩手県", "id": 682 },
        { "address": "三関", "city": "一関市", "postcode": "0210821", "prefecture": "岩手県", "id": 683 },
        { "address": "地主町", "city": "一関市", "postcode": "0210893", "prefecture": "岩手県", "id": 684 },
        { "address": "下大槻街", "city": "一関市", "postcode": "0210806", "prefecture": "岩手県", "id": 685 },
        { "address": "城内", "city": "一関市", "postcode": "0210877", "prefecture": "岩手県", "id": 686 },
        { "address": "上坊", "city": "一関市", "postcode": "0210006", "prefecture": "岩手県", "id": 687 },
        { "address": "新大町", "city": "一関市", "postcode": "0210883", "prefecture": "岩手県", "id": 688 },
        { "address": "新町", "city": "一関市", "postcode": "0210001", "prefecture": "岩手県", "id": 689 },
        { "address": "吸川街", "city": "一関市", "postcode": "0210841", "prefecture": "岩手県", "id": 690 },
        { "address": "末広", "city": "一関市", "postcode": "0210032", "prefecture": "岩手県", "id": 691 },
        { "address": "関が丘", "city": "一関市", "postcode": "0210851", "prefecture": "岩手県", "id": 692 },
        { "address": "千厩町磐清水", "city": "一関市", "postcode": "0290804", "prefecture": "岩手県", "id": 693 },
        { "address": "千厩町奥玉", "city": "一関市", "postcode": "0291111", "prefecture": "岩手県", "id": 694 },
        { "address": "千厩町清田", "city": "一関市", "postcode": "0290801", "prefecture": "岩手県", "id": 695 },
        { "address": "千厩町小梨", "city": "一関市", "postcode": "0290802", "prefecture": "岩手県", "id": 696 },
        { "address": "千厩町千厩", "city": "一関市", "postcode": "0290803", "prefecture": "岩手県", "id": 697 },
        { "address": "大東町大原", "city": "一関市", "postcode": "0290711", "prefecture": "岩手県", "id": 698 },
        { "address": "大東町沖田", "city": "一関市", "postcode": "0290603", "prefecture": "岩手県", "id": 699 },
        { "address": "大東町猿沢", "city": "一関市", "postcode": "0290431", "prefecture": "岩手県", "id": 700 },
        { "address": "大東町渋民", "city": "一関市", "postcode": "0290521", "prefecture": "岩手県", "id": 701 },
        { "address": "大東町摺沢", "city": "一関市", "postcode": "0290523", "prefecture": "岩手県", "id": 702 },
        { "address": "大東町曽慶", "city": "一関市", "postcode": "0290522", "prefecture": "岩手県", "id": 703 },
        { "address": "大東町鳥海", "city": "一関市", "postcode": "0290602", "prefecture": "岩手県", "id": 704 },
        { "address": "大東町中川", "city": "一関市", "postcode": "0290601", "prefecture": "岩手県", "id": 705 },
        { "address": "台町", "city": "一関市", "postcode": "0210873", "prefecture": "岩手県", "id": 706 },
        { "address": "高崎町", "city": "一関市", "postcode": "0210875", "prefecture": "岩手県", "id": 707 },
        { "address": "滝沢", "city": "一関市", "postcode": "0290132", "prefecture": "岩手県", "id": 708 },
        { "address": "竹山町", "city": "一関市", "postcode": "0210027", "prefecture": "岩手県", "id": 709 },
        { "address": "田村町", "city": "一関市", "postcode": "0210885", "prefecture": "岩手県", "id": 710 },
        { "address": "反町", "city": "一関市", "postcode": "0210844", "prefecture": "岩手県", "id": 711 },
        { "address": "中央町", "city": "一関市", "postcode": "0210021", "prefecture": "岩手県", "id": 712 },
        { "address": "千代田町", "city": "一関市", "postcode": "0210862", "prefecture": "岩手県", "id": 713 },
        { "address": "釣山", "city": "一関市", "postcode": "0210874", "prefecture": "岩手県", "id": 714 },
        { "address": "銅谷町", "city": "一関市", "postcode": "0210023", "prefecture": "岩手県", "id": 715 },
        { "address": "中里", "city": "一関市", "postcode": "0210005", "prefecture": "岩手県", "id": 716 },
        { "address": "中里", "city": "一関市", "postcode": "0210002", "prefecture": "岩手県", "id": 717 },
        { "address": "鳴神", "city": "一関市", "postcode": "0210836", "prefecture": "岩手県", "id": 718 },
        { "address": "新山", "city": "一関市", "postcode": "0210865", "prefecture": "岩手県", "id": 719 },
        { "address": "西沢", "city": "一関市", "postcode": "0210854", "prefecture": "岩手県", "id": 720 },
        { "address": "二本木", "city": "一関市", "postcode": "0210835", "prefecture": "岩手県", "id": 721 },
        { "address": "沼田", "city": "一関市", "postcode": "0210831", "prefecture": "岩手県", "id": 722 },
        { "address": "萩荘", "city": "一関市", "postcode": "0210102", "prefecture": "岩手県", "id": 723 },
        { "address": "萩荘", "city": "一関市", "postcode": "0210902", "prefecture": "岩手県", "id": 724 },
        { "address": "機織山", "city": "一関市", "postcode": "0210861", "prefecture": "岩手県", "id": 725 },
        { "address": "八幡町", "city": "一関市", "postcode": "0210871", "prefecture": "岩手県", "id": 726 },
        { "address": "花泉町老松", "city": "一関市", "postcode": "0293103", "prefecture": "岩手県", "id": 727 },
        { "address": "花泉町金沢", "city": "一関市", "postcode": "0293102", "prefecture": "岩手県", "id": 728 },
        { "address": "花泉町永井", "city": "一関市", "postcode": "0293206", "prefecture": "岩手県", "id": 729 },
        { "address": "花泉町花泉", "city": "一関市", "postcode": "0293101", "prefecture": "岩手県", "id": 730 },
        { "address": "花泉町日形", "city": "一関市", "postcode": "0293104", "prefecture": "岩手県", "id": 731 },
        { "address": "花泉町油島", "city": "一関市", "postcode": "0293207", "prefecture": "岩手県", "id": 732 },
        { "address": "花泉町涌津", "city": "一関市", "postcode": "0293105", "prefecture": "岩手県", "id": 733 },
        { "address": "花泉町涌津", "city": "一関市", "postcode": "0293205", "prefecture": "岩手県", "id": 734 },
        { "address": "東花王町", "city": "一関市", "postcode": "0210807", "prefecture": "岩手県", "id": 735 },
        { "address": "東五代", "city": "一関市", "postcode": "0210003", "prefecture": "岩手県", "id": 736 },
        { "address": "東地主町", "city": "一関市", "postcode": "0210892", "prefecture": "岩手県", "id": 737 },
        { "address": "東台", "city": "一関市", "postcode": "0210822", "prefecture": "岩手県", "id": 738 },
        { "address": "東山町田河津", "city": "一関市", "postcode": "0290301", "prefecture": "岩手県", "id": 739 },
        { "address": "東山町長坂", "city": "一関市", "postcode": "0290302", "prefecture": "岩手県", "id": 740 },
        { "address": "東山町松川", "city": "一関市", "postcode": "0290303", "prefecture": "岩手県", "id": 741 },
        { "address": "広街", "city": "一関市", "postcode": "0210876", "prefecture": "岩手県", "id": 742 },
        { "address": "樋渡", "city": "一関市", "postcode": "0210812", "prefecture": "岩手県", "id": 743 },
        { "address": "深町", "city": "一関市", "postcode": "0210843", "prefecture": "岩手県", "id": 744 },
        { "address": "藤沢町大籠", "city": "一関市", "postcode": "0293522", "prefecture": "岩手県", "id": 745 },
        { "address": "藤沢町黄海", "city": "一関市", "postcode": "0293311", "prefecture": "岩手県", "id": 746 },
        { "address": "藤沢町砂子田", "city": "一関市", "postcode": "0293403", "prefecture": "岩手県", "id": 747 },
        { "address": "藤沢町徳田", "city": "一関市", "postcode": "0293404", "prefecture": "岩手県", "id": 748 },
        { "address": "藤沢町新沼", "city": "一関市", "postcode": "0293402", "prefecture": "岩手県", "id": 749 },
        { "address": "藤沢町西口", "city": "一関市", "postcode": "0293406", "prefecture": "岩手県", "id": 750 },
        { "address": "藤沢町藤沢", "city": "一関市", "postcode": "0293405", "prefecture": "岩手県", "id": 751 },
        { "address": "藤沢町保呂羽", "city": "一関市", "postcode": "0293521", "prefecture": "岩手県", "id": 752 },
        { "address": "藤沢町増沢", "city": "一関市", "postcode": "0293401", "prefecture": "岩手県", "id": 753 },
        { "address": "舞川", "city": "一関市", "postcode": "0210221", "prefecture": "岩手県", "id": 754 },
        { "address": "真柴", "city": "一関市", "postcode": "0210901", "prefecture": "岩手県", "id": 755 },
        { "address": "町浦", "city": "一関市", "postcode": "0210004", "prefecture": "岩手県", "id": 756 },
        { "address": "南十軒街", "city": "一関市", "postcode": "0210803", "prefecture": "岩手県", "id": 757 },
        { "address": "南新町", "city": "一関市", "postcode": "0210866", "prefecture": "岩手県", "id": 758 },
        { "address": "南ほうりょう", "city": "一関市", "postcode": "0210813", "prefecture": "岩手県", "id": 759 },
        { "address": "南町", "city": "一関市", "postcode": "0210863", "prefecture": "岩手県", "id": 760 },
        { "address": "宮坂町", "city": "一関市", "postcode": "0210872", "prefecture": "岩手県", "id": 761 },
        { "address": "宮下町", "city": "一関市", "postcode": "0210013", "prefecture": "岩手県", "id": 762 },
        { "address": "宮前町", "city": "一関市", "postcode": "0210012", "prefecture": "岩手県", "id": 763 },
        { "address": "室根町折壁", "city": "一関市", "postcode": "0291201", "prefecture": "岩手県", "id": 764 },
        { "address": "室根町津谷川", "city": "一関市", "postcode": "0291211", "prefecture": "岩手県", "id": 765 },
        { "address": "室根町矢越", "city": "一関市", "postcode": "0291202", "prefecture": "岩手県", "id": 766 },
        { "address": "弥栄", "city": "一関市", "postcode": "0290211", "prefecture": "岩手県", "id": 767 },
        { "address": "柳町", "city": "一関市", "postcode": "0210842", "prefecture": "岩手県", "id": 768 },
        { "address": "山目", "city": "一関市", "postcode": "0210063", "prefecture": "岩手県", "id": 769 },
        { "address": "山目", "city": "一関市", "postcode": "0210035", "prefecture": "岩手県", "id": 770 },
        { "address": "山目", "city": "一関市", "postcode": "0210054", "prefecture": "岩手県", "id": 771 },
        { "address": "山目", "city": "一関市", "postcode": "0210033", "prefecture": "岩手県", "id": 772 },
        { "address": "山目", "city": "一関市", "postcode": "0210064", "prefecture": "岩手県", "id": 773 },
        { "address": "山目", "city": "一関市", "postcode": "0210051", "prefecture": "岩手県", "id": 774 },
        { "address": "山目", "city": "一関市", "postcode": "0210036", "prefecture": "岩手県", "id": 775 },
        { "address": "山目", "city": "一関市", "postcode": "0210034", "prefecture": "岩手県", "id": 776 },
        { "address": "山目", "city": "一関市", "postcode": "0210061", "prefecture": "岩手県", "id": 777 },
        { "address": "山目", "city": "一関市", "postcode": "0210062", "prefecture": "岩手県", "id": 778 },
        { "address": "山目", "city": "一関市", "postcode": "0210055", "prefecture": "岩手県", "id": 779 },
        { "address": "山目", "city": "一関市", "postcode": "0210056", "prefecture": "岩手県", "id": 780 },
        { "address": "山目", "city": "一関市", "postcode": "0210053", "prefecture": "岩手県", "id": 781 },
        { "address": "山目", "city": "一関市", "postcode": "0210026", "prefecture": "岩手県", "id": 782 },
        { "address": "山目", "city": "一関市", "postcode": "0210025", "prefecture": "岩手県", "id": 783 },
        { "address": "山目町", "city": "一関市", "postcode": "0210011", "prefecture": "岩手県", "id": 784 },
        { "address": "豊町", "city": "一関市", "postcode": "0210805", "prefecture": "岩手県", "id": 785 },
        { "address": "要害", "city": "一関市", "postcode": "0210815", "prefecture": "岩手県", "id": 786 },
        { "address": "蘭梅町", "city": "一関市", "postcode": "0210014", "prefecture": "岩手県", "id": 787 },
        { "city": "陸前高田市", "postcode": "0292200", "prefecture": "岩手県", "id": 788 },
        { "address": "小友町", "city": "陸前高田市", "postcode": "0292207", "prefecture": "岩手県", "id": 789 },
        { "address": "気仙町", "city": "陸前高田市", "postcode": "0292204", "prefecture": "岩手県", "id": 790 },
        { "address": "高田町", "city": "陸前高田市", "postcode": "0292205", "prefecture": "岩手県", "id": 791 },
        { "address": "竹駒町", "city": "陸前高田市", "postcode": "0292203", "prefecture": "岩手県", "id": 792 },
        { "address": "広田町", "city": "陸前高田市", "postcode": "0292208", "prefecture": "岩手県", "id": 793 },
        { "address": "矢作町", "city": "陸前高田市", "postcode": "0292201", "prefecture": "岩手県", "id": 794 },
        { "address": "横田町", "city": "陸前高田市", "postcode": "0292202", "prefecture": "岩手県", "id": 795 },
        { "address": "米崎町", "city": "陸前高田市", "postcode": "0292206", "prefecture": "岩手県", "id": 796 },
        { "city": "釜石市", "postcode": "0260000", "prefecture": "岩手県", "id": 797 },
        { "address": "魚河岸", "city": "釜石市", "postcode": "0260012", "prefecture": "岩手県", "id": 798 },
        { "address": "鵜住居町", "city": "釜石市", "postcode": "0260301", "prefecture": "岩手県", "id": 799 },
        { "address": "嬉石町", "city": "釜石市", "postcode": "0260003", "prefecture": "岩手県", "id": 800 },
        { "address": "大只越町", "city": "釜石市", "postcode": "0260022", "prefecture": "岩手県", "id": 801 },
        { "address": "大平町", "city": "釜石市", "postcode": "0260002", "prefecture": "岩手県", "id": 802 },
        { "address": "大町", "city": "釜石市", "postcode": "0260024", "prefecture": "岩手県", "id": 803 },
        { "address": "大渡町", "city": "釜石市", "postcode": "0260025", "prefecture": "岩手県", "id": 804 },
        { "address": "片岸町", "city": "釜石市", "postcode": "0260302", "prefecture": "岩手県", "id": 805 },
        { "address": "甲子町", "city": "釜石市", "postcode": "0260055", "prefecture": "岩手県", "id": 806 },
        { "address": "釜石", "city": "釜石市", "postcode": "0260026", "prefecture": "岩手県", "id": 807 },
        { "address": "上中島町", "city": "釜石市", "postcode": "0260041", "prefecture": "岩手県", "id": 808 },
        { "address": "栗林町", "city": "釜石市", "postcode": "0260412", "prefecture": "岩手県", "id": 809 },
        { "address": "源太沢町", "city": "釜石市", "postcode": "0260042", "prefecture": "岩手県", "id": 810 },
        { "address": "小川町", "city": "釜石市", "postcode": "0260045", "prefecture": "岩手県", "id": 811 },
        { "address": "小佐野町", "city": "釜石市", "postcode": "0260052", "prefecture": "岩手県", "id": 812 },
        { "address": "駒木町", "city": "釜石市", "postcode": "0260033", "prefecture": "岩手県", "id": 813 },
        { "address": "桜木町", "city": "釜石市", "postcode": "0260046", "prefecture": "岩手県", "id": 814 },
        { "address": "定内町", "city": "釜石市", "postcode": "0260053", "prefecture": "岩手県", "id": 815 },
        { "address": "新浜町", "city": "釜石市", "postcode": "0260015", "prefecture": "岩手県", "id": 816 },
        { "address": "新町", "city": "釜石市", "postcode": "0260043", "prefecture": "岩手県", "id": 817 },
        { "address": "鈴子町", "city": "釜石市", "postcode": "0260031", "prefecture": "岩手県", "id": 818 },
        { "address": "住吉町", "city": "釜石市", "postcode": "0260044", "prefecture": "岩手県", "id": 819 },
        { "address": "只越町", "city": "釜石市", "postcode": "0260021", "prefecture": "岩手県", "id": 820 },
        { "address": "千鳥町", "city": "釜石市", "postcode": "0260032", "prefecture": "岩手県", "id": 821 },
        { "address": "天神町", "city": "釜石市", "postcode": "0260023", "prefecture": "岩手県", "id": 822 },
        { "address": "唐丹町", "city": "釜石市", "postcode": "0260061", "prefecture": "岩手県", "id": 823 },
        { "address": "唐丹町", "city": "釜石市", "postcode": "0260121", "prefecture": "岩手県", "id": 824 },
        { "address": "中妻町", "city": "釜石市", "postcode": "0260034", "prefecture": "岩手県", "id": 825 },
        { "address": "野田町", "city": "釜石市", "postcode": "0260054", "prefecture": "岩手県", "id": 826 },
        { "address": "箱崎町", "city": "釜石市", "postcode": "0260303", "prefecture": "岩手県", "id": 827 },
        { "address": "橋野町", "city": "釜石市", "postcode": "0260411", "prefecture": "岩手県", "id": 828 },
        { "address": "浜町", "city": "釜石市", "postcode": "0260013", "prefecture": "岩手県", "id": 829 },
        { "address": "東前町", "city": "釜石市", "postcode": "0260014", "prefecture": "岩手県", "id": 830 },
        { "address": "平田", "city": "釜石市", "postcode": "0260001", "prefecture": "岩手県", "id": 831 },
        { "address": "平田町", "city": "釜石市", "postcode": "0260005", "prefecture": "岩手県", "id": 832 },
        { "address": "松原町", "city": "釜石市", "postcode": "0260004", "prefecture": "岩手県", "id": 833 },
        { "address": "港町", "city": "釜石市", "postcode": "0260011", "prefecture": "岩手県", "id": 834 },
        { "address": "八雲町", "city": "釜石市", "postcode": "0260035", "prefecture": "岩手県", "id": 835 },
        { "address": "両石町", "city": "釜石市", "postcode": "0260304", "prefecture": "岩手県", "id": 836 },
        { "address": "礼ケ口町", "city": "釜石市", "postcode": "0260051", "prefecture": "岩手県", "id": 837 },
        { "city": "二戸市", "postcode": "0286100", "prefecture": "岩手県", "id": 838 },
        { "address": "安比", "city": "二戸市", "postcode": "0286723", "prefecture": "岩手県", "id": 839 },
        { "address": "石切所", "city": "二戸市", "postcode": "0286103", "prefecture": "岩手県", "id": 840 },
        { "address": "釜沢", "city": "二戸市", "postcode": "0285713", "prefecture": "岩手県", "id": 841 },
        { "address": "上斗米", "city": "二戸市", "postcode": "0286108", "prefecture": "岩手県", "id": 842 },
        { "address": "金田一", "city": "二戸市", "postcode": "0285711", "prefecture": "岩手県", "id": 843 },
        { "address": "下斗米", "city": "二戸市", "postcode": "0285702", "prefecture": "岩手県", "id": 844 },
        { "address": "下斗米", "city": "二戸市", "postcode": "0286102", "prefecture": "岩手県", "id": 845 },
        { "address": "浄法寺町合名沢", "city": "二戸市", "postcode": "0286857", "prefecture": "岩手県", "id": 846 },
        { "address": "浄法寺町飛鳥", "city": "二戸市", "postcode": "0286944", "prefecture": "岩手県", "id": 847 },
        { "address": "浄法寺町飛鳥谷地", "city": "二戸市", "postcode": "0286945", "prefecture": "岩手県", "id": 848 },
        { "address": "浄法寺町安比内", "city": "二戸市", "postcode": "0286946", "prefecture": "岩手県", "id": 849 },
        { "address": "浄法寺町安比内沢", "city": "二戸市", "postcode": "0286947", "prefecture": "岩手県", "id": 850 },
        { "address": "浄法寺町荒谷", "city": "二戸市", "postcode": "0286883", "prefecture": "岩手県", "id": 851 },
        { "address": "浄法寺町荒屋敷", "city": "二戸市", "postcode": "0286837", "prefecture": "岩手県", "id": 852 },
        { "address": "浄法寺町飯近", "city": "二戸市", "postcode": "0286866", "prefecture": "岩手県", "id": 853 },
        { "address": "浄法寺町家ノ上", "city": "二戸市", "postcode": "0286924", "prefecture": "岩手県", "id": 854 },
        { "address": "浄法寺町伊崎沢", "city": "二戸市", "postcode": "0286877", "prefecture": "岩手県", "id": 855 },
        { "address": "浄法寺町一反田", "city": "二戸市", "postcode": "0286874", "prefecture": "岩手県", "id": 856 },
        { "address": "浄法寺町岩渕", "city": "二戸市", "postcode": "0286847", "prefecture": "岩手県", "id": 857 },
        { "address": "浄法寺町後久保", "city": "二戸市", "postcode": "0286943", "prefecture": "岩手県", "id": 858 },
        { "address": "浄法寺町ウト坂", "city": "二戸市", "postcode": "0286848", "prefecture": "岩手県", "id": 859 },
        { "address": "浄法寺町馬洗場", "city": "二戸市", "postcode": "0286819", "prefecture": "岩手県", "id": 860 },
        { "address": "浄法寺町梅ノ木", "city": "二戸市", "postcode": "0286879", "prefecture": "岩手県", "id": 861 },
        { "address": "浄法寺町漆沢", "city": "二戸市", "postcode": "0286833", "prefecture": "岩手県", "id": 862 },
        { "address": "浄法寺町漆沢大久保", "city": "二戸市", "postcode": "0286817", "prefecture": "岩手県", "id": 863 },
        { "address": "浄法寺町漆沢上平", "city": "二戸市", "postcode": "0286832", "prefecture": "岩手県", "id": 864 },
        { "address": "浄法寺町漆沢上前田", "city": "二戸市", "postcode": "0286845", "prefecture": "岩手県", "id": 865 },
        { "address": "浄法寺町漆沢下平", "city": "二戸市", "postcode": "0286831", "prefecture": "岩手県", "id": 866 },
        {
            "address": "浄法寺町漆沢下モ前田",
            "city": "二戸市",
            "postcode": "0286835",
            "prefecture": "岩手県",
            "id": 867
        },
        { "address": "浄法寺町漆沢舘", "city": "二戸市", "postcode": "0286822", "prefecture": "岩手県", "id": 868 },
        { "address": "浄法寺町漆沢中前田", "city": "二戸市", "postcode": "0286842", "prefecture": "岩手県", "id": 869 },
        { "address": "浄法寺町漆畑", "city": "二戸市", "postcode": "0286985", "prefecture": "岩手県", "id": 870 },
        { "address": "浄法寺町漆原", "city": "二戸市", "postcode": "0286878", "prefecture": "岩手県", "id": 871 },
        { "address": "浄法寺町上野", "city": "二戸市", "postcode": "0286861", "prefecture": "岩手県", "id": 872 },
        { "address": "浄法寺町大志田", "city": "二戸市", "postcode": "0286873", "prefecture": "岩手県", "id": 873 },
        { "address": "浄法寺町大清水荒屋", "city": "二戸市", "postcode": "0286919", "prefecture": "岩手県", "id": 874 },
        {
            "address": "浄法寺町大清水下モ平",
            "city": "二戸市",
            "postcode": "0286916",
            "prefecture": "岩手県",
            "id": 875
        },
        {
            "address": "浄法寺町大清水空久保",
            "city": "二戸市",
            "postcode": "0286929",
            "prefecture": "岩手県",
            "id": 876
        },
        { "address": "浄法寺町大清水前田", "city": "二戸市", "postcode": "0286917", "prefecture": "岩手県", "id": 877 },
        { "address": "浄法寺町大平", "city": "二戸市", "postcode": "0286813", "prefecture": "岩手県", "id": 878 },
        { "address": "浄法寺町大手", "city": "二戸市", "postcode": "0286958", "prefecture": "岩手県", "id": 879 },
        { "address": "浄法寺町大畑", "city": "二戸市", "postcode": "0286937", "prefecture": "岩手県", "id": 880 },
        { "address": "浄法寺町岡本", "city": "二戸市", "postcode": "0286849", "prefecture": "岩手県", "id": 881 },
        { "address": "浄法寺町岡本前田", "city": "二戸市", "postcode": "0286844", "prefecture": "岩手県", "id": 882 },
        { "address": "浄法寺町長流部", "city": "二戸市", "postcode": "0286939", "prefecture": "岩手県", "id": 883 },
        { "address": "浄法寺町御山久保", "city": "二戸市", "postcode": "0286942", "prefecture": "岩手県", "id": 884 },
        { "address": "浄法寺町御山上平", "city": "二戸市", "postcode": "0286938", "prefecture": "岩手県", "id": 885 },
        { "address": "浄法寺町御山上野", "city": "二戸市", "postcode": "0286933", "prefecture": "岩手県", "id": 886 },
        { "address": "浄法寺町御山大久保", "city": "二戸市", "postcode": "0286952", "prefecture": "岩手県", "id": 887 },
        { "address": "浄法寺町御山下前田", "city": "二戸市", "postcode": "0286935", "prefecture": "岩手県", "id": 888 },
        { "address": "浄法寺町御山舘", "city": "二戸市", "postcode": "0286948", "prefecture": "岩手県", "id": 889 },
        { "address": "浄法寺町御山中前田", "city": "二戸市", "postcode": "0286941", "prefecture": "岩手県", "id": 890 },
        { "address": "浄法寺町御山前田", "city": "二戸市", "postcode": "0286949", "prefecture": "岩手県", "id": 891 },
        { "address": "浄法寺町海上", "city": "二戸市", "postcode": "0286966", "prefecture": "岩手県", "id": 892 },
        { "address": "浄法寺町海上田", "city": "二戸市", "postcode": "0286957", "prefecture": "岩手県", "id": 893 },
        { "address": "浄法寺町海上前田", "city": "二戸市", "postcode": "0286968", "prefecture": "岩手県", "id": 894 },
        { "address": "浄法寺町鏡田", "city": "二戸市", "postcode": "0286818", "prefecture": "岩手県", "id": 895 },
        { "address": "浄法寺町柿ノ木平", "city": "二戸市", "postcode": "0286984", "prefecture": "岩手県", "id": 896 },
        { "address": "浄法寺町桂平", "city": "二戸市", "postcode": "0286955", "prefecture": "岩手県", "id": 897 },
        { "address": "浄法寺町上杉沢", "city": "二戸市", "postcode": "0286906", "prefecture": "岩手県", "id": 898 },
        { "address": "浄法寺町上外野", "city": "二戸市", "postcode": "0286856", "prefecture": "岩手県", "id": 899 },
        { "address": "浄法寺町上前田", "city": "二戸市", "postcode": "0286911", "prefecture": "岩手県", "id": 900 },
        { "address": "浄法寺町上谷地", "city": "二戸市", "postcode": "0286816", "prefecture": "岩手県", "id": 901 },
        { "address": "浄法寺町川又", "city": "二戸市", "postcode": "0286826", "prefecture": "岩手県", "id": 902 },
        { "address": "浄法寺町門崎", "city": "二戸市", "postcode": "0286926", "prefecture": "岩手県", "id": 903 },
        { "address": "浄法寺町木沢畑向", "city": "二戸市", "postcode": "0286953", "prefecture": "岩手県", "id": 904 },
        { "address": "浄法寺町北村", "city": "二戸市", "postcode": "0286814", "prefecture": "岩手県", "id": 905 },
        { "address": "浄法寺町五庵", "city": "二戸市", "postcode": "0286981", "prefecture": "岩手県", "id": 906 },
        { "address": "浄法寺町小池", "city": "二戸市", "postcode": "0286851", "prefecture": "岩手県", "id": 907 },
        { "address": "浄法寺町小泉", "city": "二戸市", "postcode": "0286921", "prefecture": "岩手県", "id": 908 },
        { "address": "浄法寺町小平", "city": "二戸市", "postcode": "0286821", "prefecture": "岩手県", "id": 909 },
        { "address": "浄法寺町駒ケ嶺", "city": "二戸市", "postcode": "0286977", "prefecture": "岩手県", "id": 910 },
        { "address": "浄法寺町駒ケ嶺舘", "city": "二戸市", "postcode": "0286973", "prefecture": "岩手県", "id": 911 },
        { "address": "浄法寺町駒ケ嶺野田", "city": "二戸市", "postcode": "0286979", "prefecture": "岩手県", "id": 912 },
        { "address": "浄法寺町駒ケ嶺前田", "city": "二戸市", "postcode": "0286978", "prefecture": "岩手県", "id": 913 },
        { "address": "浄法寺町小又", "city": "二戸市", "postcode": "0286963", "prefecture": "岩手県", "id": 914 },
        { "address": "浄法寺町サイカツ田", "city": "二戸市", "postcode": "0286853", "prefecture": "岩手県", "id": 915 },
        { "address": "浄法寺町サイカツ平", "city": "二戸市", "postcode": "0286918", "prefecture": "岩手県", "id": 916 },
        { "address": "浄法寺町坂本", "city": "二戸市", "postcode": "0286903", "prefecture": "岩手県", "id": 917 },
        { "address": "浄法寺町桜田", "city": "二戸市", "postcode": "0286972", "prefecture": "岩手県", "id": 918 },
        { "address": "浄法寺町里川目", "city": "二戸市", "postcode": "0286872", "prefecture": "岩手県", "id": 919 },
        { "address": "浄法寺町里代", "city": "二戸市", "postcode": "0286904", "prefecture": "岩手県", "id": 920 },
        { "address": "浄法寺町沢田", "city": "二戸市", "postcode": "0286934", "prefecture": "岩手県", "id": 921 },
        { "address": "浄法寺町山内", "city": "二戸市", "postcode": "0286928", "prefecture": "岩手県", "id": 922 },
        { "address": "浄法寺町下タ前田", "city": "二戸市", "postcode": "0286846", "prefecture": "岩手県", "id": 923 },
        { "address": "浄法寺町下村", "city": "二戸市", "postcode": "0286923", "prefecture": "岩手県", "id": 924 },
        { "address": "浄法寺町尻平", "city": "二戸市", "postcode": "0286931", "prefecture": "岩手県", "id": 925 },
        { "address": "浄法寺町清水尻", "city": "二戸市", "postcode": "0286951", "prefecture": "岩手県", "id": 926 },
        { "address": "浄法寺町季ケ平", "city": "二戸市", "postcode": "0286907", "prefecture": "岩手県", "id": 927 },
        { "address": "浄法寺町下沢", "city": "二戸市", "postcode": "0286812", "prefecture": "岩手県", "id": 928 },
        { "address": "浄法寺町下ノ沢", "city": "二戸市", "postcode": "0286913", "prefecture": "岩手県", "id": 929 },
        { "address": "浄法寺町下藤", "city": "二戸市", "postcode": "0286983", "prefecture": "岩手県", "id": 930 },
        { "address": "浄法寺町下前田", "city": "二戸市", "postcode": "0286854", "prefecture": "岩手県", "id": 931 },
        { "address": "浄法寺町霜屋敷", "city": "二戸市", "postcode": "0286915", "prefecture": "岩手県", "id": 932 },
        { "address": "浄法寺町下谷地", "city": "二戸市", "postcode": "0286922", "prefecture": "岩手県", "id": 933 },
        { "address": "浄法寺町浄法寺", "city": "二戸市", "postcode": "0286855", "prefecture": "岩手県", "id": 934 },
        { "address": "浄法寺町新山", "city": "二戸市", "postcode": "0286884", "prefecture": "岩手県", "id": 935 },
        { "address": "浄法寺町関田", "city": "二戸市", "postcode": "0286836", "prefecture": "岩手県", "id": 936 },
        { "address": "浄法寺町惣川原田", "city": "二戸市", "postcode": "0286967", "prefecture": "岩手県", "id": 937 },
        { "address": "浄法寺町空久保", "city": "二戸市", "postcode": "0286905", "prefecture": "岩手県", "id": 938 },
        { "address": "浄法寺町大坊", "city": "二戸市", "postcode": "0286956", "prefecture": "岩手県", "id": 939 },
        { "address": "浄法寺町滝見橋", "city": "二戸市", "postcode": "0286961", "prefecture": "岩手県", "id": 940 },
        { "address": "浄法寺町田子内沢", "city": "二戸市", "postcode": "0286876", "prefecture": "岩手県", "id": 941 },
        { "address": "浄法寺町舘", "city": "二戸市", "postcode": "0286875", "prefecture": "岩手県", "id": 942 },
        { "address": "浄法寺町田余内", "city": "二戸市", "postcode": "0286975", "prefecture": "岩手県", "id": 943 },
        { "address": "浄法寺町長者花", "city": "二戸市", "postcode": "0286868", "prefecture": "岩手県", "id": 944 },
        { "address": "浄法寺町堤口", "city": "二戸市", "postcode": "0286843", "prefecture": "岩手県", "id": 945 },
        { "address": "浄法寺町手倉森", "city": "二戸市", "postcode": "0286811", "prefecture": "岩手県", "id": 946 },
        { "address": "浄法寺町寺ノ上", "city": "二戸市", "postcode": "0286862", "prefecture": "岩手県", "id": 947 },
        { "address": "浄法寺町樋口", "city": "二戸市", "postcode": "0286976", "prefecture": "岩手県", "id": 948 },
        { "address": "浄法寺町樋田", "city": "二戸市", "postcode": "0286852", "prefecture": "岩手県", "id": 949 },
        { "address": "浄法寺町長坂", "city": "二戸市", "postcode": "0286825", "prefecture": "岩手県", "id": 950 },
        { "address": "浄法寺町長渡路", "city": "二戸市", "postcode": "0286936", "prefecture": "岩手県", "id": 951 },
        { "address": "浄法寺町中畑", "city": "二戸市", "postcode": "0286974", "prefecture": "岩手県", "id": 952 },
        { "address": "浄法寺町中前田", "city": "二戸市", "postcode": "0286912", "prefecture": "岩手県", "id": 953 },
        { "address": "浄法寺町西ノ沢", "city": "二戸市", "postcode": "0286824", "prefecture": "岩手県", "id": 954 },
        { "address": "浄法寺町沼久保", "city": "二戸市", "postcode": "0286964", "prefecture": "岩手県", "id": 955 },
        { "address": "浄法寺町野黒沢", "city": "二戸市", "postcode": "0286908", "prefecture": "岩手県", "id": 956 },
        { "address": "浄法寺町野田", "city": "二戸市", "postcode": "0286865", "prefecture": "岩手県", "id": 957 },
        { "address": "浄法寺町梅田", "city": "二戸市", "postcode": "0286925", "prefecture": "岩手県", "id": 958 },
        { "address": "浄法寺町八幡舘", "city": "二戸市", "postcode": "0286863", "prefecture": "岩手県", "id": 959 },
        { "address": "浄法寺町八方口", "city": "二戸市", "postcode": "0286815", "prefecture": "岩手県", "id": 960 },
        { "address": "浄法寺町馬場向", "city": "二戸市", "postcode": "0286962", "prefecture": "岩手県", "id": 961 },
        { "address": "浄法寺町端保口", "city": "二戸市", "postcode": "0286969", "prefecture": "岩手県", "id": 962 },
        { "address": "浄法寺町早坂", "city": "二戸市", "postcode": "0286954", "prefecture": "岩手県", "id": 963 },
        { "address": "浄法寺町羽余内", "city": "二戸市", "postcode": "0286882", "prefecture": "岩手県", "id": 964 },
        { "address": "浄法寺町深堀", "city": "二戸市", "postcode": "0286901", "prefecture": "岩手県", "id": 965 },
        { "address": "浄法寺町細田", "city": "二戸市", "postcode": "0286834", "prefecture": "岩手県", "id": 966 },
        { "address": "浄法寺町松岡", "city": "二戸市", "postcode": "0286841", "prefecture": "岩手県", "id": 967 },
        { "address": "浄法寺町松畑", "city": "二戸市", "postcode": "0286932", "prefecture": "岩手県", "id": 968 },
        { "address": "浄法寺町宮沢", "city": "二戸市", "postcode": "0286823", "prefecture": "岩手県", "id": 969 },
        { "address": "浄法寺町明神沢", "city": "二戸市", "postcode": "0286902", "prefecture": "岩手県", "id": 970 },
        { "address": "浄法寺町向川原", "city": "二戸市", "postcode": "0286971", "prefecture": "岩手県", "id": 971 },
        { "address": "浄法寺町向田", "city": "二戸市", "postcode": "0286838", "prefecture": "岩手県", "id": 972 },
        { "address": "浄法寺町森越", "city": "二戸市", "postcode": "0286885", "prefecture": "岩手県", "id": 973 },
        { "address": "浄法寺町門前向", "city": "二戸市", "postcode": "0286864", "prefecture": "岩手県", "id": 974 },
        { "address": "浄法寺町焼場", "city": "二戸市", "postcode": "0286867", "prefecture": "岩手県", "id": 975 },
        { "address": "浄法寺町安戸", "city": "二戸市", "postcode": "0286871", "prefecture": "岩手県", "id": 976 },
        { "address": "浄法寺町谷地屋敷", "city": "二戸市", "postcode": "0286965", "prefecture": "岩手県", "id": 977 },
        { "address": "浄法寺町焼切", "city": "二戸市", "postcode": "0286982", "prefecture": "岩手県", "id": 978 },
        { "address": "浄法寺町湯沢", "city": "二戸市", "postcode": "0286927", "prefecture": "岩手県", "id": 979 },
        { "address": "浄法寺町和泉田", "city": "二戸市", "postcode": "0286914", "prefecture": "岩手県", "id": 980 },
        { "address": "浄法寺町渡ノ羽", "city": "二戸市", "postcode": "0286881", "prefecture": "岩手県", "id": 981 },
        { "address": "白鳥", "city": "二戸市", "postcode": "0286107", "prefecture": "岩手県", "id": 982 },
        { "address": "足沢", "city": "二戸市", "postcode": "0286724", "prefecture": "岩手県", "id": 983 },
        { "address": "仁左平", "city": "二戸市", "postcode": "0286106", "prefecture": "岩手県", "id": 984 },
        { "address": "似鳥", "city": "二戸市", "postcode": "0286721", "prefecture": "岩手県", "id": 985 },
        { "address": "野々上", "city": "二戸市", "postcode": "0285712", "prefecture": "岩手県", "id": 986 },
        { "address": "福岡", "city": "二戸市", "postcode": "0286101", "prefecture": "岩手県", "id": 987 },
        { "address": "福田", "city": "二戸市", "postcode": "0286722", "prefecture": "岩手県", "id": 988 },
        { "address": "堀野", "city": "二戸市", "postcode": "0286105", "prefecture": "岩手県", "id": 989 },
        { "address": "米沢", "city": "二戸市", "postcode": "0286104", "prefecture": "岩手県", "id": 990 },
        { "city": "八幡平市", "postcode": "0287100", "prefecture": "岩手県", "id": 991 },
        { "address": "相沢", "city": "八幡平市", "postcode": "0287619", "prefecture": "岩手県", "id": 992 },
        { "address": "愛の山", "city": "八幡平市", "postcode": "0287635", "prefecture": "岩手県", "id": 993 },
        { "address": "赤子平", "city": "八幡平市", "postcode": "0287526", "prefecture": "岩手県", "id": 994 },
        { "address": "赤坂田", "city": "八幡平市", "postcode": "0287554", "prefecture": "岩手県", "id": 995 },
        { "address": "足深", "city": "八幡平市", "postcode": "0287679", "prefecture": "岩手県", "id": 996 },
        { "address": "安代寺田", "city": "八幡平市", "postcode": "0287506", "prefecture": "岩手県", "id": 997 },
        { "address": "安代寄木", "city": "八幡平市", "postcode": "0287552", "prefecture": "岩手県", "id": 998 },
        { "address": "安比高原", "city": "八幡平市", "postcode": "0287306", "prefecture": "岩手県", "id": 999 },
        { "address": "兄川", "city": "八幡平市", "postcode": "0287621", "prefecture": "岩手県", "id": 1000 },
        { "address": "兄畑中川原", "city": "八幡平市", "postcode": "0287622", "prefecture": "岩手県", "id": 1001 },
        { "address": "荒木田", "city": "八幡平市", "postcode": "0287406", "prefecture": "岩手県", "id": 1002 },
        { "address": "荒屋新町", "city": "八幡平市", "postcode": "0287534", "prefecture": "岩手県", "id": 1003 },
        { "address": "家ノ裏", "city": "八幡平市", "postcode": "0287674", "prefecture": "岩手県", "id": 1004 },
        { "address": "石神", "city": "八幡平市", "postcode": "0287521", "prefecture": "岩手県", "id": 1005 },
        { "address": "石名坂", "city": "八幡平市", "postcode": "0287615", "prefecture": "岩手県", "id": 1006 },
        { "address": "石名坂下タ", "city": "八幡平市", "postcode": "0287614", "prefecture": "岩手県", "id": 1007 },
        { "address": "石森", "city": "八幡平市", "postcode": "0287663", "prefecture": "岩手県", "id": 1008 },
        { "address": "五日市", "city": "八幡平市", "postcode": "0287562", "prefecture": "岩手県", "id": 1009 },
        { "address": "岩木向", "city": "八幡平市", "postcode": "0287501", "prefecture": "岩手県", "id": 1010 },
        { "address": "岩屋", "city": "八幡平市", "postcode": "0287505", "prefecture": "岩手県", "id": 1011 },
        { "address": "上の山", "city": "八幡平市", "postcode": "0287531", "prefecture": "岩手県", "id": 1012 },
        { "address": "丑山", "city": "八幡平市", "postcode": "0287602", "prefecture": "岩手県", "id": 1013 },
        { "address": "丑山口", "city": "八幡平市", "postcode": "0287604", "prefecture": "岩手県", "id": 1014 },
        { "address": "打田内", "city": "八幡平市", "postcode": "0287536", "prefecture": "岩手県", "id": 1015 },
        { "address": "鵜谷地", "city": "八幡平市", "postcode": "0287605", "prefecture": "岩手県", "id": 1016 },
        { "address": "姥子石", "city": "八幡平市", "postcode": "0287606", "prefecture": "岩手県", "id": 1017 },
        { "address": "馬揚沢", "city": "八幡平市", "postcode": "0287655", "prefecture": "岩手県", "id": 1018 },
        { "address": "上関", "city": "八幡平市", "postcode": "0287403", "prefecture": "岩手県", "id": 1019 },
        { "address": "扇畑", "city": "八幡平市", "postcode": "0287553", "prefecture": "岩手県", "id": 1020 },
        { "address": "大沢", "city": "八幡平市", "postcode": "0287661", "prefecture": "岩手県", "id": 1021 },
        { "address": "大沢田", "city": "八幡平市", "postcode": "0287664", "prefecture": "岩手県", "id": 1022 },
        { "address": "大面平", "city": "八幡平市", "postcode": "0287607", "prefecture": "岩手県", "id": 1023 },
        { "address": "大更", "city": "八幡平市", "postcode": "0287111", "prefecture": "岩手県", "id": 1024 },
        { "address": "大又沢口", "city": "八幡平市", "postcode": "0287624", "prefecture": "岩手県", "id": 1025 },
        { "address": "沖田表", "city": "八幡平市", "postcode": "0287611", "prefecture": "岩手県", "id": 1026 },
        { "address": "沖ノ平", "city": "八幡平市", "postcode": "0287625", "prefecture": "岩手県", "id": 1027 },
        { "address": "折壁", "city": "八幡平市", "postcode": "0287617", "prefecture": "岩手県", "id": 1028 },
        { "address": "欠田", "city": "八幡平市", "postcode": "0287612", "prefecture": "岩手県", "id": 1029 },
        { "address": "柏台", "city": "八幡平市", "postcode": "0287303", "prefecture": "岩手県", "id": 1030 },
        { "address": "帷子", "city": "八幡平市", "postcode": "0287402", "prefecture": "岩手県", "id": 1031 },
        { "address": "叺田", "city": "八幡平市", "postcode": "0287533", "prefecture": "岩手県", "id": 1032 },
        { "address": "上岩木", "city": "八幡平市", "postcode": "0287502", "prefecture": "岩手県", "id": 1033 },
        { "address": "川原", "city": "八幡平市", "postcode": "0287527", "prefecture": "岩手県", "id": 1034 },
        { "address": "切通", "city": "八幡平市", "postcode": "0287643", "prefecture": "岩手県", "id": 1035 },
        { "address": "栗木田", "city": "八幡平市", "postcode": "0287657", "prefecture": "岩手県", "id": 1036 },
        { "address": "黒沢", "city": "八幡平市", "postcode": "0287555", "prefecture": "岩手県", "id": 1037 },
        { "address": "小岩井", "city": "八幡平市", "postcode": "0287628", "prefecture": "岩手県", "id": 1038 },
        { "address": "小峠", "city": "八幡平市", "postcode": "0287654", "prefecture": "岩手県", "id": 1039 },
        { "address": "小原道ノ上", "city": "八幡平市", "postcode": "0287632", "prefecture": "岩手県", "id": 1040 },
        { "address": "小原道ノ下", "city": "八幡平市", "postcode": "0287638", "prefecture": "岩手県", "id": 1041 },
        { "address": "小森", "city": "八幡平市", "postcode": "0287678", "prefecture": "岩手県", "id": 1042 },
        { "address": "小柳田", "city": "八幡平市", "postcode": "0287532", "prefecture": "岩手県", "id": 1043 },
        { "address": "小屋畑", "city": "八幡平市", "postcode": "0287543", "prefecture": "岩手県", "id": 1044 },
        { "address": "左妻", "city": "八幡平市", "postcode": "0287656", "prefecture": "岩手県", "id": 1045 },
        { "address": "佐比内", "city": "八幡平市", "postcode": "0287627", "prefecture": "岩手県", "id": 1046 },
        { "address": "沢口", "city": "八幡平市", "postcode": "0287676", "prefecture": "岩手県", "id": 1047 },
        { "address": "下タ川原", "city": "八幡平市", "postcode": "0287645", "prefecture": "岩手県", "id": 1048 },
        { "address": "下町", "city": "八幡平市", "postcode": "0287561", "prefecture": "岩手県", "id": 1049 },
        { "address": "清水", "city": "八幡平市", "postcode": "0287535", "prefecture": "岩手県", "id": 1050 },
        { "address": "下モ川原", "city": "八幡平市", "postcode": "0287675", "prefecture": "岩手県", "id": 1051 },
        { "address": "下の田", "city": "八幡平市", "postcode": "0287511", "prefecture": "岩手県", "id": 1052 },
        { "address": "蛇石", "city": "八幡平市", "postcode": "0287618", "prefecture": "岩手県", "id": 1053 },
        { "address": "勝善川原", "city": "八幡平市", "postcode": "0287642", "prefecture": "岩手県", "id": 1054 },
        { "address": "白沢口", "city": "八幡平市", "postcode": "0287629", "prefecture": "岩手県", "id": 1055 },
        { "address": "新田", "city": "八幡平市", "postcode": "0287551", "prefecture": "岩手県", "id": 1056 },
        { "address": "杉沢", "city": "八幡平市", "postcode": "0287662", "prefecture": "岩手県", "id": 1057 },
        { "address": "雀長根", "city": "八幡平市", "postcode": "0287644", "prefecture": "岩手県", "id": 1058 },
        { "address": "関沢口", "city": "八幡平市", "postcode": "0287516", "prefecture": "岩手県", "id": 1059 },
        { "address": "瀬ノ沢", "city": "八幡平市", "postcode": "0287631", "prefecture": "岩手県", "id": 1060 },
        { "address": "平舘", "city": "八幡平市", "postcode": "0287405", "prefecture": "岩手県", "id": 1061 },
        { "address": "高畑", "city": "八幡平市", "postcode": "0287542", "prefecture": "岩手県", "id": 1062 },
        { "address": "滝沢", "city": "八幡平市", "postcode": "0287566", "prefecture": "岩手県", "id": 1063 },
        { "address": "田沢", "city": "八幡平市", "postcode": "0287601", "prefecture": "岩手県", "id": 1064 },
        { "address": "舘市", "city": "八幡平市", "postcode": "0287623", "prefecture": "岩手県", "id": 1065 },
        { "address": "田中下タ", "city": "八幡平市", "postcode": "0287672", "prefecture": "岩手県", "id": 1066 },
        { "address": "田の沢", "city": "八幡平市", "postcode": "0287563", "prefecture": "岩手県", "id": 1067 },
        { "address": "田山", "city": "八幡平市", "postcode": "0287677", "prefecture": "岩手県", "id": 1068 },
        { "address": "長者前", "city": "八幡平市", "postcode": "0287651", "prefecture": "岩手県", "id": 1069 },
        { "address": "土沢", "city": "八幡平市", "postcode": "0287513", "prefecture": "岩手県", "id": 1070 },
        { "address": "繋沢", "city": "八幡平市", "postcode": "0287523", "prefecture": "岩手県", "id": 1071 },
        { "address": "寺志田", "city": "八幡平市", "postcode": "0287541", "prefecture": "岩手県", "id": 1072 },
        { "address": "田頭", "city": "八幡平市", "postcode": "0287112", "prefecture": "岩手県", "id": 1073 },
        { "address": "戸鎖", "city": "八幡平市", "postcode": "0287626", "prefecture": "岩手県", "id": 1074 },
        { "address": "戸沢", "city": "八幡平市", "postcode": "0287567", "prefecture": "岩手県", "id": 1075 },
        { "address": "殿坂下タ", "city": "八幡平市", "postcode": "0287673", "prefecture": "岩手県", "id": 1076 },
        { "address": "中佐井", "city": "八幡平市", "postcode": "0287514", "prefecture": "岩手県", "id": 1077 },
        { "address": "中田", "city": "八幡平市", "postcode": "0287503", "prefecture": "岩手県", "id": 1078 },
        { "address": "西根寺田", "city": "八幡平市", "postcode": "0287401", "prefecture": "岩手県", "id": 1079 },
        { "address": "根石", "city": "八幡平市", "postcode": "0287652", "prefecture": "岩手県", "id": 1080 },
        { "address": "野駄", "city": "八幡平市", "postcode": "0287301", "prefecture": "岩手県", "id": 1081 },
        { "address": "八幡平温泉郷", "city": "八幡平市", "postcode": "0287302", "prefecture": "岩手県", "id": 1082 },
        { "address": "馬場下", "city": "八幡平市", "postcode": "0287671", "prefecture": "岩手県", "id": 1083 },
        { "address": "日影", "city": "八幡平市", "postcode": "0287525", "prefecture": "岩手県", "id": 1084 },
        { "address": "日泥道ノ上", "city": "八幡平市", "postcode": "0287633", "prefecture": "岩手県", "id": 1085 },
        { "address": "日泥道ノ下", "city": "八幡平市", "postcode": "0287637", "prefecture": "岩手県", "id": 1086 },
        { "address": "平笠", "city": "八幡平市", "postcode": "0287113", "prefecture": "岩手県", "id": 1087 },
        { "address": "平又", "city": "八幡平市", "postcode": "0287653", "prefecture": "岩手県", "id": 1088 },
        { "address": "比路平", "city": "八幡平市", "postcode": "0287641", "prefecture": "岩手県", "id": 1089 },
        { "address": "二タ子", "city": "八幡平市", "postcode": "0287616", "prefecture": "岩手県", "id": 1090 },
        { "address": "古屋敷", "city": "八幡平市", "postcode": "0287515", "prefecture": "岩手県", "id": 1091 },
        { "address": "星沢", "city": "八幡平市", "postcode": "0287556", "prefecture": "岩手県", "id": 1092 },
        { "address": "細野", "city": "八幡平市", "postcode": "0287557", "prefecture": "岩手県", "id": 1093 },
        { "address": "保戸坂", "city": "八幡平市", "postcode": "0287544", "prefecture": "岩手県", "id": 1094 },
        { "address": "堀切", "city": "八幡平市", "postcode": "0287404", "prefecture": "岩手県", "id": 1095 },
        { "address": "前田", "city": "八幡平市", "postcode": "0287504", "prefecture": "岩手県", "id": 1096 },
        { "address": "曲田", "city": "八幡平市", "postcode": "0287537", "prefecture": "岩手県", "id": 1097 },
        { "address": "亦戸川原", "city": "八幡平市", "postcode": "0287613", "prefecture": "岩手県", "id": 1098 },
        { "address": "松尾", "city": "八幡平市", "postcode": "0287305", "prefecture": "岩手県", "id": 1099 },
        { "address": "松木田", "city": "八幡平市", "postcode": "0287545", "prefecture": "岩手県", "id": 1100 },
        { "address": "緑ガ丘", "city": "八幡平市", "postcode": "0287304", "prefecture": "岩手県", "id": 1101 },
        { "address": "目名市", "city": "八幡平市", "postcode": "0287565", "prefecture": "岩手県", "id": 1102 },
        { "address": "矢神", "city": "八幡平市", "postcode": "0287603", "prefecture": "岩手県", "id": 1103 },
        { "address": "谷地田", "city": "八幡平市", "postcode": "0287564", "prefecture": "岩手県", "id": 1104 },
        { "address": "谷地中", "city": "八幡平市", "postcode": "0287608", "prefecture": "岩手県", "id": 1105 },
        { "address": "山岸", "city": "八幡平市", "postcode": "0287512", "prefecture": "岩手県", "id": 1106 },
        { "address": "山口", "city": "八幡平市", "postcode": "0287522", "prefecture": "岩手県", "id": 1107 },
        { "address": "湯の沢", "city": "八幡平市", "postcode": "0287524", "prefecture": "岩手県", "id": 1108 },
        { "address": "和屋敷道ノ上", "city": "八幡平市", "postcode": "0287634", "prefecture": "岩手県", "id": 1109 },
        { "address": "和屋敷道ノ下", "city": "八幡平市", "postcode": "0287636", "prefecture": "岩手県", "id": 1110 },
        { "city": "奥州市", "postcode": "0230000", "prefecture": "岩手県", "id": 1111 },
        { "address": "胆沢小山", "city": "奥州市", "postcode": "0230402", "prefecture": "岩手県", "id": 1112 },
        { "address": "胆沢南都田", "city": "奥州市", "postcode": "0230401", "prefecture": "岩手県", "id": 1113 },
        { "address": "胆沢若柳", "city": "奥州市", "postcode": "0230403", "prefecture": "岩手県", "id": 1114 },
        { "address": "江刺伊手", "city": "奥州市", "postcode": "0231761", "prefecture": "岩手県", "id": 1115 },
        { "address": "江刺稲瀬", "city": "奥州市", "postcode": "0231132", "prefecture": "岩手県", "id": 1116 },
        { "address": "江刺岩谷堂", "city": "奥州市", "postcode": "0231101", "prefecture": "岩手県", "id": 1117 },
        { "address": "江刺大通り", "city": "奥州市", "postcode": "0231111", "prefecture": "岩手県", "id": 1118 },
        { "address": "江刺愛宕", "city": "奥州市", "postcode": "0231131", "prefecture": "岩手県", "id": 1119 },
        { "address": "江刺男石", "city": "奥州市", "postcode": "0231121", "prefecture": "岩手県", "id": 1120 },
        { "address": "江刺川原町", "city": "奥州市", "postcode": "0231114", "prefecture": "岩手県", "id": 1121 },
        { "address": "江刺栄町", "city": "奥州市", "postcode": "0231118", "prefecture": "岩手県", "id": 1122 },
        { "address": "江刺杉ノ町", "city": "奥州市", "postcode": "0231105", "prefecture": "岩手県", "id": 1123 },
        { "address": "江刺銭町", "city": "奥州市", "postcode": "0231125", "prefecture": "岩手県", "id": 1124 },
        { "address": "江刺館山", "city": "奥州市", "postcode": "0231122", "prefecture": "岩手県", "id": 1125 },
        { "address": "江刺玉里", "city": "奥州市", "postcode": "0231134", "prefecture": "岩手県", "id": 1126 },
        { "address": "江刺田原", "city": "奥州市", "postcode": "0230171", "prefecture": "岩手県", "id": 1127 },
        { "address": "江刺重染寺", "city": "奥州市", "postcode": "0231116", "prefecture": "岩手県", "id": 1128 },
        { "address": "江刺豊田町", "city": "奥州市", "postcode": "0231104", "prefecture": "岩手県", "id": 1129 },
        { "address": "江刺中町", "city": "奥州市", "postcode": "0231113", "prefecture": "岩手県", "id": 1130 },
        { "address": "江刺西大通り", "city": "奥州市", "postcode": "0231103", "prefecture": "岩手県", "id": 1131 },
        { "address": "江刺広瀬", "city": "奥州市", "postcode": "0231133", "prefecture": "岩手県", "id": 1132 },
        { "address": "江刺藤里", "city": "奥州市", "postcode": "0231762", "prefecture": "岩手県", "id": 1133 },
        { "address": "江刺本町", "city": "奥州市", "postcode": "0231115", "prefecture": "岩手県", "id": 1134 },
        { "address": "江刺前田町", "city": "奥州市", "postcode": "0231123", "prefecture": "岩手県", "id": 1135 },
        { "address": "江刺南大通り", "city": "奥州市", "postcode": "0231112", "prefecture": "岩手県", "id": 1136 },
        { "address": "江刺南町", "city": "奥州市", "postcode": "0231117", "prefecture": "岩手県", "id": 1137 },
        { "address": "江刺六日町", "city": "奥州市", "postcode": "0231124", "prefecture": "岩手県", "id": 1138 },
        { "address": "江刺梁川", "city": "奥州市", "postcode": "0231341", "prefecture": "岩手県", "id": 1139 },
        { "address": "江刺八日町", "city": "奥州市", "postcode": "0231102", "prefecture": "岩手県", "id": 1140 },
        { "address": "江刺米里", "city": "奥州市", "postcode": "0231551", "prefecture": "岩手県", "id": 1141 },
        { "address": "衣川愛宕下", "city": "奥州市", "postcode": "0294426", "prefecture": "岩手県", "id": 1142 },
        { "address": "衣川天田", "city": "奥州市", "postcode": "0294315", "prefecture": "岩手県", "id": 1143 },
        { "address": "衣川天土", "city": "奥州市", "postcode": "0294365", "prefecture": "岩手県", "id": 1144 },
        { "address": "衣川有浦", "city": "奥州市", "postcode": "0294307", "prefecture": "岩手県", "id": 1145 },
        { "address": "衣川池田", "city": "奥州市", "postcode": "0294434", "prefecture": "岩手県", "id": 1146 },
        { "address": "衣川池田西", "city": "奥州市", "postcode": "0294433", "prefecture": "岩手県", "id": 1147 },
        { "address": "衣川石ヶ沢", "city": "奥州市", "postcode": "0294381", "prefecture": "岩手県", "id": 1148 },
        { "address": "衣川石神", "city": "奥州市", "postcode": "0294384", "prefecture": "岩手県", "id": 1149 },
        { "address": "衣川石生", "city": "奥州市", "postcode": "0294313", "prefecture": "岩手県", "id": 1150 },
        { "address": "衣川板倉", "city": "奥州市", "postcode": "0294322", "prefecture": "岩手県", "id": 1151 },
        { "address": "衣川岩の上", "city": "奥州市", "postcode": "0294352", "prefecture": "岩手県", "id": 1152 },
        { "address": "衣川後滝の沢", "city": "奥州市", "postcode": "0294465", "prefecture": "岩手県", "id": 1153 },
        { "address": "衣川後山", "city": "奥州市", "postcode": "0294377", "prefecture": "岩手県", "id": 1154 },
        { "address": "衣川畦畑", "city": "奥州市", "postcode": "0294482", "prefecture": "岩手県", "id": 1155 },
        { "address": "衣川畦畑山", "city": "奥州市", "postcode": "0294481", "prefecture": "岩手県", "id": 1156 },
        { "address": "衣川采女沢", "city": "奥州市", "postcode": "0294425", "prefecture": "岩手県", "id": 1157 },
        { "address": "衣川上野", "city": "奥州市", "postcode": "0294442", "prefecture": "岩手県", "id": 1158 },
        { "address": "衣川雲南田", "city": "奥州市", "postcode": "0294321", "prefecture": "岩手県", "id": 1159 },
        { "address": "衣川大石ヶ沢", "city": "奥州市", "postcode": "0294436", "prefecture": "岩手県", "id": 1160 },
        { "address": "衣川大坂", "city": "奥州市", "postcode": "0294406", "prefecture": "岩手県", "id": 1161 },
        { "address": "衣川大平", "city": "奥州市", "postcode": "0294308", "prefecture": "岩手県", "id": 1162 },
        { "address": "衣川大面", "city": "奥州市", "postcode": "0294419", "prefecture": "岩手県", "id": 1163 },
        { "address": "衣川大西", "city": "奥州市", "postcode": "0294347", "prefecture": "岩手県", "id": 1164 },
        { "address": "衣川大原", "city": "奥州市", "postcode": "0294488", "prefecture": "岩手県", "id": 1165 },
        { "address": "衣川大原山", "city": "奥州市", "postcode": "0294487", "prefecture": "岩手県", "id": 1166 },
        { "address": "衣川沖の野", "city": "奥州市", "postcode": "0294383", "prefecture": "岩手県", "id": 1167 },
        { "address": "衣川押切", "city": "奥州市", "postcode": "0294435", "prefecture": "岩手県", "id": 1168 },
        { "address": "衣川表", "city": "奥州市", "postcode": "0294454", "prefecture": "岩手県", "id": 1169 },
        { "address": "衣川女石", "city": "奥州市", "postcode": "0294386", "prefecture": "岩手県", "id": 1170 },
        { "address": "衣川懸田", "city": "奥州市", "postcode": "0294326", "prefecture": "岩手県", "id": 1171 },
        { "address": "衣川月山", "city": "奥州市", "postcode": "0294452", "prefecture": "岩手県", "id": 1172 },
        { "address": "衣川上大森", "city": "奥州市", "postcode": "0294388", "prefecture": "岩手県", "id": 1173 },
        { "address": "衣川上河内", "city": "奥州市", "postcode": "0294474", "prefecture": "岩手県", "id": 1174 },
        { "address": "衣川上小路", "city": "奥州市", "postcode": "0294411", "prefecture": "岩手県", "id": 1175 },
        { "address": "衣川上立沢", "city": "奥州市", "postcode": "0294491", "prefecture": "岩手県", "id": 1176 },
        { "address": "衣川上寺田", "city": "奥州市", "postcode": "0294329", "prefecture": "岩手県", "id": 1177 },
        { "address": "衣川唐金", "city": "奥州市", "postcode": "0294437", "prefecture": "岩手県", "id": 1178 },
        { "address": "衣川川端", "city": "奥州市", "postcode": "0294446", "prefecture": "岩手県", "id": 1179 },
        { "address": "衣川金成", "city": "奥州市", "postcode": "0294407", "prefecture": "岩手県", "id": 1180 },
        { "address": "衣川衣原", "city": "奥州市", "postcode": "0294303", "prefecture": "岩手県", "id": 1181 },
        { "address": "衣川旧殿", "city": "奥州市", "postcode": "0294353", "prefecture": "岩手県", "id": 1182 },
        { "address": "衣川鞍掛", "city": "奥州市", "postcode": "0294375", "prefecture": "岩手県", "id": 1183 },
        { "address": "衣川九輪堂", "city": "奥州市", "postcode": "0294424", "prefecture": "岩手県", "id": 1184 },
        { "address": "衣川桑木谷地", "city": "奥州市", "postcode": "0294405", "prefecture": "岩手県", "id": 1185 },
        { "address": "衣川桑畑", "city": "奥州市", "postcode": "0294317", "prefecture": "岩手県", "id": 1186 },
        { "address": "衣川小安代", "city": "奥州市", "postcode": "0294323", "prefecture": "岩手県", "id": 1187 },
        { "address": "衣川小田", "city": "奥州市", "postcode": "0294306", "prefecture": "岩手県", "id": 1188 },
        { "address": "衣川小林", "city": "奥州市", "postcode": "0294432", "prefecture": "岩手県", "id": 1189 },
        { "address": "衣川小林山", "city": "奥州市", "postcode": "0294362", "prefecture": "岩手県", "id": 1190 },
        { "address": "衣川小正板", "city": "奥州市", "postcode": "0294325", "prefecture": "岩手県", "id": 1191 },
        { "address": "衣川駒場", "city": "奥州市", "postcode": "0294333", "prefecture": "岩手県", "id": 1192 },
        { "address": "衣川沢田", "city": "奥州市", "postcode": "0294344", "prefecture": "岩手県", "id": 1193 },
        { "address": "衣川清水の上", "city": "奥州市", "postcode": "0294444", "prefecture": "岩手県", "id": 1194 },
        { "address": "衣川下大森", "city": "奥州市", "postcode": "0294387", "prefecture": "岩手県", "id": 1195 },
        { "address": "衣川下河内", "city": "奥州市", "postcode": "0294471", "prefecture": "岩手県", "id": 1196 },
        { "address": "衣川下立沢", "city": "奥州市", "postcode": "0294492", "prefecture": "岩手県", "id": 1197 },
        { "address": "衣川下寺田", "city": "奥州市", "postcode": "0294328", "prefecture": "岩手県", "id": 1198 },
        { "address": "衣川菖蒲平", "city": "奥州市", "postcode": "0294378", "prefecture": "岩手県", "id": 1199 },
        { "address": "衣川陣場下", "city": "奥州市", "postcode": "0294427", "prefecture": "岩手県", "id": 1200 },
        { "address": "衣川杉野", "city": "奥州市", "postcode": "0294348", "prefecture": "岩手県", "id": 1201 },
        { "address": "衣川杉林", "city": "奥州市", "postcode": "0294418", "prefecture": "岩手県", "id": 1202 },
        { "address": "衣川堰下", "city": "奥州市", "postcode": "0294413", "prefecture": "岩手県", "id": 1203 },
        { "address": "衣川関袋", "city": "奥州市", "postcode": "0294382", "prefecture": "岩手県", "id": 1204 },
        { "address": "衣川瀬原", "city": "奥州市", "postcode": "0294422", "prefecture": "岩手県", "id": 1205 },
        { "address": "衣川瀬原西浦", "city": "奥州市", "postcode": "0294423", "prefecture": "岩手県", "id": 1206 },
        { "address": "衣川噌味", "city": "奥州市", "postcode": "0294484", "prefecture": "岩手県", "id": 1207 },
        { "address": "衣川外の沢", "city": "奥州市", "postcode": "0294304", "prefecture": "岩手県", "id": 1208 },
        { "address": "衣川鷹の巣", "city": "奥州市", "postcode": "0294486", "prefecture": "岩手県", "id": 1209 },
        { "address": "衣川高保呂", "city": "奥州市", "postcode": "0294342", "prefecture": "岩手県", "id": 1210 },
        { "address": "衣川館城", "city": "奥州市", "postcode": "0294345", "prefecture": "岩手県", "id": 1211 },
        { "address": "衣川田中", "city": "奥州市", "postcode": "0294431", "prefecture": "岩手県", "id": 1212 },
        { "address": "衣川田中西", "city": "奥州市", "postcode": "0294439", "prefecture": "岩手県", "id": 1213 },
        { "address": "衣川土屋", "city": "奥州市", "postcode": "0294408", "prefecture": "岩手県", "id": 1214 },
        { "address": "衣川寺袋", "city": "奥州市", "postcode": "0294404", "prefecture": "岩手県", "id": 1215 },
        { "address": "衣川富沢", "city": "奥州市", "postcode": "0294385", "prefecture": "岩手県", "id": 1216 },
        { "address": "衣川富田", "city": "奥州市", "postcode": "0294412", "prefecture": "岩手県", "id": 1217 },
        { "address": "衣川富田前", "city": "奥州市", "postcode": "0294417", "prefecture": "岩手県", "id": 1218 },
        { "address": "衣川豊巻", "city": "奥州市", "postcode": "0294346", "prefecture": "岩手県", "id": 1219 },
        { "address": "衣川長板沢", "city": "奥州市", "postcode": "0294389", "prefecture": "岩手県", "id": 1220 },
        { "address": "衣川中河内", "city": "奥州市", "postcode": "0294472", "prefecture": "岩手県", "id": 1221 },
        { "address": "衣川長袋", "city": "奥州市", "postcode": "0294305", "prefecture": "岩手県", "id": 1222 },
        { "address": "衣川長嚢", "city": "奥州市", "postcode": "0294361", "prefecture": "岩手県", "id": 1223 },
        { "address": "衣川中屋敷", "city": "奥州市", "postcode": "0294314", "prefecture": "岩手県", "id": 1224 },
        { "address": "衣川中山", "city": "奥州市", "postcode": "0294475", "prefecture": "岩手県", "id": 1225 },
        { "address": "衣川夏秋", "city": "奥州市", "postcode": "0294351", "prefecture": "岩手県", "id": 1226 },
        { "address": "衣川夏梨", "city": "奥州市", "postcode": "0294363", "prefecture": "岩手県", "id": 1227 },
        { "address": "衣川七日市場", "city": "奥州市", "postcode": "0294445", "prefecture": "岩手県", "id": 1228 },
        { "address": "衣川並木前", "city": "奥州市", "postcode": "0294441", "prefecture": "岩手県", "id": 1229 },
        { "address": "衣川楢原", "city": "奥州市", "postcode": "0294495", "prefecture": "岩手県", "id": 1230 },
        { "address": "衣川楢原山", "city": "奥州市", "postcode": "0294494", "prefecture": "岩手県", "id": 1231 },
        { "address": "衣川西風山", "city": "奥州市", "postcode": "0294364", "prefecture": "岩手県", "id": 1232 },
        { "address": "衣川苗代沢", "city": "奥州市", "postcode": "0294316", "prefecture": "岩手県", "id": 1233 },
        { "address": "衣川西裏", "city": "奥州市", "postcode": "0294456", "prefecture": "岩手県", "id": 1234 },
        { "address": "衣川西窪", "city": "奥州市", "postcode": "0294312", "prefecture": "岩手県", "id": 1235 },
        { "address": "衣川沼野", "city": "奥州市", "postcode": "0294483", "prefecture": "岩手県", "id": 1236 },
        { "address": "衣川野崎", "city": "奥州市", "postcode": "0294493", "prefecture": "岩手県", "id": 1237 },
        { "address": "衣川除", "city": "奥州市", "postcode": "0294354", "prefecture": "岩手県", "id": 1238 },
        { "address": "衣川野田", "city": "奥州市", "postcode": "0294414", "prefecture": "岩手県", "id": 1239 },
        { "address": "衣川能登屋敷", "city": "奥州市", "postcode": "0294343", "prefecture": "岩手県", "id": 1240 },
        { "address": "衣川八千", "city": "奥州市", "postcode": "0294462", "prefecture": "岩手県", "id": 1241 },
        { "address": "衣川張山", "city": "奥州市", "postcode": "0294401", "prefecture": "岩手県", "id": 1242 },
        { "address": "衣川東裏", "city": "奥州市", "postcode": "0294451", "prefecture": "岩手県", "id": 1243 },
        { "address": "衣川日向", "city": "奥州市", "postcode": "0294421", "prefecture": "岩手県", "id": 1244 },
        { "address": "衣川桧山沢", "city": "奥州市", "postcode": "0294371", "prefecture": "岩手県", "id": 1245 },
        { "address": "衣川桧山沢山", "city": "奥州市", "postcode": "0294374", "prefecture": "岩手県", "id": 1246 },
        { "address": "衣川平", "city": "奥州市", "postcode": "0294461", "prefecture": "岩手県", "id": 1247 },
        { "address": "衣川深沢", "city": "奥州市", "postcode": "0294331", "prefecture": "岩手県", "id": 1248 },
        { "address": "衣川古館", "city": "奥州市", "postcode": "0294311", "prefecture": "岩手県", "id": 1249 },
        { "address": "衣川古戸", "city": "奥州市", "postcode": "0294332", "prefecture": "岩手県", "id": 1250 },
        { "address": "衣川宝塔谷地", "city": "奥州市", "postcode": "0294485", "prefecture": "岩手県", "id": 1251 },
        { "address": "衣川星屋", "city": "奥州市", "postcode": "0294402", "prefecture": "岩手県", "id": 1252 },
        { "address": "衣川本田原", "city": "奥州市", "postcode": "0294403", "prefecture": "岩手県", "id": 1253 },
        { "address": "衣川真打", "city": "奥州市", "postcode": "0294496", "prefecture": "岩手県", "id": 1254 },
        { "address": "衣川前滝の沢", "city": "奥州市", "postcode": "0294464", "prefecture": "岩手県", "id": 1255 },
        { "address": "衣川馬懸", "city": "奥州市", "postcode": "0294327", "prefecture": "岩手県", "id": 1256 },
        { "address": "衣川正板", "city": "奥州市", "postcode": "0294324", "prefecture": "岩手県", "id": 1257 },
        { "address": "衣川松林", "city": "奥州市", "postcode": "0294372", "prefecture": "岩手県", "id": 1258 },
        { "address": "衣川六日市場", "city": "奥州市", "postcode": "0294443", "prefecture": "岩手県", "id": 1259 },
        { "address": "衣川向", "city": "奥州市", "postcode": "0294473", "prefecture": "岩手県", "id": 1260 },
        { "address": "衣川向館", "city": "奥州市", "postcode": "0294416", "prefecture": "岩手県", "id": 1261 },
        { "address": "衣川向館谷起", "city": "奥州市", "postcode": "0294415", "prefecture": "岩手県", "id": 1262 },
        { "address": "衣川室の木", "city": "奥州市", "postcode": "0294438", "prefecture": "岩手県", "id": 1263 },
        { "address": "衣川百ヶ袋", "city": "奥州市", "postcode": "0294334", "prefecture": "岩手県", "id": 1264 },
        { "address": "衣川餅転", "city": "奥州市", "postcode": "0294497", "prefecture": "岩手県", "id": 1265 },
        { "address": "衣川本巻", "city": "奥州市", "postcode": "0294376", "prefecture": "岩手県", "id": 1266 },
        { "address": "衣川山岸", "city": "奥州市", "postcode": "0294355", "prefecture": "岩手県", "id": 1267 },
        { "address": "衣川山口", "city": "奥州市", "postcode": "0294453", "prefecture": "岩手県", "id": 1268 },
        { "address": "衣川山田", "city": "奥州市", "postcode": "0294373", "prefecture": "岩手県", "id": 1269 },
        { "address": "衣川横道下", "city": "奥州市", "postcode": "0294455", "prefecture": "岩手県", "id": 1270 },
        { "address": "衣川葭ヶ沢", "city": "奥州市", "postcode": "0294463", "prefecture": "岩手県", "id": 1271 },
        { "address": "衣川六道", "city": "奥州市", "postcode": "0294341", "prefecture": "岩手県", "id": 1272 },
        { "address": "前沢合ノ沢", "city": "奥州市", "postcode": "0294205", "prefecture": "岩手県", "id": 1273 },
        { "address": "前沢赤坂", "city": "奥州市", "postcode": "0294206", "prefecture": "岩手県", "id": 1274 },
        { "address": "前沢赤面", "city": "奥州市", "postcode": "0294207", "prefecture": "岩手県", "id": 1275 },
        { "address": "前沢あすか通", "city": "奥州市", "postcode": "0294209", "prefecture": "岩手県", "id": 1276 },
        { "address": "前沢阿部舘", "city": "奥州市", "postcode": "0294201", "prefecture": "岩手県", "id": 1277 },
        { "address": "前沢粟ケ島", "city": "奥州市", "postcode": "0294208", "prefecture": "岩手県", "id": 1278 },
        { "address": "前沢駅東", "city": "奥州市", "postcode": "0294211", "prefecture": "岩手県", "id": 1279 },
        { "address": "前沢北久保", "city": "奥州市", "postcode": "0294203", "prefecture": "岩手県", "id": 1280 },
        { "address": "前沢下谷起", "city": "奥州市", "postcode": "0294204", "prefecture": "岩手県", "id": 1281 },
        { "address": "前沢白山", "city": "奥州市", "postcode": "0294202", "prefecture": "岩手県", "id": 1282 },
        { "address": "水沢赤土田", "city": "奥州市", "postcode": "0230035", "prefecture": "岩手県", "id": 1283 },
        { "address": "水沢秋葉町", "city": "奥州市", "postcode": "0230041", "prefecture": "岩手県", "id": 1284 },
        { "address": "水沢朝日町", "city": "奥州市", "postcode": "0230823", "prefecture": "岩手県", "id": 1285 },
        { "address": "水沢東町", "city": "奥州市", "postcode": "0230818", "prefecture": "岩手県", "id": 1286 },
        { "address": "水沢姉体町", "city": "奥州市", "postcode": "0230831", "prefecture": "岩手県", "id": 1287 },
        { "address": "水沢泉町", "city": "奥州市", "postcode": "0230824", "prefecture": "岩手県", "id": 1288 },
        { "address": "水沢一本柳", "city": "奥州市", "postcode": "0230013", "prefecture": "岩手県", "id": 1289 },
        { "address": "水沢稲荷田", "city": "奥州市", "postcode": "0230011", "prefecture": "岩手県", "id": 1290 },
        { "address": "水沢後田", "city": "奥州市", "postcode": "0230898", "prefecture": "岩手県", "id": 1291 },
        { "address": "水沢上町", "city": "奥州市", "postcode": "0230057", "prefecture": "岩手県", "id": 1292 },
        { "address": "水沢大鐘町", "city": "奥州市", "postcode": "0230854", "prefecture": "岩手県", "id": 1293 },
        { "address": "水沢大上", "city": "奥州市", "postcode": "0230084", "prefecture": "岩手県", "id": 1294 },
        { "address": "水沢大手町", "city": "奥州市", "postcode": "0230053", "prefecture": "岩手県", "id": 1295 },
        { "address": "水沢大橋", "city": "奥州市", "postcode": "0230867", "prefecture": "岩手県", "id": 1296 },
        { "address": "水沢大畑小路", "city": "奥州市", "postcode": "0230802", "prefecture": "岩手県", "id": 1297 },
        { "address": "水沢大町", "city": "奥州市", "postcode": "0230045", "prefecture": "岩手県", "id": 1298 },
        { "address": "水沢踊子", "city": "奥州市", "postcode": "0230085", "prefecture": "岩手県", "id": 1299 },
        { "address": "水沢卸町", "city": "奥州市", "postcode": "0230001", "prefecture": "岩手県", "id": 1300 },
        { "address": "水沢欠ノ下", "city": "奥州市", "postcode": "0230021", "prefecture": "岩手県", "id": 1301 },
        { "address": "水沢勝手町", "city": "奥州市", "postcode": "0230051", "prefecture": "岩手県", "id": 1302 },
        { "address": "水沢釜田", "city": "奥州市", "postcode": "0230892", "prefecture": "岩手県", "id": 1303 },
        { "address": "水沢上姉体", "city": "奥州市", "postcode": "0230833", "prefecture": "岩手県", "id": 1304 },
        { "address": "水沢搦手丁", "city": "奥州市", "postcode": "0230052", "prefecture": "岩手県", "id": 1305 },
        { "address": "水沢川口町", "city": "奥州市", "postcode": "0230034", "prefecture": "岩手県", "id": 1306 },
        { "address": "水沢川端", "city": "奥州市", "postcode": "0230863", "prefecture": "岩手県", "id": 1307 },
        { "address": "水沢川原小路", "city": "奥州市", "postcode": "0230046", "prefecture": "岩手県", "id": 1308 },
        { "address": "水沢北丑沢", "city": "奥州市", "postcode": "0230031", "prefecture": "岩手県", "id": 1309 },
        { "address": "水沢北栗林", "city": "奥州市", "postcode": "0230036", "prefecture": "岩手県", "id": 1310 },
        { "address": "水沢北田", "city": "奥州市", "postcode": "0230881", "prefecture": "岩手県", "id": 1311 },
        { "address": "水沢北半郷", "city": "奥州市", "postcode": "0230092", "prefecture": "岩手県", "id": 1312 },
        { "address": "水沢吉小路", "city": "奥州市", "postcode": "0230054", "prefecture": "岩手県", "id": 1313 },
        { "address": "水沢久田", "city": "奥州市", "postcode": "0230056", "prefecture": "岩手県", "id": 1314 },
        { "address": "水沢黒石町", "city": "奥州市", "postcode": "0230101", "prefecture": "岩手県", "id": 1315 },
        { "address": "水沢黒子", "city": "奥州市", "postcode": "0230071", "prefecture": "岩手県", "id": 1316 },
        { "address": "水沢桑畑", "city": "奥州市", "postcode": "0230077", "prefecture": "岩手県", "id": 1317 },
        { "address": "水沢小石田", "city": "奥州市", "postcode": "0230062", "prefecture": "岩手県", "id": 1318 },
        { "address": "水沢高網", "city": "奥州市", "postcode": "0230025", "prefecture": "岩手県", "id": 1319 },
        { "address": "水沢工業団地", "city": "奥州市", "postcode": "0230002", "prefecture": "岩手県", "id": 1320 },
        { "address": "水沢高谷宿", "city": "奥州市", "postcode": "0230087", "prefecture": "岩手県", "id": 1321 },
        { "address": "水沢虚空蔵小路", "city": "奥州市", "postcode": "0230055", "prefecture": "岩手県", "id": 1322 },
        { "address": "水沢極楽", "city": "奥州市", "postcode": "0230074", "prefecture": "岩手県", "id": 1323 },
        { "address": "水沢五千刈", "city": "奥州市", "postcode": "0230015", "prefecture": "岩手県", "id": 1324 },
        { "address": "水沢小中", "city": "奥州市", "postcode": "0230018", "prefecture": "岩手県", "id": 1325 },
        { "address": "水沢五輪", "city": "奥州市", "postcode": "0230094", "prefecture": "岩手県", "id": 1326 },
        { "address": "水沢斉勝田", "city": "奥州市", "postcode": "0230012", "prefecture": "岩手県", "id": 1327 },
        { "address": "水沢斉の神", "city": "奥州市", "postcode": "0230805", "prefecture": "岩手県", "id": 1328 },
        { "address": "水沢桜川", "city": "奥州市", "postcode": "0230897", "prefecture": "岩手県", "id": 1329 },
        { "address": "水沢佐倉河", "city": "奥州市", "postcode": "0230003", "prefecture": "岩手県", "id": 1330 },
        { "address": "水沢桜屋敷", "city": "奥州市", "postcode": "0230865", "prefecture": "岩手県", "id": 1331 },
        { "address": "水沢桜屋敷西", "city": "奥州市", "postcode": "0230872", "prefecture": "岩手県", "id": 1332 },
        { "address": "水沢笹森谷地", "city": "奥州市", "postcode": "0230873", "prefecture": "岩手県", "id": 1333 },
        { "address": "水沢里鎗", "city": "奥州市", "postcode": "0230026", "prefecture": "岩手県", "id": 1334 },
        { "address": "水沢三本木", "city": "奥州市", "postcode": "0230044", "prefecture": "岩手県", "id": 1335 },
        { "address": "水沢地蔵田", "city": "奥州市", "postcode": "0230014", "prefecture": "岩手県", "id": 1336 },
        { "address": "水沢渋田", "city": "奥州市", "postcode": "0230017", "prefecture": "岩手県", "id": 1337 },
        { "address": "水沢聖天", "city": "奥州市", "postcode": "0230063", "prefecture": "岩手県", "id": 1338 },
        { "address": "水沢寺領", "city": "奥州市", "postcode": "0230073", "prefecture": "岩手県", "id": 1339 },
        { "address": "水沢新小路", "city": "奥州市", "postcode": "0230807", "prefecture": "岩手県", "id": 1340 },
        { "address": "水沢真城", "city": "奥州市", "postcode": "0230841", "prefecture": "岩手県", "id": 1341 },
        { "address": "水沢真城が丘", "city": "奥州市", "postcode": "0230842", "prefecture": "岩手県", "id": 1342 },
        { "address": "水沢神明町", "city": "奥州市", "postcode": "0230821", "prefecture": "岩手県", "id": 1343 },
        { "address": "水沢雀田", "city": "奥州市", "postcode": "0230095", "prefecture": "岩手県", "id": 1344 },
        { "address": "水沢堰合", "city": "奥州市", "postcode": "0230866", "prefecture": "岩手県", "id": 1345 },
        { "address": "水沢前郷", "city": "奥州市", "postcode": "0230083", "prefecture": "岩手県", "id": 1346 },
        { "address": "水沢袖谷地", "city": "奥州市", "postcode": "0230877", "prefecture": "岩手県", "id": 1347 },
        { "address": "水沢外谷地", "city": "奥州市", "postcode": "0230871", "prefecture": "岩手県", "id": 1348 },
        { "address": "水沢橇町", "city": "奥州市", "postcode": "0230081", "prefecture": "岩手県", "id": 1349 },
        { "address": "水沢太日通り", "city": "奥州市", "postcode": "0230827", "prefecture": "岩手県", "id": 1350 },
        { "address": "水沢台町", "city": "奥州市", "postcode": "0230825", "prefecture": "岩手県", "id": 1351 },
        { "address": "水沢大明神", "city": "奥州市", "postcode": "0230894", "prefecture": "岩手県", "id": 1352 },
        { "address": "水沢多賀", "city": "奥州市", "postcode": "0230032", "prefecture": "岩手県", "id": 1353 },
        { "address": "水沢高屋敷", "city": "奥州市", "postcode": "0230889", "prefecture": "岩手県", "id": 1354 },
        { "address": "水沢高山", "city": "奥州市", "postcode": "0230091", "prefecture": "岩手県", "id": 1355 },
        { "address": "水沢内匠田", "city": "奥州市", "postcode": "0230891", "prefecture": "岩手県", "id": 1356 },
        { "address": "水沢田小路", "city": "奥州市", "postcode": "0230803", "prefecture": "岩手県", "id": 1357 },
        { "address": "水沢立町", "city": "奥州市", "postcode": "0230047", "prefecture": "岩手県", "id": 1358 },
        { "address": "水沢足袋針", "city": "奥州市", "postcode": "0230895", "prefecture": "岩手県", "id": 1359 },
        { "address": "水沢築舘", "city": "奥州市", "postcode": "0230019", "prefecture": "岩手県", "id": 1360 },
        { "address": "水沢造道", "city": "奥州市", "postcode": "0230076", "prefecture": "岩手県", "id": 1361 },
        { "address": "水沢鶴淵", "city": "奥州市", "postcode": "0230876", "prefecture": "岩手県", "id": 1362 },
        { "address": "水沢寺小路", "city": "奥州市", "postcode": "0230811", "prefecture": "岩手県", "id": 1363 },
        { "address": "水沢寺脇", "city": "奥州市", "postcode": "0230812", "prefecture": "岩手県", "id": 1364 },
        { "address": "水沢天文台通り", "city": "奥州市", "postcode": "0230815", "prefecture": "岩手県", "id": 1365 },
        { "address": "水沢土器田", "city": "奥州市", "postcode": "0230064", "prefecture": "岩手県", "id": 1366 },
        { "address": "水沢中上野町", "city": "奥州市", "postcode": "0230857", "prefecture": "岩手県", "id": 1367 },
        { "address": "水沢中城", "city": "奥州市", "postcode": "0230022", "prefecture": "岩手県", "id": 1368 },
        { "address": "水沢中田町", "city": "奥州市", "postcode": "0230826", "prefecture": "岩手県", "id": 1369 },
        { "address": "水沢中町", "city": "奥州市", "postcode": "0230813", "prefecture": "岩手県", "id": 1370 },
        { "address": "水沢長町", "city": "奥州市", "postcode": "0230061", "prefecture": "岩手県", "id": 1371 },
        { "address": "水沢名残", "city": "奥州市", "postcode": "0230024", "prefecture": "岩手県", "id": 1372 },
        { "address": "水沢西上野町", "city": "奥州市", "postcode": "0230856", "prefecture": "岩手県", "id": 1373 },
        { "address": "水沢西光田", "city": "奥州市", "postcode": "0230896", "prefecture": "岩手県", "id": 1374 },
        { "address": "水沢西田", "city": "奥州市", "postcode": "0230885", "prefecture": "岩手県", "id": 1375 },
        { "address": "水沢西町", "city": "奥州市", "postcode": "0230816", "prefecture": "岩手県", "id": 1376 },
        { "address": "水沢二反田", "city": "奥州市", "postcode": "0230067", "prefecture": "岩手県", "id": 1377 },
        { "address": "水沢羽田町駅東", "city": "奥州市", "postcode": "0230102", "prefecture": "岩手県", "id": 1378 },
        { "address": "水沢羽田町駅前", "city": "奥州市", "postcode": "0230104", "prefecture": "岩手県", "id": 1379 },
        { "address": "水沢羽田町駅南", "city": "奥州市", "postcode": "0230103", "prefecture": "岩手県", "id": 1380 },
        { "address": "水沢羽田町久保", "city": "奥州市", "postcode": "0230106", "prefecture": "岩手県", "id": 1381 },
        { "address": "水沢羽田町宝生", "city": "奥州市", "postcode": "0230105", "prefecture": "岩手県", "id": 1382 },
        { "address": "水沢羽田町宝柳木", "city": "奥州市", "postcode": "0230107", "prefecture": "岩手県", "id": 1383 },
        { "address": "水沢羽田町向畑", "city": "奥州市", "postcode": "0230108", "prefecture": "岩手県", "id": 1384 },
        { "address": "水沢羽田町", "city": "奥州市", "postcode": "0230832", "prefecture": "岩手県", "id": 1385 },
        { "address": "水沢羽田町", "city": "奥州市", "postcode": "0230132", "prefecture": "岩手県", "id": 1386 },
        { "address": "水沢八反田", "city": "奥州市", "postcode": "0230888", "prefecture": "岩手県", "id": 1387 },
        { "address": "水沢八反町", "city": "奥州市", "postcode": "0230023", "prefecture": "岩手県", "id": 1388 },
        { "address": "水沢花園町", "city": "奥州市", "postcode": "0230829", "prefecture": "岩手県", "id": 1389 },
        { "address": "水沢幅下", "city": "奥州市", "postcode": "0230027", "prefecture": "岩手県", "id": 1390 },
        { "address": "水沢東上野町", "city": "奥州市", "postcode": "0230853", "prefecture": "岩手県", "id": 1391 },
        { "address": "水沢東大通り", "city": "奥州市", "postcode": "0230828", "prefecture": "岩手県", "id": 1392 },
        { "address": "水沢東中通り", "city": "奥州市", "postcode": "0230822", "prefecture": "岩手県", "id": 1393 },
        { "address": "水沢東半郷", "city": "奥州市", "postcode": "0230082", "prefecture": "岩手県", "id": 1394 },
        { "address": "水沢日高小路", "city": "奥州市", "postcode": "0230808", "prefecture": "岩手県", "id": 1395 },
        { "address": "水沢日高西", "city": "奥州市", "postcode": "0230806", "prefecture": "岩手県", "id": 1396 },
        { "address": "水沢平沢", "city": "奥州市", "postcode": "0230016", "prefecture": "岩手県", "id": 1397 },
        { "address": "水沢樋渡", "city": "奥州市", "postcode": "0230072", "prefecture": "岩手県", "id": 1398 },
        { "address": "水沢福吉町", "city": "奥州市", "postcode": "0230862", "prefecture": "岩手県", "id": 1399 },
        { "address": "水沢袋町", "city": "奥州市", "postcode": "0230814", "prefecture": "岩手県", "id": 1400 },
        { "address": "水沢福原", "city": "奥州市", "postcode": "0230882", "prefecture": "岩手県", "id": 1401 },
        { "address": "水沢不断町", "city": "奥州市", "postcode": "0230033", "prefecture": "岩手県", "id": 1402 },
        { "address": "水沢星ガ丘町", "city": "奥州市", "postcode": "0230861", "prefecture": "岩手県", "id": 1403 },
        { "address": "水沢堀ノ内", "city": "奥州市", "postcode": "0230058", "prefecture": "岩手県", "id": 1404 },
        { "address": "水沢前田袋", "city": "奥州市", "postcode": "0230066", "prefecture": "岩手県", "id": 1405 },
        { "address": "水沢前谷地", "city": "奥州市", "postcode": "0230884", "prefecture": "岩手県", "id": 1406 },
        { "address": "水沢町裏", "city": "奥州市", "postcode": "0230883", "prefecture": "岩手県", "id": 1407 },
        { "address": "水沢水神", "city": "奥州市", "postcode": "0230093", "prefecture": "岩手県", "id": 1408 },
        { "address": "水沢水山", "city": "奥州市", "postcode": "0230065", "prefecture": "岩手県", "id": 1409 },
        { "address": "水沢道合", "city": "奥州市", "postcode": "0230043", "prefecture": "岩手県", "id": 1410 },
        { "address": "水沢南丑沢", "city": "奥州市", "postcode": "0230037", "prefecture": "岩手県", "id": 1411 },
        { "address": "水沢南大鐘", "city": "奥州市", "postcode": "0230855", "prefecture": "岩手県", "id": 1412 },
        { "address": "水沢南町", "city": "奥州市", "postcode": "0230851", "prefecture": "岩手県", "id": 1413 },
        { "address": "水沢南矢中", "city": "奥州市", "postcode": "0230886", "prefecture": "岩手県", "id": 1414 },
        { "address": "水沢水ノ口", "city": "奥州市", "postcode": "0230075", "prefecture": "岩手県", "id": 1415 },
        { "address": "水沢宮下町", "city": "奥州市", "postcode": "0230817", "prefecture": "岩手県", "id": 1416 },
        { "address": "水沢見分森", "city": "奥州市", "postcode": "0230874", "prefecture": "岩手県", "id": 1417 },
        { "address": "水沢向田", "city": "奥州市", "postcode": "0230096", "prefecture": "岩手県", "id": 1418 },
        { "address": "水沢森下", "city": "奥州市", "postcode": "0230875", "prefecture": "岩手県", "id": 1419 },
        { "address": "水沢谷地中", "city": "奥州市", "postcode": "0230086", "prefecture": "岩手県", "id": 1420 },
        { "address": "水沢谷地明円", "city": "奥州市", "postcode": "0230804", "prefecture": "岩手県", "id": 1421 },
        { "address": "水沢矢中", "city": "奥州市", "postcode": "0230887", "prefecture": "岩手県", "id": 1422 },
        { "address": "水沢柳町", "city": "奥州市", "postcode": "0230042", "prefecture": "岩手県", "id": 1423 },
        { "address": "水沢山崎町", "city": "奥州市", "postcode": "0230852", "prefecture": "岩手県", "id": 1424 },
        { "address": "水沢横町", "city": "奥州市", "postcode": "0230801", "prefecture": "岩手県", "id": 1425 },
        { "address": "水沢蓬田", "city": "奥州市", "postcode": "0230893", "prefecture": "岩手県", "id": 1426 },
        { "address": "水沢龍ヶ馬場", "city": "奥州市", "postcode": "0230864", "prefecture": "岩手県", "id": 1427 },
        { "city": "滝沢市", "postcode": "0200600", "prefecture": "岩手県", "id": 1428 },
        { "address": "穴口", "city": "滝沢市", "postcode": "0200633", "prefecture": "岩手県", "id": 1429 },
        { "address": "一本木", "city": "滝沢市", "postcode": "0200604", "prefecture": "岩手県", "id": 1430 },
        { "address": "岩手山", "city": "滝沢市", "postcode": "0200618", "prefecture": "岩手県", "id": 1431 },
        { "address": "鵜飼安達", "city": "滝沢市", "postcode": "0200685", "prefecture": "岩手県", "id": 1432 },
        { "address": "鵜飼石留", "city": "滝沢市", "postcode": "0200673", "prefecture": "岩手県", "id": 1433 },
        { "address": "鵜飼姥屋敷", "city": "滝沢市", "postcode": "0200681", "prefecture": "岩手県", "id": 1434 },
        { "address": "鵜飼大緩", "city": "滝沢市", "postcode": "0200662", "prefecture": "岩手県", "id": 1435 },
        { "address": "鵜飼鬼越", "city": "滝沢市", "postcode": "0200686", "prefecture": "岩手県", "id": 1436 },
        { "address": "鵜飼御庭田", "city": "滝沢市", "postcode": "0200655", "prefecture": "岩手県", "id": 1437 },
        { "address": "鵜飼鰍森", "city": "滝沢市", "postcode": "0200657", "prefecture": "岩手県", "id": 1438 },
        { "address": "鵜飼上高柳", "city": "滝沢市", "postcode": "0200671", "prefecture": "岩手県", "id": 1439 },
        { "address": "鵜飼上山", "city": "滝沢市", "postcode": "0200656", "prefecture": "岩手県", "id": 1440 },
        { "address": "鵜飼上前田", "city": "滝沢市", "postcode": "0200688", "prefecture": "岩手県", "id": 1441 },
        { "address": "鵜飼狐洞", "city": "滝沢市", "postcode": "0200668", "prefecture": "岩手県", "id": 1442 },
        { "address": "鵜飼笹森", "city": "滝沢市", "postcode": "0200664", "prefecture": "岩手県", "id": 1443 },
        { "address": "鵜飼清水沢", "city": "滝沢市", "postcode": "0200658", "prefecture": "岩手県", "id": 1444 },
        { "address": "鵜飼下高柳", "city": "滝沢市", "postcode": "0200672", "prefecture": "岩手県", "id": 1445 },
        { "address": "鵜飼白石", "city": "滝沢市", "postcode": "0200661", "prefecture": "岩手県", "id": 1446 },
        { "address": "鵜飼先古川", "city": "滝沢市", "postcode": "0200666", "prefecture": "岩手県", "id": 1447 },
        { "address": "鵜飼外久保", "city": "滝沢市", "postcode": "0200659", "prefecture": "岩手県", "id": 1448 },
        { "address": "鵜飼高柳", "city": "滝沢市", "postcode": "0200674", "prefecture": "岩手県", "id": 1449 },
        { "address": "鵜飼滝向", "city": "滝沢市", "postcode": "0200675", "prefecture": "岩手県", "id": 1450 },
        { "address": "鵜飼樋の口", "city": "滝沢市", "postcode": "0200677", "prefecture": "岩手県", "id": 1451 },
        { "address": "鵜飼洞畑", "city": "滝沢市", "postcode": "0200652", "prefecture": "岩手県", "id": 1452 },
        { "address": "鵜飼年毛", "city": "滝沢市", "postcode": "0200678", "prefecture": "岩手県", "id": 1453 },
        { "address": "鵜飼沼森", "city": "滝沢市", "postcode": "0200684", "prefecture": "岩手県", "id": 1454 },
        { "address": "鵜飼迫", "city": "滝沢市", "postcode": "0200653", "prefecture": "岩手県", "id": 1455 },
        { "address": "鵜飼八人打", "city": "滝沢市", "postcode": "0200676", "prefecture": "岩手県", "id": 1456 },
        { "address": "鵜飼花平", "city": "滝沢市", "postcode": "0200683", "prefecture": "岩手県", "id": 1457 },
        { "address": "鵜飼細谷地", "city": "滝沢市", "postcode": "0200651", "prefecture": "岩手県", "id": 1458 },
        { "address": "鵜飼向新田", "city": "滝沢市", "postcode": "0200667", "prefecture": "岩手県", "id": 1459 },
        { "address": "鵜飼諸葛川", "city": "滝沢市", "postcode": "0200663", "prefecture": "岩手県", "id": 1460 },
        { "address": "鵜飼臨安", "city": "滝沢市", "postcode": "0200682", "prefecture": "岩手県", "id": 1461 },
        { "address": "後", "city": "滝沢市", "postcode": "0200601", "prefecture": "岩手県", "id": 1462 },
        { "address": "卯遠坂", "city": "滝沢市", "postcode": "0200615", "prefecture": "岩手県", "id": 1463 },
        { "address": "狼久保", "city": "滝沢市", "postcode": "0200627", "prefecture": "岩手県", "id": 1464 },
        { "address": "大石渡", "city": "滝沢市", "postcode": "0200613", "prefecture": "岩手県", "id": 1465 },
        { "address": "大釜荒屋敷", "city": "滝沢市", "postcode": "0200769", "prefecture": "岩手県", "id": 1466 },
        { "address": "大釜上釜", "city": "滝沢市", "postcode": "0200754", "prefecture": "岩手県", "id": 1467 },
        { "address": "大釜大清水", "city": "滝沢市", "postcode": "0200758", "prefecture": "岩手県", "id": 1468 },
        { "address": "大釜大畑", "city": "滝沢市", "postcode": "0200763", "prefecture": "岩手県", "id": 1469 },
        { "address": "大釜鬼が滝", "city": "滝沢市", "postcode": "0200776", "prefecture": "岩手県", "id": 1470 },
        { "address": "大釜風林", "city": "滝沢市", "postcode": "0200757", "prefecture": "岩手県", "id": 1471 },
        { "address": "大釜釜口", "city": "滝沢市", "postcode": "0200755", "prefecture": "岩手県", "id": 1472 },
        { "address": "大釜上竹鼻", "city": "滝沢市", "postcode": "0200773", "prefecture": "岩手県", "id": 1473 },
        { "address": "大釜小屋敷", "city": "滝沢市", "postcode": "0200765", "prefecture": "岩手県", "id": 1474 },
        { "address": "大釜塩の森", "city": "滝沢市", "postcode": "0200774", "prefecture": "岩手県", "id": 1475 },
        { "address": "大釜白山", "city": "滝沢市", "postcode": "0200752", "prefecture": "岩手県", "id": 1476 },
        { "address": "大釜千が窪", "city": "滝沢市", "postcode": "0200751", "prefecture": "岩手県", "id": 1477 },
        { "address": "大釜高森", "city": "滝沢市", "postcode": "0200756", "prefecture": "岩手県", "id": 1478 },
        { "address": "大釜竹鼻", "city": "滝沢市", "postcode": "0200771", "prefecture": "岩手県", "id": 1479 },
        { "address": "大釜田の尻", "city": "滝沢市", "postcode": "0200761", "prefecture": "岩手県", "id": 1480 },
        { "address": "大釜土井尻", "city": "滝沢市", "postcode": "0200764", "prefecture": "岩手県", "id": 1481 },
        { "address": "大釜外館", "city": "滝沢市", "postcode": "0200762", "prefecture": "岩手県", "id": 1482 },
        { "address": "大釜中瀬", "city": "滝沢市", "postcode": "0200772", "prefecture": "岩手県", "id": 1483 },
        { "address": "大釜中道", "city": "滝沢市", "postcode": "0200767", "prefecture": "岩手県", "id": 1484 },
        { "address": "大釜仁沢瀬", "city": "滝沢市", "postcode": "0200777", "prefecture": "岩手県", "id": 1485 },
        { "address": "大釜沼袋", "city": "滝沢市", "postcode": "0200775", "prefecture": "岩手県", "id": 1486 },
        { "address": "大釜八幡前", "city": "滝沢市", "postcode": "0200766", "prefecture": "岩手県", "id": 1487 },
        { "address": "大釜細屋", "city": "滝沢市", "postcode": "0200753", "prefecture": "岩手県", "id": 1488 },
        { "address": "大釜吉水", "city": "滝沢市", "postcode": "0200778", "prefecture": "岩手県", "id": 1489 },
        { "address": "大釜吉清水", "city": "滝沢市", "postcode": "0200779", "prefecture": "岩手県", "id": 1490 },
        { "address": "大釜和田", "city": "滝沢市", "postcode": "0200768", "prefecture": "岩手県", "id": 1491 },
        { "address": "大久保", "city": "滝沢市", "postcode": "0200636", "prefecture": "岩手県", "id": 1492 },
        { "address": "大崎", "city": "滝沢市", "postcode": "0200621", "prefecture": "岩手県", "id": 1493 },
        { "address": "大沢籠屋敷", "city": "滝沢市", "postcode": "0200701", "prefecture": "岩手県", "id": 1494 },
        { "address": "大沢上鶴子", "city": "滝沢市", "postcode": "0200702", "prefecture": "岩手県", "id": 1495 },
        { "address": "大沢小谷地", "city": "滝沢市", "postcode": "0200718", "prefecture": "岩手県", "id": 1496 },
        { "address": "大沢下屋敷", "city": "滝沢市", "postcode": "0200715", "prefecture": "岩手県", "id": 1497 },
        { "address": "大沢新道", "city": "滝沢市", "postcode": "0200713", "prefecture": "岩手県", "id": 1498 },
        { "address": "大沢堰合", "city": "滝沢市", "postcode": "0200703", "prefecture": "岩手県", "id": 1499 },
        { "address": "大沢館", "city": "滝沢市", "postcode": "0200707", "prefecture": "岩手県", "id": 1500 },
        { "address": "大沢鶴子", "city": "滝沢市", "postcode": "0200719", "prefecture": "岩手県", "id": 1501 },
        { "address": "大沢外山野", "city": "滝沢市", "postcode": "0200709", "prefecture": "岩手県", "id": 1502 },
        { "address": "大沢長坪", "city": "滝沢市", "postcode": "0200712", "prefecture": "岩手県", "id": 1503 },
        { "address": "大沢箸木平", "city": "滝沢市", "postcode": "0200708", "prefecture": "岩手県", "id": 1504 },
        { "address": "大沢二タ又", "city": "滝沢市", "postcode": "0200705", "prefecture": "岩手県", "id": 1505 },
        { "address": "大沢舛村", "city": "滝沢市", "postcode": "0200714", "prefecture": "岩手県", "id": 1506 },
        { "address": "大沢弥作畑", "city": "滝沢市", "postcode": "0200710", "prefecture": "岩手県", "id": 1507 },
        { "address": "大沢谷地上", "city": "滝沢市", "postcode": "0200711", "prefecture": "岩手県", "id": 1508 },
        { "address": "大沢谷地中", "city": "滝沢市", "postcode": "0200704", "prefecture": "岩手県", "id": 1509 },
        { "address": "大沢四つ家", "city": "滝沢市", "postcode": "0200717", "prefecture": "岩手県", "id": 1510 },
        { "address": "大沢米倉", "city": "滝沢市", "postcode": "0200716", "prefecture": "岩手県", "id": 1511 },
        { "address": "大沢割田", "city": "滝沢市", "postcode": "0200706", "prefecture": "岩手県", "id": 1512 },
        { "address": "大森平", "city": "滝沢市", "postcode": "0200602", "prefecture": "岩手県", "id": 1513 },
        { "address": "加賀内", "city": "滝沢市", "postcode": "0200606", "prefecture": "岩手県", "id": 1514 },
        { "address": "上岩手山", "city": "滝沢市", "postcode": "0200619", "prefecture": "岩手県", "id": 1515 },
        { "address": "上鵜飼", "city": "滝沢市", "postcode": "0200687", "prefecture": "岩手県", "id": 1516 },
        { "address": "上中村", "city": "滝沢市", "postcode": "0200614", "prefecture": "岩手県", "id": 1517 },
        { "address": "黒沢", "city": "滝沢市", "postcode": "0200646", "prefecture": "岩手県", "id": 1518 },
        { "address": "妻の神", "city": "滝沢市", "postcode": "0200624", "prefecture": "岩手県", "id": 1519 },
        { "address": "篠木綾織", "city": "滝沢市", "postcode": "0200723", "prefecture": "岩手県", "id": 1520 },
        { "address": "篠木荒屋", "city": "滝沢市", "postcode": "0200726", "prefecture": "岩手県", "id": 1521 },
        { "address": "篠木大寺沢", "city": "滝沢市", "postcode": "0200745", "prefecture": "岩手県", "id": 1522 },
        { "address": "篠木苧桶沢", "city": "滝沢市", "postcode": "0200742", "prefecture": "岩手県", "id": 1523 },
        { "address": "篠木上綾織", "city": "滝沢市", "postcode": "0200722", "prefecture": "岩手県", "id": 1524 },
        { "address": "篠木上黒畑", "city": "滝沢市", "postcode": "0200734", "prefecture": "岩手県", "id": 1525 },
        { "address": "篠木上篠木", "city": "滝沢市", "postcode": "0200728", "prefecture": "岩手県", "id": 1526 },
        { "address": "篠木黒畑", "city": "滝沢市", "postcode": "0200735", "prefecture": "岩手県", "id": 1527 },
        { "address": "篠木小谷地", "city": "滝沢市", "postcode": "0200724", "prefecture": "岩手県", "id": 1528 },
        { "address": "篠木参郷", "city": "滝沢市", "postcode": "0200736", "prefecture": "岩手県", "id": 1529 },
        { "address": "篠木参郷の森", "city": "滝沢市", "postcode": "0200738", "prefecture": "岩手県", "id": 1530 },
        { "address": "篠木外山", "city": "滝沢市", "postcode": "0200743", "prefecture": "岩手県", "id": 1531 },
        { "address": "篠木館が沢", "city": "滝沢市", "postcode": "0200744", "prefecture": "岩手県", "id": 1532 },
        { "address": "篠木堤", "city": "滝沢市", "postcode": "0200737", "prefecture": "岩手県", "id": 1533 },
        { "address": "篠木樋の口", "city": "滝沢市", "postcode": "0200732", "prefecture": "岩手県", "id": 1534 },
        { "address": "篠木鳥谷平", "city": "滝沢市", "postcode": "0200727", "prefecture": "岩手県", "id": 1535 },
        { "address": "篠木中村", "city": "滝沢市", "postcode": "0200721", "prefecture": "岩手県", "id": 1536 },
        { "address": "篠木中屋敷", "city": "滝沢市", "postcode": "0200725", "prefecture": "岩手県", "id": 1537 },
        { "address": "篠木仁沢瀬", "city": "滝沢市", "postcode": "0200746", "prefecture": "岩手県", "id": 1538 },
        { "address": "篠木待場", "city": "滝沢市", "postcode": "0200733", "prefecture": "岩手県", "id": 1539 },
        { "address": "篠木明法", "city": "滝沢市", "postcode": "0200731", "prefecture": "岩手県", "id": 1540 },
        { "address": "篠木矢取森", "city": "滝沢市", "postcode": "0200741", "prefecture": "岩手県", "id": 1541 },
        { "address": "下鵜飼", "city": "滝沢市", "postcode": "0200665", "prefecture": "岩手県", "id": 1542 },
        { "address": "巣子", "city": "滝沢市", "postcode": "0200611", "prefecture": "岩手県", "id": 1543 },
        { "address": "砂込", "city": "滝沢市", "postcode": "0200605", "prefecture": "岩手県", "id": 1544 },
        { "address": "外山", "city": "滝沢市", "postcode": "0200643", "prefecture": "岩手県", "id": 1545 },
        { "address": "高屋敷", "city": "滝沢市", "postcode": "0200645", "prefecture": "岩手県", "id": 1546 },
        { "address": "高屋敷平", "city": "滝沢市", "postcode": "0200637", "prefecture": "岩手県", "id": 1547 },
        { "address": "長太郎林", "city": "滝沢市", "postcode": "0200608", "prefecture": "岩手県", "id": 1548 },
        { "address": "土沢", "city": "滝沢市", "postcode": "0200638", "prefecture": "岩手県", "id": 1549 },
        { "address": "木賊川", "city": "滝沢市", "postcode": "0200616", "prefecture": "岩手県", "id": 1550 },
        { "address": "留が森", "city": "滝沢市", "postcode": "0200603", "prefecture": "岩手県", "id": 1551 },
        { "address": "中鵜飼", "city": "滝沢市", "postcode": "0200654", "prefecture": "岩手県", "id": 1552 },
        { "address": "中村", "city": "滝沢市", "postcode": "0200642", "prefecture": "岩手県", "id": 1553 },
        { "address": "楢の木沢", "city": "滝沢市", "postcode": "0200623", "prefecture": "岩手県", "id": 1554 },
        { "address": "祢宜屋敷", "city": "滝沢市", "postcode": "0200641", "prefecture": "岩手県", "id": 1555 },
        { "address": "根堀坂", "city": "滝沢市", "postcode": "0200631", "prefecture": "岩手県", "id": 1556 },
        { "address": "野沢", "city": "滝沢市", "postcode": "0200622", "prefecture": "岩手県", "id": 1557 },
        { "address": "葉の木沢山", "city": "滝沢市", "postcode": "0200625", "prefecture": "岩手県", "id": 1558 },
        { "address": "平蔵沢", "city": "滝沢市", "postcode": "0200644", "prefecture": "岩手県", "id": 1559 },
        { "address": "牧野林", "city": "滝沢市", "postcode": "0200632", "prefecture": "岩手県", "id": 1560 },
        { "address": "耳取山", "city": "滝沢市", "postcode": "0200635", "prefecture": "岩手県", "id": 1561 },
        { "address": "明神平", "city": "滝沢市", "postcode": "0200626", "prefecture": "岩手県", "id": 1562 },
        { "address": "室小路", "city": "滝沢市", "postcode": "0200634", "prefecture": "岩手県", "id": 1563 },
        { "address": "柳沢", "city": "滝沢市", "postcode": "0200612", "prefecture": "岩手県", "id": 1564 },
        { "address": "柳原", "city": "滝沢市", "postcode": "0200609", "prefecture": "岩手県", "id": 1565 },
        { "address": "弥兵エ林", "city": "滝沢市", "postcode": "0200607", "prefecture": "岩手県", "id": 1566 },
        { "address": "湯舟沢", "city": "滝沢市", "postcode": "0200617", "prefecture": "岩手県", "id": 1567 },
        { "city": "岩手郡雫石町", "postcode": "0200500", "prefecture": "岩手県", "id": 1568 },
        { "address": "板橋", "city": "岩手郡雫石町", "postcode": "0200502", "prefecture": "岩手県", "id": 1569 },
        { "address": "稲荷下", "city": "岩手郡雫石町", "postcode": "0200546", "prefecture": "岩手県", "id": 1570 },
        { "address": "上野", "city": "岩手郡雫石町", "postcode": "0200583", "prefecture": "岩手県", "id": 1571 },
        { "address": "鴬宿", "city": "岩手郡雫石町", "postcode": "0200574", "prefecture": "岩手県", "id": 1572 },
        { "address": "御明神", "city": "岩手郡雫石町", "postcode": "0200581", "prefecture": "岩手県", "id": 1573 },
        { "address": "柿木", "city": "岩手郡雫石町", "postcode": "0200544", "prefecture": "岩手県", "id": 1574 },
        { "address": "上笹森", "city": "岩手郡雫石町", "postcode": "0200559", "prefecture": "岩手県", "id": 1575 },
        { "address": "上曽根田", "city": "岩手郡雫石町", "postcode": "0200555", "prefecture": "岩手県", "id": 1576 },
        { "address": "上平", "city": "岩手郡雫石町", "postcode": "0200557", "prefecture": "岩手県", "id": 1577 },
        { "address": "上町北", "city": "岩手郡雫石町", "postcode": "0200538", "prefecture": "岩手県", "id": 1578 },
        { "address": "上町西", "city": "岩手郡雫石町", "postcode": "0200537", "prefecture": "岩手県", "id": 1579 },
        { "address": "上町東", "city": "岩手郡雫石町", "postcode": "0200539", "prefecture": "岩手県", "id": 1580 },
        { "address": "上町南", "city": "岩手郡雫石町", "postcode": "0200530", "prefecture": "岩手県", "id": 1581 },
        { "address": "川原", "city": "岩手郡雫石町", "postcode": "0200534", "prefecture": "岩手県", "id": 1582 },
        { "address": "黒沢川", "city": "岩手郡雫石町", "postcode": "0200517", "prefecture": "岩手県", "id": 1583 },
        { "address": "源大堂", "city": "岩手郡雫石町", "postcode": "0200525", "prefecture": "岩手県", "id": 1584 },
        { "address": "小日谷地", "city": "岩手郡雫石町", "postcode": "0200535", "prefecture": "岩手県", "id": 1585 },
        { "address": "笹森", "city": "岩手郡雫石町", "postcode": "0200551", "prefecture": "岩手県", "id": 1586 },
        { "address": "塩ケ森", "city": "岩手郡雫石町", "postcode": "0200512", "prefecture": "岩手県", "id": 1587 },
        { "address": "下兎野", "city": "岩手郡雫石町", "postcode": "0200513", "prefecture": "岩手県", "id": 1588 },
        { "address": "下久保", "city": "岩手郡雫石町", "postcode": "0200522", "prefecture": "岩手県", "id": 1589 },
        { "address": "下笹森", "city": "岩手郡雫石町", "postcode": "0200558", "prefecture": "岩手県", "id": 1590 },
        { "address": "下曽根田", "city": "岩手郡雫石町", "postcode": "0200553", "prefecture": "岩手県", "id": 1591 },
        { "address": "下平", "city": "岩手郡雫石町", "postcode": "0200552", "prefecture": "岩手県", "id": 1592 },
        { "address": "下長根", "city": "岩手郡雫石町", "postcode": "0200515", "prefecture": "岩手県", "id": 1593 },
        { "address": "下町", "city": "岩手郡雫石町", "postcode": "0200528", "prefecture": "岩手県", "id": 1594 },
        { "address": "下町西", "city": "岩手郡雫石町", "postcode": "0200529", "prefecture": "岩手県", "id": 1595 },
        { "address": "下町東", "city": "岩手郡雫石町", "postcode": "0200520", "prefecture": "岩手県", "id": 1596 },
        { "address": "千刈田", "city": "岩手郡雫石町", "postcode": "0200541", "prefecture": "岩手県", "id": 1597 },
        { "address": "麁津田", "city": "岩手郡雫石町", "postcode": "0200521", "prefecture": "岩手県", "id": 1598 },
        { "address": "高前田", "city": "岩手郡雫石町", "postcode": "0200543", "prefecture": "岩手県", "id": 1599 },
        { "address": "繋", "city": "岩手郡雫石町", "postcode": "0200571", "prefecture": "岩手県", "id": 1600 },
        { "address": "寺の下", "city": "岩手郡雫石町", "postcode": "0200524", "prefecture": "岩手県", "id": 1601 },
        { "address": "中黒沢川", "city": "岩手郡雫石町", "postcode": "0200505", "prefecture": "岩手県", "id": 1602 },
        { "address": "中沼", "city": "岩手郡雫石町", "postcode": "0200504", "prefecture": "岩手県", "id": 1603 },
        { "address": "中町", "city": "岩手郡雫石町", "postcode": "0200527", "prefecture": "岩手県", "id": 1604 },
        { "address": "長畑", "city": "岩手郡雫石町", "postcode": "0200511", "prefecture": "岩手県", "id": 1605 },
        { "address": "長山", "city": "岩手郡雫石町", "postcode": "0200585", "prefecture": "岩手県", "id": 1606 },
        { "address": "名子", "city": "岩手郡雫石町", "postcode": "0200556", "prefecture": "岩手県", "id": 1607 },
        { "address": "七ツ森", "city": "岩手郡雫石町", "postcode": "0200503", "prefecture": "岩手県", "id": 1608 },
        { "address": "仁佐瀬", "city": "岩手郡雫石町", "postcode": "0200501", "prefecture": "岩手県", "id": 1609 },
        { "address": "西安庭", "city": "岩手郡雫石町", "postcode": "0200572", "prefecture": "岩手県", "id": 1610 },
        { "address": "西根", "city": "岩手郡雫石町", "postcode": "0200584", "prefecture": "岩手県", "id": 1611 },
        { "address": "沼返", "city": "岩手郡雫石町", "postcode": "0200506", "prefecture": "岩手県", "id": 1612 },
        { "address": "根堀", "city": "岩手郡雫石町", "postcode": "0200523", "prefecture": "岩手県", "id": 1613 },
        { "address": "野中", "city": "岩手郡雫石町", "postcode": "0200514", "prefecture": "岩手県", "id": 1614 },
        { "address": "橋場", "city": "岩手郡雫石町", "postcode": "0200582", "prefecture": "岩手県", "id": 1615 },
        { "address": "八卦", "city": "岩手郡雫石町", "postcode": "0200536", "prefecture": "岩手県", "id": 1616 },
        { "address": "林", "city": "岩手郡雫石町", "postcode": "0200533", "prefecture": "岩手県", "id": 1617 },
        { "address": "払川", "city": "岩手郡雫石町", "postcode": "0200532", "prefecture": "岩手県", "id": 1618 },
        { "address": "晴山", "city": "岩手郡雫石町", "postcode": "0200547", "prefecture": "岩手県", "id": 1619 },
        { "address": "町裏", "city": "岩手郡雫石町", "postcode": "0200554", "prefecture": "岩手県", "id": 1620 },
        { "address": "麻見田", "city": "岩手郡雫石町", "postcode": "0200531", "prefecture": "岩手県", "id": 1621 },
        { "address": "丸谷地", "city": "岩手郡雫石町", "postcode": "0200507", "prefecture": "岩手県", "id": 1622 },
        { "address": "万田渡", "city": "岩手郡雫石町", "postcode": "0200542", "prefecture": "岩手県", "id": 1623 },
        { "address": "南畑", "city": "岩手郡雫石町", "postcode": "0200573", "prefecture": "岩手県", "id": 1624 },
        { "address": "谷地", "city": "岩手郡雫石町", "postcode": "0200545", "prefecture": "岩手県", "id": 1625 },
        { "city": "岩手郡葛巻町", "postcode": "0285400", "prefecture": "岩手県", "id": 1626 },
        { "address": "江刈", "city": "岩手郡葛巻町", "postcode": "0285403", "prefecture": "岩手県", "id": 1627 },
        { "address": "葛巻", "city": "岩手郡葛巻町", "postcode": "0285102", "prefecture": "岩手県", "id": 1628 },
        { "address": "葛巻", "city": "岩手郡葛巻町", "postcode": "0285402", "prefecture": "岩手県", "id": 1629 },
        { "address": "田部", "city": "岩手郡葛巻町", "postcode": "0285401", "prefecture": "岩手県", "id": 1630 },
        { "city": "岩手郡岩手町", "postcode": "0284300", "prefecture": "岩手県", "id": 1631 },
        { "address": "五日市", "city": "岩手郡岩手町", "postcode": "0284307", "prefecture": "岩手県", "id": 1632 },
        { "address": "一方井", "city": "岩手郡岩手町", "postcode": "0284421", "prefecture": "岩手県", "id": 1633 },
        { "address": "江刈内", "city": "岩手郡岩手町", "postcode": "0284303", "prefecture": "岩手県", "id": 1634 },
        { "address": "川口", "city": "岩手郡岩手町", "postcode": "0284211", "prefecture": "岩手県", "id": 1635 },
        { "address": "久保", "city": "岩手郡岩手町", "postcode": "0284305", "prefecture": "岩手県", "id": 1636 },
        { "address": "黒石", "city": "岩手郡岩手町", "postcode": "0284424", "prefecture": "岩手県", "id": 1637 },
        { "address": "黒内", "city": "岩手郡岩手町", "postcode": "0284426", "prefecture": "岩手県", "id": 1638 },
        { "address": "子抱", "city": "岩手郡岩手町", "postcode": "0284304", "prefecture": "岩手県", "id": 1639 },
        { "address": "大坊", "city": "岩手郡岩手町", "postcode": "0284302", "prefecture": "岩手県", "id": 1640 },
        { "address": "土川", "city": "岩手郡岩手町", "postcode": "0284423", "prefecture": "岩手県", "id": 1641 },
        { "address": "沼宮内", "city": "岩手郡岩手町", "postcode": "0284301", "prefecture": "岩手県", "id": 1642 },
        { "address": "葉木田", "city": "岩手郡岩手町", "postcode": "0284425", "prefecture": "岩手県", "id": 1643 },
        { "address": "坊", "city": "岩手郡岩手町", "postcode": "0284422", "prefecture": "岩手県", "id": 1644 },
        { "address": "御堂", "city": "岩手郡岩手町", "postcode": "0284306", "prefecture": "岩手県", "id": 1645 },
        { "city": "紫波郡紫波町", "postcode": "0283300", "prefecture": "岩手県", "id": 1646 },
        { "address": "赤沢", "city": "紫波郡紫波町", "postcode": "0283533", "prefecture": "岩手県", "id": 1647 },
        { "address": "稲藤", "city": "紫波郡紫波町", "postcode": "0283451", "prefecture": "岩手県", "id": 1648 },
        { "address": "犬渕", "city": "紫波郡紫波町", "postcode": "0283311", "prefecture": "岩手県", "id": 1649 },
        { "address": "犬吠森", "city": "紫波郡紫波町", "postcode": "0283312", "prefecture": "岩手県", "id": 1650 },
        { "address": "江柄", "city": "紫波郡紫波町", "postcode": "0283321", "prefecture": "岩手県", "id": 1651 },
        { "address": "大巻", "city": "紫波郡紫波町", "postcode": "0283314", "prefecture": "岩手県", "id": 1652 },
        { "address": "片寄", "city": "紫波郡紫波町", "postcode": "0283452", "prefecture": "岩手県", "id": 1653 },
        { "address": "上平沢", "city": "紫波郡紫波町", "postcode": "0283441", "prefecture": "岩手県", "id": 1654 },
        { "address": "上松本", "city": "紫波郡紫波町", "postcode": "0283443", "prefecture": "岩手県", "id": 1655 },
        { "address": "北沢", "city": "紫波郡紫波町", "postcode": "0283323", "prefecture": "岩手県", "id": 1656 },
        { "address": "北田", "city": "紫波郡紫波町", "postcode": "0283536", "prefecture": "岩手県", "id": 1657 },
        { "address": "北日詰", "city": "紫波郡紫波町", "postcode": "0283309", "prefecture": "岩手県", "id": 1658 },
        { "address": "草刈", "city": "紫波郡紫波町", "postcode": "0283325", "prefecture": "岩手県", "id": 1659 },
        { "address": "高水寺", "city": "紫波郡紫波町", "postcode": "0283303", "prefecture": "岩手県", "id": 1660 },
        { "address": "小屋敷", "city": "紫波郡紫波町", "postcode": "0283444", "prefecture": "岩手県", "id": 1661 },
        { "address": "桜町", "city": "紫波郡紫波町", "postcode": "0283307", "prefecture": "岩手県", "id": 1662 },
        { "address": "佐比内", "city": "紫波郡紫波町", "postcode": "0283316", "prefecture": "岩手県", "id": 1663 },
        { "address": "下松本", "city": "紫波郡紫波町", "postcode": "0283446", "prefecture": "岩手県", "id": 1664 },
        {
            "address": "紫波中央駅前",
            "city": "紫波郡紫波町",
            "postcode": "0283318",
            "prefecture": "岩手県",
            "id": 1665
        },
        { "address": "陣ケ岡", "city": "紫波郡紫波町", "postcode": "0283302", "prefecture": "岩手県", "id": 1666 },
        { "address": "土舘", "city": "紫波郡紫波町", "postcode": "0283453", "prefecture": "岩手県", "id": 1667 },
        { "address": "遠山", "city": "紫波郡紫波町", "postcode": "0283535", "prefecture": "岩手県", "id": 1668 },
        { "address": "栃内", "city": "紫波郡紫波町", "postcode": "0283322", "prefecture": "岩手県", "id": 1669 },
        { "address": "中島", "city": "紫波郡紫波町", "postcode": "0283301", "prefecture": "岩手県", "id": 1670 },
        { "address": "西長岡", "city": "紫波郡紫波町", "postcode": "0283326", "prefecture": "岩手県", "id": 1671 },
        { "address": "東長岡", "city": "紫波郡紫波町", "postcode": "0283324", "prefecture": "岩手県", "id": 1672 },
        { "address": "彦部", "city": "紫波郡紫波町", "postcode": "0283315", "prefecture": "岩手県", "id": 1673 },
        { "address": "日詰", "city": "紫波郡紫波町", "postcode": "0283305", "prefecture": "岩手県", "id": 1674 },
        { "address": "日詰駅前", "city": "紫波郡紫波町", "postcode": "0283310", "prefecture": "岩手県", "id": 1675 },
        { "address": "日詰西", "city": "紫波郡紫波町", "postcode": "0283306", "prefecture": "岩手県", "id": 1676 },
        { "address": "平沢", "city": "紫波郡紫波町", "postcode": "0283308", "prefecture": "岩手県", "id": 1677 },
        { "address": "二日町", "city": "紫波郡紫波町", "postcode": "0283304", "prefecture": "岩手県", "id": 1678 },
        { "address": "船久保", "city": "紫波郡紫波町", "postcode": "0283532", "prefecture": "岩手県", "id": 1679 },
        { "address": "星山", "city": "紫波郡紫波町", "postcode": "0283313", "prefecture": "岩手県", "id": 1680 },
        { "address": "升沢", "city": "紫波郡紫波町", "postcode": "0283442", "prefecture": "岩手県", "id": 1681 },
        { "address": "南伝法寺", "city": "紫波郡紫波町", "postcode": "0283445", "prefecture": "岩手県", "id": 1682 },
        { "address": "南日詰", "city": "紫波郡紫波町", "postcode": "0283317", "prefecture": "岩手県", "id": 1683 },
        { "address": "宮手", "city": "紫波郡紫波町", "postcode": "0283447", "prefecture": "岩手県", "id": 1684 },
        { "address": "紫野", "city": "紫波郡紫波町", "postcode": "0283534", "prefecture": "岩手県", "id": 1685 },
        { "address": "山屋", "city": "紫波郡紫波町", "postcode": "0283531", "prefecture": "岩手県", "id": 1686 },
        { "address": "吉水", "city": "紫波郡紫波町", "postcode": "0283448", "prefecture": "岩手県", "id": 1687 },
        { "city": "紫波郡矢巾町", "postcode": "0283600", "prefecture": "岩手県", "id": 1688 },
        { "address": "間野々", "city": "紫波郡矢巾町", "postcode": "0283605", "prefecture": "岩手県", "id": 1689 },
        { "address": "赤林", "city": "紫波郡矢巾町", "postcode": "0283611", "prefecture": "岩手県", "id": 1690 },
        { "address": "医大通", "city": "紫波郡矢巾町", "postcode": "0283609", "prefecture": "岩手県", "id": 1691 },
        { "address": "岩清水", "city": "紫波郡矢巾町", "postcode": "0283626", "prefecture": "岩手県", "id": 1692 },
        { "address": "駅東", "city": "紫波郡矢巾町", "postcode": "0283618", "prefecture": "岩手県", "id": 1693 },
        { "address": "太田", "city": "紫波郡矢巾町", "postcode": "0283617", "prefecture": "岩手県", "id": 1694 },
        { "address": "上矢次", "city": "紫波郡矢巾町", "postcode": "0283622", "prefecture": "岩手県", "id": 1695 },
        { "address": "北郡山", "city": "紫波郡矢巾町", "postcode": "0283608", "prefecture": "岩手県", "id": 1696 },
        { "address": "北伝法寺", "city": "紫波郡矢巾町", "postcode": "0283624", "prefecture": "岩手県", "id": 1697 },
        { "address": "北矢幅", "city": "紫波郡矢巾町", "postcode": "0283613", "prefecture": "岩手県", "id": 1698 },
        { "address": "煙山", "city": "紫波郡矢巾町", "postcode": "0283623", "prefecture": "岩手県", "id": 1699 },
        { "address": "高水寺", "city": "紫波郡矢巾町", "postcode": "0283607", "prefecture": "岩手県", "id": 1700 },
        { "address": "下矢次", "city": "紫波郡矢巾町", "postcode": "0283612", "prefecture": "岩手県", "id": 1701 },
        { "address": "白沢", "city": "紫波郡矢巾町", "postcode": "0283616", "prefecture": "岩手県", "id": 1702 },
        { "address": "高田", "city": "紫波郡矢巾町", "postcode": "0283601", "prefecture": "岩手県", "id": 1703 },
        { "address": "土橋", "city": "紫波郡矢巾町", "postcode": "0283606", "prefecture": "岩手県", "id": 1704 },
        { "address": "西徳田", "city": "紫波郡矢巾町", "postcode": "0283603", "prefecture": "岩手県", "id": 1705 },
        { "address": "東徳田", "city": "紫波郡矢巾町", "postcode": "0283604", "prefecture": "岩手県", "id": 1706 },
        { "address": "広宮沢", "city": "紫波郡矢巾町", "postcode": "0283621", "prefecture": "岩手県", "id": 1707 },
        { "address": "藤沢", "city": "紫波郡矢巾町", "postcode": "0283602", "prefecture": "岩手県", "id": 1708 },
        { "address": "又兵エ新田", "city": "紫波郡矢巾町", "postcode": "0283614", "prefecture": "岩手県", "id": 1709 },
        { "address": "南矢幅", "city": "紫波郡矢巾町", "postcode": "0283615", "prefecture": "岩手県", "id": 1710 },
        { "address": "室岡", "city": "紫波郡矢巾町", "postcode": "0283625", "prefecture": "岩手県", "id": 1711 },
        {
            "address": "流通センター南",
            "city": "紫波郡矢巾町",
            "postcode": "0200891",
            "prefecture": "岩手県",
            "id": 1712
        },
        { "address": "和味", "city": "紫波郡矢巾町", "postcode": "0283627", "prefecture": "岩手県", "id": 1713 },
        { "city": "和賀郡西和賀町", "postcode": "0295500", "prefecture": "岩手県", "id": 1714 },
        { "address": "穴明", "city": "和賀郡西和賀町", "postcode": "0295503", "prefecture": "岩手県", "id": 1715 },
        {
            "address": "上野々３９地割",
            "city": "和賀郡西和賀町",
            "postcode": "0295511",
            "prefecture": "岩手県",
            "id": 1716
        },
        { "address": "越中畑", "city": "和賀郡西和賀町", "postcode": "0295523", "prefecture": "岩手県", "id": 1717 },
        {
            "address": "大沓３６地割",
            "city": "和賀郡西和賀町",
            "postcode": "0295507",
            "prefecture": "岩手県",
            "id": 1718
        },
        {
            "address": "大渡５７地割",
            "city": "和賀郡西和賀町",
            "postcode": "0295521",
            "prefecture": "岩手県",
            "id": 1719
        },
        {
            "address": "甲子５１地割",
            "city": "和賀郡西和賀町",
            "postcode": "0295513",
            "prefecture": "岩手県",
            "id": 1720
        },
        { "address": "樺沢", "city": "和賀郡西和賀町", "postcode": "0295502", "prefecture": "岩手県", "id": 1721 },
        { "address": "川尻", "city": "和賀郡西和賀町", "postcode": "0295512", "prefecture": "岩手県", "id": 1722 },
        { "address": "左草", "city": "和賀郡西和賀町", "postcode": "0295501", "prefecture": "岩手県", "id": 1723 },
        { "address": "沢内泉沢", "city": "和賀郡西和賀町", "postcode": "0295616", "prefecture": "岩手県", "id": 1724 },
        { "address": "沢内太田", "city": "和賀郡西和賀町", "postcode": "0295614", "prefecture": "岩手県", "id": 1725 },
        { "address": "沢内大野", "city": "和賀郡西和賀町", "postcode": "0295612", "prefecture": "岩手県", "id": 1726 },
        { "address": "沢内貝沢", "city": "和賀郡西和賀町", "postcode": "0295703", "prefecture": "岩手県", "id": 1727 },
        { "address": "沢内川舟", "city": "和賀郡西和賀町", "postcode": "0295701", "prefecture": "岩手県", "id": 1728 },
        { "address": "沢内鍵飯", "city": "和賀郡西和賀町", "postcode": "0295621", "prefecture": "岩手県", "id": 1729 },
        { "address": "沢内猿橋", "city": "和賀郡西和賀町", "postcode": "0295615", "prefecture": "岩手県", "id": 1730 },
        { "address": "沢内新町", "city": "和賀郡西和賀町", "postcode": "0295611", "prefecture": "岩手県", "id": 1731 },
        {
            "address": "沢内長瀬野",
            "city": "和賀郡西和賀町",
            "postcode": "0295617",
            "prefecture": "岩手県",
            "id": 1732
        },
        { "address": "沢内弁天", "city": "和賀郡西和賀町", "postcode": "0295619", "prefecture": "岩手県", "id": 1733 },
        { "address": "沢内前郷", "city": "和賀郡西和賀町", "postcode": "0295613", "prefecture": "岩手県", "id": 1734 },
        { "address": "沢内両沢", "city": "和賀郡西和賀町", "postcode": "0295618", "prefecture": "岩手県", "id": 1735 },
        { "address": "沢内若畑", "city": "和賀郡西和賀町", "postcode": "0295702", "prefecture": "岩手県", "id": 1736 },
        {
            "address": "杉名畑４４地割",
            "city": "和賀郡西和賀町",
            "postcode": "0240341",
            "prefecture": "岩手県",
            "id": 1737
        },
        {
            "address": "巣郷６３地割",
            "city": "和賀郡西和賀町",
            "postcode": "0295522",
            "prefecture": "岩手県",
            "id": 1738
        },
        { "address": "槻沢", "city": "和賀郡西和賀町", "postcode": "0295504", "prefecture": "岩手県", "id": 1739 },
        { "address": "湯川", "city": "和賀郡西和賀町", "postcode": "0295514", "prefecture": "岩手県", "id": 1740 },
        { "address": "湯之沢", "city": "和賀郡西和賀町", "postcode": "0295506", "prefecture": "岩手県", "id": 1741 },
        { "address": "湯本", "city": "和賀郡西和賀町", "postcode": "0295505", "prefecture": "岩手県", "id": 1742 },
        { "city": "胆沢郡金ケ崎町", "postcode": "0294500", "prefecture": "岩手県", "id": 1743 },
        { "address": "永栄", "city": "胆沢郡金ケ崎町", "postcode": "0294505", "prefecture": "岩手県", "id": 1744 },
        { "address": "永沢", "city": "胆沢郡金ケ崎町", "postcode": "0294504", "prefecture": "岩手県", "id": 1745 },
        { "address": "西根", "city": "胆沢郡金ケ崎町", "postcode": "0294503", "prefecture": "岩手県", "id": 1746 },
        { "address": "三ケ尻", "city": "胆沢郡金ケ崎町", "postcode": "0294502", "prefecture": "岩手県", "id": 1747 },
        { "address": "六原", "city": "胆沢郡金ケ崎町", "postcode": "0294501", "prefecture": "岩手県", "id": 1748 },
        { "city": "西磐井郡平泉町", "postcode": "0294100", "prefecture": "岩手県", "id": 1749 },
        { "address": "長島", "city": "西磐井郡平泉町", "postcode": "0294101", "prefecture": "岩手県", "id": 1750 },
        { "address": "平泉", "city": "西磐井郡平泉町", "postcode": "0294102", "prefecture": "岩手県", "id": 1751 },
        { "city": "気仙郡住田町", "postcode": "0292300", "prefecture": "岩手県", "id": 1752 },
        { "address": "上有住", "city": "気仙郡住田町", "postcode": "0292501", "prefecture": "岩手県", "id": 1753 },
        { "address": "下有住", "city": "気仙郡住田町", "postcode": "0292502", "prefecture": "岩手県", "id": 1754 },
        { "address": "世田米", "city": "気仙郡住田町", "postcode": "0292311", "prefecture": "岩手県", "id": 1755 },
        { "city": "上閉伊郡大槌町", "postcode": "0281100", "prefecture": "岩手県", "id": 1756 },
        { "address": "赤浜", "city": "上閉伊郡大槌町", "postcode": "0281102", "prefecture": "岩手県", "id": 1757 },
        { "address": "安渡", "city": "上閉伊郡大槌町", "postcode": "0281105", "prefecture": "岩手県", "id": 1758 },
        { "address": "大槌", "city": "上閉伊郡大槌町", "postcode": "0281131", "prefecture": "岩手県", "id": 1759 },
        { "address": "大町", "city": "上閉伊郡大槌町", "postcode": "0281112", "prefecture": "岩手県", "id": 1760 },
        { "address": "大ケ口", "city": "上閉伊郡大槌町", "postcode": "0281132", "prefecture": "岩手県", "id": 1761 },
        { "address": "金沢", "city": "上閉伊郡大槌町", "postcode": "0281133", "prefecture": "岩手県", "id": 1762 },
        { "address": "上町", "city": "上閉伊郡大槌町", "postcode": "0281115", "prefecture": "岩手県", "id": 1763 },
        { "address": "吉里吉里", "city": "上閉伊郡大槌町", "postcode": "0281101", "prefecture": "岩手県", "id": 1764 },
        { "address": "小鎚", "city": "上閉伊郡大槌町", "postcode": "0281121", "prefecture": "岩手県", "id": 1765 },
        { "address": "栄町", "city": "上閉伊郡大槌町", "postcode": "0281114", "prefecture": "岩手県", "id": 1766 },
        { "address": "桜木町", "city": "上閉伊郡大槌町", "postcode": "0281122", "prefecture": "岩手県", "id": 1767 },
        { "address": "新町", "city": "上閉伊郡大槌町", "postcode": "0281111", "prefecture": "岩手県", "id": 1768 },
        { "address": "新港町", "city": "上閉伊郡大槌町", "postcode": "0281104", "prefecture": "岩手県", "id": 1769 },
        { "address": "末広町", "city": "上閉伊郡大槌町", "postcode": "0281117", "prefecture": "岩手県", "id": 1770 },
        { "address": "須賀町", "city": "上閉伊郡大槌町", "postcode": "0281113", "prefecture": "岩手県", "id": 1771 },
        { "address": "本町", "city": "上閉伊郡大槌町", "postcode": "0281116", "prefecture": "岩手県", "id": 1772 },
        { "address": "港町", "city": "上閉伊郡大槌町", "postcode": "0281103", "prefecture": "岩手県", "id": 1773 },
        { "city": "下閉伊郡山田町", "postcode": "0281300", "prefecture": "岩手県", "id": 1774 },
        { "address": "荒川", "city": "下閉伊郡山田町", "postcode": "0281303", "prefecture": "岩手県", "id": 1775 },
        { "address": "飯岡", "city": "下閉伊郡山田町", "postcode": "0281352", "prefecture": "岩手県", "id": 1776 },
        { "address": "石峠", "city": "下閉伊郡山田町", "postcode": "0281301", "prefecture": "岩手県", "id": 1777 },
        { "address": "大沢", "city": "下閉伊郡山田町", "postcode": "0281311", "prefecture": "岩手県", "id": 1778 },
        { "address": "織笠", "city": "下閉伊郡山田町", "postcode": "0281361", "prefecture": "岩手県", "id": 1779 },
        { "address": "川向町", "city": "下閉伊郡山田町", "postcode": "0281342", "prefecture": "岩手県", "id": 1780 },
        { "address": "北浜町", "city": "下閉伊郡山田町", "postcode": "0281331", "prefecture": "岩手県", "id": 1781 },
        { "address": "後楽町", "city": "下閉伊郡山田町", "postcode": "0281333", "prefecture": "岩手県", "id": 1782 },
        { "address": "境田町", "city": "下閉伊郡山田町", "postcode": "0281343", "prefecture": "岩手県", "id": 1783 },
        { "address": "中央町", "city": "下閉伊郡山田町", "postcode": "0281332", "prefecture": "岩手県", "id": 1784 },
        { "address": "豊間根", "city": "下閉伊郡山田町", "postcode": "0281302", "prefecture": "岩手県", "id": 1785 },
        { "address": "長崎", "city": "下閉伊郡山田町", "postcode": "0281351", "prefecture": "岩手県", "id": 1786 },
        { "address": "八幡町", "city": "下閉伊郡山田町", "postcode": "0281341", "prefecture": "岩手県", "id": 1787 },
        { "address": "船越", "city": "下閉伊郡山田町", "postcode": "0281371", "prefecture": "岩手県", "id": 1788 },
        { "address": "山田", "city": "下閉伊郡山田町", "postcode": "0281321", "prefecture": "岩手県", "id": 1789 },
        { "city": "下閉伊郡岩泉町", "postcode": "0270500", "prefecture": "岩手県", "id": 1790 },
        { "address": "浅内", "city": "下閉伊郡岩泉町", "postcode": "0282231", "prefecture": "岩手県", "id": 1791 },
        { "address": "安家", "city": "下閉伊郡岩泉町", "postcode": "0270611", "prefecture": "岩手県", "id": 1792 },
        { "address": "穴沢", "city": "下閉伊郡岩泉町", "postcode": "0285642", "prefecture": "岩手県", "id": 1793 },
        { "address": "尼額", "city": "下閉伊郡岩泉町", "postcode": "0270508", "prefecture": "岩手県", "id": 1794 },
        { "address": "岩泉", "city": "下閉伊郡岩泉町", "postcode": "0270501", "prefecture": "岩手県", "id": 1795 },
        { "address": "大川", "city": "下閉伊郡岩泉町", "postcode": "0282232", "prefecture": "岩手県", "id": 1796 },
        { "address": "乙茂", "city": "下閉伊郡岩泉町", "postcode": "0270502", "prefecture": "岩手県", "id": 1797 },
        { "address": "小本", "city": "下閉伊郡岩泉町", "postcode": "0270421", "prefecture": "岩手県", "id": 1798 },
        { "address": "門", "city": "下閉伊郡岩泉町", "postcode": "0285641", "prefecture": "岩手県", "id": 1799 },
        { "address": "釜津田", "city": "下閉伊郡岩泉町", "postcode": "0285633", "prefecture": "岩手県", "id": 1800 },
        { "address": "釜津田", "city": "下閉伊郡岩泉町", "postcode": "0282233", "prefecture": "岩手県", "id": 1801 },
        { "address": "上有芸", "city": "下閉伊郡岩泉町", "postcode": "0270505", "prefecture": "岩手県", "id": 1802 },
        { "address": "猿沢", "city": "下閉伊郡岩泉町", "postcode": "0270503", "prefecture": "岩手県", "id": 1803 },
        { "address": "下有芸", "city": "下閉伊郡岩泉町", "postcode": "0270504", "prefecture": "岩手県", "id": 1804 },
        { "address": "鼠入", "city": "下閉伊郡岩泉町", "postcode": "0270506", "prefecture": "岩手県", "id": 1805 },
        { "address": "中里", "city": "下閉伊郡岩泉町", "postcode": "0270423", "prefecture": "岩手県", "id": 1806 },
        { "address": "中島", "city": "下閉伊郡岩泉町", "postcode": "0270422", "prefecture": "岩手県", "id": 1807 },
        { "address": "二升石", "city": "下閉伊郡岩泉町", "postcode": "0270507", "prefecture": "岩手県", "id": 1808 },
        { "address": "袰野", "city": "下閉伊郡岩泉町", "postcode": "0270424", "prefecture": "岩手県", "id": 1809 },
        { "address": "袰綿", "city": "下閉伊郡岩泉町", "postcode": "0285643", "prefecture": "岩手県", "id": 1810 },
        { "city": "下閉伊郡田野畑村", "postcode": "0288400", "prefecture": "岩手県", "id": 1811 },
        { "address": "明戸", "city": "下閉伊郡田野畑村", "postcode": "0288402", "prefecture": "岩手県", "id": 1812 },
        { "address": "一の渡", "city": "下閉伊郡田野畑村", "postcode": "0288401", "prefecture": "岩手県", "id": 1813 },
        { "address": "大芦", "city": "下閉伊郡田野畑村", "postcode": "0288405", "prefecture": "岩手県", "id": 1814 },
        { "address": "川平", "city": "下閉伊郡田野畑村", "postcode": "0288407", "prefecture": "岩手県", "id": 1815 },
        { "address": "猿山", "city": "下閉伊郡田野畑村", "postcode": "0288406", "prefecture": "岩手県", "id": 1816 },
        { "address": "島越", "city": "下閉伊郡田野畑村", "postcode": "0288404", "prefecture": "岩手県", "id": 1817 },
        { "address": "羅賀", "city": "下閉伊郡田野畑村", "postcode": "0288403", "prefecture": "岩手県", "id": 1818 },
        { "city": "下閉伊郡普代村", "postcode": "0288300", "prefecture": "岩手県", "id": 1819 },
        { "address": "芦生", "city": "下閉伊郡普代村", "postcode": "0288366", "prefecture": "岩手県", "id": 1820 },
        { "address": "芦渡", "city": "下閉伊郡普代村", "postcode": "0288365", "prefecture": "岩手県", "id": 1821 },
        { "address": "上の山", "city": "下閉伊郡普代村", "postcode": "0288343", "prefecture": "岩手県", "id": 1822 },
        { "address": "卯子酉", "city": "下閉伊郡普代村", "postcode": "0288362", "prefecture": "岩手県", "id": 1823 },
        { "address": "宇留部", "city": "下閉伊郡普代村", "postcode": "0288331", "prefecture": "岩手県", "id": 1824 },
        { "address": "太田名部", "city": "下閉伊郡普代村", "postcode": "0288345", "prefecture": "岩手県", "id": 1825 },
        { "address": "柏木平", "city": "下閉伊郡普代村", "postcode": "0288368", "prefecture": "岩手県", "id": 1826 },
        { "address": "上村", "city": "下閉伊郡普代村", "postcode": "0288352", "prefecture": "岩手県", "id": 1827 },
        { "address": "北ノ股", "city": "下閉伊郡普代村", "postcode": "0288361", "prefecture": "岩手県", "id": 1828 },
        { "address": "黒崎", "city": "下閉伊郡普代村", "postcode": "0288353", "prefecture": "岩手県", "id": 1829 },
        { "address": "小谷地", "city": "下閉伊郡普代村", "postcode": "0288312", "prefecture": "岩手県", "id": 1830 },
        { "address": "沢向", "city": "下閉伊郡普代村", "postcode": "0288303", "prefecture": "岩手県", "id": 1831 },
        { "address": "下村", "city": "下閉伊郡普代村", "postcode": "0288351", "prefecture": "岩手県", "id": 1832 },
        { "address": "白井", "city": "下閉伊郡普代村", "postcode": "0288311", "prefecture": "岩手県", "id": 1833 },
        { "address": "土取場", "city": "下閉伊郡普代村", "postcode": "0288313", "prefecture": "岩手県", "id": 1834 },
        { "address": "堤", "city": "下閉伊郡普代村", "postcode": "0288336", "prefecture": "岩手県", "id": 1835 },
        { "address": "天拝坂", "city": "下閉伊郡普代村", "postcode": "0288322", "prefecture": "岩手県", "id": 1836 },
        { "address": "銅屋", "city": "下閉伊郡普代村", "postcode": "0288332", "prefecture": "岩手県", "id": 1837 },
        { "address": "鳥居", "city": "下閉伊郡普代村", "postcode": "0288323", "prefecture": "岩手県", "id": 1838 },
        { "address": "中村", "city": "下閉伊郡普代村", "postcode": "0288334", "prefecture": "岩手県", "id": 1839 },
        { "address": "中山", "city": "下閉伊郡普代村", "postcode": "0288344", "prefecture": "岩手県", "id": 1840 },
        { "address": "野胡桃", "city": "下閉伊郡普代村", "postcode": "0288321", "prefecture": "岩手県", "id": 1841 },
        { "address": "萩牛", "city": "下閉伊郡普代村", "postcode": "0288367", "prefecture": "岩手県", "id": 1842 },
        { "address": "馬場野", "city": "下閉伊郡普代村", "postcode": "0288301", "prefecture": "岩手県", "id": 1843 },
        { "address": "普代", "city": "下閉伊郡普代村", "postcode": "0288335", "prefecture": "岩手県", "id": 1844 },
        { "address": "堀内", "city": "下閉伊郡普代村", "postcode": "0288302", "prefecture": "岩手県", "id": 1845 },
        { "address": "南股", "city": "下閉伊郡普代村", "postcode": "0288364", "prefecture": "岩手県", "id": 1846 },
        { "address": "明神", "city": "下閉伊郡普代村", "postcode": "0288341", "prefecture": "岩手県", "id": 1847 },
        { "address": "茂市", "city": "下閉伊郡普代村", "postcode": "0288363", "prefecture": "岩手県", "id": 1848 },
        { "address": "羅賀", "city": "下閉伊郡普代村", "postcode": "0288333", "prefecture": "岩手県", "id": 1849 },
        { "address": "和野山", "city": "下閉伊郡普代村", "postcode": "0288342", "prefecture": "岩手県", "id": 1850 },
        { "city": "九戸郡軽米町", "postcode": "0286300", "prefecture": "岩手県", "id": 1851 },
        { "address": "狄塚", "city": "九戸郡軽米町", "postcode": "0286223", "prefecture": "岩手県", "id": 1852 },
        { "address": "上舘", "city": "九戸郡軽米町", "postcode": "0286301", "prefecture": "岩手県", "id": 1853 },
        { "address": "軽米", "city": "九戸郡軽米町", "postcode": "0286302", "prefecture": "岩手県", "id": 1854 },
        { "address": "高家", "city": "九戸郡軽米町", "postcode": "0286303", "prefecture": "岩手県", "id": 1855 },
        { "address": "小軽米", "city": "九戸郡軽米町", "postcode": "0286411", "prefecture": "岩手県", "id": 1856 },
        { "address": "山内", "city": "九戸郡軽米町", "postcode": "0286222", "prefecture": "岩手県", "id": 1857 },
        { "address": "長倉", "city": "九戸郡軽米町", "postcode": "0286304", "prefecture": "岩手県", "id": 1858 },
        { "address": "晴山", "city": "九戸郡軽米町", "postcode": "0286221", "prefecture": "岩手県", "id": 1859 },
        { "address": "蛇口", "city": "九戸郡軽米町", "postcode": "0286412", "prefecture": "岩手県", "id": 1860 },
        { "address": "円子", "city": "九戸郡軽米町", "postcode": "0286413", "prefecture": "岩手県", "id": 1861 },
        { "city": "九戸郡野田村", "postcode": "0288200", "prefecture": "岩手県", "id": 1862 },
        { "address": "玉川", "city": "九戸郡野田村", "postcode": "0288202", "prefecture": "岩手県", "id": 1863 },
        { "address": "野田", "city": "九戸郡野田村", "postcode": "0288201", "prefecture": "岩手県", "id": 1864 },
        { "city": "九戸郡九戸村", "postcode": "0286500", "prefecture": "岩手県", "id": 1865 },
        { "address": "荒谷", "city": "九戸郡九戸村", "postcode": "0286501", "prefecture": "岩手県", "id": 1866 },
        { "address": "伊保内", "city": "九戸郡九戸村", "postcode": "0286502", "prefecture": "岩手県", "id": 1867 },
        { "address": "江刺家", "city": "九戸郡九戸村", "postcode": "0286505", "prefecture": "岩手県", "id": 1868 },
        { "address": "小倉", "city": "九戸郡九戸村", "postcode": "0286503", "prefecture": "岩手県", "id": 1869 },
        { "address": "山根", "city": "九戸郡九戸村", "postcode": "0286611", "prefecture": "岩手県", "id": 1870 },
        { "address": "長興寺", "city": "九戸郡九戸村", "postcode": "0286504", "prefecture": "岩手県", "id": 1871 },
        { "address": "戸田", "city": "九戸郡九戸村", "postcode": "0286612", "prefecture": "岩手県", "id": 1872 },
        { "address": "山屋", "city": "九戸郡九戸村", "postcode": "0286506", "prefecture": "岩手県", "id": 1873 },
        { "address": "雪屋", "city": "九戸郡九戸村", "postcode": "0286507", "prefecture": "岩手県", "id": 1874 },
        { "city": "九戸郡洋野町", "postcode": "0287900", "prefecture": "岩手県", "id": 1875 },
        { "address": "阿子木", "city": "九戸郡洋野町", "postcode": "0288803", "prefecture": "岩手県", "id": 1876 },
        { "address": "有家", "city": "九戸郡洋野町", "postcode": "0287905", "prefecture": "岩手県", "id": 1877 },
        { "address": "大野", "city": "九戸郡洋野町", "postcode": "0288802", "prefecture": "岩手県", "id": 1878 },
        { "address": "小子内", "city": "九戸郡洋野町", "postcode": "0287904", "prefecture": "岩手県", "id": 1879 },
        { "address": "上館", "city": "九戸郡洋野町", "postcode": "0288801", "prefecture": "岩手県", "id": 1880 },
        { "address": "帯島", "city": "九戸郡洋野町", "postcode": "0288804", "prefecture": "岩手県", "id": 1881 },
        { "address": "種市", "city": "九戸郡洋野町", "postcode": "0287915", "prefecture": "岩手県", "id": 1882 },
        { "address": "種市", "city": "九戸郡洋野町", "postcode": "0287903", "prefecture": "岩手県", "id": 1883 },
        { "address": "種市", "city": "九戸郡洋野町", "postcode": "0287914", "prefecture": "岩手県", "id": 1884 },
        { "address": "種市", "city": "九戸郡洋野町", "postcode": "0287913", "prefecture": "岩手県", "id": 1885 },
        { "address": "種市", "city": "九戸郡洋野町", "postcode": "0287912", "prefecture": "岩手県", "id": 1886 },
        { "address": "種市", "city": "九戸郡洋野町", "postcode": "0287911", "prefecture": "岩手県", "id": 1887 },
        { "address": "種市", "city": "九戸郡洋野町", "postcode": "0287918", "prefecture": "岩手県", "id": 1888 },
        { "address": "種市", "city": "九戸郡洋野町", "postcode": "0287902", "prefecture": "岩手県", "id": 1889 },
        { "address": "種市", "city": "九戸郡洋野町", "postcode": "0287917", "prefecture": "岩手県", "id": 1890 },
        { "address": "種市", "city": "九戸郡洋野町", "postcode": "0287916", "prefecture": "岩手県", "id": 1891 },
        { "address": "種市", "city": "九戸郡洋野町", "postcode": "0287901", "prefecture": "岩手県", "id": 1892 },
        { "address": "中野", "city": "九戸郡洋野町", "postcode": "0287906", "prefecture": "岩手県", "id": 1893 },
        { "address": "水沢", "city": "九戸郡洋野町", "postcode": "0288805", "prefecture": "岩手県", "id": 1894 },
        { "city": "二戸郡一戸町", "postcode": "0285300", "prefecture": "岩手県", "id": 1895 },
        { "address": "姉帯", "city": "二戸郡一戸町", "postcode": "0285222", "prefecture": "岩手県", "id": 1896 },
        { "address": "出ル町", "city": "二戸郡一戸町", "postcode": "0285304", "prefecture": "岩手県", "id": 1897 },
        { "address": "一戸", "city": "二戸郡一戸町", "postcode": "0285312", "prefecture": "岩手県", "id": 1898 },
        { "address": "岩舘", "city": "二戸郡一戸町", "postcode": "0285316", "prefecture": "岩手県", "id": 1899 },
        { "address": "宇別", "city": "二戸郡一戸町", "postcode": "0285131", "prefecture": "岩手県", "id": 1900 },
        { "address": "奥中山", "city": "二戸郡一戸町", "postcode": "0285134", "prefecture": "岩手県", "id": 1901 },
        { "address": "小友", "city": "二戸郡一戸町", "postcode": "0285303", "prefecture": "岩手県", "id": 1902 },
        { "address": "面岸", "city": "二戸郡一戸町", "postcode": "0285223", "prefecture": "岩手県", "id": 1903 },
        { "address": "高善寺", "city": "二戸郡一戸町", "postcode": "0285311", "prefecture": "岩手県", "id": 1904 },
        { "address": "小鳥谷", "city": "二戸郡一戸町", "postcode": "0285221", "prefecture": "岩手県", "id": 1905 },
        { "address": "小繋", "city": "二戸郡一戸町", "postcode": "0285132", "prefecture": "岩手県", "id": 1906 },
        { "address": "西法寺", "city": "二戸郡一戸町", "postcode": "0285301", "prefecture": "岩手県", "id": 1907 },
        { "address": "月舘", "city": "二戸郡一戸町", "postcode": "0285305", "prefecture": "岩手県", "id": 1908 },
        { "address": "鳥越", "city": "二戸郡一戸町", "postcode": "0285313", "prefecture": "岩手県", "id": 1909 },
        { "address": "中里", "city": "二戸郡一戸町", "postcode": "0285306", "prefecture": "岩手県", "id": 1910 },
        { "address": "中山", "city": "二戸郡一戸町", "postcode": "0285233", "prefecture": "岩手県", "id": 1911 },
        { "address": "中山", "city": "二戸郡一戸町", "postcode": "0285133", "prefecture": "岩手県", "id": 1912 },
        { "address": "楢山", "city": "二戸郡一戸町", "postcode": "0285314", "prefecture": "岩手県", "id": 1913 },
        { "address": "根反", "city": "二戸郡一戸町", "postcode": "0285315", "prefecture": "岩手県", "id": 1914 },
        { "address": "平糠", "city": "二戸郡一戸町", "postcode": "0285224", "prefecture": "岩手県", "id": 1915 },
        { "address": "女鹿", "city": "二戸郡一戸町", "postcode": "0285302", "prefecture": "岩手県", "id": 1916 }
    ]
}
