{
    "postcodes": [
        { "city": "松江市", "postcode": "6900000", "prefecture": "島根県", "id": 0 },
        { "address": "秋鹿町", "city": "松江市", "postcode": "6900261", "prefecture": "島根県", "id": 1 },
        { "address": "青葉台", "city": "松江市", "postcode": "6900022", "prefecture": "島根県", "id": 2 },
        { "address": "上乃木", "city": "松江市", "postcode": "6900015", "prefecture": "島根県", "id": 3 },
        { "address": "朝酌町", "city": "松江市", "postcode": "6900834", "prefecture": "島根県", "id": 4 },
        { "address": "朝日町", "city": "松江市", "postcode": "6900003", "prefecture": "島根県", "id": 5 },
        { "address": "意宇町", "city": "松江市", "postcode": "6900027", "prefecture": "島根県", "id": 6 },
        { "address": "石橋町", "city": "松江市", "postcode": "6900881", "prefecture": "島根県", "id": 7 },
        { "address": "伊勢宮町", "city": "松江市", "postcode": "6900006", "prefecture": "島根県", "id": 8 },
        { "address": "一の谷町", "city": "松江市", "postcode": "6900034", "prefecture": "島根県", "id": 9 },
        { "address": "魚町", "city": "松江市", "postcode": "6900062", "prefecture": "島根県", "id": 10 },
        { "address": "うぐいす台", "city": "松江市", "postcode": "6900869", "prefecture": "島根県", "id": 11 },
        { "address": "打出町", "city": "松江市", "postcode": "6900131", "prefecture": "島根県", "id": 12 },
        { "address": "内中原町", "city": "松江市", "postcode": "6900873", "prefecture": "島根県", "id": 13 },
        { "address": "邑生町", "city": "松江市", "postcode": "6901115", "prefecture": "島根県", "id": 14 },
        { "address": "大井町", "city": "松江市", "postcode": "6900832", "prefecture": "島根県", "id": 15 },
        { "address": "大垣町", "city": "松江市", "postcode": "6900263", "prefecture": "島根県", "id": 16 },
        { "address": "大草町", "city": "松江市", "postcode": "6900032", "prefecture": "島根県", "id": 17 },
        { "address": "大野町", "city": "松江市", "postcode": "6900264", "prefecture": "島根県", "id": 18 },
        { "address": "大庭町", "city": "松江市", "postcode": "6900033", "prefecture": "島根県", "id": 19 },
        { "address": "大海崎町", "city": "松江市", "postcode": "6900831", "prefecture": "島根県", "id": 20 },
        { "address": "岡本町", "city": "松江市", "postcode": "6900262", "prefecture": "島根県", "id": 21 },
        { "address": "奥谷町", "city": "松江市", "postcode": "6900872", "prefecture": "島根県", "id": 22 },
        { "address": "御手船場町", "city": "松江市", "postcode": "6900007", "prefecture": "島根県", "id": 23 },
        { "address": "魚瀬町", "city": "松江市", "postcode": "6900266", "prefecture": "島根県", "id": 24 },
        { "address": "苧町", "city": "松江市", "postcode": "6900848", "prefecture": "島根県", "id": 25 },
        { "address": "学園", "city": "松江市", "postcode": "6900825", "prefecture": "島根県", "id": 26 },
        { "address": "学園南", "city": "松江市", "postcode": "6900826", "prefecture": "島根県", "id": 27 },
        { "address": "鹿島町恵曇", "city": "松江市", "postcode": "6900322", "prefecture": "島根県", "id": 28 },
        { "address": "鹿島町片句", "city": "松江市", "postcode": "6900324", "prefecture": "島根県", "id": 29 },
        { "address": "鹿島町上講武", "city": "松江市", "postcode": "6900801", "prefecture": "島根県", "id": 30 },
        { "address": "鹿島町北講武", "city": "松江市", "postcode": "6900804", "prefecture": "島根県", "id": 31 },
        { "address": "鹿島町古浦", "city": "松江市", "postcode": "6900333", "prefecture": "島根県", "id": 32 },
        { "address": "鹿島町佐陀本郷", "city": "松江市", "postcode": "6900332", "prefecture": "島根県", "id": 33 },
        { "address": "鹿島町佐陀宮内", "city": "松江市", "postcode": "6900331", "prefecture": "島根県", "id": 34 },
        { "address": "鹿島町武代", "city": "松江市", "postcode": "6900321", "prefecture": "島根県", "id": 35 },
        { "address": "鹿島町手結", "city": "松江市", "postcode": "6900323", "prefecture": "島根県", "id": 36 },
        { "address": "鹿島町御津", "city": "松江市", "postcode": "6900411", "prefecture": "島根県", "id": 37 },
        { "address": "鹿島町南講武", "city": "松江市", "postcode": "6900802", "prefecture": "島根県", "id": 38 },
        { "address": "鹿島町名分", "city": "松江市", "postcode": "6900803", "prefecture": "島根県", "id": 39 },
        { "address": "春日町", "city": "松江市", "postcode": "6900877", "prefecture": "島根県", "id": 40 },
        { "address": "片原町", "city": "松江市", "postcode": "6900847", "prefecture": "島根県", "id": 41 },
        { "address": "上宇部尾町", "city": "松江市", "postcode": "6901104", "prefecture": "島根県", "id": 42 },
        { "address": "上大野町", "city": "松江市", "postcode": "6900265", "prefecture": "島根県", "id": 43 },
        { "address": "上佐陀町", "city": "松江市", "postcode": "6900867", "prefecture": "島根県", "id": 44 },
        { "address": "上東川津町", "city": "松江市", "postcode": "6900821", "prefecture": "島根県", "id": 45 },
        { "address": "上本庄町", "city": "松江市", "postcode": "6901102", "prefecture": "島根県", "id": 46 },
        { "address": "川原町", "city": "松江市", "postcode": "6900812", "prefecture": "島根県", "id": 47 },
        { "address": "北田町", "city": "松江市", "postcode": "6900883", "prefecture": "島根県", "id": 48 },
        { "address": "北堀町", "city": "松江市", "postcode": "6900888", "prefecture": "島根県", "id": 49 },
        { "address": "国屋町", "city": "松江市", "postcode": "6900859", "prefecture": "島根県", "id": 50 },
        { "address": "黒田町", "city": "松江市", "postcode": "6900876", "prefecture": "島根県", "id": 51 },
        { "address": "古志町", "city": "松江市", "postcode": "6900121", "prefecture": "島根県", "id": 52 },
        { "address": "古志原", "city": "松江市", "postcode": "6900012", "prefecture": "島根県", "id": 53 },
        { "address": "古志原町", "city": "松江市", "postcode": "6900013", "prefecture": "島根県", "id": 54 },
        { "address": "古曽志町", "city": "松江市", "postcode": "6900151", "prefecture": "島根県", "id": 55 },
        { "address": "薦津町", "city": "松江市", "postcode": "6900856", "prefecture": "島根県", "id": 56 },
        { "address": "雑賀町", "city": "松江市", "postcode": "6900056", "prefecture": "島根県", "id": 57 },
        { "address": "幸町", "city": "松江市", "postcode": "6900041", "prefecture": "島根県", "id": 58 },
        { "address": "栄町", "city": "松江市", "postcode": "6900042", "prefecture": "島根県", "id": 59 },
        { "address": "坂本町", "city": "松江市", "postcode": "6900813", "prefecture": "島根県", "id": 60 },
        { "address": "佐草町", "city": "松江市", "postcode": "6900035", "prefecture": "島根県", "id": 61 },
        { "address": "島根町大芦", "city": "松江市", "postcode": "6900402", "prefecture": "島根県", "id": 62 },
        { "address": "島根町加賀", "city": "松江市", "postcode": "6900401", "prefecture": "島根県", "id": 63 },
        { "address": "島根町多古", "city": "松江市", "postcode": "6901213", "prefecture": "島根県", "id": 64 },
        { "address": "島根町野井", "city": "松江市", "postcode": "6901211", "prefecture": "島根県", "id": 65 },
        { "address": "島根町野波", "city": "松江市", "postcode": "6901212", "prefecture": "島根県", "id": 66 },
        { "address": "下佐陀町", "city": "松江市", "postcode": "6900866", "prefecture": "島根県", "id": 67 },
        { "address": "下東川津町", "city": "松江市", "postcode": "6900822", "prefecture": "島根県", "id": 68 },
        { "address": "荘成町", "city": "松江市", "postcode": "6900141", "prefecture": "島根県", "id": 69 },
        { "address": "淞北台", "city": "松江市", "postcode": "6900868", "prefecture": "島根県", "id": 70 },
        { "address": "白瀉本町", "city": "松江市", "postcode": "6900061", "prefecture": "島根県", "id": 71 },
        { "address": "新雑賀町", "city": "松江市", "postcode": "6900054", "prefecture": "島根県", "id": 72 },
        { "address": "宍道町伊志見", "city": "松江市", "postcode": "6990407", "prefecture": "島根県", "id": 73 },
        { "address": "宍道町上来待", "city": "松江市", "postcode": "6990405", "prefecture": "島根県", "id": 74 },
        { "address": "宍道町佐々布", "city": "松江市", "postcode": "6990406", "prefecture": "島根県", "id": 75 },
        { "address": "宍道町昭和", "city": "松江市", "postcode": "6990408", "prefecture": "島根県", "id": 76 },
        { "address": "宍道町宍道", "city": "松江市", "postcode": "6990401", "prefecture": "島根県", "id": 77 },
        { "address": "宍道町西来待", "city": "松江市", "postcode": "6990403", "prefecture": "島根県", "id": 78 },
        { "address": "宍道町白石", "city": "松江市", "postcode": "6990402", "prefecture": "島根県", "id": 79 },
        { "address": "宍道町東来待", "city": "松江市", "postcode": "6990404", "prefecture": "島根県", "id": 80 },
        { "address": "新庄町", "city": "松江市", "postcode": "6901103", "prefecture": "島根県", "id": 81 },
        { "address": "新町", "city": "松江市", "postcode": "6900057", "prefecture": "島根県", "id": 82 },
        { "address": "末次町", "city": "松江市", "postcode": "6900846", "prefecture": "島根県", "id": 83 },
        { "address": "末次本町", "city": "松江市", "postcode": "6900843", "prefecture": "島根県", "id": 84 },
        { "address": "菅田町", "city": "松江市", "postcode": "6900824", "prefecture": "島根県", "id": 85 },
        { "address": "砂子町", "city": "松江市", "postcode": "6900878", "prefecture": "島根県", "id": 86 },
        { "address": "袖師町", "city": "松江市", "postcode": "6900049", "prefecture": "島根県", "id": 87 },
        { "address": "外中原町", "city": "松江市", "postcode": "6900875", "prefecture": "島根県", "id": 88 },
        { "address": "大正町", "city": "松江市", "postcode": "6900002", "prefecture": "島根県", "id": 89 },
        { "address": "大輪町", "city": "松江市", "postcode": "6900882", "prefecture": "島根県", "id": 90 },
        { "address": "手角町", "city": "松江市", "postcode": "6901113", "prefecture": "島根県", "id": 91 },
        { "address": "竪町", "city": "松江市", "postcode": "6900052", "prefecture": "島根県", "id": 92 },
        { "address": "玉湯町大谷", "city": "松江市", "postcode": "6990205", "prefecture": "島根県", "id": 93 },
        { "address": "玉湯町玉造", "city": "松江市", "postcode": "6990201", "prefecture": "島根県", "id": 94 },
        { "address": "玉湯町林", "city": "松江市", "postcode": "6990204", "prefecture": "島根県", "id": 95 },
        { "address": "玉湯町布志名", "city": "松江市", "postcode": "6990203", "prefecture": "島根県", "id": 96 },
        { "address": "玉湯町湯町", "city": "松江市", "postcode": "6990202", "prefecture": "島根県", "id": 97 },
        { "address": "田和山町", "city": "松江市", "postcode": "6900058", "prefecture": "島根県", "id": 98 },
        { "address": "竹矢町", "city": "松江市", "postcode": "6900023", "prefecture": "島根県", "id": 99 },
        { "address": "千鳥町", "city": "松江市", "postcode": "6900852", "prefecture": "島根県", "id": 100 },
        { "address": "津田町", "city": "松江市", "postcode": "6900055", "prefecture": "島根県", "id": 101 },
        { "address": "寺町", "city": "松江市", "postcode": "6900063", "prefecture": "島根県", "id": 102 },
        { "address": "天神町", "city": "松江市", "postcode": "6900064", "prefecture": "島根県", "id": 103 },
        { "address": "堂形町", "city": "松江市", "postcode": "6900851", "prefecture": "島根県", "id": 104 },
        { "address": "殿町", "city": "松江市", "postcode": "6900887", "prefecture": "島根県", "id": 105 },
        { "address": "中原町", "city": "松江市", "postcode": "6900874", "prefecture": "島根県", "id": 106 },
        { "address": "長海町", "city": "松江市", "postcode": "6901112", "prefecture": "島根県", "id": 107 },
        { "address": "灘町", "city": "松江市", "postcode": "6900065", "prefecture": "島根県", "id": 108 },
        { "address": "南平台", "city": "松江市", "postcode": "6900854", "prefecture": "島根県", "id": 109 },
        { "address": "西生馬町", "city": "松江市", "postcode": "6900865", "prefecture": "島根県", "id": 110 },
        { "address": "西忌部町", "city": "松江市", "postcode": "6900037", "prefecture": "島根県", "id": 111 },
        { "address": "西尾町", "city": "松江市", "postcode": "6900835", "prefecture": "島根県", "id": 112 },
        { "address": "西川津町", "city": "松江市", "postcode": "6900823", "prefecture": "島根県", "id": 113 },
        { "address": "西谷町", "city": "松江市", "postcode": "6900142", "prefecture": "島根県", "id": 114 },
        { "address": "西茶町", "city": "松江市", "postcode": "6900845", "prefecture": "島根県", "id": 115 },
        { "address": "西津田", "city": "松江市", "postcode": "6900017", "prefecture": "島根県", "id": 116 },
        { "address": "西長江町", "city": "松江市", "postcode": "6900132", "prefecture": "島根県", "id": 117 },
        { "address": "西浜佐陀町", "city": "松江市", "postcode": "6900122", "prefecture": "島根県", "id": 118 },
        { "address": "西法吉町", "city": "松江市", "postcode": "6900860", "prefecture": "島根県", "id": 119 },
        { "address": "西持田町", "city": "松江市", "postcode": "6900815", "prefecture": "島根県", "id": 120 },
        { "address": "西嫁島", "city": "松江市", "postcode": "6900048", "prefecture": "島根県", "id": 121 },
        { "address": "乃木福富町", "city": "松江市", "postcode": "6900046", "prefecture": "島根県", "id": 122 },
        { "address": "乃白町", "city": "松江市", "postcode": "6900045", "prefecture": "島根県", "id": 123 },
        { "address": "野原町", "city": "松江市", "postcode": "6901114", "prefecture": "島根県", "id": 124 },
        { "address": "八軒屋町", "city": "松江市", "postcode": "6900004", "prefecture": "島根県", "id": 125 },
        { "address": "浜佐田町", "city": "松江市", "postcode": "6900855", "prefecture": "島根県", "id": 126 },
        { "address": "浜乃木", "city": "松江市", "postcode": "6900044", "prefecture": "島根県", "id": 127 },
        { "address": "東朝日町", "city": "松江市", "postcode": "6900001", "prefecture": "島根県", "id": 128 },
        { "address": "東生馬町", "city": "松江市", "postcode": "6900864", "prefecture": "島根県", "id": 129 },
        { "address": "東出雲町出雲郷", "city": "松江市", "postcode": "6990108", "prefecture": "島根県", "id": 130 },
        { "address": "東出雲町意宇南", "city": "松江市", "postcode": "6990111", "prefecture": "島根県", "id": 131 },
        { "address": "東出雲町意宇東", "city": "松江市", "postcode": "6990112", "prefecture": "島根県", "id": 132 },
        { "address": "東出雲町今宮", "city": "松江市", "postcode": "6990107", "prefecture": "島根県", "id": 133 },
        { "address": "東出雲町揖屋", "city": "松江市", "postcode": "6990101", "prefecture": "島根県", "id": 134 },
        { "address": "東出雲町内馬", "city": "松江市", "postcode": "6990105", "prefecture": "島根県", "id": 135 },
        { "address": "東出雲町春日", "city": "松江市", "postcode": "6990106", "prefecture": "島根県", "id": 136 },
        { "address": "東出雲町上意東", "city": "松江市", "postcode": "6990103", "prefecture": "島根県", "id": 137 },
        { "address": "東出雲町下意東", "city": "松江市", "postcode": "6990102", "prefecture": "島根県", "id": 138 },
        { "address": "東出雲町須田", "city": "松江市", "postcode": "6990104", "prefecture": "島根県", "id": 139 },
        { "address": "東出雲町錦新町", "city": "松江市", "postcode": "6990110", "prefecture": "島根県", "id": 140 },
        { "address": "東出雲町錦浜", "city": "松江市", "postcode": "6990109", "prefecture": "島根県", "id": 141 },
        { "address": "東忌部町", "city": "松江市", "postcode": "6900036", "prefecture": "島根県", "id": 142 },
        { "address": "東奥谷町", "city": "松江市", "postcode": "6900871", "prefecture": "島根県", "id": 143 },
        { "address": "東茶町", "city": "松江市", "postcode": "6900844", "prefecture": "島根県", "id": 144 },
        { "address": "東津田町", "city": "松江市", "postcode": "6900011", "prefecture": "島根県", "id": 145 },
        { "address": "東長江町", "city": "松江市", "postcode": "6900133", "prefecture": "島根県", "id": 146 },
        { "address": "東本町", "city": "松江市", "postcode": "6900842", "prefecture": "島根県", "id": 147 },
        { "address": "東持田町", "city": "松江市", "postcode": "6900814", "prefecture": "島根県", "id": 148 },
        { "address": "比津が丘", "city": "松江市", "postcode": "6900862", "prefecture": "島根県", "id": 149 },
        { "address": "比津町", "city": "松江市", "postcode": "6900863", "prefecture": "島根県", "id": 150 },
        { "address": "福富町", "city": "松江市", "postcode": "6900833", "prefecture": "島根県", "id": 151 },
        { "address": "福原町", "city": "松江市", "postcode": "6900811", "prefecture": "島根県", "id": 152 },
        { "address": "富士見町", "city": "松江市", "postcode": "6900026", "prefecture": "島根県", "id": 153 },
        { "address": "平成町", "city": "松江市", "postcode": "6900038", "prefecture": "島根県", "id": 154 },
        { "address": "北陵町", "city": "松江市", "postcode": "6900816", "prefecture": "島根県", "id": 155 },
        { "address": "法吉町", "city": "松江市", "postcode": "6900861", "prefecture": "島根県", "id": 156 },
        { "address": "母衣町", "city": "松江市", "postcode": "6900886", "prefecture": "島根県", "id": 157 },
        { "address": "本郷町", "city": "松江市", "postcode": "6900053", "prefecture": "島根県", "id": 158 },
        { "address": "本庄町", "city": "松江市", "postcode": "6901101", "prefecture": "島根県", "id": 159 },
        { "address": "馬潟町", "city": "松江市", "postcode": "6900024", "prefecture": "島根県", "id": 160 },
        { "address": "枕木町", "city": "松江市", "postcode": "6901111", "prefecture": "島根県", "id": 161 },
        { "address": "松尾町", "city": "松江市", "postcode": "6900043", "prefecture": "島根県", "id": 162 },
        { "address": "南田町", "city": "松江市", "postcode": "6900884", "prefecture": "島根県", "id": 163 },
        { "address": "美保関町笠浦", "city": "松江市", "postcode": "6901223", "prefecture": "島根県", "id": 164 },
        { "address": "美保関町片江", "city": "松江市", "postcode": "6901315", "prefecture": "島根県", "id": 165 },
        { "address": "美保関町北浦", "city": "松江市", "postcode": "6901221", "prefecture": "島根県", "id": 166 },
        { "address": "美保関町雲津", "city": "松江市", "postcode": "6901502", "prefecture": "島根県", "id": 167 },
        { "address": "美保関町七類", "city": "松江市", "postcode": "6901311", "prefecture": "島根県", "id": 168 },
        { "address": "美保関町下宇部尾", "city": "松江市", "postcode": "6901313", "prefecture": "島根県", "id": 169 },
        { "address": "美保関町菅浦", "city": "松江市", "postcode": "6901314", "prefecture": "島根県", "id": 170 },
        { "address": "美保関町千酌", "city": "松江市", "postcode": "6901222", "prefecture": "島根県", "id": 171 },
        { "address": "美保関町福浦", "city": "松江市", "postcode": "6901504", "prefecture": "島根県", "id": 172 },
        { "address": "美保関町美保関", "city": "松江市", "postcode": "6901501", "prefecture": "島根県", "id": 173 },
        { "address": "美保関町森山", "city": "松江市", "postcode": "6901505", "prefecture": "島根県", "id": 174 },
        { "address": "美保関町森山", "city": "松江市", "postcode": "6901312", "prefecture": "島根県", "id": 175 },
        { "address": "美保関町諸喰", "city": "松江市", "postcode": "6901503", "prefecture": "島根県", "id": 176 },
        { "address": "向島町", "city": "松江市", "postcode": "6900841", "prefecture": "島根県", "id": 177 },
        { "address": "八雲台", "city": "松江市", "postcode": "6900014", "prefecture": "島根県", "id": 178 },
        { "address": "八雲町熊野", "city": "松江市", "postcode": "6902104", "prefecture": "島根県", "id": 179 },
        { "address": "八雲町西岩坂", "city": "松江市", "postcode": "6902103", "prefecture": "島根県", "id": 180 },
        { "address": "八雲町東岩坂", "city": "松江市", "postcode": "6902102", "prefecture": "島根県", "id": 181 },
        { "address": "八雲町日吉", "city": "松江市", "postcode": "6902101", "prefecture": "島根県", "id": 182 },
        { "address": "八雲町平原", "city": "松江市", "postcode": "6902105", "prefecture": "島根県", "id": 183 },
        { "address": "矢田町", "city": "松江市", "postcode": "6900021", "prefecture": "島根県", "id": 184 },
        { "address": "八束町江島", "city": "松江市", "postcode": "6901401", "prefecture": "島根県", "id": 185 },
        { "address": "八束町遅江", "city": "松江市", "postcode": "6901403", "prefecture": "島根県", "id": 186 },
        { "address": "八束町亀尻", "city": "松江市", "postcode": "6901408", "prefecture": "島根県", "id": 187 },
        { "address": "八束町寺津", "city": "松江市", "postcode": "6901407", "prefecture": "島根県", "id": 188 },
        { "address": "八束町入江", "city": "松江市", "postcode": "6901405", "prefecture": "島根県", "id": 189 },
        { "address": "八束町波入", "city": "松江市", "postcode": "6901404", "prefecture": "島根県", "id": 190 },
        { "address": "八束町二子", "city": "松江市", "postcode": "6901406", "prefecture": "島根県", "id": 191 },
        { "address": "八束町馬渡", "city": "松江市", "postcode": "6901402", "prefecture": "島根県", "id": 192 },
        { "address": "山代町", "city": "松江市", "postcode": "6900031", "prefecture": "島根県", "id": 193 },
        { "address": "八幡町", "city": "松江市", "postcode": "6900025", "prefecture": "島根県", "id": 194 },
        { "address": "横浜町", "city": "松江市", "postcode": "6900051", "prefecture": "島根県", "id": 195 },
        { "address": "米子町", "city": "松江市", "postcode": "6900885", "prefecture": "島根県", "id": 196 },
        { "address": "嫁島町", "city": "松江市", "postcode": "6900047", "prefecture": "島根県", "id": 197 },
        { "address": "和多見町", "city": "松江市", "postcode": "6900005", "prefecture": "島根県", "id": 198 },
        { "city": "浜田市", "postcode": "6970000", "prefecture": "島根県", "id": 199 },
        { "address": "相生町", "city": "浜田市", "postcode": "6970034", "prefecture": "島根県", "id": 200 },
        { "address": "浅井町", "city": "浜田市", "postcode": "6970022", "prefecture": "島根県", "id": 201 },
        { "address": "旭町市木", "city": "浜田市", "postcode": "6970514", "prefecture": "島根県", "id": 202 },
        { "address": "旭町今市", "city": "浜田市", "postcode": "6970425", "prefecture": "島根県", "id": 203 },
        { "address": "旭町木田", "city": "浜田市", "postcode": "6970427", "prefecture": "島根県", "id": 204 },
        { "address": "旭町来尾", "city": "浜田市", "postcode": "6970512", "prefecture": "島根県", "id": 205 },
        { "address": "旭町坂本", "city": "浜田市", "postcode": "6970513", "prefecture": "島根県", "id": 206 },
        { "address": "旭町坂本", "city": "浜田市", "postcode": "6970431", "prefecture": "島根県", "id": 207 },
        { "address": "旭町重富", "city": "浜田市", "postcode": "6970423", "prefecture": "島根県", "id": 208 },
        { "address": "旭町都川", "city": "浜田市", "postcode": "6970511", "prefecture": "島根県", "id": 209 },
        { "address": "旭町本郷", "city": "浜田市", "postcode": "6970422", "prefecture": "島根県", "id": 210 },
        { "address": "旭町丸原", "city": "浜田市", "postcode": "6970426", "prefecture": "島根県", "id": 211 },
        { "address": "旭町山ノ内", "city": "浜田市", "postcode": "6970421", "prefecture": "島根県", "id": 212 },
        { "address": "旭町和田", "city": "浜田市", "postcode": "6970424", "prefecture": "島根県", "id": 213 },
        { "address": "朝日町", "city": "浜田市", "postcode": "6970033", "prefecture": "島根県", "id": 214 },
        { "address": "熱田町", "city": "浜田市", "postcode": "6970062", "prefecture": "島根県", "id": 215 },
        { "address": "櫟田原町", "city": "浜田市", "postcode": "6971334", "prefecture": "島根県", "id": 216 },
        { "address": "井野町", "city": "浜田市", "postcode": "6971335", "prefecture": "島根県", "id": 217 },
        { "address": "牛市町", "city": "浜田市", "postcode": "6970032", "prefecture": "島根県", "id": 218 },
        { "address": "後野町", "city": "浜田市", "postcode": "6970011", "prefecture": "島根県", "id": 219 },
        { "address": "内田町", "city": "浜田市", "postcode": "6970064", "prefecture": "島根県", "id": 220 },
        { "address": "内田町", "city": "浜田市", "postcode": "6971323", "prefecture": "島根県", "id": 221 },
        { "address": "宇津井町", "city": "浜田市", "postcode": "6970312", "prefecture": "島根県", "id": 222 },
        { "address": "宇野町", "city": "浜田市", "postcode": "6950102", "prefecture": "島根県", "id": 223 },
        { "address": "生湯町", "city": "浜田市", "postcode": "6970002", "prefecture": "島根県", "id": 224 },
        { "address": "蛭子町", "city": "浜田市", "postcode": "6970044", "prefecture": "島根県", "id": 225 },
        { "address": "大金町", "city": "浜田市", "postcode": "6950103", "prefecture": "島根県", "id": 226 },
        { "address": "大辻町", "city": "浜田市", "postcode": "6970053", "prefecture": "島根県", "id": 227 },
        { "address": "折居町", "city": "浜田市", "postcode": "6971338", "prefecture": "島根県", "id": 228 },
        { "address": "笠柄町", "city": "浜田市", "postcode": "6970061", "prefecture": "島根県", "id": 229 },
        { "address": "片庭町", "city": "浜田市", "postcode": "6970041", "prefecture": "島根県", "id": 230 },
        { "address": "金城町今福", "city": "浜田市", "postcode": "6970302", "prefecture": "島根県", "id": 231 },
        { "address": "金城町入野", "city": "浜田市", "postcode": "6970305", "prefecture": "島根県", "id": 232 },
        { "address": "金城町宇津井", "city": "浜田市", "postcode": "6970304", "prefecture": "島根県", "id": 233 },
        { "address": "金城町追原", "city": "浜田市", "postcode": "6970301", "prefecture": "島根県", "id": 234 },
        { "address": "金城町小国", "city": "浜田市", "postcode": "6970213", "prefecture": "島根県", "id": 235 },
        { "address": "金城町上来原", "city": "浜田市", "postcode": "6970122", "prefecture": "島根県", "id": 236 },
        { "address": "金城町久佐", "city": "浜田市", "postcode": "6970303", "prefecture": "島根県", "id": 237 },
        { "address": "金城町七条", "city": "浜田市", "postcode": "6970123", "prefecture": "島根県", "id": 238 },
        { "address": "金城町下来原", "city": "浜田市", "postcode": "6970121", "prefecture": "島根県", "id": 239 },
        { "address": "金城町長田", "city": "浜田市", "postcode": "6970212", "prefecture": "島根県", "id": 240 },
        { "address": "金城町波佐", "city": "浜田市", "postcode": "6970211", "prefecture": "島根県", "id": 241 },
        { "address": "上府町", "city": "浜田市", "postcode": "6970005", "prefecture": "島根県", "id": 242 },
        { "address": "京町", "city": "浜田市", "postcode": "6970045", "prefecture": "島根県", "id": 243 },
        { "address": "久代町", "city": "浜田市", "postcode": "6970004", "prefecture": "島根県", "id": 244 },
        { "address": "黒川町", "city": "浜田市", "postcode": "6970024", "prefecture": "島根県", "id": 245 },
        { "address": "高佐町", "city": "浜田市", "postcode": "6970007", "prefecture": "島根県", "id": 246 },
        { "address": "河内町", "city": "浜田市", "postcode": "6970012", "prefecture": "島根県", "id": 247 },
        { "address": "国分町", "city": "浜田市", "postcode": "6970003", "prefecture": "島根県", "id": 248 },
        { "address": "紺屋町", "city": "浜田市", "postcode": "6970031", "prefecture": "島根県", "id": 249 },
        { "address": "栄町", "city": "浜田市", "postcode": "6970043", "prefecture": "島根県", "id": 250 },
        { "address": "佐野町", "city": "浜田市", "postcode": "6970311", "prefecture": "島根県", "id": 251 },
        { "address": "三階町", "city": "浜田市", "postcode": "6970013", "prefecture": "島根県", "id": 252 },
        { "address": "清水町", "city": "浜田市", "postcode": "6970047", "prefecture": "島根県", "id": 253 },
        { "address": "下有福町", "city": "浜田市", "postcode": "6950101", "prefecture": "島根県", "id": 254 },
        { "address": "下府町", "city": "浜田市", "postcode": "6970006", "prefecture": "島根県", "id": 255 },
        { "address": "真光町", "city": "浜田市", "postcode": "6970046", "prefecture": "島根県", "id": 256 },
        { "address": "新町", "city": "浜田市", "postcode": "6970037", "prefecture": "島根県", "id": 257 },
        { "address": "杉戸町", "city": "浜田市", "postcode": "6970035", "prefecture": "島根県", "id": 258 },
        { "address": "周布町", "city": "浜田市", "postcode": "6971321", "prefecture": "島根県", "id": 259 },
        { "address": "瀬戸ケ島町", "city": "浜田市", "postcode": "6970051", "prefecture": "島根県", "id": 260 },
        { "address": "瀬戸見町", "city": "浜田市", "postcode": "6970057", "prefecture": "島根県", "id": 261 },
        { "address": "高田町", "city": "浜田市", "postcode": "6970054", "prefecture": "島根県", "id": 262 },
        { "address": "竹迫町", "city": "浜田市", "postcode": "6970015", "prefecture": "島根県", "id": 263 },
        { "address": "田橋町", "city": "浜田市", "postcode": "6971332", "prefecture": "島根県", "id": 264 },
        { "address": "田町", "city": "浜田市", "postcode": "6970026", "prefecture": "島根県", "id": 265 },
        { "address": "治和町", "city": "浜田市", "postcode": "6971326", "prefecture": "島根県", "id": 266 },
        { "address": "津摩町", "city": "浜田市", "postcode": "6971327", "prefecture": "島根県", "id": 267 },
        { "address": "天満町", "city": "浜田市", "postcode": "6970036", "prefecture": "島根県", "id": 268 },
        { "address": "外ノ浦町", "city": "浜田市", "postcode": "6970001", "prefecture": "島根県", "id": 269 },
        { "address": "殿町", "city": "浜田市", "postcode": "6970027", "prefecture": "島根県", "id": 270 },
        { "address": "内村町", "city": "浜田市", "postcode": "6970065", "prefecture": "島根県", "id": 271 },
        { "address": "内村町", "city": "浜田市", "postcode": "6971331", "prefecture": "島根県", "id": 272 },
        { "address": "長沢町", "city": "浜田市", "postcode": "6970023", "prefecture": "島根県", "id": 273 },
        { "address": "長浜町", "city": "浜田市", "postcode": "6970063", "prefecture": "島根県", "id": 274 },
        { "address": "長見町", "city": "浜田市", "postcode": "6970014", "prefecture": "島根県", "id": 275 },
        { "address": "鍋石町", "city": "浜田市", "postcode": "6971333", "prefecture": "島根県", "id": 276 },
        { "address": "錦町", "city": "浜田市", "postcode": "6970042", "prefecture": "島根県", "id": 277 },
        { "address": "西村町", "city": "浜田市", "postcode": "6971337", "prefecture": "島根県", "id": 278 },
        { "address": "野原町", "city": "浜田市", "postcode": "6970016", "prefecture": "島根県", "id": 279 },
        { "address": "原井町", "city": "浜田市", "postcode": "6970017", "prefecture": "島根県", "id": 280 },
        { "address": "原町", "city": "浜田市", "postcode": "6970056", "prefecture": "島根県", "id": 281 },
        { "address": "日脚町", "city": "浜田市", "postcode": "6971322", "prefecture": "島根県", "id": 282 },
        { "address": "琵琶町", "city": "浜田市", "postcode": "6970025", "prefecture": "島根県", "id": 283 },
        { "address": "穂出町", "city": "浜田市", "postcode": "6971324", "prefecture": "島根県", "id": 284 },
        { "address": "松原町", "city": "浜田市", "postcode": "6970021", "prefecture": "島根県", "id": 285 },
        { "address": "三隅町芦谷", "city": "浜田市", "postcode": "6993302", "prefecture": "島根県", "id": 286 },
        { "address": "三隅町井川", "city": "浜田市", "postcode": "6993215", "prefecture": "島根県", "id": 287 },
        { "address": "三隅町井野", "city": "浜田市", "postcode": "6993301", "prefecture": "島根県", "id": 288 },
        { "address": "三隅町岡見", "city": "浜田市", "postcode": "6993226", "prefecture": "島根県", "id": 289 },
        { "address": "三隅町折居", "city": "浜田市", "postcode": "6993222", "prefecture": "島根県", "id": 290 },
        { "address": "三隅町上古和", "city": "浜田市", "postcode": "6993216", "prefecture": "島根県", "id": 291 },
        { "address": "三隅町黒沢", "city": "浜田市", "postcode": "6993217", "prefecture": "島根県", "id": 292 },
        { "address": "三隅町河内", "city": "浜田市", "postcode": "6993213", "prefecture": "島根県", "id": 293 },
        { "address": "三隅町西河内", "city": "浜田市", "postcode": "6993223", "prefecture": "島根県", "id": 294 },
        { "address": "三隅町東平原", "city": "浜田市", "postcode": "6993221", "prefecture": "島根県", "id": 295 },
        { "address": "三隅町古市場", "city": "浜田市", "postcode": "6993225", "prefecture": "島根県", "id": 296 },
        { "address": "三隅町三隅", "city": "浜田市", "postcode": "6993211", "prefecture": "島根県", "id": 297 },
        { "address": "三隅町湊浦", "city": "浜田市", "postcode": "6993224", "prefecture": "島根県", "id": 298 },
        { "address": "三隅町向野田", "city": "浜田市", "postcode": "6993212", "prefecture": "島根県", "id": 299 },
        { "address": "三隅町室谷", "city": "浜田市", "postcode": "6993303", "prefecture": "島根県", "id": 300 },
        { "address": "三隅町矢原", "city": "浜田市", "postcode": "6993214", "prefecture": "島根県", "id": 301 },
        { "address": "港町", "city": "浜田市", "postcode": "6970052", "prefecture": "島根県", "id": 302 },
        { "address": "元浜町", "city": "浜田市", "postcode": "6970055", "prefecture": "島根県", "id": 303 },
        { "address": "弥栄町稲代", "city": "浜田市", "postcode": "6971215", "prefecture": "島根県", "id": 304 },
        { "address": "弥栄町大坪", "city": "浜田市", "postcode": "6971214", "prefecture": "島根県", "id": 305 },
        { "address": "弥栄町小坂", "city": "浜田市", "postcode": "6971202", "prefecture": "島根県", "id": 306 },
        { "address": "弥栄町門田", "city": "浜田市", "postcode": "6971204", "prefecture": "島根県", "id": 307 },
        { "address": "弥栄町木都賀", "city": "浜田市", "postcode": "6971122", "prefecture": "島根県", "id": 308 },
        { "address": "弥栄町高内", "city": "浜田市", "postcode": "6971203", "prefecture": "島根県", "id": 309 },
        { "address": "弥栄町田野原", "city": "浜田市", "postcode": "6971123", "prefecture": "島根県", "id": 310 },
        { "address": "弥栄町栃木", "city": "浜田市", "postcode": "6971201", "prefecture": "島根県", "id": 311 },
        { "address": "弥栄町長安本郷", "city": "浜田市", "postcode": "6971211", "prefecture": "島根県", "id": 312 },
        { "address": "弥栄町野坂", "city": "浜田市", "postcode": "6971121", "prefecture": "島根県", "id": 313 },
        { "address": "弥栄町程原", "city": "浜田市", "postcode": "6971213", "prefecture": "島根県", "id": 314 },
        { "address": "弥栄町三里", "city": "浜田市", "postcode": "6971212", "prefecture": "島根県", "id": 315 },
        { "address": "横山町", "city": "浜田市", "postcode": "6971336", "prefecture": "島根県", "id": 316 },
        { "address": "吉地町", "city": "浜田市", "postcode": "6971325", "prefecture": "島根県", "id": 317 },
        { "city": "出雲市", "postcode": "6930000", "prefecture": "島根県", "id": 318 },
        { "address": "朝山町", "city": "出雲市", "postcode": "6930213", "prefecture": "島根県", "id": 319 },
        { "address": "芦渡町", "city": "出雲市", "postcode": "6930035", "prefecture": "島根県", "id": 320 },
        { "address": "荒茅町", "city": "出雲市", "postcode": "6930044", "prefecture": "島根県", "id": 321 },
        { "address": "医大南町", "city": "出雲市", "postcode": "6930027", "prefecture": "島根県", "id": 322 },
        { "address": "稲岡町", "city": "出雲市", "postcode": "6930071", "prefecture": "島根県", "id": 323 },
        { "address": "猪目町", "city": "出雲市", "postcode": "6910024", "prefecture": "島根県", "id": 324 },
        { "address": "今市町", "city": "出雲市", "postcode": "6930001", "prefecture": "島根県", "id": 325 },
        { "address": "今市町北本町", "city": "出雲市", "postcode": "6930002", "prefecture": "島根県", "id": 326 },
        { "address": "今市町南本町", "city": "出雲市", "postcode": "6930003", "prefecture": "島根県", "id": 327 },
        { "address": "十六島町", "city": "出雲市", "postcode": "6910042", "prefecture": "島根県", "id": 328 },
        { "address": "宇那手町", "city": "出雲市", "postcode": "6930105", "prefecture": "島根県", "id": 329 },
        { "address": "駅北町", "city": "出雲市", "postcode": "6930007", "prefecture": "島根県", "id": 330 },
        { "address": "駅南町", "city": "出雲市", "postcode": "6930008", "prefecture": "島根県", "id": 331 },
        { "address": "枝大津町", "city": "出雲市", "postcode": "6930017", "prefecture": "島根県", "id": 332 },
        { "address": "江田町", "city": "出雲市", "postcode": "6930056", "prefecture": "島根県", "id": 333 },
        { "address": "塩冶有原町", "city": "出雲市", "postcode": "6930023", "prefecture": "島根県", "id": 334 },
        { "address": "塩冶神前", "city": "出雲市", "postcode": "6930024", "prefecture": "島根県", "id": 335 },
        { "address": "塩冶善行町", "city": "出雲市", "postcode": "6930028", "prefecture": "島根県", "id": 336 },
        { "address": "塩冶町", "city": "出雲市", "postcode": "6930021", "prefecture": "島根県", "id": 337 },
        { "address": "塩冶町南町", "city": "出雲市", "postcode": "6930025", "prefecture": "島根県", "id": 338 },
        { "address": "塩冶原町", "city": "出雲市", "postcode": "6930026", "prefecture": "島根県", "id": 339 },
        { "address": "大島町", "city": "出雲市", "postcode": "6990821", "prefecture": "島根県", "id": 340 },
        { "address": "大津朝倉", "city": "出雲市", "postcode": "6930015", "prefecture": "島根県", "id": 341 },
        { "address": "大塚町", "city": "出雲市", "postcode": "6930063", "prefecture": "島根県", "id": 342 },
        { "address": "大津新崎町", "city": "出雲市", "postcode": "6930012", "prefecture": "島根県", "id": 343 },
        { "address": "大津町", "city": "出雲市", "postcode": "6930011", "prefecture": "島根県", "id": 344 },
        { "address": "岡田町", "city": "出雲市", "postcode": "6910063", "prefecture": "島根県", "id": 345 },
        { "address": "荻杼町", "city": "出雲市", "postcode": "6930013", "prefecture": "島根県", "id": 346 },
        { "address": "奥宇賀町", "city": "出雲市", "postcode": "6910021", "prefecture": "島根県", "id": 347 },
        { "address": "乙立町", "city": "出雲市", "postcode": "6930216", "prefecture": "島根県", "id": 348 },
        { "address": "小山町", "city": "出雲市", "postcode": "6930051", "prefecture": "島根県", "id": 349 },
        { "address": "釜浦町", "city": "出雲市", "postcode": "6910043", "prefecture": "島根県", "id": 350 },
        { "address": "上塩冶町", "city": "出雲市", "postcode": "6930022", "prefecture": "島根県", "id": 351 },
        { "address": "上岡田町", "city": "出雲市", "postcode": "6910064", "prefecture": "島根県", "id": 352 },
        { "address": "上島町", "city": "出雲市", "postcode": "6930101", "prefecture": "島根県", "id": 353 },
        { "address": "唐川町", "city": "出雲市", "postcode": "6910023", "prefecture": "島根県", "id": 354 },
        { "address": "河下町", "city": "出雲市", "postcode": "6910025", "prefecture": "島根県", "id": 355 },
        { "address": "神門町", "city": "出雲市", "postcode": "6930034", "prefecture": "島根県", "id": 356 },
        { "address": "日下町", "city": "出雲市", "postcode": "6930072", "prefecture": "島根県", "id": 357 },
        { "address": "久多見町", "city": "出雲市", "postcode": "6910034", "prefecture": "島根県", "id": 358 },
        { "address": "口宇賀町", "city": "出雲市", "postcode": "6910014", "prefecture": "島根県", "id": 359 },
        { "address": "国富町", "city": "出雲市", "postcode": "6910011", "prefecture": "島根県", "id": 360 },
        { "address": "小伊津町", "city": "出雲市", "postcode": "6910052", "prefecture": "島根県", "id": 361 },
        { "address": "小境町", "city": "出雲市", "postcode": "6910074", "prefecture": "島根県", "id": 362 },
        { "address": "古志町", "city": "出雲市", "postcode": "6930031", "prefecture": "島根県", "id": 363 },
        { "address": "小津町", "city": "出雲市", "postcode": "6910041", "prefecture": "島根県", "id": 364 },
        { "address": "湖陵町板津", "city": "出雲市", "postcode": "6990817", "prefecture": "島根県", "id": 365 },
        { "address": "湖陵町大池", "city": "出雲市", "postcode": "6990816", "prefecture": "島根県", "id": 366 },
        { "address": "湖陵町差海", "city": "出雲市", "postcode": "6990811", "prefecture": "島根県", "id": 367 },
        { "address": "湖陵町三部", "city": "出雲市", "postcode": "6990813", "prefecture": "島根県", "id": 368 },
        { "address": "湖陵町常楽寺", "city": "出雲市", "postcode": "6990814", "prefecture": "島根県", "id": 369 },
        { "address": "湖陵町二部", "city": "出雲市", "postcode": "6990812", "prefecture": "島根県", "id": 370 },
        { "address": "湖陵町畑村", "city": "出雲市", "postcode": "6990815", "prefecture": "島根県", "id": 371 },
        { "address": "西郷町", "city": "出雲市", "postcode": "6910015", "prefecture": "島根県", "id": 372 },
        { "address": "坂浦町", "city": "出雲市", "postcode": "6910051", "prefecture": "島根県", "id": 373 },
        { "address": "佐田町朝原", "city": "出雲市", "postcode": "6930501", "prefecture": "島根県", "id": 374 },
        { "address": "佐田町大呂", "city": "出雲市", "postcode": "6930504", "prefecture": "島根県", "id": 375 },
        { "address": "佐田町上橋波", "city": "出雲市", "postcode": "6930526", "prefecture": "島根県", "id": 376 },
        { "address": "佐田町毛津", "city": "出雲市", "postcode": "6930521", "prefecture": "島根県", "id": 377 },
        { "address": "佐田町佐津目", "city": "出雲市", "postcode": "6930523", "prefecture": "島根県", "id": 378 },
        { "address": "佐田町下橋波", "city": "出雲市", "postcode": "6930525", "prefecture": "島根県", "id": 379 },
        { "address": "佐田町須佐", "city": "出雲市", "postcode": "6930503", "prefecture": "島根県", "id": 380 },
        { "address": "佐田町高津屋", "city": "出雲市", "postcode": "6930524", "prefecture": "島根県", "id": 381 },
        { "address": "佐田町反辺", "city": "出雲市", "postcode": "6930506", "prefecture": "島根県", "id": 382 },
        { "address": "佐田町原田", "city": "出雲市", "postcode": "6930502", "prefecture": "島根県", "id": 383 },
        { "address": "佐田町東村", "city": "出雲市", "postcode": "6930512", "prefecture": "島根県", "id": 384 },
        { "address": "佐田町一窪田", "city": "出雲市", "postcode": "6930522", "prefecture": "島根県", "id": 385 },
        { "address": "佐田町八幡原", "city": "出雲市", "postcode": "6930511", "prefecture": "島根県", "id": 386 },
        { "address": "佐田町吉野", "city": "出雲市", "postcode": "6930505", "prefecture": "島根県", "id": 387 },
        { "address": "里方町", "city": "出雲市", "postcode": "6930064", "prefecture": "島根県", "id": 388 },
        { "address": "塩津町", "city": "出雲市", "postcode": "6910044", "prefecture": "島根県", "id": 389 },
        { "address": "島村町", "city": "出雲市", "postcode": "6910004", "prefecture": "島根県", "id": 390 },
        { "address": "下古志町", "city": "出雲市", "postcode": "6930032", "prefecture": "島根県", "id": 391 },
        { "address": "下横町", "city": "出雲市", "postcode": "6930046", "prefecture": "島根県", "id": 392 },
        { "address": "白枝町", "city": "出雲市", "postcode": "6930006", "prefecture": "島根県", "id": 393 },
        { "address": "神西沖町", "city": "出雲市", "postcode": "6990822", "prefecture": "島根県", "id": 394 },
        { "address": "神西新町", "city": "出雲市", "postcode": "6990825", "prefecture": "島根県", "id": 395 },
        { "address": "外園町", "city": "出雲市", "postcode": "6930042", "prefecture": "島根県", "id": 396 },
        { "address": "園町", "city": "出雲市", "postcode": "6910076", "prefecture": "島根県", "id": 397 },
        { "address": "大社町鵜峠", "city": "出雲市", "postcode": "6990762", "prefecture": "島根県", "id": 398 },
        { "address": "大社町宇龍", "city": "出雲市", "postcode": "6990764", "prefecture": "島根県", "id": 399 },
        { "address": "大社町北荒木", "city": "出雲市", "postcode": "6990722", "prefecture": "島根県", "id": 400 },
        { "address": "大社町杵築北", "city": "出雲市", "postcode": "6990702", "prefecture": "島根県", "id": 401 },
        { "address": "大社町杵築西", "city": "出雲市", "postcode": "6990751", "prefecture": "島根県", "id": 402 },
        { "address": "大社町杵築東", "city": "出雲市", "postcode": "6990701", "prefecture": "島根県", "id": 403 },
        { "address": "大社町杵築南", "city": "出雲市", "postcode": "6990711", "prefecture": "島根県", "id": 404 },
        { "address": "大社町鷺浦", "city": "出雲市", "postcode": "6990761", "prefecture": "島根県", "id": 405 },
        { "address": "大社町修理免", "city": "出雲市", "postcode": "6990721", "prefecture": "島根県", "id": 406 },
        { "address": "大社町中荒木", "city": "出雲市", "postcode": "6990741", "prefecture": "島根県", "id": 407 },
        { "address": "大社町入南", "city": "出雲市", "postcode": "6990732", "prefecture": "島根県", "id": 408 },
        { "address": "大社町菱根", "city": "出雲市", "postcode": "6990733", "prefecture": "島根県", "id": 409 },
        { "address": "大社町日御碕", "city": "出雲市", "postcode": "6990763", "prefecture": "島根県", "id": 410 },
        { "address": "大社町遙堪", "city": "出雲市", "postcode": "6990731", "prefecture": "島根県", "id": 411 },
        { "address": "高岡町", "city": "出雲市", "postcode": "6930066", "prefecture": "島根県", "id": 412 },
        { "address": "高松町", "city": "出雲市", "postcode": "6930053", "prefecture": "島根県", "id": 413 },
        { "address": "多伎町奥田儀", "city": "出雲市", "postcode": "6990905", "prefecture": "島根県", "id": 414 },
        { "address": "多伎町小田", "city": "出雲市", "postcode": "6990903", "prefecture": "島根県", "id": 415 },
        { "address": "多伎町神原", "city": "出雲市", "postcode": "6990906", "prefecture": "島根県", "id": 416 },
        { "address": "多伎町口田儀", "city": "出雲市", "postcode": "6990904", "prefecture": "島根県", "id": 417 },
        { "address": "多伎町久村", "city": "出雲市", "postcode": "6990901", "prefecture": "島根県", "id": 418 },
        { "address": "多伎町多岐", "city": "出雲市", "postcode": "6990902", "prefecture": "島根県", "id": 419 },
        { "address": "多久谷町", "city": "出雲市", "postcode": "6910062", "prefecture": "島根県", "id": 420 },
        { "address": "多久町", "city": "出雲市", "postcode": "6910061", "prefecture": "島根県", "id": 421 },
        { "address": "武志町", "city": "出雲市", "postcode": "6930014", "prefecture": "島根県", "id": 422 },
        { "address": "知井宮町", "city": "出雲市", "postcode": "6930033", "prefecture": "島根県", "id": 423 },
        { "address": "地合町", "city": "出雲市", "postcode": "6910071", "prefecture": "島根県", "id": 424 },
        { "address": "築山新町", "city": "出雲市", "postcode": "6930029", "prefecture": "島根県", "id": 425 },
        { "address": "常松町", "city": "出雲市", "postcode": "6930057", "prefecture": "島根県", "id": 426 },
        { "address": "天神町", "city": "出雲市", "postcode": "6930005", "prefecture": "島根県", "id": 427 },
        { "address": "東郷町", "city": "出雲市", "postcode": "6910065", "prefecture": "島根県", "id": 428 },
        { "address": "東福町", "city": "出雲市", "postcode": "6910031", "prefecture": "島根県", "id": 429 },
        { "address": "所原町", "city": "出雲市", "postcode": "6930214", "prefecture": "島根県", "id": 430 },
        { "address": "中野町", "city": "出雲市", "postcode": "6930062", "prefecture": "島根県", "id": 431 },
        { "address": "中野美保北", "city": "出雲市", "postcode": "6930081", "prefecture": "島根県", "id": 432 },
        { "address": "中野美保南", "city": "出雲市", "postcode": "6930082", "prefecture": "島根県", "id": 433 },
        { "address": "長浜町", "city": "出雲市", "postcode": "6930043", "prefecture": "島根県", "id": 434 },
        { "address": "灘分町", "city": "出雲市", "postcode": "6910003", "prefecture": "島根県", "id": 435 },
        { "address": "西神西町", "city": "出雲市", "postcode": "6990824", "prefecture": "島根県", "id": 436 },
        { "address": "西新町", "city": "出雲市", "postcode": "6930037", "prefecture": "島根県", "id": 437 },
        { "address": "西園町", "city": "出雲市", "postcode": "6930041", "prefecture": "島根県", "id": 438 },
        { "address": "西代町", "city": "出雲市", "postcode": "6910012", "prefecture": "島根県", "id": 439 },
        { "address": "西谷町", "city": "出雲市", "postcode": "6930102", "prefecture": "島根県", "id": 440 },
        { "address": "西林木町", "city": "出雲市", "postcode": "6930073", "prefecture": "島根県", "id": 441 },
        { "address": "西平田町", "city": "出雲市", "postcode": "6910002", "prefecture": "島根県", "id": 442 },
        { "address": "野石谷町", "city": "出雲市", "postcode": "6910066", "prefecture": "島根県", "id": 443 },
        { "address": "野郷町", "city": "出雲市", "postcode": "6910072", "prefecture": "島根県", "id": 444 },
        { "address": "野尻町", "city": "出雲市", "postcode": "6930103", "prefecture": "島根県", "id": 445 },
        { "address": "浜町", "city": "出雲市", "postcode": "6930054", "prefecture": "島根県", "id": 446 },
        { "address": "稗原町", "city": "出雲市", "postcode": "6930104", "prefecture": "島根県", "id": 447 },
        { "address": "東神西町", "city": "出雲市", "postcode": "6990823", "prefecture": "島根県", "id": 448 },
        { "address": "東園町", "city": "出雲市", "postcode": "6930045", "prefecture": "島根県", "id": 449 },
        { "address": "東林木町", "city": "出雲市", "postcode": "6930074", "prefecture": "島根県", "id": 450 },
        { "address": "斐川町併川", "city": "出雲市", "postcode": "6990615", "prefecture": "島根県", "id": 451 },
        { "address": "斐川町阿宮", "city": "出雲市", "postcode": "6990611", "prefecture": "島根県", "id": 452 },
        { "address": "斐川町今在家", "city": "出雲市", "postcode": "6990644", "prefecture": "島根県", "id": 453 },
        { "address": "斐川町沖洲", "city": "出雲市", "postcode": "6990551", "prefecture": "島根県", "id": 454 },
        { "address": "斐川町学頭", "city": "出雲市", "postcode": "6990501", "prefecture": "島根県", "id": 455 },
        { "address": "斐川町上庄原", "city": "出雲市", "postcode": "6990505", "prefecture": "島根県", "id": 456 },
        { "address": "斐川町上直江", "city": "出雲市", "postcode": "6990624", "prefecture": "島根県", "id": 457 },
        { "address": "斐川町神庭", "city": "出雲市", "postcode": "6990503", "prefecture": "島根県", "id": 458 },
        { "address": "斐川町神氷", "city": "出雲市", "postcode": "6990613", "prefecture": "島根県", "id": 459 },
        { "address": "斐川町求院", "city": "出雲市", "postcode": "6990614", "prefecture": "島根県", "id": 460 },
        { "address": "斐川町黒目", "city": "出雲市", "postcode": "6990553", "prefecture": "島根県", "id": 461 },
        { "address": "斐川町坂田", "city": "出雲市", "postcode": "6990555", "prefecture": "島根県", "id": 462 },
        { "address": "斐川町三分市", "city": "出雲市", "postcode": "6990554", "prefecture": "島根県", "id": 463 },
        { "address": "斐川町出西", "city": "出雲市", "postcode": "6990612", "prefecture": "島根県", "id": 464 },
        { "address": "斐川町荘原", "city": "出雲市", "postcode": "6990502", "prefecture": "島根県", "id": 465 },
        { "address": "斐川町富村", "city": "出雲市", "postcode": "6990621", "prefecture": "島根県", "id": 466 },
        { "address": "斐川町鳥井", "city": "出雲市", "postcode": "6990623", "prefecture": "島根県", "id": 467 },
        { "address": "斐川町直江", "city": "出雲市", "postcode": "6990631", "prefecture": "島根県", "id": 468 },
        { "address": "斐川町中洲", "city": "出雲市", "postcode": "6990552", "prefecture": "島根県", "id": 469 },
        { "address": "斐川町名島", "city": "出雲市", "postcode": "6990622", "prefecture": "島根県", "id": 470 },
        { "address": "斐川町原鹿", "city": "出雲市", "postcode": "6990643", "prefecture": "島根県", "id": 471 },
        { "address": "斐川町福富", "city": "出雲市", "postcode": "6990642", "prefecture": "島根県", "id": 472 },
        { "address": "斐川町三絡", "city": "出雲市", "postcode": "6990504", "prefecture": "島根県", "id": 473 },
        { "address": "斐川町美南", "city": "出雲市", "postcode": "6990641", "prefecture": "島根県", "id": 474 },
        { "address": "姫原", "city": "出雲市", "postcode": "6930068", "prefecture": "島根県", "id": 475 },
        { "address": "姫原町", "city": "出雲市", "postcode": "6930061", "prefecture": "島根県", "id": 476 },
        { "address": "平田町", "city": "出雲市", "postcode": "6910001", "prefecture": "島根県", "id": 477 },
        { "address": "平野町", "city": "出雲市", "postcode": "6930065", "prefecture": "島根県", "id": 478 },
        { "address": "船津町", "city": "出雲市", "postcode": "6930106", "prefecture": "島根県", "id": 479 },
        { "address": "平成町", "city": "出雲市", "postcode": "6930036", "prefecture": "島根県", "id": 480 },
        { "address": "別所町", "city": "出雲市", "postcode": "6910022", "prefecture": "島根県", "id": 481 },
        { "address": "本庄町", "city": "出雲市", "postcode": "6910032", "prefecture": "島根県", "id": 482 },
        { "address": "馬木北町", "city": "出雲市", "postcode": "6930211", "prefecture": "島根県", "id": 483 },
        { "address": "馬木町", "city": "出雲市", "postcode": "6930212", "prefecture": "島根県", "id": 484 },
        { "address": "松寄下町", "city": "出雲市", "postcode": "6930052", "prefecture": "島根県", "id": 485 },
        { "address": "万田町", "city": "出雲市", "postcode": "6910033", "prefecture": "島根県", "id": 486 },
        { "address": "美談町", "city": "出雲市", "postcode": "6910013", "prefecture": "島根県", "id": 487 },
        { "address": "三津町", "city": "出雲市", "postcode": "6910053", "prefecture": "島根県", "id": 488 },
        { "address": "美保町", "city": "出雲市", "postcode": "6910045", "prefecture": "島根県", "id": 489 },
        { "address": "見々久町", "city": "出雲市", "postcode": "6930215", "prefecture": "島根県", "id": 490 },
        { "address": "八島町", "city": "出雲市", "postcode": "6930055", "prefecture": "島根県", "id": 491 },
        { "address": "矢野町", "city": "出雲市", "postcode": "6930058", "prefecture": "島根県", "id": 492 },
        { "address": "矢尾町", "city": "出雲市", "postcode": "6930067", "prefecture": "島根県", "id": 493 },
        { "address": "美野町", "city": "出雲市", "postcode": "6910073", "prefecture": "島根県", "id": 494 },
        { "address": "鹿園寺町", "city": "出雲市", "postcode": "6910075", "prefecture": "島根県", "id": 495 },
        { "address": "渡橋町", "city": "出雲市", "postcode": "6930004", "prefecture": "島根県", "id": 496 },
        { "city": "益田市", "postcode": "6980000", "prefecture": "島根県", "id": 497 },
        { "address": "赤雁町", "city": "益田市", "postcode": "6993672", "prefecture": "島根県", "id": 498 },
        { "address": "赤城町", "city": "益田市", "postcode": "6980034", "prefecture": "島根県", "id": 499 },
        { "address": "あけぼの東町", "city": "益田市", "postcode": "6980027", "prefecture": "島根県", "id": 500 },
        { "address": "あけぼの西町", "city": "益田市", "postcode": "6980025", "prefecture": "島根県", "id": 501 },
        { "address": "あけぼの本町", "city": "益田市", "postcode": "6980026", "prefecture": "島根県", "id": 502 },
        { "address": "愛栄町", "city": "益田市", "postcode": "6982253", "prefecture": "島根県", "id": 503 },
        { "address": "有明町", "city": "益田市", "postcode": "6980022", "prefecture": "島根県", "id": 504 },
        { "address": "有田町", "city": "益田市", "postcode": "6993765", "prefecture": "島根県", "id": 505 },
        { "address": "飯田町", "city": "益田市", "postcode": "6980037", "prefecture": "島根県", "id": 506 },
        { "address": "飯浦町", "city": "益田市", "postcode": "6993761", "prefecture": "島根県", "id": 507 },
        { "address": "市原町", "city": "益田市", "postcode": "6982142", "prefecture": "島根県", "id": 508 },
        { "address": "猪木谷町", "city": "益田市", "postcode": "6995123", "prefecture": "島根県", "id": 509 },
        { "address": "岩倉町", "city": "益田市", "postcode": "6980014", "prefecture": "島根県", "id": 510 },
        { "address": "内田町", "city": "益田市", "postcode": "6980051", "prefecture": "島根県", "id": 511 },
        { "address": "内田町", "city": "益田市", "postcode": "6982143", "prefecture": "島根県", "id": 512 },
        { "address": "馬谷町", "city": "益田市", "postcode": "6980413", "prefecture": "島根県", "id": 513 },
        { "address": "梅月町", "city": "益田市", "postcode": "6995127", "prefecture": "島根県", "id": 514 },
        { "address": "駅前町", "city": "益田市", "postcode": "6980024", "prefecture": "島根県", "id": 515 },
        { "address": "大草町", "city": "益田市", "postcode": "6993674", "prefecture": "島根県", "id": 516 },
        { "address": "大谷町", "city": "益田市", "postcode": "6980012", "prefecture": "島根県", "id": 517 },
        { "address": "乙子町", "city": "益田市", "postcode": "6993675", "prefecture": "島根県", "id": 518 },
        { "address": "乙吉町", "city": "益田市", "postcode": "6980003", "prefecture": "島根県", "id": 519 },
        { "address": "柏原町", "city": "益田市", "postcode": "6982252", "prefecture": "島根県", "id": 520 },
        { "address": "桂平町", "city": "益田市", "postcode": "6982254", "prefecture": "島根県", "id": 521 },
        { "address": "金山町", "city": "益田市", "postcode": "6993501", "prefecture": "島根県", "id": 522 },
        { "address": "上黒谷町", "city": "益田市", "postcode": "6982255", "prefecture": "島根県", "id": 523 },
        { "address": "かもしま北町", "city": "益田市", "postcode": "6980045", "prefecture": "島根県", "id": 524 },
        { "address": "かもしま西町", "city": "益田市", "postcode": "6980047", "prefecture": "島根県", "id": 525 },
        { "address": "かもしま東町", "city": "益田市", "postcode": "6980046", "prefecture": "島根県", "id": 526 },
        { "address": "川登町", "city": "益田市", "postcode": "6982145", "prefecture": "島根県", "id": 527 },
        { "address": "神田町", "city": "益田市", "postcode": "6995133", "prefecture": "島根県", "id": 528 },
        { "address": "喜阿弥町", "city": "益田市", "postcode": "6993764", "prefecture": "島根県", "id": 529 },
        { "address": "木部町", "city": "益田市", "postcode": "6993502", "prefecture": "島根県", "id": 530 },
        { "address": "久々茂町", "city": "益田市", "postcode": "6980013", "prefecture": "島根県", "id": 531 },
        { "address": "久城町", "city": "益田市", "postcode": "6980001", "prefecture": "島根県", "id": 532 },
        { "address": "黒周町", "city": "益田市", "postcode": "6982251", "prefecture": "島根県", "id": 533 },
        { "address": "小浜町", "city": "益田市", "postcode": "6993762", "prefecture": "島根県", "id": 534 },
        { "address": "幸町", "city": "益田市", "postcode": "6980021", "prefecture": "島根県", "id": 535 },
        { "address": "栄町", "city": "益田市", "postcode": "6980035", "prefecture": "島根県", "id": 536 },
        { "address": "下種町", "city": "益田市", "postcode": "6993503", "prefecture": "島根県", "id": 537 },
        { "address": "下波田町", "city": "益田市", "postcode": "6980414", "prefecture": "島根県", "id": 538 },
        { "address": "下本郷町", "city": "益田市", "postcode": "6980002", "prefecture": "島根県", "id": 539 },
        { "address": "昭和町", "city": "益田市", "postcode": "6980007", "prefecture": "島根県", "id": 540 },
        { "address": "白岩町", "city": "益田市", "postcode": "6995125", "prefecture": "島根県", "id": 541 },
        { "address": "白上町", "city": "益田市", "postcode": "6982141", "prefecture": "島根県", "id": 542 },
        { "address": "須子町", "city": "益田市", "postcode": "6980036", "prefecture": "島根県", "id": 543 },
        { "address": "薄原町", "city": "益田市", "postcode": "6995124", "prefecture": "島根県", "id": 544 },
        { "address": "隅村町", "city": "益田市", "postcode": "6995126", "prefecture": "島根県", "id": 545 },
        { "address": "染羽町", "city": "益田市", "postcode": "6980011", "prefecture": "島根県", "id": 546 },
        { "address": "高津", "city": "益田市", "postcode": "6980041", "prefecture": "島根県", "id": 547 },
        { "address": "多田町", "city": "益田市", "postcode": "6980031", "prefecture": "島根県", "id": 548 },
        { "address": "種村町", "city": "益田市", "postcode": "6993504", "prefecture": "島根県", "id": 549 },
        { "address": "津田町", "city": "益田市", "postcode": "6993671", "prefecture": "島根県", "id": 550 },
        { "address": "土田町", "city": "益田市", "postcode": "6993505", "prefecture": "島根県", "id": 551 },
        { "address": "土井町", "city": "益田市", "postcode": "6980016", "prefecture": "島根県", "id": 552 },
        { "address": "遠田町", "city": "益田市", "postcode": "6993676", "prefecture": "島根県", "id": 553 },
        { "address": "常盤町", "city": "益田市", "postcode": "6980023", "prefecture": "島根県", "id": 554 },
        { "address": "戸田町", "city": "益田市", "postcode": "6993763", "prefecture": "島根県", "id": 555 },
        { "address": "栃山町", "city": "益田市", "postcode": "6980015", "prefecture": "島根県", "id": 556 },
        { "address": "中垣内町", "city": "益田市", "postcode": "6982146", "prefecture": "島根県", "id": 557 },
        { "address": "中須町", "city": "益田市", "postcode": "6980044", "prefecture": "島根県", "id": 558 },
        { "address": "中島町", "city": "益田市", "postcode": "6980043", "prefecture": "島根県", "id": 559 },
        { "address": "中吉田町", "city": "益田市", "postcode": "6980042", "prefecture": "島根県", "id": 560 },
        { "address": "長沢町", "city": "益田市", "postcode": "6980412", "prefecture": "島根県", "id": 561 },
        { "address": "七尾町", "city": "益田市", "postcode": "6980017", "prefecture": "島根県", "id": 562 },
        { "address": "西平原町", "city": "益田市", "postcode": "6993506", "prefecture": "島根県", "id": 563 },
        { "address": "波田町", "city": "益田市", "postcode": "6980411", "prefecture": "島根県", "id": 564 },
        { "address": "東町", "city": "益田市", "postcode": "6980004", "prefecture": "島根県", "id": 565 },
        { "address": "匹見町石谷", "city": "益田市", "postcode": "6981223", "prefecture": "島根県", "id": 566 },
        { "address": "匹見町落合", "city": "益田市", "postcode": "6981213", "prefecture": "島根県", "id": 567 },
        { "address": "匹見町紙祖", "city": "益田市", "postcode": "6981212", "prefecture": "島根県", "id": 568 },
        { "address": "匹見町澄川", "city": "益田市", "postcode": "6981221", "prefecture": "島根県", "id": 569 },
        { "address": "匹見町匹見", "city": "益田市", "postcode": "6981211", "prefecture": "島根県", "id": 570 },
        { "address": "匹見町広瀬", "city": "益田市", "postcode": "6981222", "prefecture": "島根県", "id": 571 },
        { "address": "匹見町道川", "city": "益田市", "postcode": "6981201", "prefecture": "島根県", "id": 572 },
        { "address": "左ケ山町", "city": "益田市", "postcode": "6995121", "prefecture": "島根県", "id": 573 },
        { "address": "本俣賀町", "city": "益田市", "postcode": "6995122", "prefecture": "島根県", "id": 574 },
        { "address": "本町", "city": "益田市", "postcode": "6980005", "prefecture": "島根県", "id": 575 },
        { "address": "水分町", "city": "益田市", "postcode": "6980032", "prefecture": "島根県", "id": 576 },
        { "address": "美都町朝倉", "city": "益田市", "postcode": "6980213", "prefecture": "島根県", "id": 577 },
        { "address": "美都町板井川", "city": "益田市", "postcode": "6980201", "prefecture": "島根県", "id": 578 },
        { "address": "美都町宇津川", "city": "益田市", "postcode": "6980202", "prefecture": "島根県", "id": 579 },
        { "address": "美都町久原", "city": "益田市", "postcode": "6980206", "prefecture": "島根県", "id": 580 },
        { "address": "美都町小原", "city": "益田市", "postcode": "6980211", "prefecture": "島根県", "id": 581 },
        { "address": "美都町笹倉", "city": "益田市", "postcode": "6980214", "prefecture": "島根県", "id": 582 },
        { "address": "美都町仙道", "city": "益田市", "postcode": "6980212", "prefecture": "島根県", "id": 583 },
        { "address": "美都町都茂", "city": "益田市", "postcode": "6980203", "prefecture": "島根県", "id": 584 },
        { "address": "美都町丸茂", "city": "益田市", "postcode": "6980207", "prefecture": "島根県", "id": 585 },
        { "address": "美都町三谷", "city": "益田市", "postcode": "6980205", "prefecture": "島根県", "id": 586 },
        { "address": "美都町山本", "city": "益田市", "postcode": "6980204", "prefecture": "島根県", "id": 587 },
        { "address": "美濃地町", "city": "益田市", "postcode": "6993766", "prefecture": "島根県", "id": 588 },
        { "address": "三宅町", "city": "益田市", "postcode": "6980006", "prefecture": "島根県", "id": 589 },
        { "address": "向横田町", "city": "益田市", "postcode": "6995134", "prefecture": "島根県", "id": 590 },
        { "address": "虫追町", "city": "益田市", "postcode": "6982144", "prefecture": "島根県", "id": 591 },
        { "address": "元町", "city": "益田市", "postcode": "6980033", "prefecture": "島根県", "id": 592 },
        { "address": "安富町", "city": "益田市", "postcode": "6995131", "prefecture": "島根県", "id": 593 },
        { "address": "山折町", "city": "益田市", "postcode": "6993673", "prefecture": "島根県", "id": 594 },
        { "address": "横田町", "city": "益田市", "postcode": "6995132", "prefecture": "島根県", "id": 595 },
        { "city": "大田市", "postcode": "6940000", "prefecture": "島根県", "id": 596 },
        { "address": "朝山町朝倉", "city": "大田市", "postcode": "6992213", "prefecture": "島根県", "id": 597 },
        { "address": "朝山町仙山", "city": "大田市", "postcode": "6992212", "prefecture": "島根県", "id": 598 },
        { "address": "五十猛町", "city": "大田市", "postcode": "6940035", "prefecture": "島根県", "id": 599 },
        { "address": "大代町大家", "city": "大田市", "postcode": "6940433", "prefecture": "島根県", "id": 600 },
        { "address": "大代町新屋", "city": "大田市", "postcode": "6940432", "prefecture": "島根県", "id": 601 },
        { "address": "大田町大田", "city": "大田市", "postcode": "6940064", "prefecture": "島根県", "id": 602 },
        { "address": "大田町野城", "city": "大田市", "postcode": "6940062", "prefecture": "島根県", "id": 603 },
        { "address": "大田町吉永", "city": "大田市", "postcode": "6940063", "prefecture": "島根県", "id": 604 },
        { "address": "大森町", "city": "大田市", "postcode": "6940305", "prefecture": "島根県", "id": 605 },
        { "address": "大屋町大国", "city": "大田市", "postcode": "6940033", "prefecture": "島根県", "id": 606 },
        { "address": "大屋町大屋", "city": "大田市", "postcode": "6940034", "prefecture": "島根県", "id": 607 },
        { "address": "大屋町鬼村", "city": "大田市", "postcode": "6940032", "prefecture": "島根県", "id": 608 },
        { "address": "川合町忍原", "city": "大田市", "postcode": "6940012", "prefecture": "島根県", "id": 609 },
        { "address": "川合町川合", "city": "大田市", "postcode": "6940011", "prefecture": "島根県", "id": 610 },
        { "address": "川合町吉永", "city": "大田市", "postcode": "6940013", "prefecture": "島根県", "id": 611 },
        { "address": "久手町刺鹿", "city": "大田市", "postcode": "6940052", "prefecture": "島根県", "id": 612 },
        { "address": "久手町波根西", "city": "大田市", "postcode": "6940051", "prefecture": "島根県", "id": 613 },
        { "address": "久利町市原", "city": "大田市", "postcode": "6940022", "prefecture": "島根県", "id": 614 },
        { "address": "久利町久利", "city": "大田市", "postcode": "6940024", "prefecture": "島根県", "id": 615 },
        { "address": "久利町佐摩", "city": "大田市", "postcode": "6940023", "prefecture": "島根県", "id": 616 },
        { "address": "久利町松代", "city": "大田市", "postcode": "6940025", "prefecture": "島根県", "id": 617 },
        { "address": "久利町行恒", "city": "大田市", "postcode": "6940021", "prefecture": "島根県", "id": 618 },
        { "address": "三瓶町池田", "city": "大田市", "postcode": "6940223", "prefecture": "島根県", "id": 619 },
        { "address": "三瓶町上山", "city": "大田市", "postcode": "6940221", "prefecture": "島根県", "id": 620 },
        { "address": "三瓶町小屋原", "city": "大田市", "postcode": "6940224", "prefecture": "島根県", "id": 621 },
        { "address": "三瓶町志学", "city": "大田市", "postcode": "6940222", "prefecture": "島根県", "id": 622 },
        { "address": "三瓶町多根", "city": "大田市", "postcode": "6940003", "prefecture": "島根県", "id": 623 },
        { "address": "三瓶町野城", "city": "大田市", "postcode": "6940004", "prefecture": "島根県", "id": 624 },
        { "address": "静間町", "city": "大田市", "postcode": "6940031", "prefecture": "島根県", "id": 625 },
        { "address": "祖式町", "city": "大田市", "postcode": "6940431", "prefecture": "島根県", "id": 626 },
        { "address": "富山町神原", "city": "大田市", "postcode": "6992214", "prefecture": "島根県", "id": 627 },
        { "address": "富山町才坂", "city": "大田市", "postcode": "6992215", "prefecture": "島根県", "id": 628 },
        { "address": "富山町山中", "city": "大田市", "postcode": "6940061", "prefecture": "島根県", "id": 629 },
        { "address": "富山町山中", "city": "大田市", "postcode": "6992216", "prefecture": "島根県", "id": 630 },
        { "address": "鳥井町鳥井", "city": "大田市", "postcode": "6940054", "prefecture": "島根県", "id": 631 },
        { "address": "鳥井町鳥越", "city": "大田市", "postcode": "6940053", "prefecture": "島根県", "id": 632 },
        { "address": "長久町稲用", "city": "大田市", "postcode": "6940042", "prefecture": "島根県", "id": 633 },
        { "address": "長久町土江", "city": "大田市", "postcode": "6940044", "prefecture": "島根県", "id": 634 },
        { "address": "長久町長久", "city": "大田市", "postcode": "6940041", "prefecture": "島根県", "id": 635 },
        { "address": "長久町延里", "city": "大田市", "postcode": "6940043", "prefecture": "島根県", "id": 636 },
        { "address": "仁摩町天河内", "city": "大田市", "postcode": "6992305", "prefecture": "島根県", "id": 637 },
        { "address": "仁摩町大国", "city": "大田市", "postcode": "6992303", "prefecture": "島根県", "id": 638 },
        { "address": "仁摩町宅野", "city": "大田市", "postcode": "6992302", "prefecture": "島根県", "id": 639 },
        { "address": "仁摩町仁万", "city": "大田市", "postcode": "6992301", "prefecture": "島根県", "id": 640 },
        { "address": "仁摩町馬路", "city": "大田市", "postcode": "6992304", "prefecture": "島根県", "id": 641 },
        { "address": "波根町", "city": "大田市", "postcode": "6992211", "prefecture": "島根県", "id": 642 },
        { "address": "水上町荻原", "city": "大田市", "postcode": "6940301", "prefecture": "島根県", "id": 643 },
        { "address": "水上町白坏", "city": "大田市", "postcode": "6940303", "prefecture": "島根県", "id": 644 },
        { "address": "水上町福原", "city": "大田市", "postcode": "6940302", "prefecture": "島根県", "id": 645 },
        { "address": "水上町三久須", "city": "大田市", "postcode": "6940304", "prefecture": "島根県", "id": 646 },
        { "address": "山口町佐津目", "city": "大田市", "postcode": "6940001", "prefecture": "島根県", "id": 647 },
        { "address": "山口町山口", "city": "大田市", "postcode": "6940002", "prefecture": "島根県", "id": 648 },
        { "address": "温泉津町井田", "city": "大田市", "postcode": "6992507", "prefecture": "島根県", "id": 649 },
        { "address": "温泉津町今浦", "city": "大田市", "postcode": "6992515", "prefecture": "島根県", "id": 650 },
        { "address": "温泉津町太田", "city": "大田市", "postcode": "6992505", "prefecture": "島根県", "id": 651 },
        { "address": "温泉津町荻村", "city": "大田市", "postcode": "6992504", "prefecture": "島根県", "id": 652 },
        { "address": "温泉津町上村", "city": "大田市", "postcode": "6992513", "prefecture": "島根県", "id": 653 },
        { "address": "温泉津町小浜", "city": "大田市", "postcode": "6992511", "prefecture": "島根県", "id": 654 },
        { "address": "温泉津町西田", "city": "大田市", "postcode": "6992503", "prefecture": "島根県", "id": 655 },
        { "address": "温泉津町飯原", "city": "大田市", "postcode": "6992512", "prefecture": "島根県", "id": 656 },
        { "address": "温泉津町福田", "city": "大田市", "postcode": "6992506", "prefecture": "島根県", "id": 657 },
        { "address": "温泉津町福光", "city": "大田市", "postcode": "6992514", "prefecture": "島根県", "id": 658 },
        { "address": "温泉津町湯里", "city": "大田市", "postcode": "6992502", "prefecture": "島根県", "id": 659 },
        { "address": "温泉津町温泉津", "city": "大田市", "postcode": "6992501", "prefecture": "島根県", "id": 660 },
        { "address": "温泉津町吉浦", "city": "大田市", "postcode": "6992516", "prefecture": "島根県", "id": 661 },
        { "city": "安来市", "postcode": "6920000", "prefecture": "島根県", "id": 662 },
        { "address": "赤江町", "city": "安来市", "postcode": "6920001", "prefecture": "島根県", "id": 663 },
        { "address": "赤崎町", "city": "安来市", "postcode": "6920052", "prefecture": "島根県", "id": 664 },
        { "address": "荒島町", "city": "安来市", "postcode": "6920007", "prefecture": "島根県", "id": 665 },
        { "address": "飯梨町", "city": "安来市", "postcode": "6920066", "prefecture": "島根県", "id": 666 },
        { "address": "飯生町", "city": "安来市", "postcode": "6920055", "prefecture": "島根県", "id": 667 },
        { "address": "今津町", "city": "安来市", "postcode": "6920015", "prefecture": "島根県", "id": 668 },
        { "address": "岩舟町", "city": "安来市", "postcode": "6920065", "prefecture": "島根県", "id": 669 },
        { "address": "植田町", "city": "安来市", "postcode": "6920063", "prefecture": "島根県", "id": 670 },
        { "address": "宇賀荘町", "city": "安来市", "postcode": "6920034", "prefecture": "島根県", "id": 671 },
        { "address": "恵乃島町", "city": "安来市", "postcode": "6920057", "prefecture": "島根県", "id": 672 },
        { "address": "大塚町", "city": "安来市", "postcode": "6920042", "prefecture": "島根県", "id": 673 },
        { "address": "折坂町", "city": "安来市", "postcode": "6920046", "prefecture": "島根県", "id": 674 },
        { "address": "柿谷町", "city": "安来市", "postcode": "6920045", "prefecture": "島根県", "id": 675 },
        { "address": "門生町", "city": "安来市", "postcode": "6920027", "prefecture": "島根県", "id": 676 },
        { "address": "上坂田町", "city": "安来市", "postcode": "6920002", "prefecture": "島根県", "id": 677 },
        { "address": "上吉田町", "city": "安来市", "postcode": "6920043", "prefecture": "島根県", "id": 678 },
        { "address": "亀島町", "city": "安来市", "postcode": "6920071", "prefecture": "島根県", "id": 679 },
        { "address": "神庭町", "city": "安来市", "postcode": "6920075", "prefecture": "島根県", "id": 680 },
        { "address": "吉佐町", "city": "安来市", "postcode": "6920026", "prefecture": "島根県", "id": 681 },
        { "address": "清井町", "city": "安来市", "postcode": "6920056", "prefecture": "島根県", "id": 682 },
        { "address": "清瀬町", "city": "安来市", "postcode": "6920035", "prefecture": "島根県", "id": 683 },
        { "address": "清水町", "city": "安来市", "postcode": "6920033", "prefecture": "島根県", "id": 684 },
        { "address": "切川町", "city": "安来市", "postcode": "6920051", "prefecture": "島根県", "id": 685 },
        { "address": "久白町", "city": "安来市", "postcode": "6920004", "prefecture": "島根県", "id": 686 },
        { "address": "九重町", "city": "安来市", "postcode": "6920032", "prefecture": "島根県", "id": 687 },
        { "address": "黒井田町", "city": "安来市", "postcode": "6920023", "prefecture": "島根県", "id": 688 },
        { "address": "佐久保町", "city": "安来市", "postcode": "6920031", "prefecture": "島根県", "id": 689 },
        { "address": "実松町", "city": "安来市", "postcode": "6920062", "prefecture": "島根県", "id": 690 },
        { "address": "沢町", "city": "安来市", "postcode": "6920053", "prefecture": "島根県", "id": 691 },
        { "address": "汐手が丘", "city": "安来市", "postcode": "6920028", "prefecture": "島根県", "id": 692 },
        { "address": "島田町", "city": "安来市", "postcode": "6920024", "prefecture": "島根県", "id": 693 },
        { "address": "下坂田町", "city": "安来市", "postcode": "6920017", "prefecture": "島根県", "id": 694 },
        { "address": "下吉田町", "city": "安来市", "postcode": "6920044", "prefecture": "島根県", "id": 695 },
        { "address": "新十神町", "city": "安来市", "postcode": "6920021", "prefecture": "島根県", "id": 696 },
        { "address": "早田町", "city": "安来市", "postcode": "6920047", "prefecture": "島根県", "id": 697 },
        { "address": "田頼町", "city": "安来市", "postcode": "6920067", "prefecture": "島根県", "id": 698 },
        { "address": "月坂町", "city": "安来市", "postcode": "6920013", "prefecture": "島根県", "id": 699 },
        { "address": "利弘町", "city": "安来市", "postcode": "6920054", "prefecture": "島根県", "id": 700 },
        { "address": "鳥木町", "city": "安来市", "postcode": "6920041", "prefecture": "島根県", "id": 701 },
        { "address": "中海町", "city": "安来市", "postcode": "6920074", "prefecture": "島根県", "id": 702 },
        { "address": "中津町", "city": "安来市", "postcode": "6920061", "prefecture": "島根県", "id": 703 },
        { "address": "西赤江町", "city": "安来市", "postcode": "6920003", "prefecture": "島根県", "id": 704 },
        { "address": "西荒島町", "city": "安来市", "postcode": "6920006", "prefecture": "島根県", "id": 705 },
        { "address": "西恵乃島町", "city": "安来市", "postcode": "6920058", "prefecture": "島根県", "id": 706 },
        { "address": "西松井町", "city": "安来市", "postcode": "6920077", "prefecture": "島根県", "id": 707 },
        { "address": "野方町", "city": "安来市", "postcode": "6920036", "prefecture": "島根県", "id": 708 },
        { "address": "能義町", "city": "安来市", "postcode": "6920072", "prefecture": "島根県", "id": 709 },
        { "address": "伯太町赤屋", "city": "安来市", "postcode": "6920321", "prefecture": "島根県", "id": 710 },
        { "address": "伯太町井尻", "city": "安来市", "postcode": "6920213", "prefecture": "島根県", "id": 711 },
        { "address": "伯太町上小竹", "city": "安来市", "postcode": "6920322", "prefecture": "島根県", "id": 712 },
        { "address": "伯太町上十年畑", "city": "安来市", "postcode": "6920325", "prefecture": "島根県", "id": 713 },
        { "address": "伯太町草野", "city": "安来市", "postcode": "6920324", "prefecture": "島根県", "id": 714 },
        { "address": "伯太町下小竹", "city": "安来市", "postcode": "6920323", "prefecture": "島根県", "id": 715 },
        { "address": "伯太町下十年畑", "city": "安来市", "postcode": "6920326", "prefecture": "島根県", "id": 716 },
        { "address": "伯太町須山福冨", "city": "安来市", "postcode": "6920214", "prefecture": "島根県", "id": 717 },
        { "address": "伯太町高江寸次", "city": "安来市", "postcode": "6920215", "prefecture": "島根県", "id": 718 },
        { "address": "伯太町峠之内", "city": "安来市", "postcode": "6920218", "prefecture": "島根県", "id": 719 },
        { "address": "伯太町西母里", "city": "安来市", "postcode": "6920212", "prefecture": "島根県", "id": 720 },
        { "address": "伯太町東母里", "city": "安来市", "postcode": "6920207", "prefecture": "島根県", "id": 721 },
        { "address": "伯太町日次", "city": "安来市", "postcode": "6920216", "prefecture": "島根県", "id": 722 },
        { "address": "伯太町未明", "city": "安来市", "postcode": "6920203", "prefecture": "島根県", "id": 723 },
        { "address": "伯太町母里", "city": "安来市", "postcode": "6920211", "prefecture": "島根県", "id": 724 },
        { "address": "伯太町安田", "city": "安来市", "postcode": "6920206", "prefecture": "島根県", "id": 725 },
        { "address": "伯太町安田関", "city": "安来市", "postcode": "6920202", "prefecture": "島根県", "id": 726 },
        { "address": "伯太町安田中", "city": "安来市", "postcode": "6920205", "prefecture": "島根県", "id": 727 },
        { "address": "伯太町安田宮内", "city": "安来市", "postcode": "6920204", "prefecture": "島根県", "id": 728 },
        { "address": "伯太町安田山形", "city": "安来市", "postcode": "6920201", "prefecture": "島根県", "id": 729 },
        { "address": "伯太町横屋", "city": "安来市", "postcode": "6920217", "prefecture": "島根県", "id": 730 },
        { "address": "飯島町", "city": "安来市", "postcode": "6920014", "prefecture": "島根県", "id": 731 },
        { "address": "東赤江町", "city": "安来市", "postcode": "6920016", "prefecture": "島根県", "id": 732 },
        { "address": "日白町", "city": "安来市", "postcode": "6920005", "prefecture": "島根県", "id": 733 },
        { "address": "広瀬町石原", "city": "安来市", "postcode": "6920401", "prefecture": "島根県", "id": 734 },
        { "address": "広瀬町宇波", "city": "安来市", "postcode": "6920622", "prefecture": "島根県", "id": 735 },
        { "address": "広瀬町奥田原", "city": "安来市", "postcode": "6920625", "prefecture": "島根県", "id": 736 },
        { "address": "広瀬町祖父谷", "city": "安来市", "postcode": "6920405", "prefecture": "島根県", "id": 737 },
        { "address": "広瀬町梶福留", "city": "安来市", "postcode": "6920732", "prefecture": "島根県", "id": 738 },
        { "address": "広瀬町上山佐", "city": "安来市", "postcode": "6920413", "prefecture": "島根県", "id": 739 },
        { "address": "広瀬町下山佐", "city": "安来市", "postcode": "6920412", "prefecture": "島根県", "id": 740 },
        { "address": "広瀬町菅原", "city": "安来市", "postcode": "6920411", "prefecture": "島根県", "id": 741 },
        { "address": "広瀬町菅原", "city": "安来市", "postcode": "6920621", "prefecture": "島根県", "id": 742 },
        { "address": "広瀬町富田", "city": "安来市", "postcode": "6920403", "prefecture": "島根県", "id": 743 },
        { "address": "広瀬町西谷", "city": "安来市", "postcode": "6920624", "prefecture": "島根県", "id": 744 },
        { "address": "広瀬町西比田", "city": "安来市", "postcode": "6920731", "prefecture": "島根県", "id": 745 },
        { "address": "広瀬町東比田", "city": "安来市", "postcode": "6920733", "prefecture": "島根県", "id": 746 },
        { "address": "広瀬町広瀬", "city": "安来市", "postcode": "6920404", "prefecture": "島根県", "id": 747 },
        { "address": "広瀬町布部", "city": "安来市", "postcode": "6920623", "prefecture": "島根県", "id": 748 },
        { "address": "広瀬町町帳", "city": "安来市", "postcode": "6920402", "prefecture": "島根県", "id": 749 },
        { "address": "古川町", "city": "安来市", "postcode": "6920064", "prefecture": "島根県", "id": 750 },
        { "address": "穂日島町", "city": "安来市", "postcode": "6920025", "prefecture": "島根県", "id": 751 },
        { "address": "南十神町", "city": "安来市", "postcode": "6920022", "prefecture": "島根県", "id": 752 },
        { "address": "宮内町", "city": "安来市", "postcode": "6920012", "prefecture": "島根県", "id": 753 },
        { "address": "安来町", "city": "安来市", "postcode": "6920011", "prefecture": "島根県", "id": 754 },
        { "address": "矢田町", "city": "安来市", "postcode": "6920073", "prefecture": "島根県", "id": 755 },
        { "address": "吉岡町", "city": "安来市", "postcode": "6920037", "prefecture": "島根県", "id": 756 },
        { "city": "江津市", "postcode": "6950000", "prefecture": "島根県", "id": 757 },
        { "address": "浅利町", "city": "江津市", "postcode": "6950002", "prefecture": "島根県", "id": 758 },
        { "address": "跡市町", "city": "江津市", "postcode": "6950152", "prefecture": "島根県", "id": 759 },
        { "address": "有福温泉町", "city": "江津市", "postcode": "6950156", "prefecture": "島根県", "id": 760 },
        { "address": "有福温泉町本明", "city": "江津市", "postcode": "6950155", "prefecture": "島根県", "id": 761 },
        { "address": "井沢町", "city": "江津市", "postcode": "6950154", "prefecture": "島根県", "id": 762 },
        { "address": "後地町", "city": "江津市", "postcode": "6992841", "prefecture": "島根県", "id": 763 },
        { "address": "敬川町", "city": "江津市", "postcode": "6993162", "prefecture": "島根県", "id": 764 },
        { "address": "嘉久志町", "city": "江津市", "postcode": "6950016", "prefecture": "島根県", "id": 765 },
        { "address": "金田町", "city": "江津市", "postcode": "6950012", "prefecture": "島根県", "id": 766 },
        { "address": "川平町平田", "city": "江津市", "postcode": "6950014", "prefecture": "島根県", "id": 767 },
        { "address": "川平町南川上", "city": "江津市", "postcode": "6950013", "prefecture": "島根県", "id": 768 },
        { "address": "黒松町", "city": "江津市", "postcode": "6992831", "prefecture": "島根県", "id": 769 },
        { "address": "江津町", "city": "江津市", "postcode": "6950011", "prefecture": "島根県", "id": 770 },
        { "address": "桜江町市山", "city": "江津市", "postcode": "6994221", "prefecture": "島根県", "id": 771 },
        { "address": "桜江町今田", "city": "江津市", "postcode": "6994222", "prefecture": "島根県", "id": 772 },
        { "address": "桜江町後山", "city": "江津市", "postcode": "6994223", "prefecture": "島根県", "id": 773 },
        { "address": "桜江町江尾", "city": "江津市", "postcode": "6994224", "prefecture": "島根県", "id": 774 },
        { "address": "桜江町大貫", "city": "江津市", "postcode": "6994504", "prefecture": "島根県", "id": 775 },
        { "address": "桜江町小田", "city": "江津市", "postcode": "6994225", "prefecture": "島根県", "id": 776 },
        { "address": "桜江町川越", "city": "江津市", "postcode": "6994502", "prefecture": "島根県", "id": 777 },
        { "address": "桜江町川戸", "city": "江津市", "postcode": "6994226", "prefecture": "島根県", "id": 778 },
        { "address": "桜江町坂本", "city": "江津市", "postcode": "6994505", "prefecture": "島根県", "id": 779 },
        { "address": "桜江町鹿賀", "city": "江津市", "postcode": "6994501", "prefecture": "島根県", "id": 780 },
        { "address": "桜江町田津", "city": "江津市", "postcode": "6994503", "prefecture": "島根県", "id": 781 },
        { "address": "桜江町谷住郷", "city": "江津市", "postcode": "6994111", "prefecture": "島根県", "id": 782 },
        { "address": "桜江町長谷", "city": "江津市", "postcode": "6994431", "prefecture": "島根県", "id": 783 },
        { "address": "桜江町八戸", "city": "江津市", "postcode": "6994432", "prefecture": "島根県", "id": 784 },
        { "address": "島の星町", "city": "江津市", "postcode": "6950015", "prefecture": "島根県", "id": 785 },
        { "address": "清見町", "city": "江津市", "postcode": "6950153", "prefecture": "島根県", "id": 786 },
        { "address": "千田町", "city": "江津市", "postcode": "6950151", "prefecture": "島根県", "id": 787 },
        { "address": "都治町", "city": "江津市", "postcode": "6992842", "prefecture": "島根県", "id": 788 },
        { "address": "都野津町", "city": "江津市", "postcode": "6950021", "prefecture": "島根県", "id": 789 },
        { "address": "二宮町神村", "city": "江津市", "postcode": "6950023", "prefecture": "島根県", "id": 790 },
        { "address": "二宮町神主", "city": "江津市", "postcode": "6950024", "prefecture": "島根県", "id": 791 },
        { "address": "二宮町羽代", "city": "江津市", "postcode": "6950022", "prefecture": "島根県", "id": 792 },
        { "address": "波子町", "city": "江津市", "postcode": "6993161", "prefecture": "島根県", "id": 793 },
        { "address": "波積町本郷", "city": "江津市", "postcode": "6992833", "prefecture": "島根県", "id": 794 },
        { "address": "波積町南", "city": "江津市", "postcode": "6992834", "prefecture": "島根県", "id": 795 },
        { "address": "波積町北", "city": "江津市", "postcode": "6992832", "prefecture": "島根県", "id": 796 },
        { "address": "松川町市村", "city": "江津市", "postcode": "6950004", "prefecture": "島根県", "id": 797 },
        { "address": "松川町太田", "city": "江津市", "postcode": "6950007", "prefecture": "島根県", "id": 798 },
        { "address": "松川町上河戸", "city": "江津市", "postcode": "6992837", "prefecture": "島根県", "id": 799 },
        { "address": "松川町下河戸", "city": "江津市", "postcode": "6950003", "prefecture": "島根県", "id": 800 },
        { "address": "松川町上津井", "city": "江津市", "postcode": "6992835", "prefecture": "島根県", "id": 801 },
        { "address": "松川町長良", "city": "江津市", "postcode": "6950005", "prefecture": "島根県", "id": 802 },
        { "address": "松川町畑田", "city": "江津市", "postcode": "6992836", "prefecture": "島根県", "id": 803 },
        { "address": "松川町八神", "city": "江津市", "postcode": "6950006", "prefecture": "島根県", "id": 804 },
        { "address": "和木町", "city": "江津市", "postcode": "6950017", "prefecture": "島根県", "id": 805 },
        { "address": "渡津町", "city": "江津市", "postcode": "6950001", "prefecture": "島根県", "id": 806 },
        { "city": "雲南市", "postcode": "6902400", "prefecture": "島根県", "id": 807 },
        { "address": "掛合町穴見", "city": "雲南市", "postcode": "6902704", "prefecture": "島根県", "id": 808 },
        { "address": "掛合町入間", "city": "雲南市", "postcode": "6902702", "prefecture": "島根県", "id": 809 },
        { "address": "掛合町掛合", "city": "雲南市", "postcode": "6902701", "prefecture": "島根県", "id": 810 },
        { "address": "掛合町多根", "city": "雲南市", "postcode": "6902706", "prefecture": "島根県", "id": 811 },
        { "address": "掛合町波多", "city": "雲南市", "postcode": "6902703", "prefecture": "島根県", "id": 812 },
        { "address": "掛合町松笠", "city": "雲南市", "postcode": "6902705", "prefecture": "島根県", "id": 813 },
        { "address": "加茂町猪尾", "city": "雲南市", "postcode": "6991114", "prefecture": "島根県", "id": 814 },
        { "address": "加茂町岩倉", "city": "雲南市", "postcode": "6991115", "prefecture": "島根県", "id": 815 },
        { "address": "加茂町宇治", "city": "雲南市", "postcode": "6991105", "prefecture": "島根県", "id": 816 },
        { "address": "加茂町大崎", "city": "雲南市", "postcode": "6991125", "prefecture": "島根県", "id": 817 },
        { "address": "加茂町大竹", "city": "雲南市", "postcode": "6991123", "prefecture": "島根県", "id": 818 },
        { "address": "加茂町加茂中", "city": "雲南市", "postcode": "6991106", "prefecture": "島根県", "id": 819 },
        { "address": "加茂町神原", "city": "雲南市", "postcode": "6991121", "prefecture": "島根県", "id": 820 },
        { "address": "加茂町新宮", "city": "雲南市", "postcode": "6991112", "prefecture": "島根県", "id": 821 },
        { "address": "加茂町砂子原", "city": "雲南市", "postcode": "6991111", "prefecture": "島根県", "id": 822 },
        { "address": "加茂町大西", "city": "雲南市", "postcode": "6991101", "prefecture": "島根県", "id": 823 },
        { "address": "加茂町立原", "city": "雲南市", "postcode": "6991102", "prefecture": "島根県", "id": 824 },
        { "address": "加茂町近松", "city": "雲南市", "postcode": "6991103", "prefecture": "島根県", "id": 825 },
        { "address": "加茂町延野", "city": "雲南市", "postcode": "6991124", "prefecture": "島根県", "id": 826 },
        { "address": "加茂町東谷", "city": "雲南市", "postcode": "6991113", "prefecture": "島根県", "id": 827 },
        { "address": "加茂町三代", "city": "雲南市", "postcode": "6991122", "prefecture": "島根県", "id": 828 },
        { "address": "加茂町南加茂", "city": "雲南市", "postcode": "6991104", "prefecture": "島根県", "id": 829 },
        { "address": "木次町宇谷", "city": "雲南市", "postcode": "6991321", "prefecture": "島根県", "id": 830 },
        { "address": "木次町上熊谷", "city": "雲南市", "postcode": "6991331", "prefecture": "島根県", "id": 831 },
        { "address": "木次町木次", "city": "雲南市", "postcode": "6991332", "prefecture": "島根県", "id": 832 },
        { "address": "木次町北原", "city": "雲南市", "postcode": "6991401", "prefecture": "島根県", "id": 833 },
        { "address": "木次町北原", "city": "雲南市", "postcode": "6991341", "prefecture": "島根県", "id": 834 },
        { "address": "木次町里方", "city": "雲南市", "postcode": "6991311", "prefecture": "島根県", "id": 835 },
        { "address": "木次町下熊谷", "city": "雲南市", "postcode": "6991333", "prefecture": "島根県", "id": 836 },
        { "address": "木次町寺領", "city": "雲南市", "postcode": "6991322", "prefecture": "島根県", "id": 837 },
        { "address": "木次町新市", "city": "雲南市", "postcode": "6991334", "prefecture": "島根県", "id": 838 },
        { "address": "木次町西日登", "city": "雲南市", "postcode": "6991324", "prefecture": "島根県", "id": 839 },
        { "address": "木次町東日登", "city": "雲南市", "postcode": "6991323", "prefecture": "島根県", "id": 840 },
        { "address": "木次町平田", "city": "雲南市", "postcode": "6991342", "prefecture": "島根県", "id": 841 },
        { "address": "木次町山方", "city": "雲南市", "postcode": "6991312", "prefecture": "島根県", "id": 842 },
        { "address": "木次町湯村", "city": "雲南市", "postcode": "6991343", "prefecture": "島根県", "id": 843 },
        { "address": "大東町飯田", "city": "雲南市", "postcode": "6991221", "prefecture": "島根県", "id": 844 },
        { "address": "大東町遠所", "city": "雲南市", "postcode": "6991231", "prefecture": "島根県", "id": 845 },
        { "address": "大東町大ケ谷", "city": "雲南市", "postcode": "6991213", "prefecture": "島根県", "id": 846 },
        { "address": "大東町小河内", "city": "雲南市", "postcode": "6991201", "prefecture": "島根県", "id": 847 },
        { "address": "大東町金成", "city": "雲南市", "postcode": "6991261", "prefecture": "島根県", "id": 848 },
        { "address": "大東町上久野", "city": "雲南市", "postcode": "6991211", "prefecture": "島根県", "id": 849 },
        { "address": "大東町上佐世", "city": "雲南市", "postcode": "6991214", "prefecture": "島根県", "id": 850 },
        { "address": "大東町刈畑", "city": "雲南市", "postcode": "6991202", "prefecture": "島根県", "id": 851 },
        { "address": "大東町川井", "city": "雲南市", "postcode": "6991222", "prefecture": "島根県", "id": 852 },
        { "address": "大東町北村", "city": "雲南市", "postcode": "6991203", "prefecture": "島根県", "id": 853 },
        { "address": "大東町薦澤", "city": "雲南市", "postcode": "6991204", "prefecture": "島根県", "id": 854 },
        { "address": "大東町山王寺", "city": "雲南市", "postcode": "6991241", "prefecture": "島根県", "id": 855 },
        { "address": "大東町塩田", "city": "雲南市", "postcode": "6991262", "prefecture": "島根県", "id": 856 },
        { "address": "大東町篠淵", "city": "雲南市", "postcode": "6991263", "prefecture": "島根県", "id": 857 },
        { "address": "大東町下阿用", "city": "雲南市", "postcode": "6991223", "prefecture": "島根県", "id": 858 },
        { "address": "大東町下久野", "city": "雲南市", "postcode": "6991212", "prefecture": "島根県", "id": 859 },
        { "address": "大東町下佐世", "city": "雲南市", "postcode": "6991215", "prefecture": "島根県", "id": 860 },
        { "address": "大東町新庄", "city": "雲南市", "postcode": "6991251", "prefecture": "島根県", "id": 861 },
        { "address": "大東町須賀", "city": "雲南市", "postcode": "6991205", "prefecture": "島根県", "id": 862 },
        { "address": "大東町清田", "city": "雲南市", "postcode": "6991264", "prefecture": "島根県", "id": 863 },
        { "address": "大東町大東下分", "city": "雲南市", "postcode": "6991242", "prefecture": "島根県", "id": 864 },
        { "address": "大東町田中", "city": "雲南市", "postcode": "6991252", "prefecture": "島根県", "id": 865 },
        { "address": "大東町中湯石", "city": "雲南市", "postcode": "6991253", "prefecture": "島根県", "id": 866 },
        { "address": "大東町西阿用", "city": "雲南市", "postcode": "6991216", "prefecture": "島根県", "id": 867 },
        { "address": "大東町仁和寺", "city": "雲南市", "postcode": "6991232", "prefecture": "島根県", "id": 868 },
        { "address": "大東町畑鵯", "city": "雲南市", "postcode": "6991243", "prefecture": "島根県", "id": 869 },
        { "address": "大東町幡屋", "city": "雲南市", "postcode": "6991233", "prefecture": "島根県", "id": 870 },
        { "address": "大東町東阿用", "city": "雲南市", "postcode": "6991224", "prefecture": "島根県", "id": 871 },
        { "address": "大東町前原", "city": "雲南市", "postcode": "6991234", "prefecture": "島根県", "id": 872 },
        { "address": "大東町南村", "city": "雲南市", "postcode": "6991206", "prefecture": "島根県", "id": 873 },
        { "address": "大東町山田", "city": "雲南市", "postcode": "6991244", "prefecture": "島根県", "id": 874 },
        { "address": "大東町養賀", "city": "雲南市", "postcode": "6991245", "prefecture": "島根県", "id": 875 },
        { "address": "三刀屋町粟谷", "city": "雲南市", "postcode": "6902513", "prefecture": "島根県", "id": 876 },
        { "address": "三刀屋町伊萱", "city": "雲南市", "postcode": "6902401", "prefecture": "島根県", "id": 877 },
        { "address": "三刀屋町乙加宮", "city": "雲南市", "postcode": "6902634", "prefecture": "島根県", "id": 878 },
        { "address": "三刀屋町上熊谷", "city": "雲南市", "postcode": "6902511", "prefecture": "島根県", "id": 879 },
        { "address": "三刀屋町給下", "city": "雲南市", "postcode": "6902402", "prefecture": "島根県", "id": 880 },
        { "address": "三刀屋町神代", "city": "雲南市", "postcode": "6902521", "prefecture": "島根県", "id": 881 },
        { "address": "三刀屋町古城", "city": "雲南市", "postcode": "6902405", "prefecture": "島根県", "id": 882 },
        { "address": "三刀屋町坂本", "city": "雲南市", "postcode": "6902525", "prefecture": "島根県", "id": 883 },
        { "address": "三刀屋町坂本", "city": "雲南市", "postcode": "6902625", "prefecture": "島根県", "id": 884 },
        { "address": "三刀屋町里坊", "city": "雲南市", "postcode": "6902632", "prefecture": "島根県", "id": 885 },
        { "address": "三刀屋町下熊谷", "city": "雲南市", "postcode": "6902403", "prefecture": "島根県", "id": 886 },
        { "address": "三刀屋町須所", "city": "雲南市", "postcode": "6902524", "prefecture": "島根県", "id": 887 },
        { "address": "三刀屋町高窪", "city": "雲南市", "postcode": "6902406", "prefecture": "島根県", "id": 888 },
        { "address": "三刀屋町多久和", "city": "雲南市", "postcode": "6902512", "prefecture": "島根県", "id": 889 },
        { "address": "三刀屋町殿河内", "city": "雲南市", "postcode": "6902633", "prefecture": "島根県", "id": 890 },
        { "address": "三刀屋町中野", "city": "雲南市", "postcode": "6902523", "prefecture": "島根県", "id": 891 },
        { "address": "三刀屋町根波別所", "city": "雲南市", "postcode": "6902631", "prefecture": "島根県", "id": 892 },
        { "address": "三刀屋町三刀屋", "city": "雲南市", "postcode": "6902404", "prefecture": "島根県", "id": 893 },
        { "address": "三刀屋町六重", "city": "雲南市", "postcode": "6902522", "prefecture": "島根県", "id": 894 },
        { "address": "吉田町上山", "city": "雲南市", "postcode": "6902311", "prefecture": "島根県", "id": 895 },
        { "address": "吉田町川手", "city": "雲南市", "postcode": "6902314", "prefecture": "島根県", "id": 896 },
        { "address": "吉田町曽木", "city": "雲南市", "postcode": "6902312", "prefecture": "島根県", "id": 897 },
        { "address": "吉田町深野", "city": "雲南市", "postcode": "6902313", "prefecture": "島根県", "id": 898 },
        { "address": "吉田町民谷", "city": "雲南市", "postcode": "6902802", "prefecture": "島根県", "id": 899 },
        { "address": "吉田町吉田", "city": "雲南市", "postcode": "6902801", "prefecture": "島根県", "id": 900 },
        { "city": "仁多郡奥出雲町", "postcode": "6991500", "prefecture": "島根県", "id": 901 },
        { "address": "稲原", "city": "仁多郡奥出雲町", "postcode": "6991821", "prefecture": "島根県", "id": 902 },
        { "address": "大谷", "city": "仁多郡奥出雲町", "postcode": "6991812", "prefecture": "島根県", "id": 903 },
        { "address": "大馬木", "city": "仁多郡奥出雲町", "postcode": "6991941", "prefecture": "島根県", "id": 904 },
        { "address": "大呂", "city": "仁多郡奥出雲町", "postcode": "6991802", "prefecture": "島根県", "id": 905 },
        { "address": "上阿井", "city": "仁多郡奥出雲町", "postcode": "6991621", "prefecture": "島根県", "id": 906 },
        { "address": "上三所", "city": "仁多郡奥出雲町", "postcode": "6991431", "prefecture": "島根県", "id": 907 },
        { "address": "亀嵩", "city": "仁多郡奥出雲町", "postcode": "6991701", "prefecture": "島根県", "id": 908 },
        { "address": "鴨倉", "city": "仁多郡奥出雲町", "postcode": "6991515", "prefecture": "島根県", "id": 909 },
        { "address": "河内", "city": "仁多郡奥出雲町", "postcode": "6991514", "prefecture": "島根県", "id": 910 },
        { "address": "郡", "city": "仁多郡奥出雲町", "postcode": "6991702", "prefecture": "島根県", "id": 911 },
        { "address": "小馬木", "city": "仁多郡奥出雲町", "postcode": "6991942", "prefecture": "島根県", "id": 912 },
        { "address": "佐白", "city": "仁多郡奥出雲町", "postcode": "6991434", "prefecture": "島根県", "id": 913 },
        { "address": "下阿井", "city": "仁多郡奥出雲町", "postcode": "6991517", "prefecture": "島根県", "id": 914 },
        { "address": "下阿井", "city": "仁多郡奥出雲町", "postcode": "6991622", "prefecture": "島根県", "id": 915 },
        { "address": "下横田", "city": "仁多郡奥出雲町", "postcode": "6991822", "prefecture": "島根県", "id": 916 },
        { "address": "高尾", "city": "仁多郡奥出雲町", "postcode": "6991512", "prefecture": "島根県", "id": 917 },
        { "address": "高田", "city": "仁多郡奥出雲町", "postcode": "6991703", "prefecture": "島根県", "id": 918 },
        { "address": "竹崎", "city": "仁多郡奥出雲町", "postcode": "6991801", "prefecture": "島根県", "id": 919 },
        { "address": "中村", "city": "仁多郡奥出雲町", "postcode": "6991831", "prefecture": "島根県", "id": 920 },
        { "address": "馬馳", "city": "仁多郡奥出雲町", "postcode": "6991432", "prefecture": "島根県", "id": 921 },
        { "address": "三沢", "city": "仁多郡奥出雲町", "postcode": "6991513", "prefecture": "島根県", "id": 922 },
        { "address": "三所", "city": "仁多郡奥出雲町", "postcode": "6991516", "prefecture": "島根県", "id": 923 },
        { "address": "三成", "city": "仁多郡奥出雲町", "postcode": "6991511", "prefecture": "島根県", "id": 924 },
        { "address": "八川", "city": "仁多郡奥出雲町", "postcode": "6991811", "prefecture": "島根県", "id": 925 },
        { "address": "八代", "city": "仁多郡奥出雲町", "postcode": "6991433", "prefecture": "島根県", "id": 926 },
        { "address": "横田", "city": "仁多郡奥出雲町", "postcode": "6991832", "prefecture": "島根県", "id": 927 },
        { "city": "飯石郡飯南町", "postcode": "6903200", "prefecture": "島根県", "id": 928 },
        { "address": "赤名", "city": "飯石郡飯南町", "postcode": "6903511", "prefecture": "島根県", "id": 929 },
        { "address": "井戸谷", "city": "飯石郡飯南町", "postcode": "6903514", "prefecture": "島根県", "id": 930 },
        { "address": "小田", "city": "飯石郡飯南町", "postcode": "6903403", "prefecture": "島根県", "id": 931 },
        { "address": "上赤名", "city": "飯石郡飯南町", "postcode": "6903512", "prefecture": "島根県", "id": 932 },
        { "address": "上来島", "city": "飯石郡飯南町", "postcode": "6903405", "prefecture": "島根県", "id": 933 },
        { "address": "佐見", "city": "飯石郡飯南町", "postcode": "6903204", "prefecture": "島根県", "id": 934 },
        { "address": "塩谷", "city": "飯石郡飯南町", "postcode": "6903515", "prefecture": "島根県", "id": 935 },
        { "address": "獅子", "city": "飯石郡飯南町", "postcode": "6903311", "prefecture": "島根県", "id": 936 },
        { "address": "志津見", "city": "飯石郡飯南町", "postcode": "6903313", "prefecture": "島根県", "id": 937 },
        { "address": "下赤名", "city": "飯石郡飯南町", "postcode": "6903513", "prefecture": "島根県", "id": 938 },
        { "address": "下来島", "city": "飯石郡飯南町", "postcode": "6903402", "prefecture": "島根県", "id": 939 },
        { "address": "都加賀", "city": "飯石郡飯南町", "postcode": "6903203", "prefecture": "島根県", "id": 940 },
        { "address": "角井", "city": "飯石郡飯南町", "postcode": "6903314", "prefecture": "島根県", "id": 941 },
        { "address": "頓原", "city": "飯石郡飯南町", "postcode": "6903207", "prefecture": "島根県", "id": 942 },
        { "address": "長谷", "city": "飯石郡飯南町", "postcode": "6903205", "prefecture": "島根県", "id": 943 },
        { "address": "野萱", "city": "飯石郡飯南町", "postcode": "6903401", "prefecture": "島根県", "id": 944 },
        { "address": "八神", "city": "飯石郡飯南町", "postcode": "6903312", "prefecture": "島根県", "id": 945 },
        { "address": "畑田", "city": "飯石郡飯南町", "postcode": "6903516", "prefecture": "島根県", "id": 946 },
        { "address": "花栗", "city": "飯石郡飯南町", "postcode": "6903206", "prefecture": "島根県", "id": 947 },
        { "address": "真木", "city": "飯石郡飯南町", "postcode": "6903404", "prefecture": "島根県", "id": 948 },
        { "city": "邑智郡川本町", "postcode": "6960000", "prefecture": "島根県", "id": 949 },
        { "address": "因原", "city": "邑智郡川本町", "postcode": "6960003", "prefecture": "島根県", "id": 950 },
        { "address": "川内", "city": "邑智郡川本町", "postcode": "6960011", "prefecture": "島根県", "id": 951 },
        { "address": "川下", "city": "邑智郡川本町", "postcode": "6960004", "prefecture": "島根県", "id": 952 },
        { "address": "川本", "city": "邑智郡川本町", "postcode": "6960001", "prefecture": "島根県", "id": 953 },
        { "address": "北佐木", "city": "邑智郡川本町", "postcode": "6961221", "prefecture": "島根県", "id": 954 },
        { "address": "久座仁", "city": "邑智郡川本町", "postcode": "6960006", "prefecture": "島根県", "id": 955 },
        { "address": "小谷", "city": "邑智郡川本町", "postcode": "6960012", "prefecture": "島根県", "id": 956 },
        { "address": "田窪", "city": "邑智郡川本町", "postcode": "6961226", "prefecture": "島根県", "id": 957 },
        { "address": "多田", "city": "邑智郡川本町", "postcode": "6960007", "prefecture": "島根県", "id": 958 },
        { "address": "谷戸", "city": "邑智郡川本町", "postcode": "6960005", "prefecture": "島根県", "id": 959 },
        { "address": "都賀行", "city": "邑智郡川本町", "postcode": "6960002", "prefecture": "島根県", "id": 960 },
        { "address": "馬野原", "city": "邑智郡川本町", "postcode": "6960013", "prefecture": "島根県", "id": 961 },
        { "address": "南佐木", "city": "邑智郡川本町", "postcode": "6961225", "prefecture": "島根県", "id": 962 },
        { "address": "三原", "city": "邑智郡川本町", "postcode": "6961224", "prefecture": "島根県", "id": 963 },
        { "address": "三俣", "city": "邑智郡川本町", "postcode": "6961223", "prefecture": "島根県", "id": 964 },
        { "address": "湯谷", "city": "邑智郡川本町", "postcode": "6961222", "prefecture": "島根県", "id": 965 },
        { "city": "邑智郡美郷町", "postcode": "6994600", "prefecture": "島根県", "id": 966 },
        { "address": "明塚", "city": "邑智郡美郷町", "postcode": "6994624", "prefecture": "島根県", "id": 967 },
        { "address": "吾郷", "city": "邑智郡美郷町", "postcode": "6994627", "prefecture": "島根県", "id": 968 },
        { "address": "石原", "city": "邑智郡美郷町", "postcode": "6994715", "prefecture": "島根県", "id": 969 },
        { "address": "潮村", "city": "邑智郡美郷町", "postcode": "6960701", "prefecture": "島根県", "id": 970 },
        { "address": "内田", "city": "邑智郡美郷町", "postcode": "6961136", "prefecture": "島根県", "id": 971 },
        { "address": "奥山", "city": "邑智郡美郷町", "postcode": "6994631", "prefecture": "島根県", "id": 972 },
        { "address": "乙原", "city": "邑智郡美郷町", "postcode": "6994626", "prefecture": "島根県", "id": 973 },
        { "address": "粕渕", "city": "邑智郡美郷町", "postcode": "6994621", "prefecture": "島根県", "id": 974 },
        { "address": "片山", "city": "邑智郡美郷町", "postcode": "6994714", "prefecture": "島根県", "id": 975 },
        { "address": "櫨谷", "city": "邑智郡美郷町", "postcode": "6961137", "prefecture": "島根県", "id": 976 },
        { "address": "上川戸", "city": "邑智郡美郷町", "postcode": "6994702", "prefecture": "島根県", "id": 977 },
        { "address": "上野", "city": "邑智郡美郷町", "postcode": "6960702", "prefecture": "島根県", "id": 978 },
        { "address": "亀村", "city": "邑智郡美郷町", "postcode": "6994707", "prefecture": "島根県", "id": 979 },
        { "address": "京覧原", "city": "邑智郡美郷町", "postcode": "6961141", "prefecture": "島根県", "id": 980 },
        { "address": "久喜原", "city": "邑智郡美郷町", "postcode": "6961142", "prefecture": "島根県", "id": 981 },
        { "address": "久保", "city": "邑智郡美郷町", "postcode": "6994622", "prefecture": "島根県", "id": 982 },
        { "address": "熊見", "city": "邑智郡美郷町", "postcode": "6994703", "prefecture": "島根県", "id": 983 },
        { "address": "九日市", "city": "邑智郡美郷町", "postcode": "6994712", "prefecture": "島根県", "id": 984 },
        { "address": "小谷", "city": "邑智郡美郷町", "postcode": "6961144", "prefecture": "島根県", "id": 985 },
        { "address": "小林", "city": "邑智郡美郷町", "postcode": "6961133", "prefecture": "島根県", "id": 986 },
        { "address": "小松地", "city": "邑智郡美郷町", "postcode": "6961135", "prefecture": "島根県", "id": 987 },
        { "address": "酒谷", "city": "邑智郡美郷町", "postcode": "6994713", "prefecture": "島根県", "id": 988 },
        { "address": "信喜", "city": "邑智郡美郷町", "postcode": "6994704", "prefecture": "島根県", "id": 989 },
        { "address": "志君", "city": "邑智郡美郷町", "postcode": "6961132", "prefecture": "島根県", "id": 990 },
        { "address": "地頭所", "city": "邑智郡美郷町", "postcode": "6961143", "prefecture": "島根県", "id": 991 },
        { "address": "惣森", "city": "邑智郡美郷町", "postcode": "6961134", "prefecture": "島根県", "id": 992 },
        { "address": "高畑", "city": "邑智郡美郷町", "postcode": "6994632", "prefecture": "島根県", "id": 993 },
        { "address": "高山", "city": "邑智郡美郷町", "postcode": "6994605", "prefecture": "島根県", "id": 994 },
        { "address": "滝原", "city": "邑智郡美郷町", "postcode": "6994706", "prefecture": "島根県", "id": 995 },
        { "address": "千原", "city": "邑智郡美郷町", "postcode": "6994711", "prefecture": "島根県", "id": 996 },
        { "address": "都賀西", "city": "邑智郡美郷町", "postcode": "6960703", "prefecture": "島根県", "id": 997 },
        { "address": "都賀本郷", "city": "邑智郡美郷町", "postcode": "6960704", "prefecture": "島根県", "id": 998 },
        { "address": "都賀行", "city": "邑智郡美郷町", "postcode": "6960705", "prefecture": "島根県", "id": 999 },
        { "address": "長藤", "city": "邑智郡美郷町", "postcode": "6960706", "prefecture": "島根県", "id": 1000 },
        { "address": "野井", "city": "邑智郡美郷町", "postcode": "6994623", "prefecture": "島根県", "id": 1001 },
        { "address": "浜原", "city": "邑智郡美郷町", "postcode": "6994701", "prefecture": "島根県", "id": 1002 },
        { "address": "比敷", "city": "邑智郡美郷町", "postcode": "6960712", "prefecture": "島根県", "id": 1003 },
        { "address": "別府", "city": "邑智郡美郷町", "postcode": "6961131", "prefecture": "島根県", "id": 1004 },
        { "address": "港", "city": "邑智郡美郷町", "postcode": "6961145", "prefecture": "島根県", "id": 1005 },
        { "address": "宮内", "city": "邑智郡美郷町", "postcode": "6960711", "prefecture": "島根県", "id": 1006 },
        { "address": "村之郷", "city": "邑智郡美郷町", "postcode": "6960713", "prefecture": "島根県", "id": 1007 },
        { "address": "簗瀬", "city": "邑智郡美郷町", "postcode": "6994625", "prefecture": "島根県", "id": 1008 },
        { "address": "湯抱", "city": "邑智郡美郷町", "postcode": "6994633", "prefecture": "島根県", "id": 1009 },
        { "city": "邑智郡邑南町", "postcode": "6960100", "prefecture": "島根県", "id": 1010 },
        { "address": "阿須那", "city": "邑智郡邑南町", "postcode": "6960501", "prefecture": "島根県", "id": 1011 },
        { "address": "出羽", "city": "邑智郡邑南町", "postcode": "6960312", "prefecture": "島根県", "id": 1012 },
        { "address": "市木", "city": "邑智郡邑南町", "postcode": "6970631", "prefecture": "島根県", "id": 1013 },
        { "address": "井原", "city": "邑智郡邑南町", "postcode": "6960101", "prefecture": "島根県", "id": 1014 },
        { "address": "今井", "city": "邑智郡邑南町", "postcode": "6960504", "prefecture": "島根県", "id": 1015 },
        { "address": "岩屋", "city": "邑智郡邑南町", "postcode": "6960314", "prefecture": "島根県", "id": 1016 },
        { "address": "上田", "city": "邑智郡邑南町", "postcode": "6960601", "prefecture": "島根県", "id": 1017 },
        { "address": "宇都井", "city": "邑智郡邑南町", "postcode": "6960503", "prefecture": "島根県", "id": 1018 },
        { "address": "大林", "city": "邑智郡邑南町", "postcode": "6960315", "prefecture": "島根県", "id": 1019 },
        { "address": "上亀谷", "city": "邑智郡邑南町", "postcode": "6960224", "prefecture": "島根県", "id": 1020 },
        { "address": "上口羽", "city": "邑智郡邑南町", "postcode": "6960602", "prefecture": "島根県", "id": 1021 },
        { "address": "上田所", "city": "邑智郡邑南町", "postcode": "6960225", "prefecture": "島根県", "id": 1022 },
        { "address": "上原", "city": "邑智郡邑南町", "postcode": "6960405", "prefecture": "島根県", "id": 1023 },
        { "address": "木須田", "city": "邑智郡邑南町", "postcode": "6960502", "prefecture": "島根県", "id": 1024 },
        { "address": "久喜", "city": "邑智郡邑南町", "postcode": "6960316", "prefecture": "島根県", "id": 1025 },
        { "address": "高水", "city": "邑智郡邑南町", "postcode": "6960131", "prefecture": "島根県", "id": 1026 },
        { "address": "下亀谷", "city": "邑智郡邑南町", "postcode": "6960223", "prefecture": "島根県", "id": 1027 },
        { "address": "下口羽", "city": "邑智郡邑南町", "postcode": "6960603", "prefecture": "島根県", "id": 1028 },
        { "address": "下田所", "city": "邑智郡邑南町", "postcode": "6960222", "prefecture": "島根県", "id": 1029 },
        { "address": "高見", "city": "邑智郡邑南町", "postcode": "6960406", "prefecture": "島根県", "id": 1030 },
        { "address": "戸河内", "city": "邑智郡邑南町", "postcode": "6960505", "prefecture": "島根県", "id": 1031 },
        { "address": "中野", "city": "邑智郡邑南町", "postcode": "6960102", "prefecture": "島根県", "id": 1032 },
        { "address": "原村", "city": "邑智郡邑南町", "postcode": "6960404", "prefecture": "島根県", "id": 1033 },
        { "address": "日貫", "city": "邑智郡邑南町", "postcode": "6994311", "prefecture": "島根県", "id": 1034 },
        { "address": "日和", "city": "邑智郡邑南町", "postcode": "6960104", "prefecture": "島根県", "id": 1035 },
        { "address": "伏谷", "city": "邑智郡邑南町", "postcode": "6960402", "prefecture": "島根県", "id": 1036 },
        { "address": "布施", "city": "邑智郡邑南町", "postcode": "6960401", "prefecture": "島根県", "id": 1037 },
        { "address": "鱒渕", "city": "邑智郡邑南町", "postcode": "6960221", "prefecture": "島根県", "id": 1038 },
        { "address": "三日市", "city": "邑智郡邑南町", "postcode": "6960311", "prefecture": "島根県", "id": 1039 },
        { "address": "八色石", "city": "邑智郡邑南町", "postcode": "6960407", "prefecture": "島根県", "id": 1040 },
        { "address": "矢上", "city": "邑智郡邑南町", "postcode": "6960103", "prefecture": "島根県", "id": 1041 },
        { "address": "山田", "city": "邑智郡邑南町", "postcode": "6960313", "prefecture": "島根県", "id": 1042 },
        { "address": "雪田", "city": "邑智郡邑南町", "postcode": "6960506", "prefecture": "島根県", "id": 1043 },
        { "address": "淀原", "city": "邑智郡邑南町", "postcode": "6960317", "prefecture": "島根県", "id": 1044 },
        { "address": "和田", "city": "邑智郡邑南町", "postcode": "6960403", "prefecture": "島根県", "id": 1045 },
        { "city": "鹿足郡津和野町", "postcode": "6995600", "prefecture": "島根県", "id": 1046 },
        { "address": "青原", "city": "鹿足郡津和野町", "postcode": "6995211", "prefecture": "島根県", "id": 1047 },
        { "address": "商人", "city": "鹿足郡津和野町", "postcode": "6995201", "prefecture": "島根県", "id": 1048 },
        { "address": "商人", "city": "鹿足郡津和野町", "postcode": "6995601", "prefecture": "島根県", "id": 1049 },
        { "address": "池村", "city": "鹿足郡津和野町", "postcode": "6995216", "prefecture": "島根県", "id": 1050 },
        { "address": "後田", "city": "鹿足郡津和野町", "postcode": "6995605", "prefecture": "島根県", "id": 1051 },
        { "address": "河村", "city": "鹿足郡津和野町", "postcode": "6995212", "prefecture": "島根県", "id": 1052 },
        { "address": "耕田", "city": "鹿足郡津和野町", "postcode": "6995607", "prefecture": "島根県", "id": 1053 },
        { "address": "笹山", "city": "鹿足郡津和野町", "postcode": "6995603", "prefecture": "島根県", "id": 1054 },
        { "address": "左鐙", "city": "鹿足郡津和野町", "postcode": "6995202", "prefecture": "島根県", "id": 1055 },
        { "address": "須川", "city": "鹿足郡津和野町", "postcode": "6995204", "prefecture": "島根県", "id": 1056 },
        { "address": "相撲ケ原", "city": "鹿足郡津和野町", "postcode": "6995203", "prefecture": "島根県", "id": 1057 },
        { "address": "添谷", "city": "鹿足郡津和野町", "postcode": "6995213", "prefecture": "島根県", "id": 1058 },
        { "address": "高峯", "city": "鹿足郡津和野町", "postcode": "6995614", "prefecture": "島根県", "id": 1059 },
        { "address": "瀧谷", "city": "鹿足郡津和野町", "postcode": "6995205", "prefecture": "島根県", "id": 1060 },
        { "address": "瀧元", "city": "鹿足郡津和野町", "postcode": "6995206", "prefecture": "島根県", "id": 1061 },
        { "address": "直地", "city": "鹿足郡津和野町", "postcode": "6995602", "prefecture": "島根県", "id": 1062 },
        { "address": "田二穂", "city": "鹿足郡津和野町", "postcode": "6995617", "prefecture": "島根県", "id": 1063 },
        { "address": "溪村", "city": "鹿足郡津和野町", "postcode": "6995214", "prefecture": "島根県", "id": 1064 },
        { "address": "寺田", "city": "鹿足郡津和野町", "postcode": "6995606", "prefecture": "島根県", "id": 1065 },
        { "address": "冨田", "city": "鹿足郡津和野町", "postcode": "6995215", "prefecture": "島根県", "id": 1066 },
        { "address": "豊稼", "city": "鹿足郡津和野町", "postcode": "6995632", "prefecture": "島根県", "id": 1067 },
        { "address": "内美", "city": "鹿足郡津和野町", "postcode": "6995621", "prefecture": "島根県", "id": 1068 },
        { "address": "中川", "city": "鹿足郡津和野町", "postcode": "6995634", "prefecture": "島根県", "id": 1069 },
        { "address": "中座", "city": "鹿足郡津和野町", "postcode": "6995612", "prefecture": "島根県", "id": 1070 },
        { "address": "中曽野", "city": "鹿足郡津和野町", "postcode": "6995636", "prefecture": "島根県", "id": 1071 },
        { "address": "中山", "city": "鹿足郡津和野町", "postcode": "6995631", "prefecture": "島根県", "id": 1072 },
        { "address": "長福", "city": "鹿足郡津和野町", "postcode": "6995633", "prefecture": "島根県", "id": 1073 },
        { "address": "名賀", "city": "鹿足郡津和野町", "postcode": "6995615", "prefecture": "島根県", "id": 1074 },
        { "address": "日原", "city": "鹿足郡津和野町", "postcode": "6995221", "prefecture": "島根県", "id": 1075 },
        { "address": "吹野", "city": "鹿足郡津和野町", "postcode": "6995637", "prefecture": "島根県", "id": 1076 },
        { "address": "部栄", "city": "鹿足郡津和野町", "postcode": "6995616", "prefecture": "島根県", "id": 1077 },
        { "address": "枕瀬", "city": "鹿足郡津和野町", "postcode": "6995207", "prefecture": "島根県", "id": 1078 },
        { "address": "町田", "city": "鹿足郡津和野町", "postcode": "6995611", "prefecture": "島根県", "id": 1079 },
        { "address": "邑輝", "city": "鹿足郡津和野町", "postcode": "6995622", "prefecture": "島根県", "id": 1080 },
        { "address": "森村", "city": "鹿足郡津和野町", "postcode": "6995604", "prefecture": "島根県", "id": 1081 },
        { "address": "柳村", "city": "鹿足郡津和野町", "postcode": "6995217", "prefecture": "島根県", "id": 1082 },
        { "address": "山下", "city": "鹿足郡津和野町", "postcode": "6995635", "prefecture": "島根県", "id": 1083 },
        { "address": "鷲原", "city": "鹿足郡津和野町", "postcode": "6995613", "prefecture": "島根県", "id": 1084 },
        { "city": "鹿足郡吉賀町", "postcode": "6995500", "prefecture": "島根県", "id": 1085 },
        { "address": "朝倉", "city": "鹿足郡吉賀町", "postcode": "6995523", "prefecture": "島根県", "id": 1086 },
        { "address": "有飯", "city": "鹿足郡吉賀町", "postcode": "6995506", "prefecture": "島根県", "id": 1087 },
        { "address": "大野原", "city": "鹿足郡吉賀町", "postcode": "6995306", "prefecture": "島根県", "id": 1088 },
        { "address": "柿木", "city": "鹿足郡吉賀町", "postcode": "6995301", "prefecture": "島根県", "id": 1089 },
        { "address": "椛谷", "city": "鹿足郡吉賀町", "postcode": "6995303", "prefecture": "島根県", "id": 1090 },
        { "address": "上高尻", "city": "鹿足郡吉賀町", "postcode": "6995501", "prefecture": "島根県", "id": 1091 },
        { "address": "木部谷", "city": "鹿足郡吉賀町", "postcode": "6995307", "prefecture": "島根県", "id": 1092 },
        { "address": "蔵木", "city": "鹿足郡吉賀町", "postcode": "6995504", "prefecture": "島根県", "id": 1093 },
        { "address": "九郎原", "city": "鹿足郡吉賀町", "postcode": "6995505", "prefecture": "島根県", "id": 1094 },
        { "address": "幸地", "city": "鹿足郡吉賀町", "postcode": "6995515", "prefecture": "島根県", "id": 1095 },
        { "address": "真田", "city": "鹿足郡吉賀町", "postcode": "6995521", "prefecture": "島根県", "id": 1096 },
        { "address": "沢田", "city": "鹿足郡吉賀町", "postcode": "6995516", "prefecture": "島根県", "id": 1097 },
        { "address": "注連川", "city": "鹿足郡吉賀町", "postcode": "6995517", "prefecture": "島根県", "id": 1098 },
        { "address": "下須", "city": "鹿足郡吉賀町", "postcode": "6995305", "prefecture": "島根県", "id": 1099 },
        { "address": "下高尻", "city": "鹿足郡吉賀町", "postcode": "6995507", "prefecture": "島根県", "id": 1100 },
        { "address": "白谷", "city": "鹿足郡吉賀町", "postcode": "6995304", "prefecture": "島根県", "id": 1101 },
        { "address": "立河内", "city": "鹿足郡吉賀町", "postcode": "6995514", "prefecture": "島根県", "id": 1102 },
        { "address": "立戸", "city": "鹿足郡吉賀町", "postcode": "6995511", "prefecture": "島根県", "id": 1103 },
        { "address": "蓼野", "city": "鹿足郡吉賀町", "postcode": "6995524", "prefecture": "島根県", "id": 1104 },
        { "address": "田野原", "city": "鹿足郡吉賀町", "postcode": "6995502", "prefecture": "島根県", "id": 1105 },
        { "address": "七日市", "city": "鹿足郡吉賀町", "postcode": "6995522", "prefecture": "島根県", "id": 1106 },
        { "address": "抜月", "city": "鹿足郡吉賀町", "postcode": "6995525", "prefecture": "島根県", "id": 1107 },
        { "address": "樋口", "city": "鹿足郡吉賀町", "postcode": "6995503", "prefecture": "島根県", "id": 1108 },
        { "address": "広石", "city": "鹿足郡吉賀町", "postcode": "6995512", "prefecture": "島根県", "id": 1109 },
        { "address": "福川", "city": "鹿足郡吉賀町", "postcode": "6995302", "prefecture": "島根県", "id": 1110 },
        { "address": "六日市", "city": "鹿足郡吉賀町", "postcode": "6995513", "prefecture": "島根県", "id": 1111 },
        { "city": "隠岐郡海士町", "postcode": "6840400", "prefecture": "島根県", "id": 1112 },
        { "address": "海士", "city": "隠岐郡海士町", "postcode": "6840403", "prefecture": "島根県", "id": 1113 },
        { "address": "宇受賀", "city": "隠岐郡海士町", "postcode": "6840401", "prefecture": "島根県", "id": 1114 },
        { "address": "崎", "city": "隠岐郡海士町", "postcode": "6840413", "prefecture": "島根県", "id": 1115 },
        { "address": "知々井", "city": "隠岐郡海士町", "postcode": "6840411", "prefecture": "島根県", "id": 1116 },
        { "address": "豊田", "city": "隠岐郡海士町", "postcode": "6840402", "prefecture": "島根県", "id": 1117 },
        { "address": "福井", "city": "隠岐郡海士町", "postcode": "6840404", "prefecture": "島根県", "id": 1118 },
        { "address": "御波", "city": "隠岐郡海士町", "postcode": "6840412", "prefecture": "島根県", "id": 1119 },
        { "city": "隠岐郡西ノ島町", "postcode": "6840300", "prefecture": "島根県", "id": 1120 },
        { "address": "宇賀", "city": "隠岐郡西ノ島町", "postcode": "6840301", "prefecture": "島根県", "id": 1121 },
        { "address": "浦郷", "city": "隠岐郡西ノ島町", "postcode": "6840211", "prefecture": "島根県", "id": 1122 },
        { "address": "別府", "city": "隠岐郡西ノ島町", "postcode": "6840302", "prefecture": "島根県", "id": 1123 },
        { "address": "美田", "city": "隠岐郡西ノ島町", "postcode": "6840303", "prefecture": "島根県", "id": 1124 },
        { "city": "隠岐郡知夫村", "postcode": "6840100", "prefecture": "島根県", "id": 1125 },
        { "address": "薄毛", "city": "隠岐郡知夫村", "postcode": "6840104", "prefecture": "島根県", "id": 1126 },
        { "address": "古海", "city": "隠岐郡知夫村", "postcode": "6840107", "prefecture": "島根県", "id": 1127 },
        { "address": "大江", "city": "隠岐郡知夫村", "postcode": "6840101", "prefecture": "島根県", "id": 1128 },
        { "address": "来居", "city": "隠岐郡知夫村", "postcode": "6840106", "prefecture": "島根県", "id": 1129 },
        { "address": "郡", "city": "隠岐郡知夫村", "postcode": "6840102", "prefecture": "島根県", "id": 1130 },
        { "address": "多沢", "city": "隠岐郡知夫村", "postcode": "6840103", "prefecture": "島根県", "id": 1131 },
        { "address": "仁夫", "city": "隠岐郡知夫村", "postcode": "6840105", "prefecture": "島根県", "id": 1132 },
        { "city": "隠岐郡隠岐の島町", "postcode": "6850000", "prefecture": "島根県", "id": 1133 },
        { "address": "有木", "city": "隠岐郡隠岐の島町", "postcode": "6850006", "prefecture": "島根県", "id": 1134 },
        { "address": "飯田", "city": "隠岐郡隠岐の島町", "postcode": "6850004", "prefecture": "島根県", "id": 1135 },
        { "address": "飯美", "city": "隠岐郡隠岐の島町", "postcode": "6850411", "prefecture": "島根県", "id": 1136 },
        { "address": "池田", "city": "隠岐郡隠岐の島町", "postcode": "6850007", "prefecture": "島根県", "id": 1137 },
        { "address": "伊後", "city": "隠岐郡隠岐の島町", "postcode": "6850431", "prefecture": "島根県", "id": 1138 },
        { "address": "伊後", "city": "隠岐郡隠岐の島町", "postcode": "6850306", "prefecture": "島根県", "id": 1139 },
        { "address": "犬来", "city": "隠岐郡隠岐の島町", "postcode": "6850003", "prefecture": "島根県", "id": 1140 },
        { "address": "今津", "city": "隠岐郡隠岐の島町", "postcode": "6850022", "prefecture": "島根県", "id": 1141 },
        { "address": "卯敷", "city": "隠岐郡隠岐の島町", "postcode": "6850413", "prefecture": "島根県", "id": 1142 },
        { "address": "大久", "city": "隠岐郡隠岐の島町", "postcode": "6850001", "prefecture": "島根県", "id": 1143 },
        { "address": "釜", "city": "隠岐郡隠岐の島町", "postcode": "6850002", "prefecture": "島根県", "id": 1144 },
        { "address": "上西", "city": "隠岐郡隠岐の島町", "postcode": "6850026", "prefecture": "島根県", "id": 1145 },
        { "address": "加茂", "city": "隠岐郡隠岐の島町", "postcode": "6850024", "prefecture": "島根県", "id": 1146 },
        { "address": "元屋", "city": "隠岐郡隠岐の島町", "postcode": "6850435", "prefecture": "島根県", "id": 1147 },
        { "address": "北方", "city": "隠岐郡隠岐の島町", "postcode": "6850301", "prefecture": "島根県", "id": 1148 },
        { "address": "久見", "city": "隠岐郡隠岐の島町", "postcode": "6850305", "prefecture": "島根県", "id": 1149 },
        { "address": "蔵田", "city": "隠岐郡隠岐の島町", "postcode": "6850101", "prefecture": "島根県", "id": 1150 },
        { "address": "小路", "city": "隠岐郡隠岐の島町", "postcode": "6850312", "prefecture": "島根県", "id": 1151 },
        { "address": "郡", "city": "隠岐郡隠岐の島町", "postcode": "6850311", "prefecture": "島根県", "id": 1152 },
        { "address": "栄町", "city": "隠岐郡隠岐の島町", "postcode": "6850011", "prefecture": "島根県", "id": 1153 },
        { "address": "下西", "city": "隠岐郡隠岐の島町", "postcode": "6850017", "prefecture": "島根県", "id": 1154 },
        { "address": "城北町", "city": "隠岐郡隠岐の島町", "postcode": "6850016", "prefecture": "島根県", "id": 1155 },
        { "address": "代", "city": "隠岐郡隠岐の島町", "postcode": "6850304", "prefecture": "島根県", "id": 1156 },
        { "address": "蛸木", "city": "隠岐郡隠岐の島町", "postcode": "6850106", "prefecture": "島根県", "id": 1157 },
        { "address": "津戸", "city": "隠岐郡隠岐の島町", "postcode": "6850105", "prefecture": "島根県", "id": 1158 },
        { "address": "都万", "city": "隠岐郡隠岐の島町", "postcode": "6850104", "prefecture": "島根県", "id": 1159 },
        { "address": "東郷", "city": "隠岐郡隠岐の島町", "postcode": "6850005", "prefecture": "島根県", "id": 1160 },
        { "address": "中町", "city": "隠岐郡隠岐の島町", "postcode": "6850013", "prefecture": "島根県", "id": 1161 },
        { "address": "中村", "city": "隠岐郡隠岐の島町", "postcode": "6850434", "prefecture": "島根県", "id": 1162 },
        { "address": "那久", "city": "隠岐郡隠岐の島町", "postcode": "6850103", "prefecture": "島根県", "id": 1163 },
        { "address": "那久路", "city": "隠岐郡隠岐の島町", "postcode": "6850313", "prefecture": "島根県", "id": 1164 },
        { "address": "苗代田", "city": "隠岐郡隠岐の島町", "postcode": "6850302", "prefecture": "島根県", "id": 1165 },
        { "address": "西田", "city": "隠岐郡隠岐の島町", "postcode": "6850023", "prefecture": "島根県", "id": 1166 },
        { "address": "西町", "city": "隠岐郡隠岐の島町", "postcode": "6850014", "prefecture": "島根県", "id": 1167 },
        { "address": "西村", "city": "隠岐郡隠岐の島町", "postcode": "6850432", "prefecture": "島根県", "id": 1168 },
        { "address": "原田", "city": "隠岐郡隠岐の島町", "postcode": "6850027", "prefecture": "島根県", "id": 1169 },
        { "address": "東町", "city": "隠岐郡隠岐の島町", "postcode": "6850012", "prefecture": "島根県", "id": 1170 },
        { "address": "布施", "city": "隠岐郡隠岐の島町", "postcode": "6850412", "prefecture": "島根県", "id": 1171 },
        { "address": "平", "city": "隠岐郡隠岐の島町", "postcode": "6850025", "prefecture": "島根県", "id": 1172 },
        { "address": "岬町", "city": "隠岐郡隠岐の島町", "postcode": "6850021", "prefecture": "島根県", "id": 1173 },
        { "address": "湊", "city": "隠岐郡隠岐の島町", "postcode": "6850433", "prefecture": "島根県", "id": 1174 },
        { "address": "港町", "city": "隠岐郡隠岐の島町", "postcode": "6850015", "prefecture": "島根県", "id": 1175 },
        { "address": "南方", "city": "隠岐郡隠岐の島町", "postcode": "6850303", "prefecture": "島根県", "id": 1176 },
        { "address": "山田", "city": "隠岐郡隠岐の島町", "postcode": "6850314", "prefecture": "島根県", "id": 1177 },
        { "address": "油井", "city": "隠岐郡隠岐の島町", "postcode": "6850102", "prefecture": "島根県", "id": 1178 }
    ]
}
