{
    "postcodes": [
        { "city": "徳島市", "postcode": "7700000", "prefecture": "徳島県", "id": 0 },
        { "address": "藍場町", "city": "徳島市", "postcode": "7700835", "prefecture": "徳島県", "id": 1 },
        { "address": "秋田町", "city": "徳島市", "postcode": "7700934", "prefecture": "徳島県", "id": 2 },
        { "address": "鮎喰町", "city": "徳島市", "postcode": "7700046", "prefecture": "徳島県", "id": 3 },
        { "address": "安宅", "city": "徳島市", "postcode": "7700863", "prefecture": "徳島県", "id": 4 },
        { "address": "飯谷町", "city": "徳島市", "postcode": "7714265", "prefecture": "徳島県", "id": 5 },
        { "address": "伊賀町", "city": "徳島市", "postcode": "7700926", "prefecture": "徳島県", "id": 6 },
        { "address": "一宮町", "city": "徳島市", "postcode": "7793132", "prefecture": "徳島県", "id": 7 },
        { "address": "一番町", "city": "徳島市", "postcode": "7700833", "prefecture": "徳島県", "id": 8 },
        { "address": "伊月町", "city": "徳島市", "postcode": "7700935", "prefecture": "徳島県", "id": 9 },
        { "address": "応神町応神産業団地", "city": "徳島市", "postcode": "7711156", "prefecture": "徳島県", "id": 10 },
        { "address": "応神町中原", "city": "徳島市", "postcode": "7711152", "prefecture": "徳島県", "id": 11 },
        { "address": "応神町東貞方", "city": "徳島市", "postcode": "7711154", "prefecture": "徳島県", "id": 12 },
        { "address": "応神町西貞方", "city": "徳島市", "postcode": "7711155", "prefecture": "徳島県", "id": 13 },
        { "address": "応神町古川", "city": "徳島市", "postcode": "7711151", "prefecture": "徳島県", "id": 14 },
        { "address": "応神町吉成", "city": "徳島市", "postcode": "7711153", "prefecture": "徳島県", "id": 15 },
        { "address": "大谷町", "city": "徳島市", "postcode": "7708031", "prefecture": "徳島県", "id": 16 },
        { "address": "大原町", "city": "徳島市", "postcode": "7730070", "prefecture": "徳島県", "id": 17 },
        { "address": "大原町", "city": "徳島市", "postcode": "7708012", "prefecture": "徳島県", "id": 18 },
        { "address": "大松町", "city": "徳島市", "postcode": "7708022", "prefecture": "徳島県", "id": 19 },
        { "address": "大道", "city": "徳島市", "postcode": "7700923", "prefecture": "徳島県", "id": 20 },
        { "address": "沖浜", "city": "徳島市", "postcode": "7708052", "prefecture": "徳島県", "id": 21 },
        { "address": "沖浜町", "city": "徳島市", "postcode": "7708051", "prefecture": "徳島県", "id": 22 },
        { "address": "沖浜東", "city": "徳島市", "postcode": "7708053", "prefecture": "徳島県", "id": 23 },
        { "address": "籠屋町", "city": "徳島市", "postcode": "7700914", "prefecture": "徳島県", "id": 24 },
        { "address": "春日", "city": "徳島市", "postcode": "7700002", "prefecture": "徳島県", "id": 25 },
        { "address": "春日町", "city": "徳島市", "postcode": "7700001", "prefecture": "徳島県", "id": 26 },
        { "address": "方上町", "city": "徳島市", "postcode": "7708033", "prefecture": "徳島県", "id": 27 },
        { "address": "かちどき橋", "city": "徳島市", "postcode": "7700939", "prefecture": "徳島県", "id": 28 },
        { "address": "勝占町", "city": "徳島市", "postcode": "7708023", "prefecture": "徳島県", "id": 29 },
        { "address": "金沢", "city": "徳島市", "postcode": "7700871", "prefecture": "徳島県", "id": 30 },
        { "address": "上助任町", "city": "徳島市", "postcode": "7700801", "prefecture": "徳島県", "id": 31 },
        { "address": "上八万町西山", "city": "徳島市", "postcode": "7708041", "prefecture": "徳島県", "id": 32 },
        { "address": "上八万町", "city": "徳島市", "postcode": "7708040", "prefecture": "徳島県", "id": 33 },
        { "address": "上吉野町", "city": "徳島市", "postcode": "7700803", "prefecture": "徳島県", "id": 34 },
        { "address": "加茂名町", "city": "徳島市", "postcode": "7700048", "prefecture": "徳島県", "id": 35 },
        { "address": "川内町", "city": "徳島市", "postcode": "7710101", "prefecture": "徳島県", "id": 36 },
        { "address": "川内町", "city": "徳島市", "postcode": "7710144", "prefecture": "徳島県", "id": 37 },
        { "address": "川内町", "city": "徳島市", "postcode": "7710131", "prefecture": "徳島県", "id": 38 },
        { "address": "川内町", "city": "徳島市", "postcode": "7710142", "prefecture": "徳島県", "id": 39 },
        { "address": "川内町", "city": "徳島市", "postcode": "7710130", "prefecture": "徳島県", "id": 40 },
        { "address": "川内町", "city": "徳島市", "postcode": "7710125", "prefecture": "徳島県", "id": 41 },
        { "address": "川内町", "city": "徳島市", "postcode": "7710126", "prefecture": "徳島県", "id": 42 },
        { "address": "川内町", "city": "徳島市", "postcode": "7710127", "prefecture": "徳島県", "id": 43 },
        { "address": "川内町", "city": "徳島市", "postcode": "7710128", "prefecture": "徳島県", "id": 44 },
        { "address": "川内町", "city": "徳島市", "postcode": "7710129", "prefecture": "徳島県", "id": 45 },
        { "address": "川内町", "city": "徳島市", "postcode": "7710103", "prefecture": "徳島県", "id": 46 },
        { "address": "川内町", "city": "徳島市", "postcode": "7710104", "prefecture": "徳島県", "id": 47 },
        { "address": "川内町", "city": "徳島市", "postcode": "7710102", "prefecture": "徳島県", "id": 48 },
        { "address": "川内町", "city": "徳島市", "postcode": "7710106", "prefecture": "徳島県", "id": 49 },
        { "address": "川内町", "city": "徳島市", "postcode": "7710105", "prefecture": "徳島県", "id": 50 },
        { "address": "川内町", "city": "徳島市", "postcode": "7710121", "prefecture": "徳島県", "id": 51 },
        { "address": "川内町", "city": "徳島市", "postcode": "7710122", "prefecture": "徳島県", "id": 52 },
        { "address": "川内町", "city": "徳島市", "postcode": "7710124", "prefecture": "徳島県", "id": 53 },
        { "address": "川内町", "city": "徳島市", "postcode": "7710123", "prefecture": "徳島県", "id": 54 },
        { "address": "川内町", "city": "徳島市", "postcode": "7710141", "prefecture": "徳島県", "id": 55 },
        { "address": "川内町", "city": "徳島市", "postcode": "7710117", "prefecture": "徳島県", "id": 56 },
        { "address": "川内町", "city": "徳島市", "postcode": "7710111", "prefecture": "徳島県", "id": 57 },
        { "address": "川内町", "city": "徳島市", "postcode": "7710112", "prefecture": "徳島県", "id": 58 },
        { "address": "川内町", "city": "徳島市", "postcode": "7710143", "prefecture": "徳島県", "id": 59 },
        { "address": "川内町", "city": "徳島市", "postcode": "7710132", "prefecture": "徳島県", "id": 60 },
        { "address": "川内町", "city": "徳島市", "postcode": "7710133", "prefecture": "徳島県", "id": 61 },
        { "address": "川内町", "city": "徳島市", "postcode": "7710136", "prefecture": "徳島県", "id": 62 },
        { "address": "川内町", "city": "徳島市", "postcode": "7710134", "prefecture": "徳島県", "id": 63 },
        { "address": "川内町", "city": "徳島市", "postcode": "7710138", "prefecture": "徳島県", "id": 64 },
        { "address": "川内町", "city": "徳島市", "postcode": "7710135", "prefecture": "徳島県", "id": 65 },
        { "address": "川内町", "city": "徳島市", "postcode": "7710137", "prefecture": "徳島県", "id": 66 },
        { "address": "川内町", "city": "徳島市", "postcode": "7710113", "prefecture": "徳島県", "id": 67 },
        { "address": "川内町", "city": "徳島市", "postcode": "7710116", "prefecture": "徳島県", "id": 68 },
        { "address": "川内町", "city": "徳島市", "postcode": "7710115", "prefecture": "徳島県", "id": 69 },
        { "address": "川内町", "city": "徳島市", "postcode": "7710114", "prefecture": "徳島県", "id": 70 },
        { "address": "川内町", "city": "徳島市", "postcode": "7710139", "prefecture": "徳島県", "id": 71 },
        { "address": "北沖洲", "city": "徳島市", "postcode": "7700872", "prefecture": "徳島県", "id": 72 },
        { "address": "北佐古一番町", "city": "徳島市", "postcode": "7700011", "prefecture": "徳島県", "id": 73 },
        { "address": "北佐古二番町", "city": "徳島市", "postcode": "7700012", "prefecture": "徳島県", "id": 74 },
        { "address": "北島田町", "city": "徳島市", "postcode": "7700051", "prefecture": "徳島県", "id": 75 },
        { "address": "北常三島町", "city": "徳島市", "postcode": "7700812", "prefecture": "徳島県", "id": 76 },
        { "address": "北田宮", "city": "徳島市", "postcode": "7700003", "prefecture": "徳島県", "id": 77 },
        { "address": "北出来島町", "city": "徳島市", "postcode": "7700821", "prefecture": "徳島県", "id": 78 },
        { "address": "北前川町", "city": "徳島市", "postcode": "7700806", "prefecture": "徳島県", "id": 79 },
        { "address": "北矢三町", "city": "徳島市", "postcode": "7700006", "prefecture": "徳島県", "id": 80 },
        { "address": "北山町", "city": "徳島市", "postcode": "7708032", "prefecture": "徳島県", "id": 81 },
        { "address": "銀座", "city": "徳島市", "postcode": "7700916", "prefecture": "徳島県", "id": 82 },
        { "address": "蔵本町", "city": "徳島市", "postcode": "7700042", "prefecture": "徳島県", "id": 83 },
        { "address": "蔵本元町", "city": "徳島市", "postcode": "7700041", "prefecture": "徳島県", "id": 84 },
        { "address": "国府町池尻", "city": "徳島市", "postcode": "7793116", "prefecture": "徳島県", "id": 85 },
        { "address": "国府町井戸", "city": "徳島市", "postcode": "7793118", "prefecture": "徳島県", "id": 86 },
        { "address": "国府町延命", "city": "徳島市", "postcode": "7793128", "prefecture": "徳島県", "id": 87 },
        { "address": "国府町川原田", "city": "徳島市", "postcode": "7793113", "prefecture": "徳島県", "id": 88 },
        { "address": "国府町観音寺", "city": "徳島市", "postcode": "7793123", "prefecture": "徳島県", "id": 89 },
        { "address": "国府町府中", "city": "徳島市", "postcode": "7793122", "prefecture": "徳島県", "id": 90 },
        { "address": "国府町桜間", "city": "徳島市", "postcode": "7793114", "prefecture": "徳島県", "id": 91 },
        { "address": "国府町佐野塚", "city": "徳島市", "postcode": "7793101", "prefecture": "徳島県", "id": 92 },
        { "address": "国府町敷地", "city": "徳島市", "postcode": "7793115", "prefecture": "徳島県", "id": 93 },
        { "address": "国府町芝原", "city": "徳島市", "postcode": "7793112", "prefecture": "徳島県", "id": 94 },
        { "address": "国府町中", "city": "徳島市", "postcode": "7793124", "prefecture": "徳島県", "id": 95 },
        { "address": "国府町西矢野", "city": "徳島市", "postcode": "7793127", "prefecture": "徳島県", "id": 96 },
        { "address": "国府町花園", "city": "徳島市", "postcode": "7793106", "prefecture": "徳島県", "id": 97 },
        { "address": "国府町早淵", "city": "徳島市", "postcode": "7793125", "prefecture": "徳島県", "id": 98 },
        { "address": "国府町日開", "city": "徳島市", "postcode": "7793117", "prefecture": "徳島県", "id": 99 },
        { "address": "国府町東黒田", "city": "徳島市", "postcode": "7793103", "prefecture": "徳島県", "id": 100 },
        { "address": "国府町西黒田", "city": "徳島市", "postcode": "7793102", "prefecture": "徳島県", "id": 101 },
        { "address": "国府町南岩延", "city": "徳島市", "postcode": "7793120", "prefecture": "徳島県", "id": 102 },
        { "address": "国府町北岩延", "city": "徳島市", "postcode": "7793119", "prefecture": "徳島県", "id": 103 },
        { "address": "国府町東高輪", "city": "徳島市", "postcode": "7793105", "prefecture": "徳島県", "id": 104 },
        { "address": "国府町西高輪", "city": "徳島市", "postcode": "7793104", "prefecture": "徳島県", "id": 105 },
        { "address": "国府町矢野", "city": "徳島市", "postcode": "7793126", "prefecture": "徳島県", "id": 106 },
        { "address": "国府町竜王", "city": "徳島市", "postcode": "7793111", "prefecture": "徳島県", "id": 107 },
        { "address": "国府町和田", "city": "徳島市", "postcode": "7793121", "prefecture": "徳島県", "id": 108 },
        { "address": "紺屋町", "city": "徳島市", "postcode": "7700918", "prefecture": "徳島県", "id": 109 },
        { "address": "雑賀町", "city": "徳島市", "postcode": "7708021", "prefecture": "徳島県", "id": 110 },
        { "address": "幸町", "city": "徳島市", "postcode": "7700847", "prefecture": "徳島県", "id": 111 },
        { "address": "栄町", "city": "徳島市", "postcode": "7700921", "prefecture": "徳島県", "id": 112 },
        { "address": "佐古一番町", "city": "徳島市", "postcode": "7700021", "prefecture": "徳島県", "id": 113 },
        { "address": "佐古二番町", "city": "徳島市", "postcode": "7700022", "prefecture": "徳島県", "id": 114 },
        { "address": "佐古三番町", "city": "徳島市", "postcode": "7700023", "prefecture": "徳島県", "id": 115 },
        { "address": "佐古四番町", "city": "徳島市", "postcode": "7700024", "prefecture": "徳島県", "id": 116 },
        { "address": "佐古五番町", "city": "徳島市", "postcode": "7700025", "prefecture": "徳島県", "id": 117 },
        { "address": "佐古六番町", "city": "徳島市", "postcode": "7700026", "prefecture": "徳島県", "id": 118 },
        { "address": "佐古七番町", "city": "徳島市", "postcode": "7700027", "prefecture": "徳島県", "id": 119 },
        { "address": "佐古八番町", "city": "徳島市", "postcode": "7700028", "prefecture": "徳島県", "id": 120 },
        { "address": "佐古山町", "city": "徳島市", "postcode": "7700039", "prefecture": "徳島県", "id": 121 },
        { "address": "三軒屋町", "city": "徳島市", "postcode": "7708025", "prefecture": "徳島県", "id": 122 },
        { "address": "渋野町", "city": "徳島市", "postcode": "7714267", "prefecture": "徳島県", "id": 123 },
        { "address": "下助任町", "city": "徳島市", "postcode": "7700805", "prefecture": "徳島県", "id": 124 },
        { "address": "下町", "city": "徳島市", "postcode": "7793131", "prefecture": "徳島県", "id": 125 },
        { "address": "城東町", "city": "徳島市", "postcode": "7700862", "prefecture": "徳島県", "id": 126 },
        { "address": "城南町", "city": "徳島市", "postcode": "7708064", "prefecture": "徳島県", "id": 127 },
        { "address": "庄町", "city": "徳島市", "postcode": "7700044", "prefecture": "徳島県", "id": 128 },
        { "address": "丈六町", "city": "徳島市", "postcode": "7714263", "prefecture": "徳島県", "id": 129 },
        { "address": "丈六町", "city": "徳島市", "postcode": "7714262", "prefecture": "徳島県", "id": 130 },
        { "address": "丈六町", "city": "徳島市", "postcode": "7714261", "prefecture": "徳島県", "id": 131 },
        { "address": "昭和町", "city": "徳島市", "postcode": "7700942", "prefecture": "徳島県", "id": 132 },
        { "address": "新内町", "city": "徳島市", "postcode": "7700845", "prefecture": "徳島県", "id": 133 },
        { "address": "新蔵町", "city": "徳島市", "postcode": "7700855", "prefecture": "徳島県", "id": 134 },
        { "address": "新浜町", "city": "徳島市", "postcode": "7708006", "prefecture": "徳島県", "id": 135 },
        { "address": "新浜本町", "city": "徳島市", "postcode": "7708007", "prefecture": "徳島県", "id": 136 },
        { "address": "新町橋", "city": "徳島市", "postcode": "7700904", "prefecture": "徳島県", "id": 137 },
        { "address": "新南福島", "city": "徳島市", "postcode": "7700867", "prefecture": "徳島県", "id": 138 },
        { "address": "末広", "city": "徳島市", "postcode": "7700866", "prefecture": "徳島県", "id": 139 },
        { "address": "助任橋", "city": "徳島市", "postcode": "7700815", "prefecture": "徳島県", "id": 140 },
        { "address": "助任本町", "city": "徳島市", "postcode": "7700816", "prefecture": "徳島県", "id": 141 },
        { "address": "住吉", "city": "徳島市", "postcode": "7700861", "prefecture": "徳島県", "id": 142 },
        { "address": "勢見町", "city": "徳島市", "postcode": "7700927", "prefecture": "徳島県", "id": 143 },
        { "address": "鷹匠町", "city": "徳島市", "postcode": "7700922", "prefecture": "徳島県", "id": 144 },
        { "address": "多家良町", "city": "徳島市", "postcode": "7714264", "prefecture": "徳島県", "id": 145 },
        { "address": "中央通", "city": "徳島市", "postcode": "7700936", "prefecture": "徳島県", "id": 146 },
        { "address": "津田海岸町", "city": "徳島市", "postcode": "7708001", "prefecture": "徳島県", "id": 147 },
        { "address": "津田西町", "city": "徳島市", "postcode": "7708004", "prefecture": "徳島県", "id": 148 },
        { "address": "津田浜之町", "city": "徳島市", "postcode": "7708005", "prefecture": "徳島県", "id": 149 },
        { "address": "津田本町", "city": "徳島市", "postcode": "7708003", "prefecture": "徳島県", "id": 150 },
        { "address": "津田町", "city": "徳島市", "postcode": "7708002", "prefecture": "徳島県", "id": 151 },
        { "address": "出来島本町", "city": "徳島市", "postcode": "7700823", "prefecture": "徳島県", "id": 152 },
        { "address": "寺島本町東", "city": "徳島市", "postcode": "7700832", "prefecture": "徳島県", "id": 153 },
        { "address": "寺島本町西", "city": "徳島市", "postcode": "7700831", "prefecture": "徳島県", "id": 154 },
        { "address": "寺町", "city": "徳島市", "postcode": "7700909", "prefecture": "徳島県", "id": 155 },
        { "address": "問屋町", "city": "徳島市", "postcode": "7708056", "prefecture": "徳島県", "id": 156 },
        { "address": "通町", "city": "徳島市", "postcode": "7700842", "prefecture": "徳島県", "id": 157 },
        { "address": "徳島町", "city": "徳島市", "postcode": "7700852", "prefecture": "徳島県", "id": 158 },
        { "address": "徳島町城内", "city": "徳島市", "postcode": "7700851", "prefecture": "徳島県", "id": 159 },
        { "address": "徳島本町", "city": "徳島市", "postcode": "7700854", "prefecture": "徳島県", "id": 160 },
        { "address": "富田浜", "city": "徳島市", "postcode": "7700931", "prefecture": "徳島県", "id": 161 },
        { "address": "富田橋", "city": "徳島市", "postcode": "7700937", "prefecture": "徳島県", "id": 162 },
        { "address": "富田町", "city": "徳島市", "postcode": "7700915", "prefecture": "徳島県", "id": 163 },
        { "address": "中島田町", "city": "徳島市", "postcode": "7700052", "prefecture": "徳島県", "id": 164 },
        { "address": "中昭和町", "city": "徳島市", "postcode": "7700943", "prefecture": "徳島県", "id": 165 },
        { "address": "中常三島町", "city": "徳島市", "postcode": "7700813", "prefecture": "徳島県", "id": 166 },
        { "address": "中洲町", "city": "徳島市", "postcode": "7700856", "prefecture": "徳島県", "id": 167 },
        { "address": "中通町", "city": "徳島市", "postcode": "7700844", "prefecture": "徳島県", "id": 168 },
        { "address": "中徳島町", "city": "徳島市", "postcode": "7700853", "prefecture": "徳島県", "id": 169 },
        { "address": "仲之町", "city": "徳島市", "postcode": "7700932", "prefecture": "徳島県", "id": 170 },
        { "address": "中前川町", "city": "徳島市", "postcode": "7700807", "prefecture": "徳島県", "id": 171 },
        { "address": "中吉野町", "city": "徳島市", "postcode": "7700804", "prefecture": "徳島県", "id": 172 },
        { "address": "二軒屋町", "city": "徳島市", "postcode": "7700928", "prefecture": "徳島県", "id": 173 },
        { "address": "西新浜町", "city": "徳島市", "postcode": "7708008", "prefecture": "徳島県", "id": 174 },
        { "address": "西新町", "city": "徳島市", "postcode": "7700902", "prefecture": "徳島県", "id": 175 },
        { "address": "西須賀町", "city": "徳島市", "postcode": "7708024", "prefecture": "徳島県", "id": 176 },
        { "address": "西船場町", "city": "徳島市", "postcode": "7700901", "prefecture": "徳島県", "id": 177 },
        { "address": "西大工町", "city": "徳島市", "postcode": "7700903", "prefecture": "徳島県", "id": 178 },
        { "address": "西富田町", "city": "徳島市", "postcode": "7700929", "prefecture": "徳島県", "id": 179 },
        { "address": "西二軒屋町", "city": "徳島市", "postcode": "7708061", "prefecture": "徳島県", "id": 180 },
        { "address": "西山手町", "city": "徳島市", "postcode": "7700907", "prefecture": "徳島県", "id": 181 },
        { "address": "入田町", "city": "徳島市", "postcode": "7793133", "prefecture": "徳島県", "id": 182 },
        { "address": "幟町", "city": "徳島市", "postcode": "7700924", "prefecture": "徳島県", "id": 183 },
        { "address": "八多町", "city": "徳島市", "postcode": "7714266", "prefecture": "徳島県", "id": 184 },
        { "address": "八万町", "city": "徳島市", "postcode": "7708076", "prefecture": "徳島県", "id": 185 },
        { "address": "八万町", "city": "徳島市", "postcode": "7708077", "prefecture": "徳島県", "id": 186 },
        { "address": "八万町", "city": "徳島市", "postcode": "7708079", "prefecture": "徳島県", "id": 187 },
        { "address": "八万町", "city": "徳島市", "postcode": "7708073", "prefecture": "徳島県", "id": 188 },
        { "address": "八万町", "city": "徳島市", "postcode": "7708074", "prefecture": "徳島県", "id": 189 },
        { "address": "八万町", "city": "徳島市", "postcode": "7708082", "prefecture": "徳島県", "id": 190 },
        { "address": "八万町", "city": "徳島市", "postcode": "7708075", "prefecture": "徳島県", "id": 191 },
        { "address": "八万町", "city": "徳島市", "postcode": "7708072", "prefecture": "徳島県", "id": 192 },
        { "address": "八万町", "city": "徳島市", "postcode": "7708071", "prefecture": "徳島県", "id": 193 },
        { "address": "八万町", "city": "徳島市", "postcode": "7708081", "prefecture": "徳島県", "id": 194 },
        { "address": "八万町", "city": "徳島市", "postcode": "7708078", "prefecture": "徳島県", "id": 195 },
        { "address": "八万町", "city": "徳島市", "postcode": "7708083", "prefecture": "徳島県", "id": 196 },
        { "address": "八万町", "city": "徳島市", "postcode": "7708084", "prefecture": "徳島県", "id": 197 },
        { "address": "八万町", "city": "徳島市", "postcode": "7708070", "prefecture": "徳島県", "id": 198 },
        { "address": "万代町", "city": "徳島市", "postcode": "7700941", "prefecture": "徳島県", "id": 199 },
        { "address": "東沖洲", "city": "徳島市", "postcode": "7700873", "prefecture": "徳島県", "id": 200 },
        { "address": "東新町", "city": "徳島市", "postcode": "7700912", "prefecture": "徳島県", "id": 201 },
        { "address": "東船場町", "city": "徳島市", "postcode": "7700911", "prefecture": "徳島県", "id": 202 },
        { "address": "東大工町", "city": "徳島市", "postcode": "7700905", "prefecture": "徳島県", "id": 203 },
        { "address": "東出来島町", "city": "徳島市", "postcode": "7700822", "prefecture": "徳島県", "id": 204 },
        { "address": "東山手町", "city": "徳島市", "postcode": "7700906", "prefecture": "徳島県", "id": 205 },
        { "address": "東吉野町", "city": "徳島市", "postcode": "7700811", "prefecture": "徳島県", "id": 206 },
        { "address": "眉山町", "city": "徳島市", "postcode": "7700908", "prefecture": "徳島県", "id": 207 },
        { "address": "福島", "city": "徳島市", "postcode": "7700868", "prefecture": "徳島県", "id": 208 },
        { "address": "不動東町", "city": "徳島市", "postcode": "7700062", "prefecture": "徳島県", "id": 209 },
        { "address": "不動西町", "city": "徳島市", "postcode": "7700064", "prefecture": "徳島県", "id": 210 },
        { "address": "不動北町", "city": "徳島市", "postcode": "7700061", "prefecture": "徳島県", "id": 211 },
        { "address": "不動本町", "city": "徳島市", "postcode": "7700063", "prefecture": "徳島県", "id": 212 },
        { "address": "南内町", "city": "徳島市", "postcode": "7700846", "prefecture": "徳島県", "id": 213 },
        { "address": "南沖洲", "city": "徳島市", "postcode": "7700874", "prefecture": "徳島県", "id": 214 },
        { "address": "南蔵本町", "city": "徳島市", "postcode": "7700043", "prefecture": "徳島県", "id": 215 },
        { "address": "南佐古一番町", "city": "徳島市", "postcode": "7700031", "prefecture": "徳島県", "id": 216 },
        { "address": "南佐古二番町", "city": "徳島市", "postcode": "7700032", "prefecture": "徳島県", "id": 217 },
        { "address": "南佐古三番町", "city": "徳島市", "postcode": "7700033", "prefecture": "徳島県", "id": 218 },
        { "address": "南佐古四番町", "city": "徳島市", "postcode": "7700034", "prefecture": "徳島県", "id": 219 },
        { "address": "南佐古五番町", "city": "徳島市", "postcode": "7700035", "prefecture": "徳島県", "id": 220 },
        { "address": "南佐古六番町", "city": "徳島市", "postcode": "7700036", "prefecture": "徳島県", "id": 221 },
        { "address": "南佐古七番町", "city": "徳島市", "postcode": "7700037", "prefecture": "徳島県", "id": 222 },
        { "address": "南佐古八番町", "city": "徳島市", "postcode": "7700038", "prefecture": "徳島県", "id": 223 },
        { "address": "南島田町", "city": "徳島市", "postcode": "7700053", "prefecture": "徳島県", "id": 224 },
        { "address": "南庄町", "city": "徳島市", "postcode": "7700045", "prefecture": "徳島県", "id": 225 },
        { "address": "南昭和町", "city": "徳島市", "postcode": "7700944", "prefecture": "徳島県", "id": 226 },
        { "address": "南新町", "city": "徳島市", "postcode": "7700913", "prefecture": "徳島県", "id": 227 },
        { "address": "南常三島町", "city": "徳島市", "postcode": "7700814", "prefecture": "徳島県", "id": 228 },
        { "address": "南末広町", "city": "徳島市", "postcode": "7700865", "prefecture": "徳島県", "id": 229 },
        { "address": "南田宮", "city": "徳島市", "postcode": "7700004", "prefecture": "徳島県", "id": 230 },
        { "address": "南出来島町", "city": "徳島市", "postcode": "7700824", "prefecture": "徳島県", "id": 231 },
        { "address": "南仲之町", "city": "徳島市", "postcode": "7700933", "prefecture": "徳島県", "id": 232 },
        { "address": "南二軒屋町", "city": "徳島市", "postcode": "7708063", "prefecture": "徳島県", "id": 233 },
        { "address": "南前川町", "city": "徳島市", "postcode": "7700808", "prefecture": "徳島県", "id": 234 },
        { "address": "南矢三町", "city": "徳島市", "postcode": "7700005", "prefecture": "徳島県", "id": 235 },
        { "address": "明神町", "city": "徳島市", "postcode": "7700938", "prefecture": "徳島県", "id": 236 },
        { "address": "名東町", "city": "徳島市", "postcode": "7700047", "prefecture": "徳島県", "id": 237 },
        { "address": "元町", "city": "徳島市", "postcode": "7700834", "prefecture": "徳島県", "id": 238 },
        { "address": "八百屋町", "city": "徳島市", "postcode": "7700841", "prefecture": "徳島県", "id": 239 },
        { "address": "山城町", "city": "徳島市", "postcode": "7708055", "prefecture": "徳島県", "id": 240 },
        { "address": "山城西", "city": "徳島市", "postcode": "7708054", "prefecture": "徳島県", "id": 241 },
        { "address": "大和町", "city": "徳島市", "postcode": "7700864", "prefecture": "徳島県", "id": 242 },
        { "address": "弓町", "city": "徳島市", "postcode": "7700925", "prefecture": "徳島県", "id": 243 },
        { "address": "吉野本町", "city": "徳島市", "postcode": "7700802", "prefecture": "徳島県", "id": 244 },
        { "address": "両国橋", "city": "徳島市", "postcode": "7700917", "prefecture": "徳島県", "id": 245 },
        { "address": "両国本町", "city": "徳島市", "postcode": "7700843", "prefecture": "徳島県", "id": 246 },
        { "address": "論田町", "city": "徳島市", "postcode": "7708011", "prefecture": "徳島県", "id": 247 },
        { "city": "鳴門市", "postcode": "7720000", "prefecture": "徳島県", "id": 248 },
        { "address": "大麻町池谷", "city": "鳴門市", "postcode": "7790303", "prefecture": "徳島県", "id": 249 },
        { "address": "大麻町市場", "city": "鳴門市", "postcode": "7790315", "prefecture": "徳島県", "id": 250 },
        { "address": "大麻町牛屋島", "city": "鳴門市", "postcode": "7790311", "prefecture": "徳島県", "id": 251 },
        { "address": "大麻町大谷", "city": "鳴門市", "postcode": "7790302", "prefecture": "徳島県", "id": 252 },
        { "address": "大麻町川崎", "city": "鳴門市", "postcode": "7790223", "prefecture": "徳島県", "id": 253 },
        { "address": "大麻町高畑", "city": "鳴門市", "postcode": "7790305", "prefecture": "徳島県", "id": 254 },
        { "address": "大麻町津慈", "city": "鳴門市", "postcode": "7790224", "prefecture": "徳島県", "id": 255 },
        { "address": "大麻町中馬詰", "city": "鳴門市", "postcode": "7790313", "prefecture": "徳島県", "id": 256 },
        { "address": "大麻町西馬詰", "city": "鳴門市", "postcode": "7790314", "prefecture": "徳島県", "id": 257 },
        { "address": "大麻町萩原", "city": "鳴門市", "postcode": "7790221", "prefecture": "徳島県", "id": 258 },
        { "address": "大麻町板東", "city": "鳴門市", "postcode": "7790234", "prefecture": "徳島県", "id": 259 },
        { "address": "大麻町板東", "city": "鳴門市", "postcode": "7790231", "prefecture": "徳島県", "id": 260 },
        { "address": "大麻町板東", "city": "鳴門市", "postcode": "7790232", "prefecture": "徳島県", "id": 261 },
        { "address": "大麻町板東", "city": "鳴門市", "postcode": "7790235", "prefecture": "徳島県", "id": 262 },
        { "address": "大麻町板東", "city": "鳴門市", "postcode": "7790238", "prefecture": "徳島県", "id": 263 },
        { "address": "大麻町板東", "city": "鳴門市", "postcode": "7790236", "prefecture": "徳島県", "id": 264 },
        { "address": "大麻町板東", "city": "鳴門市", "postcode": "7790237", "prefecture": "徳島県", "id": 265 },
        { "address": "大麻町板東", "city": "鳴門市", "postcode": "7790233", "prefecture": "徳島県", "id": 266 },
        { "address": "大麻町板東", "city": "鳴門市", "postcode": "7790230", "prefecture": "徳島県", "id": 267 },
        { "address": "大麻町東馬詰", "city": "鳴門市", "postcode": "7790312", "prefecture": "徳島県", "id": 268 },
        { "address": "大麻町檜", "city": "鳴門市", "postcode": "7790225", "prefecture": "徳島県", "id": 269 },
        { "address": "大麻町姫田", "city": "鳴門市", "postcode": "7790301", "prefecture": "徳島県", "id": 270 },
        { "address": "大麻町松村", "city": "鳴門市", "postcode": "7790304", "prefecture": "徳島県", "id": 271 },
        { "address": "大麻町三俣", "city": "鳴門市", "postcode": "7790222", "prefecture": "徳島県", "id": 272 },
        { "address": "大津町大代", "city": "鳴門市", "postcode": "7720041", "prefecture": "徳島県", "id": 273 },
        { "address": "大津町木津野", "city": "鳴門市", "postcode": "7720031", "prefecture": "徳島県", "id": 274 },
        { "address": "大津町大幸", "city": "鳴門市", "postcode": "7720044", "prefecture": "徳島県", "id": 275 },
        { "address": "大津町段関", "city": "鳴門市", "postcode": "7720043", "prefecture": "徳島県", "id": 276 },
        { "address": "大津町徳長", "city": "鳴門市", "postcode": "7720034", "prefecture": "徳島県", "id": 277 },
        { "address": "大津町長江", "city": "鳴門市", "postcode": "7720033", "prefecture": "徳島県", "id": 278 },
        { "address": "大津町備前島", "city": "鳴門市", "postcode": "7720042", "prefecture": "徳島県", "id": 279 },
        { "address": "大津町矢倉", "city": "鳴門市", "postcode": "7720035", "prefecture": "徳島県", "id": 280 },
        { "address": "大津町吉永", "city": "鳴門市", "postcode": "7720032", "prefecture": "徳島県", "id": 281 },
        { "address": "北灘町粟田", "city": "鳴門市", "postcode": "7710372", "prefecture": "徳島県", "id": 282 },
        { "address": "北灘町大浦", "city": "鳴門市", "postcode": "7710373", "prefecture": "徳島県", "id": 283 },
        { "address": "北灘町大須", "city": "鳴門市", "postcode": "7710377", "prefecture": "徳島県", "id": 284 },
        { "address": "北灘町折野", "city": "鳴門市", "postcode": "7710376", "prefecture": "徳島県", "id": 285 },
        { "address": "北灘町櫛木", "city": "鳴門市", "postcode": "7710371", "prefecture": "徳島県", "id": 286 },
        { "address": "北灘町碁浦", "city": "鳴門市", "postcode": "7710378", "prefecture": "徳島県", "id": 287 },
        { "address": "北灘町宿毛谷", "city": "鳴門市", "postcode": "7710374", "prefecture": "徳島県", "id": 288 },
        { "address": "北灘町鳥ケ丸", "city": "鳴門市", "postcode": "7710375", "prefecture": "徳島県", "id": 289 },
        { "address": "里浦町粟津", "city": "鳴門市", "postcode": "7720022", "prefecture": "徳島県", "id": 290 },
        { "address": "里浦町里浦", "city": "鳴門市", "postcode": "7720021", "prefecture": "徳島県", "id": 291 },
        { "address": "瀬戸町明神", "city": "鳴門市", "postcode": "7720060", "prefecture": "徳島県", "id": 292 },
        { "address": "瀬戸町明神", "city": "鳴門市", "postcode": "7710360", "prefecture": "徳島県", "id": 293 },
        { "address": "瀬戸町北泊", "city": "鳴門市", "postcode": "7710362", "prefecture": "徳島県", "id": 294 },
        { "address": "瀬戸町北泊", "city": "鳴門市", "postcode": "7710364", "prefecture": "徳島県", "id": 295 },
        { "address": "瀬戸町大島田", "city": "鳴門市", "postcode": "7710367", "prefecture": "徳島県", "id": 296 },
        { "address": "瀬戸町中島田", "city": "鳴門市", "postcode": "7710366", "prefecture": "徳島県", "id": 297 },
        { "address": "瀬戸町小島田", "city": "鳴門市", "postcode": "7710365", "prefecture": "徳島県", "id": 298 },
        { "address": "瀬戸町堂浦", "city": "鳴門市", "postcode": "7710361", "prefecture": "徳島県", "id": 299 },
        { "address": "瀬戸町湊谷", "city": "鳴門市", "postcode": "7710363", "prefecture": "徳島県", "id": 300 },
        { "address": "瀬戸町撫佐", "city": "鳴門市", "postcode": "7710369", "prefecture": "徳島県", "id": 301 },
        { "address": "瀬戸町室", "city": "鳴門市", "postcode": "7710368", "prefecture": "徳島県", "id": 302 },
        { "address": "鳴門町高島", "city": "鳴門市", "postcode": "7720051", "prefecture": "徳島県", "id": 303 },
        { "address": "鳴門町土佐泊浦", "city": "鳴門市", "postcode": "7720053", "prefecture": "徳島県", "id": 304 },
        { "address": "鳴門町三ツ石", "city": "鳴門市", "postcode": "7720052", "prefecture": "徳島県", "id": 305 },
        { "address": "撫養町大桑島", "city": "鳴門市", "postcode": "7720011", "prefecture": "徳島県", "id": 306 },
        { "address": "撫養町小桑島", "city": "鳴門市", "postcode": "7720012", "prefecture": "徳島県", "id": 307 },
        { "address": "撫養町岡崎", "city": "鳴門市", "postcode": "7720013", "prefecture": "徳島県", "id": 308 },
        { "address": "撫養町木津", "city": "鳴門市", "postcode": "7720004", "prefecture": "徳島県", "id": 309 },
        { "address": "撫養町黒崎", "city": "鳴門市", "postcode": "7720001", "prefecture": "徳島県", "id": 310 },
        { "address": "撫養町斎田", "city": "鳴門市", "postcode": "7720002", "prefecture": "徳島県", "id": 311 },
        { "address": "撫養町立岩", "city": "鳴門市", "postcode": "7720017", "prefecture": "徳島県", "id": 312 },
        { "address": "撫養町林崎", "city": "鳴門市", "postcode": "7720016", "prefecture": "徳島県", "id": 313 },
        { "address": "撫養町弁財天", "city": "鳴門市", "postcode": "7720014", "prefecture": "徳島県", "id": 314 },
        { "address": "撫養町南浜", "city": "鳴門市", "postcode": "7720003", "prefecture": "徳島県", "id": 315 },
        { "address": "撫養町北浜", "city": "鳴門市", "postcode": "7720015", "prefecture": "徳島県", "id": 316 },
        { "city": "小松島市", "postcode": "7730000", "prefecture": "徳島県", "id": 317 },
        { "address": "間新田町", "city": "小松島市", "postcode": "7730024", "prefecture": "徳島県", "id": 318 },
        { "address": "赤石町", "city": "小松島市", "postcode": "7730021", "prefecture": "徳島県", "id": 319 },
        { "address": "江田町", "city": "小松島市", "postcode": "7730014", "prefecture": "徳島県", "id": 320 },
        { "address": "大林町", "city": "小松島市", "postcode": "7730022", "prefecture": "徳島県", "id": 321 },
        { "address": "金磯町", "city": "小松島市", "postcode": "7730007", "prefecture": "徳島県", "id": 322 },
        { "address": "神田瀬町", "city": "小松島市", "postcode": "7730002", "prefecture": "徳島県", "id": 323 },
        { "address": "櫛淵町", "city": "小松島市", "postcode": "7730018", "prefecture": "徳島県", "id": 324 },
        { "address": "小松島町", "city": "小松島市", "postcode": "7730001", "prefecture": "徳島県", "id": 325 },
        { "address": "坂野町", "city": "小松島市", "postcode": "7730023", "prefecture": "徳島県", "id": 326 },
        { "address": "芝生町", "city": "小松島市", "postcode": "7730009", "prefecture": "徳島県", "id": 327 },
        { "address": "田浦町", "city": "小松島市", "postcode": "7730012", "prefecture": "徳島県", "id": 328 },
        { "address": "立江町", "city": "小松島市", "postcode": "7730017", "prefecture": "徳島県", "id": 329 },
        { "address": "田野町", "city": "小松島市", "postcode": "7730008", "prefecture": "徳島県", "id": 330 },
        { "address": "中田町", "city": "小松島市", "postcode": "7730015", "prefecture": "徳島県", "id": 331 },
        { "address": "豊浦町", "city": "小松島市", "postcode": "7730019", "prefecture": "徳島県", "id": 332 },
        { "address": "中郷町", "city": "小松島市", "postcode": "7730016", "prefecture": "徳島県", "id": 333 },
        { "address": "新居見町", "city": "小松島市", "postcode": "7730011", "prefecture": "徳島県", "id": 334 },
        { "address": "日開野町", "city": "小松島市", "postcode": "7730010", "prefecture": "徳島県", "id": 335 },
        { "address": "堀川町", "city": "小松島市", "postcode": "7730004", "prefecture": "徳島県", "id": 336 },
        { "address": "前原町", "city": "小松島市", "postcode": "7730013", "prefecture": "徳島県", "id": 337 },
        { "address": "松島町", "city": "小松島市", "postcode": "7730003", "prefecture": "徳島県", "id": 338 },
        { "address": "南小松島町", "city": "小松島市", "postcode": "7730005", "prefecture": "徳島県", "id": 339 },
        { "address": "横須町", "city": "小松島市", "postcode": "7730006", "prefecture": "徳島県", "id": 340 },
        { "address": "和田島町", "city": "小松島市", "postcode": "7730031", "prefecture": "徳島県", "id": 341 },
        { "address": "和田島町", "city": "小松島市", "postcode": "7730025", "prefecture": "徳島県", "id": 342 },
        { "address": "和田津開町", "city": "小松島市", "postcode": "7730020", "prefecture": "徳島県", "id": 343 },
        { "city": "阿南市", "postcode": "7740000", "prefecture": "徳島県", "id": 344 },
        { "address": "阿瀬比町", "city": "阿南市", "postcode": "7791404", "prefecture": "徳島県", "id": 345 },
        { "address": "新野町", "city": "阿南市", "postcode": "7791510", "prefecture": "徳島県", "id": 346 },
        { "address": "伊島町", "city": "阿南市", "postcode": "7741760", "prefecture": "徳島県", "id": 347 },
        { "address": "内原町", "city": "阿南市", "postcode": "7791401", "prefecture": "徳島県", "id": 348 },
        { "address": "大井町", "city": "阿南市", "postcode": "7715177", "prefecture": "徳島県", "id": 349 },
        { "address": "大潟町", "city": "阿南市", "postcode": "7740022", "prefecture": "徳島県", "id": 350 },
        { "address": "大田井町", "city": "阿南市", "postcode": "7715176", "prefecture": "徳島県", "id": 351 },
        { "address": "学原町", "city": "阿南市", "postcode": "7740014", "prefecture": "徳島県", "id": 352 },
        { "address": "上大野町", "city": "阿南市", "postcode": "7740049", "prefecture": "徳島県", "id": 353 },
        { "address": "上中町", "city": "阿南市", "postcode": "7740044", "prefecture": "徳島県", "id": 354 },
        { "address": "加茂町", "city": "阿南市", "postcode": "7715173", "prefecture": "徳島県", "id": 355 },
        { "address": "楠根町", "city": "阿南市", "postcode": "7715170", "prefecture": "徳島県", "id": 356 },
        { "address": "熊谷町", "city": "阿南市", "postcode": "7715171", "prefecture": "徳島県", "id": 357 },
        { "address": "黒津地町", "city": "阿南市", "postcode": "7740006", "prefecture": "徳島県", "id": 358 },
        { "address": "桑野町", "city": "阿南市", "postcode": "7791402", "prefecture": "徳島県", "id": 359 },
        { "address": "才見町", "city": "阿南市", "postcode": "7740015", "prefecture": "徳島県", "id": 360 },
        { "address": "西路見町", "city": "阿南市", "postcode": "7740009", "prefecture": "徳島県", "id": 361 },
        { "address": "十八女町", "city": "阿南市", "postcode": "7715178", "prefecture": "徳島県", "id": 362 },
        { "address": "下大野町", "city": "阿南市", "postcode": "7740047", "prefecture": "徳島県", "id": 363 },
        { "address": "水井町", "city": "阿南市", "postcode": "7715174", "prefecture": "徳島県", "id": 364 },
        { "address": "住吉町", "city": "阿南市", "postcode": "7740041", "prefecture": "徳島県", "id": 365 },
        { "address": "宝田町", "city": "阿南市", "postcode": "7740045", "prefecture": "徳島県", "id": 366 },
        { "address": "橘町", "city": "阿南市", "postcode": "7791631", "prefecture": "徳島県", "id": 367 },
        { "address": "橘町", "city": "阿南市", "postcode": "7791630", "prefecture": "徳島県", "id": 368 },
        { "address": "橘町", "city": "阿南市", "postcode": "7740023", "prefecture": "徳島県", "id": 369 },
        { "address": "辰巳町", "city": "阿南市", "postcode": "7740001", "prefecture": "徳島県", "id": 370 },
        { "address": "津乃峰町", "city": "阿南市", "postcode": "7740021", "prefecture": "徳島県", "id": 371 },
        { "address": "椿町", "city": "阿南市", "postcode": "7791750", "prefecture": "徳島県", "id": 372 },
        { "address": "椿泊町", "city": "阿南市", "postcode": "7791740", "prefecture": "徳島県", "id": 373 },
        { "address": "出来町", "city": "阿南市", "postcode": "7740007", "prefecture": "徳島県", "id": 374 },
        { "address": "富岡町", "city": "阿南市", "postcode": "7740030", "prefecture": "徳島県", "id": 375 },
        { "address": "豊益町", "city": "阿南市", "postcode": "7740002", "prefecture": "徳島県", "id": 376 },
        { "address": "長生町", "city": "阿南市", "postcode": "7740046", "prefecture": "徳島県", "id": 377 },
        { "address": "中大野町", "city": "阿南市", "postcode": "7740048", "prefecture": "徳島県", "id": 378 },
        { "address": "那賀川町赤池", "city": "阿南市", "postcode": "7791242", "prefecture": "徳島県", "id": 379 },
        { "address": "那賀川町今津浦", "city": "阿南市", "postcode": "7791114", "prefecture": "徳島県", "id": 380 },
        { "address": "那賀川町色ケ島", "city": "阿南市", "postcode": "7791112", "prefecture": "徳島県", "id": 381 },
        { "address": "那賀川町江野島", "city": "阿南市", "postcode": "7791111", "prefecture": "徳島県", "id": 382 },
        { "address": "那賀川町上福井", "city": "阿南市", "postcode": "7791243", "prefecture": "徳島県", "id": 383 },
        { "address": "那賀川町苅屋", "city": "阿南市", "postcode": "7791235", "prefecture": "徳島県", "id": 384 },
        { "address": "那賀川町北中島", "city": "阿南市", "postcode": "7791246", "prefecture": "徳島県", "id": 385 },
        { "address": "那賀川町黒地", "city": "阿南市", "postcode": "7791121", "prefecture": "徳島県", "id": 386 },
        { "address": "那賀川町小延", "city": "阿南市", "postcode": "7791116", "prefecture": "徳島県", "id": 387 },
        { "address": "那賀川町敷地", "city": "阿南市", "postcode": "7791115", "prefecture": "徳島県", "id": 388 },
        { "address": "那賀川町島尻", "city": "阿南市", "postcode": "7791117", "prefecture": "徳島県", "id": 389 },
        { "address": "那賀川町大京原", "city": "阿南市", "postcode": "7791233", "prefecture": "徳島県", "id": 390 },
        { "address": "那賀川町工地", "city": "阿南市", "postcode": "7791236", "prefecture": "徳島県", "id": 391 },
        { "address": "那賀川町手島", "city": "阿南市", "postcode": "7791123", "prefecture": "徳島県", "id": 392 },
        { "address": "那賀川町中島", "city": "阿南市", "postcode": "7791245", "prefecture": "徳島県", "id": 393 },
        { "address": "那賀川町西原", "city": "阿南市", "postcode": "7791232", "prefecture": "徳島県", "id": 394 },
        { "address": "那賀川町原", "city": "阿南市", "postcode": "7791231", "prefecture": "徳島県", "id": 395 },
        { "address": "那賀川町日向", "city": "阿南市", "postcode": "7791119", "prefecture": "徳島県", "id": 396 },
        { "address": "那賀川町古津", "city": "阿南市", "postcode": "7791234", "prefecture": "徳島県", "id": 397 },
        { "address": "那賀川町芳崎", "city": "阿南市", "postcode": "7791113", "prefecture": "徳島県", "id": 398 },
        { "address": "那賀川町三栗", "city": "阿南市", "postcode": "7791241", "prefecture": "徳島県", "id": 399 },
        { "address": "那賀川町みどり台", "city": "阿南市", "postcode": "7791244", "prefecture": "徳島県", "id": 400 },
        { "address": "那賀川町八幡", "city": "阿南市", "postcode": "7791122", "prefecture": "徳島県", "id": 401 },
        { "address": "那賀川町豊香野", "city": "阿南市", "postcode": "7791118", "prefecture": "徳島県", "id": 402 },
        { "address": "中林町", "city": "阿南市", "postcode": "7740016", "prefecture": "徳島県", "id": 403 },
        { "address": "七見町", "city": "阿南市", "postcode": "7740012", "prefecture": "徳島県", "id": 404 },
        { "address": "羽ノ浦町岩脇", "city": "阿南市", "postcode": "7791107", "prefecture": "徳島県", "id": 405 },
        { "address": "羽ノ浦町岩脇", "city": "阿南市", "postcode": "7791106", "prefecture": "徳島県", "id": 406 },
        { "address": "羽ノ浦町春日野", "city": "阿南市", "postcode": "7791103", "prefecture": "徳島県", "id": 407 },
        { "address": "羽ノ浦町古毛", "city": "阿南市", "postcode": "7791109", "prefecture": "徳島県", "id": 408 },
        { "address": "羽ノ浦町中庄", "city": "阿南市", "postcode": "7791101", "prefecture": "徳島県", "id": 409 },
        { "address": "羽ノ浦町西春日野", "city": "阿南市", "postcode": "7791104", "prefecture": "徳島県", "id": 410 },
        { "address": "羽ノ浦町古庄", "city": "阿南市", "postcode": "7791105", "prefecture": "徳島県", "id": 411 },
        { "address": "羽ノ浦町宮倉", "city": "阿南市", "postcode": "7791102", "prefecture": "徳島県", "id": 412 },
        { "address": "羽ノ浦町明見", "city": "阿南市", "postcode": "7791108", "prefecture": "徳島県", "id": 413 },
        { "address": "原ケ崎町", "city": "阿南市", "postcode": "7740008", "prefecture": "徳島県", "id": 414 },
        { "address": "畭町", "city": "阿南市", "postcode": "7740003", "prefecture": "徳島県", "id": 415 },
        { "address": "日開野町", "city": "阿南市", "postcode": "7740013", "prefecture": "徳島県", "id": 416 },
        { "address": "深瀬町", "city": "阿南市", "postcode": "7715179", "prefecture": "徳島県", "id": 417 },
        { "address": "福井町", "city": "阿南市", "postcode": "7791620", "prefecture": "徳島県", "id": 418 },
        { "address": "福村町", "city": "阿南市", "postcode": "7740004", "prefecture": "徳島県", "id": 419 },
        { "address": "細野町", "city": "阿南市", "postcode": "7715175", "prefecture": "徳島県", "id": 420 },
        { "address": "見能林町", "city": "阿南市", "postcode": "7740017", "prefecture": "徳島県", "id": 421 },
        { "address": "向原町", "city": "阿南市", "postcode": "7740005", "prefecture": "徳島県", "id": 422 },
        { "address": "柳島町", "city": "阿南市", "postcode": "7740043", "prefecture": "徳島県", "id": 423 },
        { "address": "山口町", "city": "阿南市", "postcode": "7791403", "prefecture": "徳島県", "id": 424 },
        { "address": "横見町", "city": "阿南市", "postcode": "7740042", "prefecture": "徳島県", "id": 425 },
        { "address": "吉井町", "city": "阿南市", "postcode": "7715172", "prefecture": "徳島県", "id": 426 },
        { "address": "領家町", "city": "阿南市", "postcode": "7740011", "prefecture": "徳島県", "id": 427 },
        { "city": "吉野川市", "postcode": "7760000", "prefecture": "徳島県", "id": 428 },
        { "address": "鴨島町粟島", "city": "吉野川市", "postcode": "7760015", "prefecture": "徳島県", "id": 429 },
        { "address": "鴨島町飯尾", "city": "吉野川市", "postcode": "7760033", "prefecture": "徳島県", "id": 430 },
        { "address": "鴨島町牛島", "city": "吉野川市", "postcode": "7760001", "prefecture": "徳島県", "id": 431 },
        { "address": "鴨島町内原", "city": "吉野川市", "postcode": "7760003", "prefecture": "徳島県", "id": 432 },
        { "address": "鴨島町麻植塚", "city": "吉野川市", "postcode": "7760002", "prefecture": "徳島県", "id": 433 },
        { "address": "鴨島町上浦", "city": "吉野川市", "postcode": "7760037", "prefecture": "徳島県", "id": 434 },
        { "address": "鴨島町鴨島", "city": "吉野川市", "postcode": "7760010", "prefecture": "徳島県", "id": 435 },
        { "address": "鴨島町鴨島甲", "city": "吉野川市", "postcode": "7760011", "prefecture": "徳島県", "id": 436 },
        { "address": "鴨島町鴨島乙", "city": "吉野川市", "postcode": "7760012", "prefecture": "徳島県", "id": 437 },
        { "address": "鴨島町喜来", "city": "吉野川市", "postcode": "7760005", "prefecture": "徳島県", "id": 438 },
        { "address": "鴨島町喜来甲", "city": "吉野川市", "postcode": "7760006", "prefecture": "徳島県", "id": 439 },
        { "address": "鴨島町喜来乙", "city": "吉野川市", "postcode": "7760007", "prefecture": "徳島県", "id": 440 },
        { "address": "鴨島町呉郷団地", "city": "吉野川市", "postcode": "7760034", "prefecture": "徳島県", "id": 441 },
        { "address": "鴨島町山路", "city": "吉野川市", "postcode": "7760036", "prefecture": "徳島県", "id": 442 },
        { "address": "鴨島町敷地", "city": "吉野川市", "postcode": "7760031", "prefecture": "徳島県", "id": 443 },
        { "address": "鴨島町上下島", "city": "吉野川市", "postcode": "7760013", "prefecture": "徳島県", "id": 444 },
        { "address": "鴨島町知恵島", "city": "吉野川市", "postcode": "7760014", "prefecture": "徳島県", "id": 445 },
        { "address": "鴨島町中島", "city": "吉野川市", "postcode": "7760004", "prefecture": "徳島県", "id": 446 },
        { "address": "鴨島町西麻植", "city": "吉野川市", "postcode": "7760020", "prefecture": "徳島県", "id": 447 },
        { "address": "鴨島町樋山地", "city": "吉野川市", "postcode": "7760032", "prefecture": "徳島県", "id": 448 },
        { "address": "鴨島町森藤", "city": "吉野川市", "postcode": "7760035", "prefecture": "徳島県", "id": 449 },
        { "address": "川島町学", "city": "吉野川市", "postcode": "7793306", "prefecture": "徳島県", "id": 450 },
        { "address": "川島町川島", "city": "吉野川市", "postcode": "7793301", "prefecture": "徳島県", "id": 451 },
        { "address": "川島町桑村", "city": "吉野川市", "postcode": "7793303", "prefecture": "徳島県", "id": 452 },
        { "address": "川島町児島", "city": "吉野川市", "postcode": "7793305", "prefecture": "徳島県", "id": 453 },
        { "address": "川島町三ツ島", "city": "吉野川市", "postcode": "7793307", "prefecture": "徳島県", "id": 454 },
        { "address": "川島町宮島", "city": "吉野川市", "postcode": "7793304", "prefecture": "徳島県", "id": 455 },
        { "address": "川島町山田", "city": "吉野川市", "postcode": "7793302", "prefecture": "徳島県", "id": 456 },
        { "address": "美郷愛後", "city": "吉野川市", "postcode": "7793501", "prefecture": "徳島県", "id": 457 },
        { "address": "美郷恵美子", "city": "吉野川市", "postcode": "7793505", "prefecture": "徳島県", "id": 458 },
        { "address": "美郷大岸", "city": "吉野川市", "postcode": "7793502", "prefecture": "徳島県", "id": 459 },
        { "address": "美郷川俣", "city": "吉野川市", "postcode": "7793503", "prefecture": "徳島県", "id": 460 },
        { "address": "美郷毛無", "city": "吉野川市", "postcode": "7793504", "prefecture": "徳島県", "id": 461 },
        { "address": "山川町青木", "city": "吉野川市", "postcode": "7793407", "prefecture": "徳島県", "id": 462 },
        { "address": "山川町赤刎", "city": "吉野川市", "postcode": "7793405", "prefecture": "徳島県", "id": 463 },
        { "address": "山川町石堂", "city": "吉野川市", "postcode": "7793401", "prefecture": "徳島県", "id": 464 },
        { "address": "山川町市久保", "city": "吉野川市", "postcode": "7793404", "prefecture": "徳島県", "id": 465 },
        { "address": "山川町忌部", "city": "吉野川市", "postcode": "7793402", "prefecture": "徳島県", "id": 466 },
        { "address": "山川町榎谷", "city": "吉野川市", "postcode": "7793406", "prefecture": "徳島県", "id": 467 },
        { "address": "山川町春日", "city": "吉野川市", "postcode": "7793403", "prefecture": "徳島県", "id": 468 },
        { "city": "阿波市", "postcode": "7711700", "prefecture": "徳島県", "id": 469 },
        { "address": "阿波町赤坂", "city": "阿波市", "postcode": "7711705", "prefecture": "徳島県", "id": 470 },
        { "address": "阿波町伊沢市", "city": "阿波市", "postcode": "7711701", "prefecture": "徳島県", "id": 471 },
        { "address": "阿波町伊沢田", "city": "阿波市", "postcode": "7711703", "prefecture": "徳島県", "id": 472 },
        { "address": "阿波町伊沢谷東縁", "city": "阿波市", "postcode": "7711704", "prefecture": "徳島県", "id": 473 },
        { "address": "阿波町伊勢", "city": "阿波市", "postcode": "7711702", "prefecture": "徳島県", "id": 474 },
        { "address": "阿波町岩津", "city": "阿波市", "postcode": "7711706", "prefecture": "徳島県", "id": 475 },
        { "address": "市場町市場", "city": "阿波市", "postcode": "7711602", "prefecture": "徳島県", "id": 476 },
        { "address": "市場町市場", "city": "阿波市", "postcode": "7711603", "prefecture": "徳島県", "id": 477 },
        { "address": "市場町市場", "city": "阿波市", "postcode": "7711601", "prefecture": "徳島県", "id": 478 },
        { "address": "市場町市場", "city": "阿波市", "postcode": "7711604", "prefecture": "徳島県", "id": 479 },
        { "address": "市場町伊月", "city": "阿波市", "postcode": "7711626", "prefecture": "徳島県", "id": 480 },
        { "address": "市場町犬墓", "city": "阿波市", "postcode": "7711714", "prefecture": "徳島県", "id": 481 },
        { "address": "市場町犬墓", "city": "阿波市", "postcode": "7711614", "prefecture": "徳島県", "id": 482 },
        { "address": "市場町大影", "city": "阿波市", "postcode": "7711615", "prefecture": "徳島県", "id": 483 },
        { "address": "市場町大野島", "city": "阿波市", "postcode": "7711627", "prefecture": "徳島県", "id": 484 },
        { "address": "市場町大俣", "city": "阿波市", "postcode": "7711613", "prefecture": "徳島県", "id": 485 },
        { "address": "市場町尾開", "city": "阿波市", "postcode": "7711621", "prefecture": "徳島県", "id": 486 },
        { "address": "市場町香美", "city": "阿波市", "postcode": "7711611", "prefecture": "徳島県", "id": 487 },
        { "address": "市場町香美", "city": "阿波市", "postcode": "7711610", "prefecture": "徳島県", "id": 488 },
        { "address": "市場町上喜来", "city": "阿波市", "postcode": "7711612", "prefecture": "徳島県", "id": 489 },
        { "address": "市場町切幡", "city": "阿波市", "postcode": "7711623", "prefecture": "徳島県", "id": 490 },
        { "address": "市場町興崎", "city": "阿波市", "postcode": "7711622", "prefecture": "徳島県", "id": 491 },
        { "address": "市場町日開谷", "city": "阿波市", "postcode": "7711616", "prefecture": "徳島県", "id": 492 },
        { "address": "市場町山野上", "city": "阿波市", "postcode": "7711624", "prefecture": "徳島県", "id": 493 },
        { "address": "市場町八幡", "city": "阿波市", "postcode": "7711625", "prefecture": "徳島県", "id": 494 },
        { "address": "土成町秋月", "city": "阿波市", "postcode": "7711501", "prefecture": "徳島県", "id": 495 },
        { "address": "土成町浦池", "city": "阿波市", "postcode": "7711503", "prefecture": "徳島県", "id": 496 },
        { "address": "土成町郡", "city": "阿波市", "postcode": "7711505", "prefecture": "徳島県", "id": 497 },
        { "address": "土成町高尾", "city": "阿波市", "postcode": "7711509", "prefecture": "徳島県", "id": 498 },
        { "address": "土成町土成", "city": "阿波市", "postcode": "7711506", "prefecture": "徳島県", "id": 499 },
        { "address": "土成町成当", "city": "阿波市", "postcode": "7711504", "prefecture": "徳島県", "id": 500 },
        { "address": "土成町水田", "city": "阿波市", "postcode": "7711502", "prefecture": "徳島県", "id": 501 },
        { "address": "土成町宮川内", "city": "阿波市", "postcode": "7711508", "prefecture": "徳島県", "id": 502 },
        { "address": "土成町吉田", "city": "阿波市", "postcode": "7711507", "prefecture": "徳島県", "id": 503 },
        { "address": "吉野町柿原", "city": "阿波市", "postcode": "7711401", "prefecture": "徳島県", "id": 504 },
        { "address": "吉野町五条", "city": "阿波市", "postcode": "7711403", "prefecture": "徳島県", "id": 505 },
        { "address": "吉野町西条", "city": "阿波市", "postcode": "7711402", "prefecture": "徳島県", "id": 506 },
        { "city": "美馬市", "postcode": "7793600", "prefecture": "徳島県", "id": 507 },
        { "address": "穴吹町穴吹", "city": "美馬市", "postcode": "7770005", "prefecture": "徳島県", "id": 508 },
        { "address": "穴吹町口山", "city": "美馬市", "postcode": "7770006", "prefecture": "徳島県", "id": 509 },
        { "address": "穴吹町古宮", "city": "美馬市", "postcode": "7770007", "prefecture": "徳島県", "id": 510 },
        { "address": "穴吹町三島", "city": "美馬市", "postcode": "7770004", "prefecture": "徳島県", "id": 511 },
        { "address": "穴吹町三島", "city": "美馬市", "postcode": "7770001", "prefecture": "徳島県", "id": 512 },
        { "address": "穴吹町三島", "city": "美馬市", "postcode": "7770002", "prefecture": "徳島県", "id": 513 },
        { "address": "穴吹町三島", "city": "美馬市", "postcode": "7770003", "prefecture": "徳島県", "id": 514 },
        { "address": "木屋平", "city": "美馬市", "postcode": "7770302", "prefecture": "徳島県", "id": 515 },
        { "address": "木屋平", "city": "美馬市", "postcode": "7770301", "prefecture": "徳島県", "id": 516 },
        { "address": "木屋平", "city": "美馬市", "postcode": "7770303", "prefecture": "徳島県", "id": 517 },
        { "address": "美馬町", "city": "美馬市", "postcode": "7712107", "prefecture": "徳島県", "id": 518 },
        { "address": "美馬町", "city": "美馬市", "postcode": "7712106", "prefecture": "徳島県", "id": 519 },
        { "address": "美馬町", "city": "美馬市", "postcode": "7712102", "prefecture": "徳島県", "id": 520 },
        { "address": "美馬町", "city": "美馬市", "postcode": "7712105", "prefecture": "徳島県", "id": 521 },
        { "address": "美馬町", "city": "美馬市", "postcode": "7712103", "prefecture": "徳島県", "id": 522 },
        { "address": "美馬町", "city": "美馬市", "postcode": "7712101", "prefecture": "徳島県", "id": 523 },
        { "address": "美馬町", "city": "美馬市", "postcode": "7712104", "prefecture": "徳島県", "id": 524 },
        { "address": "脇町猪尻", "city": "美馬市", "postcode": "7793604", "prefecture": "徳島県", "id": 525 },
        { "address": "脇町猪尻", "city": "美馬市", "postcode": "7793603", "prefecture": "徳島県", "id": 526 },
        { "address": "脇町猪尻", "city": "美馬市", "postcode": "7793602", "prefecture": "徳島県", "id": 527 },
        { "address": "脇町岩倉", "city": "美馬市", "postcode": "7793620", "prefecture": "徳島県", "id": 528 },
        { "address": "脇町脇町", "city": "美馬市", "postcode": "7793610", "prefecture": "徳島県", "id": 529 },
        { "address": "脇町", "city": "美馬市", "postcode": "7793633", "prefecture": "徳島県", "id": 530 },
        { "address": "脇町", "city": "美馬市", "postcode": "7793632", "prefecture": "徳島県", "id": 531 },
        { "address": "脇町", "city": "美馬市", "postcode": "7793636", "prefecture": "徳島県", "id": 532 },
        { "address": "脇町", "city": "美馬市", "postcode": "7793639", "prefecture": "徳島県", "id": 533 },
        { "address": "脇町", "city": "美馬市", "postcode": "7793638", "prefecture": "徳島県", "id": 534 },
        { "address": "脇町", "city": "美馬市", "postcode": "7793637", "prefecture": "徳島県", "id": 535 },
        { "address": "脇町", "city": "美馬市", "postcode": "7793635", "prefecture": "徳島県", "id": 536 },
        { "address": "脇町", "city": "美馬市", "postcode": "7793625", "prefecture": "徳島県", "id": 537 },
        { "address": "脇町", "city": "美馬市", "postcode": "7793634", "prefecture": "徳島県", "id": 538 },
        { "address": "脇町", "city": "美馬市", "postcode": "7793631", "prefecture": "徳島県", "id": 539 },
        { "address": "脇町", "city": "美馬市", "postcode": "7793741", "prefecture": "徳島県", "id": 540 },
        { "address": "脇町", "city": "美馬市", "postcode": "7793742", "prefecture": "徳島県", "id": 541 },
        { "address": "脇町", "city": "美馬市", "postcode": "7793744", "prefecture": "徳島県", "id": 542 },
        { "address": "脇町", "city": "美馬市", "postcode": "7793601", "prefecture": "徳島県", "id": 543 },
        { "address": "脇町", "city": "美馬市", "postcode": "7793743", "prefecture": "徳島県", "id": 544 },
        { "address": "脇町", "city": "美馬市", "postcode": "7793745", "prefecture": "徳島県", "id": 545 },
        { "city": "三好市", "postcode": "7780000", "prefecture": "徳島県", "id": 546 },
        { "address": "井川町旭町", "city": "三好市", "postcode": "7794801", "prefecture": "徳島県", "id": 547 },
        { "address": "井川町井内西", "city": "三好市", "postcode": "7794805", "prefecture": "徳島県", "id": 548 },
        { "address": "井川町井内東", "city": "三好市", "postcode": "7794804", "prefecture": "徳島県", "id": 549 },
        { "address": "井川町井関", "city": "三好市", "postcode": "7794802", "prefecture": "徳島県", "id": 550 },
        { "address": "井川町里川", "city": "三好市", "postcode": "7794807", "prefecture": "徳島県", "id": 551 },
        { "address": "井川町島", "city": "三好市", "postcode": "7794803", "prefecture": "徳島県", "id": 552 },
        { "address": "井川町西井川", "city": "三好市", "postcode": "7794806", "prefecture": "徳島県", "id": 553 },
        { "address": "池田町イケミナミ", "city": "三好市", "postcode": "7780012", "prefecture": "徳島県", "id": 554 },
        { "address": "池田町イタノ", "city": "三好市", "postcode": "7780014", "prefecture": "徳島県", "id": 555 },
        { "address": "池田町ウエノ", "city": "三好市", "postcode": "7780001", "prefecture": "徳島県", "id": 556 },
        { "address": "池田町ウエマツ", "city": "三好市", "postcode": "7780010", "prefecture": "徳島県", "id": 557 },
        { "address": "池田町馬路", "city": "三好市", "postcode": "7785252", "prefecture": "徳島県", "id": 558 },
        { "address": "池田町大利", "city": "三好市", "postcode": "7795164", "prefecture": "徳島県", "id": 559 },
        { "address": "池田町川崎", "city": "三好市", "postcode": "7795166", "prefecture": "徳島県", "id": 560 },
        { "address": "池田町クヤウジ", "city": "三好市", "postcode": "7780008", "prefecture": "徳島県", "id": 561 },
        { "address": "池田町佐野", "city": "三好市", "postcode": "7785253", "prefecture": "徳島県", "id": 562 },
        { "address": "池田町サラダ", "city": "三好市", "postcode": "7780003", "prefecture": "徳島県", "id": 563 },
        { "address": "池田町漆川", "city": "三好市", "postcode": "7795162", "prefecture": "徳島県", "id": 564 },
        { "address": "池田町シマ", "city": "三好市", "postcode": "7780005", "prefecture": "徳島県", "id": 565 },
        { "address": "池田町州津", "city": "三好市", "postcode": "7780020", "prefecture": "徳島県", "id": 566 },
        { "address": "池田町シンマチ", "city": "三好市", "postcode": "7780004", "prefecture": "徳島県", "id": 567 },
        { "address": "池田町シンヤマ", "city": "三好市", "postcode": "7780013", "prefecture": "徳島県", "id": 568 },
        { "address": "池田町トウゲ", "city": "三好市", "postcode": "7780006", "prefecture": "徳島県", "id": 569 },
        { "address": "池田町中津川", "city": "三好市", "postcode": "7795163", "prefecture": "徳島県", "id": 570 },
        { "address": "池田町中西", "city": "三好市", "postcode": "7795161", "prefecture": "徳島県", "id": 571 },
        { "address": "池田町西山", "city": "三好市", "postcode": "7780031", "prefecture": "徳島県", "id": 572 },
        { "address": "池田町西山", "city": "三好市", "postcode": "7780032", "prefecture": "徳島県", "id": 573 },
        { "address": "池田町西山", "city": "三好市", "postcode": "7780040", "prefecture": "徳島県", "id": 574 },
        { "address": "池田町白地", "city": "三好市", "postcode": "7785251", "prefecture": "徳島県", "id": 575 },
        { "address": "池田町ハヤシ", "city": "三好市", "postcode": "7780011", "prefecture": "徳島県", "id": 576 },
        { "address": "池田町マチ", "city": "三好市", "postcode": "7780002", "prefecture": "徳島県", "id": 577 },
        { "address": "池田町松尾", "city": "三好市", "postcode": "7780165", "prefecture": "徳島県", "id": 578 },
        { "address": "池田町松尾", "city": "三好市", "postcode": "7795165", "prefecture": "徳島県", "id": 579 },
        { "address": "池田町ヤサン", "city": "三好市", "postcode": "7780009", "prefecture": "徳島県", "id": 580 },
        { "address": "池田町ヤマダ", "city": "三好市", "postcode": "7780007", "prefecture": "徳島県", "id": 581 },
        { "address": "西祖谷山村吾橋", "city": "三好市", "postcode": "7780104", "prefecture": "徳島県", "id": 582 },
        { "address": "西祖谷山村有瀬", "city": "三好市", "postcode": "7780103", "prefecture": "徳島県", "id": 583 },
        { "address": "西祖谷山村一宇", "city": "三好市", "postcode": "7780101", "prefecture": "徳島県", "id": 584 },
        { "address": "西祖谷山村今久保", "city": "三好市", "postcode": "7780102", "prefecture": "徳島県", "id": 585 },
        { "address": "西祖谷山村後山", "city": "三好市", "postcode": "7780105", "prefecture": "徳島県", "id": 586 },
        { "address": "西祖谷山村小祖谷", "city": "三好市", "postcode": "7795172", "prefecture": "徳島県", "id": 587 },
        { "address": "西祖谷山村坂瀬", "city": "三好市", "postcode": "7795173", "prefecture": "徳島県", "id": 588 },
        { "address": "西祖谷山村下名", "city": "三好市", "postcode": "7795171", "prefecture": "徳島県", "id": 589 },
        { "address": "東祖谷阿佐", "city": "三好市", "postcode": "7780205", "prefecture": "徳島県", "id": 590 },
        { "address": "東祖谷今井", "city": "三好市", "postcode": "7780206", "prefecture": "徳島県", "id": 591 },
        { "address": "東祖谷大枝", "city": "三好市", "postcode": "7780204", "prefecture": "徳島県", "id": 592 },
        { "address": "東祖谷奥の井", "city": "三好市", "postcode": "7780203", "prefecture": "徳島県", "id": 593 },
        { "address": "東祖谷落合", "city": "三好市", "postcode": "7780202", "prefecture": "徳島県", "id": 594 },
        { "address": "東祖谷菅生", "city": "三好市", "postcode": "7780201", "prefecture": "徳島県", "id": 595 },
        { "address": "三野町加茂野宮", "city": "三好市", "postcode": "7712302", "prefecture": "徳島県", "id": 596 },
        { "address": "三野町芝生", "city": "三好市", "postcode": "7712304", "prefecture": "徳島県", "id": 597 },
        { "address": "三野町清水", "city": "三好市", "postcode": "7712301", "prefecture": "徳島県", "id": 598 },
        { "address": "三野町勢力", "city": "三好市", "postcode": "7712303", "prefecture": "徳島県", "id": 599 },
        { "address": "三野町太刀野", "city": "三好市", "postcode": "7712305", "prefecture": "徳島県", "id": 600 },
        { "address": "三野町太刀野山", "city": "三好市", "postcode": "7712306", "prefecture": "徳島県", "id": 601 },
        { "address": "山城町相川", "city": "三好市", "postcode": "7795307", "prefecture": "徳島県", "id": 602 },
        { "address": "山城町赤谷", "city": "三好市", "postcode": "7795336", "prefecture": "徳島県", "id": 603 },
        { "address": "山城町粟山", "city": "三好市", "postcode": "7795328", "prefecture": "徳島県", "id": 604 },
        { "address": "山城町岩戸", "city": "三好市", "postcode": "7795314", "prefecture": "徳島県", "id": 605 },
        { "address": "山城町大川持", "city": "三好市", "postcode": "7795304", "prefecture": "徳島県", "id": 606 },
        { "address": "山城町大谷", "city": "三好市", "postcode": "7795342", "prefecture": "徳島県", "id": 607 },
        { "address": "山城町大月", "city": "三好市", "postcode": "7795347", "prefecture": "徳島県", "id": 608 },
        { "address": "山城町大野", "city": "三好市", "postcode": "7795333", "prefecture": "徳島県", "id": 609 },
        { "address": "山城町小川谷", "city": "三好市", "postcode": "7795332", "prefecture": "徳島県", "id": 610 },
        { "address": "山城町尾又", "city": "三好市", "postcode": "7795327", "prefecture": "徳島県", "id": 611 },
        { "address": "山城町上名", "city": "三好市", "postcode": "7795452", "prefecture": "徳島県", "id": 612 },
        { "address": "山城町川口", "city": "三好市", "postcode": "7795305", "prefecture": "徳島県", "id": 613 },
        { "address": "山城町国政", "city": "三好市", "postcode": "7795321", "prefecture": "徳島県", "id": 614 },
        { "address": "山城町黒川", "city": "三好市", "postcode": "7795313", "prefecture": "徳島県", "id": 615 },
        { "address": "山城町佐連", "city": "三好市", "postcode": "7785254", "prefecture": "徳島県", "id": 616 },
        { "address": "山城町佐連", "city": "三好市", "postcode": "7795341", "prefecture": "徳島県", "id": 617 },
        { "address": "山城町重実", "city": "三好市", "postcode": "7795422", "prefecture": "徳島県", "id": 618 },
        { "address": "山城町重実", "city": "三好市", "postcode": "7795322", "prefecture": "徳島県", "id": 619 },
        { "address": "山城町柴川", "city": "三好市", "postcode": "7795343", "prefecture": "徳島県", "id": 620 },
        { "address": "山城町下川", "city": "三好市", "postcode": "7795303", "prefecture": "徳島県", "id": 621 },
        { "address": "山城町下名", "city": "三好市", "postcode": "7795453", "prefecture": "徳島県", "id": 622 },
        { "address": "山城町白川", "city": "三好市", "postcode": "7795324", "prefecture": "徳島県", "id": 623 },
        { "address": "山城町末貞", "city": "三好市", "postcode": "7795316", "prefecture": "徳島県", "id": 624 },
        { "address": "山城町瀬貝", "city": "三好市", "postcode": "7795345", "prefecture": "徳島県", "id": 625 },
        { "address": "山城町平野", "city": "三好市", "postcode": "7795337", "prefecture": "徳島県", "id": 626 },
        { "address": "山城町寺野", "city": "三好市", "postcode": "7795306", "prefecture": "徳島県", "id": 627 },
        { "address": "山城町中野", "city": "三好市", "postcode": "7795323", "prefecture": "徳島県", "id": 628 },
        { "address": "山城町中ノ瀬", "city": "三好市", "postcode": "7795311", "prefecture": "徳島県", "id": 629 },
        { "address": "山城町西宇", "city": "三好市", "postcode": "7795451", "prefecture": "徳島県", "id": 630 },
        { "address": "山城町信正", "city": "三好市", "postcode": "7795334", "prefecture": "徳島県", "id": 631 },
        { "address": "山城町八千坊", "city": "三好市", "postcode": "7795312", "prefecture": "徳島県", "id": 632 },
        { "address": "山城町引地", "city": "三好市", "postcode": "7795315", "prefecture": "徳島県", "id": 633 },
        { "address": "山城町仏子", "city": "三好市", "postcode": "7795326", "prefecture": "徳島県", "id": 634 },
        { "address": "山城町政友", "city": "三好市", "postcode": "7795344", "prefecture": "徳島県", "id": 635 },
        { "address": "山城町光兼", "city": "三好市", "postcode": "7795325", "prefecture": "徳島県", "id": 636 },
        { "address": "山城町茂地", "city": "三好市", "postcode": "7795331", "prefecture": "徳島県", "id": 637 },
        { "address": "山城町大和川", "city": "三好市", "postcode": "7795301", "prefecture": "徳島県", "id": 638 },
        { "address": "山城町頼広", "city": "三好市", "postcode": "7795335", "prefecture": "徳島県", "id": 639 },
        { "address": "山城町若山", "city": "三好市", "postcode": "7795302", "prefecture": "徳島県", "id": 640 },
        { "address": "山城町脇", "city": "三好市", "postcode": "7795346", "prefecture": "徳島県", "id": 641 },
        { "city": "勝浦郡勝浦町", "postcode": "7714300", "prefecture": "徳島県", "id": 642 },
        { "address": "生名", "city": "勝浦郡勝浦町", "postcode": "7714303", "prefecture": "徳島県", "id": 643 },
        { "address": "坂本", "city": "勝浦郡勝浦町", "postcode": "7714308", "prefecture": "徳島県", "id": 644 },
        { "address": "棚野", "city": "勝浦郡勝浦町", "postcode": "7714306", "prefecture": "徳島県", "id": 645 },
        { "address": "中角", "city": "勝浦郡勝浦町", "postcode": "7714302", "prefecture": "徳島県", "id": 646 },
        { "address": "沼江", "city": "勝浦郡勝浦町", "postcode": "7714301", "prefecture": "徳島県", "id": 647 },
        { "address": "久国", "city": "勝浦郡勝浦町", "postcode": "7714305", "prefecture": "徳島県", "id": 648 },
        { "address": "星谷", "city": "勝浦郡勝浦町", "postcode": "7714304", "prefecture": "徳島県", "id": 649 },
        { "address": "三渓", "city": "勝浦郡勝浦町", "postcode": "7714307", "prefecture": "徳島県", "id": 650 },
        { "city": "勝浦郡上勝町", "postcode": "7714500", "prefecture": "徳島県", "id": 651 },
        { "address": "旭", "city": "勝浦郡上勝町", "postcode": "7714502", "prefecture": "徳島県", "id": 652 },
        { "address": "生実", "city": "勝浦郡上勝町", "postcode": "7714503", "prefecture": "徳島県", "id": 653 },
        { "address": "福原", "city": "勝浦郡上勝町", "postcode": "7714501", "prefecture": "徳島県", "id": 654 },
        { "address": "傍示", "city": "勝浦郡上勝町", "postcode": "7714504", "prefecture": "徳島県", "id": 655 },
        { "address": "正木", "city": "勝浦郡上勝町", "postcode": "7714505", "prefecture": "徳島県", "id": 656 },
        { "city": "名東郡佐那河内村", "postcode": "7714100", "prefecture": "徳島県", "id": 657 },
        { "address": "上", "city": "名東郡佐那河内村", "postcode": "7714102", "prefecture": "徳島県", "id": 658 },
        { "address": "下", "city": "名東郡佐那河内村", "postcode": "7714101", "prefecture": "徳島県", "id": 659 },
        { "city": "名西郡石井町", "postcode": "7793200", "prefecture": "徳島県", "id": 660 },
        { "address": "藍畑", "city": "名西郡石井町", "postcode": "7793213", "prefecture": "徳島県", "id": 661 },
        { "address": "藍畑", "city": "名西郡石井町", "postcode": "7793214", "prefecture": "徳島県", "id": 662 },
        { "address": "藍畑", "city": "名西郡石井町", "postcode": "7793212", "prefecture": "徳島県", "id": 663 },
        { "address": "藍畑", "city": "名西郡石井町", "postcode": "7793211", "prefecture": "徳島県", "id": 664 },
        { "address": "藍畑", "city": "名西郡石井町", "postcode": "7793215", "prefecture": "徳島県", "id": 665 },
        { "address": "石井", "city": "名西郡石井町", "postcode": "7793233", "prefecture": "徳島県", "id": 666 },
        { "address": "石井", "city": "名西郡石井町", "postcode": "7793236", "prefecture": "徳島県", "id": 667 },
        { "address": "石井", "city": "名西郡石井町", "postcode": "7793231", "prefecture": "徳島県", "id": 668 },
        { "address": "石井", "city": "名西郡石井町", "postcode": "7793234", "prefecture": "徳島県", "id": 669 },
        { "address": "石井", "city": "名西郡石井町", "postcode": "7793232", "prefecture": "徳島県", "id": 670 },
        { "address": "石井", "city": "名西郡石井町", "postcode": "7793235", "prefecture": "徳島県", "id": 671 },
        { "address": "浦庄", "city": "名西郡石井町", "postcode": "7793245", "prefecture": "徳島県", "id": 672 },
        { "address": "浦庄", "city": "名西郡石井町", "postcode": "7793242", "prefecture": "徳島県", "id": 673 },
        { "address": "浦庄", "city": "名西郡石井町", "postcode": "7793244", "prefecture": "徳島県", "id": 674 },
        { "address": "浦庄", "city": "名西郡石井町", "postcode": "7793241", "prefecture": "徳島県", "id": 675 },
        { "address": "浦庄", "city": "名西郡石井町", "postcode": "7793243", "prefecture": "徳島県", "id": 676 },
        { "address": "高川原", "city": "名西郡石井町", "postcode": "7793226", "prefecture": "徳島県", "id": 677 },
        { "address": "高川原", "city": "名西郡石井町", "postcode": "7793224", "prefecture": "徳島県", "id": 678 },
        { "address": "高川原", "city": "名西郡石井町", "postcode": "7793225", "prefecture": "徳島県", "id": 679 },
        { "address": "高川原", "city": "名西郡石井町", "postcode": "7793223", "prefecture": "徳島県", "id": 680 },
        { "address": "高川原", "city": "名西郡石井町", "postcode": "7793222", "prefecture": "徳島県", "id": 681 },
        { "address": "高川原", "city": "名西郡石井町", "postcode": "7793221", "prefecture": "徳島県", "id": 682 },
        { "address": "高原", "city": "名西郡石井町", "postcode": "7793206", "prefecture": "徳島県", "id": 683 },
        { "address": "高原", "city": "名西郡石井町", "postcode": "7793207", "prefecture": "徳島県", "id": 684 },
        { "address": "高原", "city": "名西郡石井町", "postcode": "7793202", "prefecture": "徳島県", "id": 685 },
        { "address": "高原", "city": "名西郡石井町", "postcode": "7793208", "prefecture": "徳島県", "id": 686 },
        { "address": "高原", "city": "名西郡石井町", "postcode": "7793201", "prefecture": "徳島県", "id": 687 },
        { "address": "高原", "city": "名西郡石井町", "postcode": "7793205", "prefecture": "徳島県", "id": 688 },
        { "address": "高原", "city": "名西郡石井町", "postcode": "7793204", "prefecture": "徳島県", "id": 689 },
        { "address": "高原", "city": "名西郡石井町", "postcode": "7793203", "prefecture": "徳島県", "id": 690 },
        { "city": "名西郡神山町", "postcode": "7713200", "prefecture": "徳島県", "id": 691 },
        { "address": "阿野", "city": "名西郡神山町", "postcode": "7713202", "prefecture": "徳島県", "id": 692 },
        { "address": "阿野", "city": "名西郡神山町", "postcode": "7713201", "prefecture": "徳島県", "id": 693 },
        { "address": "鬼籠野", "city": "名西郡神山町", "postcode": "7713203", "prefecture": "徳島県", "id": 694 },
        { "address": "上分", "city": "名西郡神山町", "postcode": "7713422", "prefecture": "徳島県", "id": 695 },
        { "address": "下分", "city": "名西郡神山町", "postcode": "7713421", "prefecture": "徳島県", "id": 696 },
        { "address": "神領", "city": "名西郡神山町", "postcode": "7713311", "prefecture": "徳島県", "id": 697 },
        { "address": "神領", "city": "名西郡神山町", "postcode": "7713310", "prefecture": "徳島県", "id": 698 },
        { "city": "那賀郡那賀町", "postcode": "7715200", "prefecture": "徳島県", "id": 699 },
        { "address": "阿井", "city": "那賀郡那賀町", "postcode": "7715207", "prefecture": "徳島県", "id": 700 },
        { "address": "鮎川", "city": "那賀郡那賀町", "postcode": "7715403", "prefecture": "徳島県", "id": 701 },
        { "address": "相名", "city": "那賀郡那賀町", "postcode": "7715323", "prefecture": "徳島県", "id": 702 },
        { "address": "朝生", "city": "那賀郡那賀町", "postcode": "7715401", "prefecture": "徳島県", "id": 703 },
        { "address": "阿津江", "city": "那賀郡那賀町", "postcode": "7716101", "prefecture": "徳島県", "id": 704 },
        { "address": "出羽", "city": "那賀郡那賀町", "postcode": "7716103", "prefecture": "徳島県", "id": 705 },
        { "address": "井ノ谷", "city": "那賀郡那賀町", "postcode": "7715324", "prefecture": "徳島県", "id": 706 },
        { "address": "入野", "city": "那賀郡那賀町", "postcode": "7715405", "prefecture": "徳島県", "id": 707 },
        { "address": "岩倉", "city": "那賀郡那賀町", "postcode": "7716118", "prefecture": "徳島県", "id": 708 },
        { "address": "請ノ谷", "city": "那賀郡那賀町", "postcode": "7715328", "prefecture": "徳島県", "id": 709 },
        { "address": "牛輪", "city": "那賀郡那賀町", "postcode": "7715404", "prefecture": "徳島県", "id": 710 },
        { "address": "臼ケ谷", "city": "那賀郡那賀町", "postcode": "7715504", "prefecture": "徳島県", "id": 711 },
        { "address": "内山", "city": "那賀郡那賀町", "postcode": "7715326", "prefecture": "徳島県", "id": 712 },
        { "address": "馬路", "city": "那賀郡那賀町", "postcode": "7715321", "prefecture": "徳島県", "id": 713 },
        { "address": "榎谷", "city": "那賀郡那賀町", "postcode": "7715320", "prefecture": "徳島県", "id": 714 },
        { "address": "大久保", "city": "那賀郡那賀町", "postcode": "7715410", "prefecture": "徳島県", "id": 715 },
        { "address": "大戸", "city": "那賀郡那賀町", "postcode": "7715516", "prefecture": "徳島県", "id": 716 },
        { "address": "大殿", "city": "那賀郡那賀町", "postcode": "7716322", "prefecture": "徳島県", "id": 717 },
        { "address": "小畠", "city": "那賀郡那賀町", "postcode": "7716115", "prefecture": "徳島県", "id": 718 },
        { "address": "音谷", "city": "那賀郡那賀町", "postcode": "7715501", "prefecture": "徳島県", "id": 719 },
        { "address": "雄", "city": "那賀郡那賀町", "postcode": "7715407", "prefecture": "徳島県", "id": 720 },
        { "address": "海川", "city": "那賀郡那賀町", "postcode": "7716328", "prefecture": "徳島県", "id": 721 },
        { "address": "蔭谷", "city": "那賀郡那賀町", "postcode": "7715413", "prefecture": "徳島県", "id": 722 },
        { "address": "掛盤", "city": "那賀郡那賀町", "postcode": "7716107", "prefecture": "徳島県", "id": 723 },
        { "address": "川成", "city": "那賀郡那賀町", "postcode": "7716117", "prefecture": "徳島県", "id": 724 },
        { "address": "川俣", "city": "那賀郡那賀町", "postcode": "7715515", "prefecture": "徳島県", "id": 725 },
        { "address": "木頭", "city": "那賀郡那賀町", "postcode": "7716105", "prefecture": "徳島県", "id": 726 },
        { "address": "木頭出原", "city": "那賀郡那賀町", "postcode": "7716402", "prefecture": "徳島県", "id": 727 },
        { "address": "木頭折宇", "city": "那賀郡那賀町", "postcode": "7716511", "prefecture": "徳島県", "id": 728 },
        { "address": "木頭北川", "city": "那賀郡那賀町", "postcode": "7716512", "prefecture": "徳島県", "id": 729 },
        { "address": "木頭助", "city": "那賀郡那賀町", "postcode": "7716401", "prefecture": "徳島県", "id": 730 },
        { "address": "木頭西宇", "city": "那賀郡那賀町", "postcode": "7716405", "prefecture": "徳島県", "id": 731 },
        { "address": "木頭南宇", "city": "那賀郡那賀町", "postcode": "7716404", "prefecture": "徳島県", "id": 732 },
        { "address": "木頭和無田", "city": "那賀郡那賀町", "postcode": "7716403", "prefecture": "徳島県", "id": 733 },
        { "address": "木頭名", "city": "那賀郡那賀町", "postcode": "7716102", "prefecture": "徳島県", "id": 734 },
        { "address": "小泉", "city": "那賀郡那賀町", "postcode": "7716111", "prefecture": "徳島県", "id": 735 },
        { "address": "御所谷", "city": "那賀郡那賀町", "postcode": "7716324", "prefecture": "徳島県", "id": 736 },
        { "address": "小仁宇", "city": "那賀郡那賀町", "postcode": "7715209", "prefecture": "徳島県", "id": 737 },
        { "address": "小計", "city": "那賀郡那賀町", "postcode": "7715512", "prefecture": "徳島県", "id": 738 },
        { "address": "小浜", "city": "那賀郡那賀町", "postcode": "7715503", "prefecture": "徳島県", "id": 739 },
        { "address": "坂州", "city": "那賀郡那賀町", "postcode": "7716106", "prefecture": "徳島県", "id": 740 },
        { "address": "桜谷", "city": "那賀郡那賀町", "postcode": "7715502", "prefecture": "徳島県", "id": 741 },
        { "address": "沢谷", "city": "那賀郡那賀町", "postcode": "7716114", "prefecture": "徳島県", "id": 742 },
        { "address": "丈ケ谷", "city": "那賀郡那賀町", "postcode": "7716325", "prefecture": "徳島県", "id": 743 },
        { "address": "菖蒲", "city": "那賀郡那賀町", "postcode": "7715507", "prefecture": "徳島県", "id": 744 },
        { "address": "白石", "city": "那賀郡那賀町", "postcode": "7716323", "prefecture": "徳島県", "id": 745 },
        { "address": "高野", "city": "那賀郡那賀町", "postcode": "7716112", "prefecture": "徳島県", "id": 746 },
        { "address": "竹ケ谷", "city": "那賀郡那賀町", "postcode": "7715329", "prefecture": "徳島県", "id": 747 },
        { "address": "谷内", "city": "那賀郡那賀町", "postcode": "7715322", "prefecture": "徳島県", "id": 748 },
        { "address": "寺内", "city": "那賀郡那賀町", "postcode": "7716113", "prefecture": "徳島県", "id": 749 },
        { "address": "当山", "city": "那賀郡那賀町", "postcode": "7716104", "prefecture": "徳島県", "id": 750 },
        { "address": "土佐", "city": "那賀郡那賀町", "postcode": "7715202", "prefecture": "徳島県", "id": 751 },
        { "address": "長安", "city": "那賀郡那賀町", "postcode": "7715505", "prefecture": "徳島県", "id": 752 },
        { "address": "中山", "city": "那賀郡那賀町", "postcode": "7715204", "prefecture": "徳島県", "id": 753 },
        { "address": "成瀬", "city": "那賀郡那賀町", "postcode": "7716327", "prefecture": "徳島県", "id": 754 },
        { "address": "仁宇", "city": "那賀郡那賀町", "postcode": "7715208", "prefecture": "徳島県", "id": 755 },
        { "address": "西納", "city": "那賀郡那賀町", "postcode": "7715327", "prefecture": "徳島県", "id": 756 },
        { "address": "延野", "city": "那賀郡那賀町", "postcode": "7715406", "prefecture": "徳島県", "id": 757 },
        { "address": "拝宮", "city": "那賀郡那賀町", "postcode": "7715518", "prefecture": "徳島県", "id": 758 },
        { "address": "鉢", "city": "那賀郡那賀町", "postcode": "7715409", "prefecture": "徳島県", "id": 759 },
        { "address": "花瀬", "city": "那賀郡那賀町", "postcode": "7715532", "prefecture": "徳島県", "id": 760 },
        { "address": "日浦", "city": "那賀郡那賀町", "postcode": "7715531", "prefecture": "徳島県", "id": 761 },
        { "address": "東尾", "city": "那賀郡那賀町", "postcode": "7715508", "prefecture": "徳島県", "id": 762 },
        { "address": "桧曽根", "city": "那賀郡那賀町", "postcode": "7715506", "prefecture": "徳島県", "id": 763 },
        { "address": "日真", "city": "那賀郡那賀町", "postcode": "7715517", "prefecture": "徳島県", "id": 764 },
        { "address": "平谷", "city": "那賀郡那賀町", "postcode": "7716321", "prefecture": "徳島県", "id": 765 },
        { "address": "平野", "city": "那賀郡那賀町", "postcode": "7715325", "prefecture": "徳島県", "id": 766 },
        { "address": "深森", "city": "那賀郡那賀町", "postcode": "7715514", "prefecture": "徳島県", "id": 767 },
        { "address": "府殿", "city": "那賀郡那賀町", "postcode": "7716326", "prefecture": "徳島県", "id": 768 },
        { "address": "古屋", "city": "那賀郡那賀町", "postcode": "7715513", "prefecture": "徳島県", "id": 769 },
        { "address": "朴野", "city": "那賀郡那賀町", "postcode": "7715412", "prefecture": "徳島県", "id": 770 },
        { "address": "水崎", "city": "那賀郡那賀町", "postcode": "7715511", "prefecture": "徳島県", "id": 771 },
        { "address": "百合", "city": "那賀郡那賀町", "postcode": "7715206", "prefecture": "徳島県", "id": 772 },
        { "address": "百合谷", "city": "那賀郡那賀町", "postcode": "7715205", "prefecture": "徳島県", "id": 773 },
        { "address": "簗ノ上", "city": "那賀郡那賀町", "postcode": "7715402", "prefecture": "徳島県", "id": 774 },
        { "address": "横石", "city": "那賀郡那賀町", "postcode": "7715411", "prefecture": "徳島県", "id": 775 },
        { "address": "横谷", "city": "那賀郡那賀町", "postcode": "7716116", "prefecture": "徳島県", "id": 776 },
        { "address": "吉野", "city": "那賀郡那賀町", "postcode": "7715408", "prefecture": "徳島県", "id": 777 },
        { "address": "和食", "city": "那賀郡那賀町", "postcode": "7715201", "prefecture": "徳島県", "id": 778 },
        { "address": "和食郷", "city": "那賀郡那賀町", "postcode": "7715203", "prefecture": "徳島県", "id": 779 },
        { "city": "海部郡牟岐町", "postcode": "7750000", "prefecture": "徳島県", "id": 780 },
        { "address": "内妻", "city": "海部郡牟岐町", "postcode": "7750007", "prefecture": "徳島県", "id": 781 },
        { "address": "川長", "city": "海部郡牟岐町", "postcode": "7750004", "prefecture": "徳島県", "id": 782 },
        { "address": "河内", "city": "海部郡牟岐町", "postcode": "7750001", "prefecture": "徳島県", "id": 783 },
        { "address": "橘", "city": "海部郡牟岐町", "postcode": "7750002", "prefecture": "徳島県", "id": 784 },
        { "address": "中村", "city": "海部郡牟岐町", "postcode": "7750006", "prefecture": "徳島県", "id": 785 },
        { "address": "灘", "city": "海部郡牟岐町", "postcode": "7750005", "prefecture": "徳島県", "id": 786 },
        { "address": "辺川", "city": "海部郡牟岐町", "postcode": "7750003", "prefecture": "徳島県", "id": 787 },
        { "address": "牟岐浦", "city": "海部郡牟岐町", "postcode": "7750013", "prefecture": "徳島県", "id": 788 },
        { "address": "牟岐浦", "city": "海部郡牟岐町", "postcode": "7750011", "prefecture": "徳島県", "id": 789 },
        { "address": "牟岐浦", "city": "海部郡牟岐町", "postcode": "7750012", "prefecture": "徳島県", "id": 790 },
        { "address": "牟岐浦", "city": "海部郡牟岐町", "postcode": "7750010", "prefecture": "徳島県", "id": 791 },
        { "city": "海部郡美波町", "postcode": "7792300", "prefecture": "徳島県", "id": 792 },
        { "address": "赤松", "city": "海部郡美波町", "postcode": "7792301", "prefecture": "徳島県", "id": 793 },
        { "address": "阿部", "city": "海部郡美波町", "postcode": "7792106", "prefecture": "徳島県", "id": 794 },
        { "address": "伊座利", "city": "海部郡美波町", "postcode": "7792107", "prefecture": "徳島県", "id": 795 },
        { "address": "恵比須浜", "city": "海部郡美波町", "postcode": "7792303", "prefecture": "徳島県", "id": 796 },
        { "address": "奥河内", "city": "海部郡美波町", "postcode": "7792305", "prefecture": "徳島県", "id": 797 },
        { "address": "木岐", "city": "海部郡美波町", "postcode": "7792108", "prefecture": "徳島県", "id": 798 },
        { "address": "北河内", "city": "海部郡美波町", "postcode": "7792302", "prefecture": "徳島県", "id": 799 },
        { "address": "志和岐", "city": "海部郡美波町", "postcode": "7792105", "prefecture": "徳島県", "id": 800 },
        { "address": "田井", "city": "海部郡美波町", "postcode": "7792109", "prefecture": "徳島県", "id": 801 },
        { "address": "西河内", "city": "海部郡美波町", "postcode": "7792306", "prefecture": "徳島県", "id": 802 },
        { "address": "西の地", "city": "海部郡美波町", "postcode": "7792103", "prefecture": "徳島県", "id": 803 },
        { "address": "西由岐", "city": "海部郡美波町", "postcode": "7792101", "prefecture": "徳島県", "id": 804 },
        { "address": "東由岐", "city": "海部郡美波町", "postcode": "7792104", "prefecture": "徳島県", "id": 805 },
        { "address": "日和佐浦", "city": "海部郡美波町", "postcode": "7792304", "prefecture": "徳島県", "id": 806 },
        { "address": "港町", "city": "海部郡美波町", "postcode": "7792102", "prefecture": "徳島県", "id": 807 },
        { "address": "山河内", "city": "海部郡美波町", "postcode": "7792307", "prefecture": "徳島県", "id": 808 },
        { "city": "海部郡海陽町", "postcode": "7750200", "prefecture": "徳島県", "id": 809 },
        { "address": "相川", "city": "海部郡海陽町", "postcode": "7750415", "prefecture": "徳島県", "id": 810 },
        { "address": "浅川", "city": "海部郡海陽町", "postcode": "7750101", "prefecture": "徳島県", "id": 811 },
        { "address": "大井", "city": "海部郡海陽町", "postcode": "7750310", "prefecture": "徳島県", "id": 812 },
        { "address": "大里", "city": "海部郡海陽町", "postcode": "7750203", "prefecture": "徳島県", "id": 813 },
        { "address": "小川", "city": "海部郡海陽町", "postcode": "7750412", "prefecture": "徳島県", "id": 814 },
        { "address": "奥浦", "city": "海部郡海陽町", "postcode": "7750302", "prefecture": "徳島県", "id": 815 },
        { "address": "尾崎", "city": "海部郡海陽町", "postcode": "7750504", "prefecture": "徳島県", "id": 816 },
        { "address": "角坂", "city": "海部郡海陽町", "postcode": "7750506", "prefecture": "徳島県", "id": 817 },
        { "address": "久尾", "city": "海部郡海陽町", "postcode": "7750511", "prefecture": "徳島県", "id": 818 },
        { "address": "芥附", "city": "海部郡海陽町", "postcode": "7750505", "prefecture": "徳島県", "id": 819 },
        { "address": "櫛川", "city": "海部郡海陽町", "postcode": "7750306", "prefecture": "徳島県", "id": 820 },
        { "address": "久保", "city": "海部郡海陽町", "postcode": "7750502", "prefecture": "徳島県", "id": 821 },
        { "address": "神野", "city": "海部郡海陽町", "postcode": "7750413", "prefecture": "徳島県", "id": 822 },
        { "address": "小谷", "city": "海部郡海陽町", "postcode": "7750508", "prefecture": "徳島県", "id": 823 },
        { "address": "塩深", "city": "海部郡海陽町", "postcode": "7750509", "prefecture": "徳島県", "id": 824 },
        { "address": "宍喰浦", "city": "海部郡海陽町", "postcode": "7750513", "prefecture": "徳島県", "id": 825 },
        { "address": "宍喰浦", "city": "海部郡海陽町", "postcode": "7750512", "prefecture": "徳島県", "id": 826 },
        { "address": "宍喰浦", "city": "海部郡海陽町", "postcode": "7750501", "prefecture": "徳島県", "id": 827 },
        { "address": "芝", "city": "海部郡海陽町", "postcode": "7750307", "prefecture": "徳島県", "id": 828 },
        { "address": "四方原", "city": "海部郡海陽町", "postcode": "7750202", "prefecture": "徳島県", "id": 829 },
        { "address": "熟田", "city": "海部郡海陽町", "postcode": "7750206", "prefecture": "徳島県", "id": 830 },
        { "address": "高園", "city": "海部郡海陽町", "postcode": "7750303", "prefecture": "徳島県", "id": 831 },
        { "address": "多良", "city": "海部郡海陽町", "postcode": "7750204", "prefecture": "徳島県", "id": 832 },
        { "address": "富田", "city": "海部郡海陽町", "postcode": "7750309", "prefecture": "徳島県", "id": 833 },
        { "address": "鞆浦", "city": "海部郡海陽町", "postcode": "7750301", "prefecture": "徳島県", "id": 834 },
        { "address": "中山", "city": "海部郡海陽町", "postcode": "7750305", "prefecture": "徳島県", "id": 835 },
        { "address": "野江", "city": "海部郡海陽町", "postcode": "7750304", "prefecture": "徳島県", "id": 836 },
        { "address": "日比原", "city": "海部郡海陽町", "postcode": "7750503", "prefecture": "徳島県", "id": 837 },
        { "address": "平井", "city": "海部郡海陽町", "postcode": "7750411", "prefecture": "徳島県", "id": 838 },
        { "address": "広岡", "city": "海部郡海陽町", "postcode": "7750507", "prefecture": "徳島県", "id": 839 },
        { "address": "船津", "city": "海部郡海陽町", "postcode": "7750510", "prefecture": "徳島県", "id": 840 },
        { "address": "吉田", "city": "海部郡海陽町", "postcode": "7750308", "prefecture": "徳島県", "id": 841 },
        { "address": "吉野", "city": "海部郡海陽町", "postcode": "7750205", "prefecture": "徳島県", "id": 842 },
        { "address": "若松", "city": "海部郡海陽町", "postcode": "7750414", "prefecture": "徳島県", "id": 843 },
        { "city": "板野郡松茂町", "postcode": "7710200", "prefecture": "徳島県", "id": 844 },
        { "address": "笹木野", "city": "板野郡松茂町", "postcode": "7710219", "prefecture": "徳島県", "id": 845 },
        { "address": "住吉", "city": "板野郡松茂町", "postcode": "7710218", "prefecture": "徳島県", "id": 846 },
        { "address": "豊岡", "city": "板野郡松茂町", "postcode": "7710215", "prefecture": "徳島県", "id": 847 },
        { "address": "豊中", "city": "板野郡松茂町", "postcode": "7710217", "prefecture": "徳島県", "id": 848 },
        { "address": "豊久", "city": "板野郡松茂町", "postcode": "7710213", "prefecture": "徳島県", "id": 849 },
        { "address": "中喜来", "city": "板野郡松茂町", "postcode": "7710212", "prefecture": "徳島県", "id": 850 },
        { "address": "長岸", "city": "板野郡松茂町", "postcode": "7710211", "prefecture": "徳島県", "id": 851 },
        { "address": "長原", "city": "板野郡松茂町", "postcode": "7710216", "prefecture": "徳島県", "id": 852 },
        { "address": "広島", "city": "板野郡松茂町", "postcode": "7710220", "prefecture": "徳島県", "id": 853 },
        { "address": "満穂", "city": "板野郡松茂町", "postcode": "7710214", "prefecture": "徳島県", "id": 854 },
        { "address": "江尻", "city": "板野郡北島町", "postcode": "7710205", "prefecture": "徳島県", "id": 855 },
        { "address": "北村", "city": "板野郡北島町", "postcode": "7710201", "prefecture": "徳島県", "id": 856 },
        { "address": "新喜来", "city": "板野郡北島町", "postcode": "7710207", "prefecture": "徳島県", "id": 857 },
        { "address": "鯛浜", "city": "板野郡北島町", "postcode": "7710204", "prefecture": "徳島県", "id": 858 },
        { "address": "高房", "city": "板野郡北島町", "postcode": "7710206", "prefecture": "徳島県", "id": 859 },
        { "address": "太郎八須", "city": "板野郡北島町", "postcode": "7710202", "prefecture": "徳島県", "id": 860 },
        { "address": "中村", "city": "板野郡北島町", "postcode": "7710203", "prefecture": "徳島県", "id": 861 },
        { "city": "板野郡藍住町", "postcode": "7711200", "prefecture": "徳島県", "id": 862 },
        { "address": "奥野", "city": "板野郡藍住町", "postcode": "7711202", "prefecture": "徳島県", "id": 863 },
        { "address": "奥野", "city": "板野郡藍住町", "postcode": "7711203", "prefecture": "徳島県", "id": 864 },
        { "address": "奥野", "city": "板野郡藍住町", "postcode": "7711201", "prefecture": "徳島県", "id": 865 },
        { "address": "乙瀬", "city": "板野郡藍住町", "postcode": "7711240", "prefecture": "徳島県", "id": 866 },
        { "address": "笠木", "city": "板野郡藍住町", "postcode": "7711262", "prefecture": "徳島県", "id": 867 },
        { "address": "笠木", "city": "板野郡藍住町", "postcode": "7711261", "prefecture": "徳島県", "id": 868 },
        { "address": "笠木", "city": "板野郡藍住町", "postcode": "7711260", "prefecture": "徳島県", "id": 869 },
        { "address": "勝瑞", "city": "板野郡藍住町", "postcode": "7711271", "prefecture": "徳島県", "id": 870 },
        { "address": "勝瑞", "city": "板野郡藍住町", "postcode": "7711273", "prefecture": "徳島県", "id": 871 },
        { "address": "勝瑞", "city": "板野郡藍住町", "postcode": "7711272", "prefecture": "徳島県", "id": 872 },
        { "address": "勝瑞", "city": "板野郡藍住町", "postcode": "7711270", "prefecture": "徳島県", "id": 873 },
        { "address": "住吉", "city": "板野郡藍住町", "postcode": "7711267", "prefecture": "徳島県", "id": 874 },
        { "address": "住吉", "city": "板野郡藍住町", "postcode": "7711265", "prefecture": "徳島県", "id": 875 },
        { "address": "住吉", "city": "板野郡藍住町", "postcode": "7711266", "prefecture": "徳島県", "id": 876 },
        { "address": "住吉", "city": "板野郡藍住町", "postcode": "7711264", "prefecture": "徳島県", "id": 877 },
        { "address": "徳命", "city": "板野郡藍住町", "postcode": "7711212", "prefecture": "徳島県", "id": 878 },
        { "address": "徳命", "city": "板野郡藍住町", "postcode": "7711211", "prefecture": "徳島県", "id": 879 },
        { "address": "徳命", "city": "板野郡藍住町", "postcode": "7711210", "prefecture": "徳島県", "id": 880 },
        { "address": "富吉", "city": "板野郡藍住町", "postcode": "7711232", "prefecture": "徳島県", "id": 881 },
        { "address": "富吉", "city": "板野郡藍住町", "postcode": "7711231", "prefecture": "徳島県", "id": 882 },
        { "address": "富吉", "city": "板野郡藍住町", "postcode": "7711230", "prefecture": "徳島県", "id": 883 },
        { "address": "東中富", "city": "板野郡藍住町", "postcode": "7711224", "prefecture": "徳島県", "id": 884 },
        { "address": "東中富", "city": "板野郡藍住町", "postcode": "7711222", "prefecture": "徳島県", "id": 885 },
        { "address": "東中富", "city": "板野郡藍住町", "postcode": "7711223", "prefecture": "徳島県", "id": 886 },
        { "address": "東中富", "city": "板野郡藍住町", "postcode": "7711221", "prefecture": "徳島県", "id": 887 },
        { "address": "東中富", "city": "板野郡藍住町", "postcode": "7711220", "prefecture": "徳島県", "id": 888 },
        { "address": "矢上", "city": "板野郡藍住町", "postcode": "7711253", "prefecture": "徳島県", "id": 889 },
        { "address": "矢上", "city": "板野郡藍住町", "postcode": "7711252", "prefecture": "徳島県", "id": 890 },
        { "address": "矢上", "city": "板野郡藍住町", "postcode": "7711251", "prefecture": "徳島県", "id": 891 },
        { "address": "矢上", "city": "板野郡藍住町", "postcode": "7711250", "prefecture": "徳島県", "id": 892 },
        { "city": "板野郡板野町", "postcode": "7790100", "prefecture": "徳島県", "id": 893 },
        { "address": "犬伏", "city": "板野郡板野町", "postcode": "7790108", "prefecture": "徳島県", "id": 894 },
        { "address": "大坂", "city": "板野郡板野町", "postcode": "7790101", "prefecture": "徳島県", "id": 895 },
        { "address": "大寺", "city": "板野郡板野町", "postcode": "7790106", "prefecture": "徳島県", "id": 896 },
        { "address": "大寺", "city": "板野郡板野町", "postcode": "7790105", "prefecture": "徳島県", "id": 897 },
        { "address": "川端", "city": "板野郡板野町", "postcode": "7790103", "prefecture": "徳島県", "id": 898 },
        { "address": "川端", "city": "板野郡板野町", "postcode": "7790102", "prefecture": "徳島県", "id": 899 },
        { "address": "黒谷", "city": "板野郡板野町", "postcode": "7790113", "prefecture": "徳島県", "id": 900 },
        { "address": "下庄", "city": "板野郡板野町", "postcode": "7790118", "prefecture": "徳島県", "id": 901 },
        { "address": "唐園", "city": "板野郡板野町", "postcode": "7790116", "prefecture": "徳島県", "id": 902 },
        { "address": "中久保", "city": "板野郡板野町", "postcode": "7790117", "prefecture": "徳島県", "id": 903 },
        { "address": "那東", "city": "板野郡板野町", "postcode": "7790111", "prefecture": "徳島県", "id": 904 },
        { "address": "西中富", "city": "板野郡板野町", "postcode": "7790119", "prefecture": "徳島県", "id": 905 },
        { "address": "吹田", "city": "板野郡板野町", "postcode": "7790104", "prefecture": "徳島県", "id": 906 },
        { "address": "古城", "city": "板野郡板野町", "postcode": "7790107", "prefecture": "徳島県", "id": 907 },
        { "address": "松谷", "city": "板野郡板野町", "postcode": "7790112", "prefecture": "徳島県", "id": 908 },
        { "address": "矢武", "city": "板野郡板野町", "postcode": "7790115", "prefecture": "徳島県", "id": 909 },
        { "address": "羅漢", "city": "板野郡板野町", "postcode": "7790114", "prefecture": "徳島県", "id": 910 },
        { "city": "板野郡上板町", "postcode": "7711300", "prefecture": "徳島県", "id": 911 },
        { "address": "泉谷", "city": "板野郡上板町", "postcode": "7711310", "prefecture": "徳島県", "id": 912 },
        { "address": "鍛冶屋原", "city": "板野郡上板町", "postcode": "7711301", "prefecture": "徳島県", "id": 913 },
        { "address": "上六條", "city": "板野郡上板町", "postcode": "7711345", "prefecture": "徳島県", "id": 914 },
        { "address": "神宅", "city": "板野郡上板町", "postcode": "7711320", "prefecture": "徳島県", "id": 915 },
        { "address": "佐藤塚", "city": "板野郡上板町", "postcode": "7711342", "prefecture": "徳島県", "id": 916 },
        { "address": "椎本", "city": "板野郡上板町", "postcode": "7711343", "prefecture": "徳島県", "id": 917 },
        { "address": "七條", "city": "板野郡上板町", "postcode": "7711302", "prefecture": "徳島県", "id": 918 },
        { "address": "下六條", "city": "板野郡上板町", "postcode": "7711344", "prefecture": "徳島県", "id": 919 },
        { "address": "瀬部", "city": "板野郡上板町", "postcode": "7711350", "prefecture": "徳島県", "id": 920 },
        { "address": "第十新田", "city": "板野郡上板町", "postcode": "7711341", "prefecture": "徳島県", "id": 921 },
        { "address": "高磯", "city": "板野郡上板町", "postcode": "7711346", "prefecture": "徳島県", "id": 922 },
        { "address": "高瀬", "city": "板野郡上板町", "postcode": "7711347", "prefecture": "徳島県", "id": 923 },
        { "address": "西分", "city": "板野郡上板町", "postcode": "7711330", "prefecture": "徳島県", "id": 924 },
        { "address": "引野", "city": "板野郡上板町", "postcode": "7711311", "prefecture": "徳島県", "id": 925 },
        { "city": "美馬郡つるぎ町", "postcode": "7794100", "prefecture": "徳島県", "id": 926 },
        { "address": "一宇", "city": "美馬郡つるぎ町", "postcode": "7794302", "prefecture": "徳島県", "id": 927 },
        { "address": "一宇", "city": "美馬郡つるぎ町", "postcode": "7794305", "prefecture": "徳島県", "id": 928 },
        { "address": "一宇", "city": "美馬郡つるぎ町", "postcode": "7794301", "prefecture": "徳島県", "id": 929 },
        { "address": "一宇", "city": "美馬郡つるぎ町", "postcode": "7794304", "prefecture": "徳島県", "id": 930 },
        { "address": "一宇", "city": "美馬郡つるぎ町", "postcode": "7794306", "prefecture": "徳島県", "id": 931 },
        { "address": "一宇", "city": "美馬郡つるぎ町", "postcode": "7794307", "prefecture": "徳島県", "id": 932 },
        { "address": "一宇", "city": "美馬郡つるぎ町", "postcode": "7794303", "prefecture": "徳島県", "id": 933 },
        { "address": "貞光", "city": "美馬郡つるぎ町", "postcode": "7794101", "prefecture": "徳島県", "id": 934 },
        { "address": "貞光", "city": "美馬郡つるぎ町", "postcode": "7794105", "prefecture": "徳島県", "id": 935 },
        { "address": "貞光", "city": "美馬郡つるぎ町", "postcode": "7794103", "prefecture": "徳島県", "id": 936 },
        { "address": "貞光", "city": "美馬郡つるぎ町", "postcode": "7794106", "prefecture": "徳島県", "id": 937 },
        { "address": "貞光", "city": "美馬郡つるぎ町", "postcode": "7794104", "prefecture": "徳島県", "id": 938 },
        { "address": "貞光", "city": "美馬郡つるぎ町", "postcode": "7794108", "prefecture": "徳島県", "id": 939 },
        { "address": "貞光", "city": "美馬郡つるぎ町", "postcode": "7794109", "prefecture": "徳島県", "id": 940 },
        { "address": "貞光", "city": "美馬郡つるぎ町", "postcode": "7794107", "prefecture": "徳島県", "id": 941 },
        { "address": "貞光", "city": "美馬郡つるぎ町", "postcode": "7794102", "prefecture": "徳島県", "id": 942 },
        { "address": "半田", "city": "美馬郡つるぎ町", "postcode": "7794404", "prefecture": "徳島県", "id": 943 },
        { "address": "半田", "city": "美馬郡つるぎ町", "postcode": "7794402", "prefecture": "徳島県", "id": 944 },
        { "address": "半田", "city": "美馬郡つるぎ町", "postcode": "7794401", "prefecture": "徳島県", "id": 945 },
        { "address": "半田", "city": "美馬郡つるぎ町", "postcode": "7794406", "prefecture": "徳島県", "id": 946 },
        { "address": "半田", "city": "美馬郡つるぎ町", "postcode": "7794405", "prefecture": "徳島県", "id": 947 },
        { "address": "半田", "city": "美馬郡つるぎ町", "postcode": "7794403", "prefecture": "徳島県", "id": 948 },
        { "address": "半田", "city": "美馬郡つるぎ町", "postcode": "7794407", "prefecture": "徳島県", "id": 949 },
        { "city": "三好郡東みよし町", "postcode": "7794700", "prefecture": "徳島県", "id": 950 },
        { "address": "足代", "city": "三好郡東みよし町", "postcode": "7712502", "prefecture": "徳島県", "id": 951 },
        { "address": "加茂", "city": "三好郡東みよし町", "postcode": "7794701", "prefecture": "徳島県", "id": 952 },
        { "address": "毛田", "city": "三好郡東みよし町", "postcode": "7794707", "prefecture": "徳島県", "id": 953 },
        { "address": "毛田", "city": "三好郡東みよし町", "postcode": "7794706", "prefecture": "徳島県", "id": 954 },
        { "address": "毛田", "city": "三好郡東みよし町", "postcode": "7794705", "prefecture": "徳島県", "id": 955 },
        { "address": "中庄", "city": "三好郡東みよし町", "postcode": "7794704", "prefecture": "徳島県", "id": 956 },
        { "address": "中庄", "city": "三好郡東みよし町", "postcode": "7794703", "prefecture": "徳島県", "id": 957 },
        { "address": "西庄", "city": "三好郡東みよし町", "postcode": "7794702", "prefecture": "徳島県", "id": 958 },
        { "address": "東山", "city": "三好郡東みよし町", "postcode": "7712503", "prefecture": "徳島県", "id": 959 },
        { "address": "昼間", "city": "三好郡東みよし町", "postcode": "7712501", "prefecture": "徳島県", "id": 960 }
    ]
}
