{
    "postcodes": [
        { "city": "松山市", "postcode": "791-0000", "prefecture": "愛媛県", "id": 7910000 },
        { "address": "愛光町", "city": "松山市", "postcode": "790-0064", "prefecture": "愛媛県", "id": 7900064 },
        { "address": "安居島", "city": "松山市", "postcode": "799-2433", "prefecture": "愛媛県", "id": 7992433 },
        { "address": "会津町", "city": "松山市", "postcode": "791-8076", "prefecture": "愛媛県", "id": 7918076 },
        { "address": "青波町", "city": "松山市", "postcode": "791-0124", "prefecture": "愛媛県", "id": 7910124 },
        { "address": "青葉台", "city": "松山市", "postcode": "791-8019", "prefecture": "愛媛県", "id": 7918019 },
        { "address": "浅海原", "city": "松山市", "postcode": "799-2401", "prefecture": "愛媛県", "id": 7992401 },
        { "address": "浅海本谷", "city": "松山市", "postcode": "799-2402", "prefecture": "愛媛県", "id": 7992402 },
        { "address": "朝日ケ丘", "city": "松山市", "postcode": "791-8024", "prefecture": "愛媛県", "id": 7918024 },
        { "address": "旭町", "city": "松山市", "postcode": "790-0876", "prefecture": "愛媛県", "id": 7900876 },
        { "address": "朝美", "city": "松山市", "postcode": "791-8023", "prefecture": "愛媛県", "id": 7918023 },
        { "address": "朝生田町", "city": "松山市", "postcode": "790-0952", "prefecture": "愛媛県", "id": 7900952 },
        { "address": "天山", "city": "松山市", "postcode": "790-0951", "prefecture": "愛媛県", "id": 7900951 },
        { "address": "粟井河原", "city": "松山市", "postcode": "799-2463", "prefecture": "愛媛県", "id": 7992463 },
        { "address": "安城寺町", "city": "松山市", "postcode": "791-8006", "prefecture": "愛媛県", "id": 7918006 },
        { "address": "居相", "city": "松山市", "postcode": "790-0934", "prefecture": "愛媛県", "id": 7900934 },
        { "address": "生石町", "city": "松山市", "postcode": "790-0051", "prefecture": "愛媛県", "id": 7900051 },
        { "address": "石手", "city": "松山市", "postcode": "790-0852", "prefecture": "愛媛県", "id": 7900852 },
        { "address": "石手白石", "city": "松山市", "postcode": "790-0902", "prefecture": "愛媛県", "id": 7900902 },
        { "address": "石風呂町", "city": "松山市", "postcode": "791-8084", "prefecture": "愛媛県", "id": 7918084 },
        { "address": "泉町", "city": "松山市", "postcode": "790-0025", "prefecture": "愛媛県", "id": 7900025 },
        { "address": "和泉南", "city": "松山市", "postcode": "790-0941", "prefecture": "愛媛県", "id": 7900941 },
        { "address": "磯河内", "city": "松山市", "postcode": "799-2467", "prefecture": "愛媛県", "id": 7992467 },
        { "address": "和泉北", "city": "松山市", "postcode": "790-0038", "prefecture": "愛媛県", "id": 7900038 },
        { "address": "市坪西町", "city": "松山市", "postcode": "790-0948", "prefecture": "愛媛県", "id": 7900948 },
        { "address": "市坪南", "city": "松山市", "postcode": "790-0947", "prefecture": "愛媛県", "id": 7900947 },
        { "address": "市坪北", "city": "松山市", "postcode": "790-0946", "prefecture": "愛媛県", "id": 7900946 },
        { "address": "一番町", "city": "松山市", "postcode": "790-0001", "prefecture": "愛媛県", "id": 7900001 },
        { "address": "井門町", "city": "松山市", "postcode": "791-1114", "prefecture": "愛媛県", "id": 7911114 },
        { "address": "猪木", "city": "松山市", "postcode": "799-2416", "prefecture": "愛媛県", "id": 7992416 },
        { "address": "今在家", "city": "松山市", "postcode": "791-1106", "prefecture": "愛媛県", "id": 7911106 },
        { "address": "今在家町", "city": "松山市", "postcode": "791-1103", "prefecture": "愛媛県", "id": 7911103 },
        { "address": "祝谷", "city": "松山市", "postcode": "790-0833", "prefecture": "愛媛県", "id": 7900833 },
        { "address": "祝谷東町", "city": "松山市", "postcode": "790-0835", "prefecture": "愛媛県", "id": 7900835 },
        { "address": "祝谷西町", "city": "松山市", "postcode": "790-0832", "prefecture": "愛媛県", "id": 7900832 },
        { "address": "祝谷町", "city": "松山市", "postcode": "790-0834", "prefecture": "愛媛県", "id": 7900834 },
        { "address": "岩崎町", "city": "松山市", "postcode": "790-0854", "prefecture": "愛媛県", "id": 7900854 },
        { "address": "院内", "city": "松山市", "postcode": "799-2423", "prefecture": "愛媛県", "id": 7992423 },
        { "address": "上野町", "city": "松山市", "postcode": "791-1136", "prefecture": "愛媛県", "id": 7911136 },
        { "address": "牛谷", "city": "松山市", "postcode": "799-2446", "prefecture": "愛媛県", "id": 7992446 },
        { "address": "内浜町", "city": "松山市", "postcode": "791-8077", "prefecture": "愛媛県", "id": 7918077 },
        { "address": "内宮町", "city": "松山市", "postcode": "799-2654", "prefecture": "愛媛県", "id": 7992654 },
        { "address": "馬木町", "city": "松山市", "postcode": "799-2655", "prefecture": "愛媛県", "id": 7992655 },
        { "address": "梅木町", "city": "松山市", "postcode": "790-2643", "prefecture": "愛媛県", "id": 7902643 },
        { "address": "梅田町", "city": "松山市", "postcode": "791-8051", "prefecture": "愛媛県", "id": 7918051 },
        { "address": "宇和間", "city": "松山市", "postcode": "791-4506", "prefecture": "愛媛県", "id": 7914506 },
        { "address": "永代町", "city": "松山市", "postcode": "790-0022", "prefecture": "愛媛県", "id": 7900022 },
        { "address": "枝松", "city": "松山市", "postcode": "790-0962", "prefecture": "愛媛県", "id": 7900962 },
        { "address": "恵原町", "city": "松山市", "postcode": "791-1134", "prefecture": "愛媛県", "id": 7911134 },
        { "address": "大井野町", "city": "松山市", "postcode": "791-0134", "prefecture": "愛媛県", "id": 7910134 },
        { "address": "大浦", "city": "松山市", "postcode": "799-2408", "prefecture": "愛媛県", "id": 7992408 },
        { "address": "大街道", "city": "松山市", "postcode": "790-0004", "prefecture": "愛媛県", "id": 7900004 },
        { "address": "大可賀", "city": "松山市", "postcode": "791-8057", "prefecture": "愛媛県", "id": 7918057 },
        { "address": "大手町", "city": "松山市", "postcode": "790-0067", "prefecture": "愛媛県", "id": 7900067 },
        { "address": "大西谷", "city": "松山市", "postcode": "799-2458", "prefecture": "愛媛県", "id": 7992458 },
        { "address": "大橋町", "city": "松山市", "postcode": "791-1126", "prefecture": "愛媛県", "id": 7911126 },
        { "address": "小川", "city": "松山市", "postcode": "799-2468", "prefecture": "愛媛県", "id": 7992468 },
        { "address": "尾儀原", "city": "松山市", "postcode": "799-2418", "prefecture": "愛媛県", "id": 7992418 },
        { "address": "小栗", "city": "松山市", "postcode": "790-0036", "prefecture": "愛媛県", "id": 7900036 },
        { "address": "小栗町", "city": "松山市", "postcode": "790-0037", "prefecture": "愛媛県", "id": 7900037 },
        { "address": "越智", "city": "松山市", "postcode": "790-0933", "prefecture": "愛媛県", "id": 7900933 },
        { "address": "小野町", "city": "松山市", "postcode": "791-0241", "prefecture": "愛媛県", "id": 7910241 },
        { "address": "小浜", "city": "松山市", "postcode": "791-4502", "prefecture": "愛媛県", "id": 7914502 },
        { "address": "小山田", "city": "松山市", "postcode": "799-2410", "prefecture": "愛媛県", "id": 7992410 },
        { "address": "恩地町", "city": "松山市", "postcode": "790-2642", "prefecture": "愛媛県", "id": 7902642 },
        { "address": "海岸通", "city": "松山市", "postcode": "791-8058", "prefecture": "愛媛県", "id": 7918058 },
        { "address": "春日町", "city": "松山市", "postcode": "790-0024", "prefecture": "愛媛県", "id": 7900024 },
        { "address": "上総町", "city": "松山市", "postcode": "790-2644", "prefecture": "愛媛県", "id": 7902644 },
        { "address": "片山", "city": "松山市", "postcode": "799-2439", "prefecture": "愛媛県", "id": 7992439 },
        { "address": "歩行町", "city": "松山市", "postcode": "790-0801", "prefecture": "愛媛県", "id": 7900801 },
        { "address": "勝岡町", "city": "松山市", "postcode": "799-2661", "prefecture": "愛媛県", "id": 7992661 },
        { "address": "勝山町", "city": "松山市", "postcode": "790-0878", "prefecture": "愛媛県", "id": 7900878 },
        { "address": "門田町", "city": "松山市", "postcode": "791-8091", "prefecture": "愛媛県", "id": 7918091 },
        { "address": "鹿峰", "city": "松山市", "postcode": "799-2461", "prefecture": "愛媛県", "id": 7992461 },
        { "address": "上伊台町", "city": "松山市", "postcode": "791-0111", "prefecture": "愛媛県", "id": 7910111 },
        { "address": "上市", "city": "松山市", "postcode": "790-0853", "prefecture": "愛媛県", "id": 7900853 },
        { "address": "上川原町", "city": "松山市", "postcode": "791-1124", "prefecture": "愛媛県", "id": 7911124 },
        { "address": "上高野町", "city": "松山市", "postcode": "791-0103", "prefecture": "愛媛県", "id": 7910103 },
        { "address": "上難波", "city": "松山市", "postcode": "799-2405", "prefecture": "愛媛県", "id": 7992405 },
        { "address": "上怒和", "city": "松山市", "postcode": "791-4322", "prefecture": "愛媛県", "id": 7914322 },
        { "address": "鴨川", "city": "松山市", "postcode": "791-8004", "prefecture": "愛媛県", "id": 7918004 },
        { "address": "鴨之池", "city": "松山市", "postcode": "799-2466", "prefecture": "愛媛県", "id": 7992466 },
        { "address": "萱町", "city": "松山市", "postcode": "790-0813", "prefecture": "愛媛県", "id": 7900813 },
        { "address": "河中町", "city": "松山市", "postcode": "791-0132", "prefecture": "愛媛県", "id": 7910132 },
        { "address": "川の郷町", "city": "松山市", "postcode": "791-0129", "prefecture": "愛媛県", "id": 7910129 },
        { "address": "河原町", "city": "松山市", "postcode": "790-0013", "prefecture": "愛媛県", "id": 7900013 },
        { "address": "神田町", "city": "松山市", "postcode": "791-8063", "prefecture": "愛媛県", "id": 7918063 },
        { "address": "祇園町", "city": "松山市", "postcode": "790-0965", "prefecture": "愛媛県", "id": 7900965 },
        { "address": "儀式", "city": "松山市", "postcode": "799-2411", "prefecture": "愛媛県", "id": 7992411 },
        { "address": "来住町", "city": "松山市", "postcode": "791-1102", "prefecture": "愛媛県", "id": 7911102 },
        { "address": "北井門", "city": "松山市", "postcode": "791-1105", "prefecture": "愛媛県", "id": 7911105 },
        { "address": "北梅本町", "city": "松山市", "postcode": "791-0242", "prefecture": "愛媛県", "id": 7910242 },
        { "address": "北久米町", "city": "松山市", "postcode": "790-0923", "prefecture": "愛媛県", "id": 7900923 },
        { "address": "北斎院町", "city": "松山市", "postcode": "791-8031", "prefecture": "愛媛県", "id": 7918031 },
        { "address": "北立花町", "city": "松山市", "postcode": "790-0867", "prefecture": "愛媛県", "id": 7900867 },
        { "address": "北土居", "city": "松山市", "postcode": "791-1104", "prefecture": "愛媛県", "id": 7911104 },
        { "address": "北藤原町", "city": "松山市", "postcode": "790-0033", "prefecture": "愛媛県", "id": 7900033 },
        { "address": "北持田町", "city": "松山市", "postcode": "790-0873", "prefecture": "愛媛県", "id": 7900873 },
        { "address": "北吉田町", "city": "松山市", "postcode": "791-8041", "prefecture": "愛媛県", "id": 7918041 },
        { "address": "衣山", "city": "松山市", "postcode": "791-8025", "prefecture": "愛媛県", "id": 7918025 },
        { "address": "客", "city": "松山市", "postcode": "799-2454", "prefecture": "愛媛県", "id": 7992454 },
        { "address": "木屋町", "city": "松山市", "postcode": "790-0821", "prefecture": "愛媛県", "id": 7900821 },
        { "address": "清住", "city": "松山市", "postcode": "791-8055", "prefecture": "愛媛県", "id": 7918055 },
        { "address": "喜与町", "city": "松山市", "postcode": "790-0802", "prefecture": "愛媛県", "id": 7900802 },
        { "address": "空港通", "city": "松山市", "postcode": "790-0054", "prefecture": "愛媛県", "id": 7900054 },
        { "address": "空港通", "city": "松山市", "postcode": "791-0054", "prefecture": "愛媛県", "id": 7910054 },
        { "address": "九川", "city": "松山市", "postcode": "791-0150", "prefecture": "愛媛県", "id": 7910150 },
        { "address": "久谷町", "city": "松山市", "postcode": "791-1132", "prefecture": "愛媛県", "id": 7911132 },
        { "address": "久保", "city": "松山市", "postcode": "799-2462", "prefecture": "愛媛県", "id": 7992462 },
        { "address": "久保田町", "city": "松山市", "postcode": "791-8035", "prefecture": "愛媛県", "id": 7918035 },
        { "address": "窪野町", "city": "松山市", "postcode": "791-1131", "prefecture": "愛媛県", "id": 7911131 },
        { "address": "熊田", "city": "松山市", "postcode": "791-4507", "prefecture": "愛媛県", "id": 7914507 },
        { "address": "久万ノ台", "city": "松山市", "postcode": "791-8016", "prefecture": "愛媛県", "id": 7918016 },
        { "address": "久米窪田町", "city": "松山市", "postcode": "791-1101", "prefecture": "愛媛県", "id": 7911101 },
        { "address": "桑原", "city": "松山市", "postcode": "790-0911", "prefecture": "愛媛県", "id": 7900911 },
        { "address": "河野高山", "city": "松山市", "postcode": "799-2445", "prefecture": "愛媛県", "id": 7992445 },
        { "address": "河野中須賀", "city": "松山市", "postcode": "799-2438", "prefecture": "愛媛県", "id": 7992438 },
        { "address": "河野別府", "city": "松山市", "postcode": "799-2436", "prefecture": "愛媛県", "id": 7992436 },
        { "address": "神浦", "city": "松山市", "postcode": "791-4505", "prefecture": "愛媛県", "id": 7914505 },
        { "address": "光洋台", "city": "松山市", "postcode": "799-2469", "prefecture": "愛媛県", "id": 7992469 },
        { "address": "小川谷", "city": "松山市", "postcode": "799-2451", "prefecture": "愛媛県", "id": 7992451 },
        { "address": "小坂", "city": "松山市", "postcode": "790-0963", "prefecture": "愛媛県", "id": 7900963 },
        { "address": "此花町", "city": "松山市", "postcode": "790-0863", "prefecture": "愛媛県", "id": 7900863 },
        { "address": "小村町", "city": "松山市", "postcode": "791-1125", "prefecture": "愛媛県", "id": 7911125 },
        { "address": "米野町", "city": "松山市", "postcode": "791-0135", "prefecture": "愛媛県", "id": 7910135 },
        { "address": "小屋町", "city": "松山市", "postcode": "790-2645", "prefecture": "愛媛県", "id": 7902645 },
        { "address": "権現町", "city": "松山市", "postcode": "799-2653", "prefecture": "愛媛県", "id": 7992653 },
        { "address": "才之原", "city": "松山市", "postcode": "799-2417", "prefecture": "愛媛県", "id": 7992417 },
        { "address": "桜ケ丘", "city": "松山市", "postcode": "791-8072", "prefecture": "愛媛県", "id": 7918072 },
        { "address": "桜谷町", "city": "松山市", "postcode": "790-0838", "prefecture": "愛媛県", "id": 7900838 },
        { "address": "佐古", "city": "松山市", "postcode": "799-2447", "prefecture": "愛媛県", "id": 7992447 },
        { "address": "猿川", "city": "松山市", "postcode": "799-2415", "prefecture": "愛媛県", "id": 7992415 },
        { "address": "猿川原", "city": "松山市", "postcode": "799-2419", "prefecture": "愛媛県", "id": 7992419 },
        { "address": "三町", "city": "松山市", "postcode": "790-0914", "prefecture": "愛媛県", "id": 7900914 },
        { "address": "三番町", "city": "松山市", "postcode": "790-0003", "prefecture": "愛媛県", "id": 7900003 },
        { "address": "食場町", "city": "松山市", "postcode": "791-0104", "prefecture": "愛媛県", "id": 7910104 },
        { "address": "志津川町", "city": "松山市", "postcode": "791-8003", "prefecture": "愛媛県", "id": 7918003 },
        { "address": "東雲町", "city": "松山市", "postcode": "790-0803", "prefecture": "愛媛県", "id": 7900803 },
        { "address": "清水町", "city": "松山市", "postcode": "790-0823", "prefecture": "愛媛県", "id": 7900823 },
        { "address": "下伊台町", "city": "松山市", "postcode": "791-0112", "prefecture": "愛媛県", "id": 7910112 },
        { "address": "下難波", "city": "松山市", "postcode": "799-2407", "prefecture": "愛媛県", "id": 7992407 },
        { "address": "宿野町", "city": "松山市", "postcode": "791-0123", "prefecture": "愛媛県", "id": 7910123 },
        { "address": "庄", "city": "松山市", "postcode": "799-2404", "prefecture": "愛媛県", "id": 7992404 },
        { "address": "正円寺", "city": "松山市", "postcode": "790-0904", "prefecture": "愛媛県", "id": 7900904 },
        { "address": "常光寺町", "city": "松山市", "postcode": "790-0851", "prefecture": "愛媛県", "id": 7900851 },
        { "address": "城山町", "city": "松山市", "postcode": "790-2647", "prefecture": "愛媛県", "id": 7902647 },
        { "address": "庄府", "city": "松山市", "postcode": "799-2412", "prefecture": "愛媛県", "id": 7992412 },
        { "address": "常保免", "city": "松山市", "postcode": "799-2442", "prefecture": "愛媛県", "id": 7992442 },
        { "address": "浄瑠璃町", "city": "松山市", "postcode": "791-1133", "prefecture": "愛媛県", "id": 7911133 },
        { "address": "昭和町", "city": "松山市", "postcode": "790-0872", "prefecture": "愛媛県", "id": 7900872 },
        { "address": "新石手", "city": "松山市", "postcode": "790-0901", "prefecture": "愛媛県", "id": 7900901 },
        { "address": "神次郎町", "city": "松山市", "postcode": "790-2646", "prefecture": "愛媛県", "id": 7902646 },
        { "address": "新立町", "city": "松山市", "postcode": "790-0865", "prefecture": "愛媛県", "id": 7900865 },
        { "address": "新浜町", "city": "松山市", "postcode": "791-8083", "prefecture": "愛媛県", "id": 7918083 },
        { "address": "末広町", "city": "松山市", "postcode": "790-0023", "prefecture": "愛媛県", "id": 7900023 },
        { "address": "末町", "city": "松山市", "postcode": "791-0122", "prefecture": "愛媛県", "id": 7910122 },
        { "address": "須賀町", "city": "松山市", "postcode": "791-8052", "prefecture": "愛媛県", "id": 7918052 },
        { "address": "杉立町", "city": "松山市", "postcode": "791-0105", "prefecture": "愛媛県", "id": 7910105 },
        { "address": "菅沢町", "city": "松山市", "postcode": "790-2648", "prefecture": "愛媛県", "id": 7902648 },
        { "address": "苞木", "city": "松山市", "postcode": "799-2460", "prefecture": "愛媛県", "id": 7992460 },
        { "address": "住吉", "city": "松山市", "postcode": "791-8062", "prefecture": "愛媛県", "id": 7918062 },
        { "address": "善応寺", "city": "松山市", "postcode": "799-2443", "prefecture": "愛媛県", "id": 7992443 },
        { "address": "太山寺町", "city": "松山市", "postcode": "799-2662", "prefecture": "愛媛県", "id": 7992662 },
        { "address": "高井町", "city": "松山市", "postcode": "791-1111", "prefecture": "愛媛県", "id": 7911111 },
        { "address": "高岡町", "city": "松山市", "postcode": "791-8036", "prefecture": "愛媛県", "id": 7918036 },
        { "address": "高木町", "city": "松山市", "postcode": "791-8007", "prefecture": "愛媛県", "id": 7918007 },
        { "address": "高砂町", "city": "松山市", "postcode": "790-0822", "prefecture": "愛媛県", "id": 7900822 },
        { "address": "高田", "city": "松山市", "postcode": "799-2422", "prefecture": "愛媛県", "id": 7992422 },
        { "address": "鷹子町", "city": "松山市", "postcode": "790-0925", "prefecture": "愛媛県", "id": 7900925 },
        { "address": "高野町", "city": "松山市", "postcode": "791-0102", "prefecture": "愛媛県", "id": 7910102 },
        { "address": "高浜町", "city": "松山市", "postcode": "791-8081", "prefecture": "愛媛県", "id": 7918081 },
        { "address": "高山町", "city": "松山市", "postcode": "791-8079", "prefecture": "愛媛県", "id": 7918079 },
        { "address": "拓川町", "city": "松山市", "postcode": "790-0967", "prefecture": "愛媛県", "id": 7900967 },
        { "address": "竹原", "city": "松山市", "postcode": "790-0053", "prefecture": "愛媛県", "id": 7900053 },
        { "address": "竹原町", "city": "松山市", "postcode": "790-0052", "prefecture": "愛媛県", "id": 7900052 },
        { "address": "立花", "city": "松山市", "postcode": "790-0966", "prefecture": "愛媛県", "id": 7900966 },
        { "address": "辰巳町", "city": "松山市", "postcode": "791-8086", "prefecture": "愛媛県", "id": 7918086 },
        { "address": "立岩米之野", "city": "松山市", "postcode": "799-2413", "prefecture": "愛媛県", "id": 7992413 },
        { "address": "立岩中村", "city": "松山市", "postcode": "799-2414", "prefecture": "愛媛県", "id": 7992414 },
        { "address": "谷町", "city": "松山市", "postcode": "791-8002", "prefecture": "愛媛県", "id": 7918002 },
        { "address": "玉谷町", "city": "松山市", "postcode": "791-0126", "prefecture": "愛媛県", "id": 7910126 },
        { "address": "樽味", "city": "松山市", "postcode": "790-0905", "prefecture": "愛媛県", "id": 7900905 },
        { "address": "千舟町", "city": "松山市", "postcode": "790-0011", "prefecture": "愛媛県", "id": 7900011 },
        { "address": "中央", "city": "松山市", "postcode": "791-8015", "prefecture": "愛媛県", "id": 7918015 },
        { "address": "束本", "city": "松山市", "postcode": "790-0916", "prefecture": "愛媛県", "id": 7900916 },
        { "address": "築山町", "city": "松山市", "postcode": "790-0864", "prefecture": "愛媛県", "id": 7900864 },
        { "address": "辻町", "city": "松山市", "postcode": "790-0063", "prefecture": "愛媛県", "id": 7900063 },
        { "address": "常竹", "city": "松山市", "postcode": "799-2455", "prefecture": "愛媛県", "id": 7992455 },
        { "address": "津吉町", "city": "松山市", "postcode": "791-1122", "prefecture": "愛媛県", "id": 7911122 },
        { "address": "津和地", "city": "松山市", "postcode": "791-4324", "prefecture": "愛媛県", "id": 7914324 },
        { "address": "出合", "city": "松山市", "postcode": "790-0048", "prefecture": "愛媛県", "id": 7900048 },
        { "address": "鉄砲町", "city": "松山市", "postcode": "790-0827", "prefecture": "愛媛県", "id": 7900827 },
        { "address": "土居田町", "city": "松山市", "postcode": "790-0056", "prefecture": "愛媛県", "id": 7900056 },
        { "address": "土居町", "city": "松山市", "postcode": "791-1115", "prefecture": "愛媛県", "id": 7911115 },
        { "address": "問屋町", "city": "松山市", "postcode": "791-8018", "prefecture": "愛媛県", "id": 7918018 },
        { "address": "道後一万", "city": "松山市", "postcode": "790-0844", "prefecture": "愛媛県", "id": 7900844 },
        { "address": "道後今市", "city": "松山市", "postcode": "790-0845", "prefecture": "愛媛県", "id": 7900845 },
        { "address": "道後北代", "city": "松山市", "postcode": "790-0846", "prefecture": "愛媛県", "id": 7900846 },
        { "address": "道後喜多町", "city": "松山市", "postcode": "790-0848", "prefecture": "愛媛県", "id": 7900848 },
        { "address": "道後公園", "city": "松山市", "postcode": "790-0857", "prefecture": "愛媛県", "id": 7900857 },
        { "address": "道後鷺谷町", "city": "松山市", "postcode": "790-0836", "prefecture": "愛媛県", "id": 7900836 },
        { "address": "道後多幸町", "city": "松山市", "postcode": "790-0841", "prefecture": "愛媛県", "id": 7900841 },
        { "address": "道後樋又", "city": "松山市", "postcode": "790-0825", "prefecture": "愛媛県", "id": 7900825 },
        { "address": "道後姫塚", "city": "松山市", "postcode": "790-0858", "prefecture": "愛媛県", "id": 7900858 },
        { "address": "道後緑台", "city": "松山市", "postcode": "790-0847", "prefecture": "愛媛県", "id": 7900847 },
        { "address": "道後湯月町", "city": "松山市", "postcode": "790-0837", "prefecture": "愛媛県", "id": 7900837 },
        { "address": "道後湯之町", "city": "松山市", "postcode": "790-0842", "prefecture": "愛媛県", "id": 7900842 },
        { "address": "土手内", "city": "松山市", "postcode": "799-2432", "prefecture": "愛媛県", "id": 7992432 },
        { "address": "道後町", "city": "松山市", "postcode": "790-0843", "prefecture": "愛媛県", "id": 7900843 },
        { "address": "土橋町", "city": "松山市", "postcode": "790-0032", "prefecture": "愛媛県", "id": 7900032 },
        { "address": "泊町", "city": "松山市", "postcode": "791-8093", "prefecture": "愛媛県", "id": 7918093 },
        { "address": "富久町", "city": "松山市", "postcode": "791-8034", "prefecture": "愛媛県", "id": 7918034 },
        { "address": "中一万町", "city": "松山市", "postcode": "790-0804", "prefecture": "愛媛県", "id": 7900804 },
        { "address": "中須賀", "city": "松山市", "postcode": "791-8078", "prefecture": "愛媛県", "id": 7918078 },
        { "address": "中野町", "city": "松山市", "postcode": "791-1121", "prefecture": "愛媛県", "id": 7911121 },
        { "address": "中村", "city": "松山市", "postcode": "790-0964", "prefecture": "愛媛県", "id": 7900964 },
        { "address": "永木町", "city": "松山市", "postcode": "790-0866", "prefecture": "愛媛県", "id": 7900866 },
        { "address": "長師", "city": "松山市", "postcode": "791-4503", "prefecture": "愛媛県", "id": 7914503 },
        { "address": "中島粟井", "city": "松山市", "postcode": "791-4511", "prefecture": "愛媛県", "id": 7914511 },
        { "address": "中島大浦", "city": "松山市", "postcode": "791-4501", "prefecture": "愛媛県", "id": 7914501 },
        { "address": "中通", "city": "松山市", "postcode": "799-2406", "prefecture": "愛媛県", "id": 7992406 },
        { "address": "中西内", "city": "松山市", "postcode": "799-2426", "prefecture": "愛媛県", "id": 7992426 },
        { "address": "中西外", "city": "松山市", "postcode": "799-2425", "prefecture": "愛媛県", "id": 7992425 },
        { "address": "夏目", "city": "松山市", "postcode": "799-2437", "prefecture": "愛媛県", "id": 7992437 },
        { "address": "西石井", "city": "松山市", "postcode": "790-0931", "prefecture": "愛媛県", "id": 7900931 },
        { "address": "西一万町", "city": "松山市", "postcode": "790-0805", "prefecture": "愛媛県", "id": 7900805 },
        { "address": "錦町", "city": "松山市", "postcode": "790-0877", "prefecture": "愛媛県", "id": 7900877 },
        { "address": "西谷", "city": "松山市", "postcode": "799-2457", "prefecture": "愛媛県", "id": 7992457 },
        { "address": "西長戸町", "city": "松山市", "postcode": "791-8017", "prefecture": "愛媛県", "id": 7918017 },
        { "address": "西野町", "city": "松山市", "postcode": "791-1135", "prefecture": "愛媛県", "id": 7911135 },
        { "address": "西垣生町", "city": "松山市", "postcode": "791-8044", "prefecture": "愛媛県", "id": 7918044 },
        { "address": "二番町", "city": "松山市", "postcode": "790-0002", "prefecture": "愛媛県", "id": 7900002 },
        { "address": "饒", "city": "松山市", "postcode": "791-4509", "prefecture": "愛媛県", "id": 7914509 },
        { "address": "野忽那", "city": "松山市", "postcode": "791-4432", "prefecture": "愛媛県", "id": 7914432 },
        { "address": "梅津寺町", "city": "松山市", "postcode": "791-8082", "prefecture": "愛媛県", "id": 7918082 },
        { "address": "萩原", "city": "松山市", "postcode": "799-2403", "prefecture": "愛媛県", "id": 7992403 },
        { "address": "白水台", "city": "松山市", "postcode": "791-0113", "prefecture": "愛媛県", "id": 7910113 },
        { "address": "畑寺", "city": "松山市", "postcode": "790-0913", "prefecture": "愛媛県", "id": 7900913 },
        { "address": "畑寺町", "city": "松山市", "postcode": "790-0912", "prefecture": "愛媛県", "id": 7900912 },
        { "address": "畑里", "city": "松山市", "postcode": "791-4510", "prefecture": "愛媛県", "id": 7914510 },
        { "address": "八反地", "city": "松山市", "postcode": "799-2424", "prefecture": "愛媛県", "id": 7992424 },
        { "address": "花園町", "city": "松山市", "postcode": "790-0005", "prefecture": "愛媛県", "id": 7900005 },
        { "address": "祓川", "city": "松山市", "postcode": "791-8066", "prefecture": "愛媛県", "id": 7918066 },
        { "address": "針田町", "city": "松山市", "postcode": "790-0055", "prefecture": "愛媛県", "id": 7900055 },
        { "address": "春美町", "city": "松山市", "postcode": "791-8087", "prefecture": "愛媛県", "id": 7918087 },
        { "address": "東石井", "city": "松山市", "postcode": "790-0932", "prefecture": "愛媛県", "id": 7900932 },
        { "address": "東一万町", "city": "松山市", "postcode": "790-0871", "prefecture": "愛媛県", "id": 7900871 },
        { "address": "東大栗町", "city": "松山市", "postcode": "799-2649", "prefecture": "愛媛県", "id": 7992649 },
        { "address": "東方町", "city": "松山市", "postcode": "791-1123", "prefecture": "愛媛県", "id": 7911123 },
        { "address": "東川町", "city": "松山市", "postcode": "791-0133", "prefecture": "愛媛県", "id": 7910133 },
        { "address": "東長戸", "city": "松山市", "postcode": "791-8005", "prefecture": "愛媛県", "id": 7918005 },
        { "address": "東野", "city": "松山市", "postcode": "790-0903", "prefecture": "愛媛県", "id": 7900903 },
        { "address": "東垣生町", "city": "松山市", "postcode": "791-8043", "prefecture": "愛媛県", "id": 7918043 },
        { "address": "東山町", "city": "松山市", "postcode": "791-8074", "prefecture": "愛媛県", "id": 7918074 },
        { "address": "日の出町", "city": "松山市", "postcode": "790-0961", "prefecture": "愛媛県", "id": 7900961 },
        { "address": "ひばりケ丘", "city": "松山市", "postcode": "791-8075", "prefecture": "愛媛県", "id": 7918075 },
        { "address": "姫原", "city": "松山市", "postcode": "791-8012", "prefecture": "愛媛県", "id": 7918012 },
        { "address": "平井町", "city": "松山市", "postcode": "791-0243", "prefecture": "愛媛県", "id": 7910243 },
        { "address": "平田町", "city": "松山市", "postcode": "791-8001", "prefecture": "愛媛県", "id": 7918001 },
        { "address": "平林", "city": "松山市", "postcode": "799-2452", "prefecture": "愛媛県", "id": 7992452 },
        { "address": "福音寺町", "city": "松山市", "postcode": "790-0921", "prefecture": "愛媛県", "id": 7900921 },
        { "address": "福角町", "city": "松山市", "postcode": "799-2652", "prefecture": "愛媛県", "id": 7992652 },
        { "address": "福見川町", "city": "松山市", "postcode": "791-0128", "prefecture": "愛媛県", "id": 7910128 },
        { "address": "藤野町", "city": "松山市", "postcode": "791-0127", "prefecture": "愛媛県", "id": 7910127 },
        { "address": "藤原", "city": "松山市", "postcode": "790-0035", "prefecture": "愛媛県", "id": 7900035 },
        { "address": "藤原町", "city": "松山市", "postcode": "790-0034", "prefecture": "愛媛県", "id": 7900034 },
        { "address": "二神", "city": "松山市", "postcode": "791-4323", "prefecture": "愛媛県", "id": 7914323 },
        { "address": "府中", "city": "松山市", "postcode": "799-2435", "prefecture": "愛媛県", "id": 7992435 },
        { "address": "船ケ谷町", "city": "松山市", "postcode": "791-8073", "prefecture": "愛媛県", "id": 7918073 },
        { "address": "麓", "city": "松山市", "postcode": "799-2453", "prefecture": "愛媛県", "id": 7992453 },
        { "address": "古川町", "city": "松山市", "postcode": "790-0945", "prefecture": "愛媛県", "id": 7900945 },
        { "address": "古川西", "city": "松山市", "postcode": "790-0944", "prefecture": "愛媛県", "id": 7900944 },
        { "address": "古川南", "city": "松山市", "postcode": "790-0943", "prefecture": "愛媛県", "id": 7900943 },
        { "address": "古川北", "city": "松山市", "postcode": "790-0942", "prefecture": "愛媛県", "id": 7900942 },
        { "address": "古三津", "city": "松山市", "postcode": "791-8067", "prefecture": "愛媛県", "id": 7918067 },
        { "address": "文京町", "city": "松山市", "postcode": "790-0826", "prefecture": "愛媛県", "id": 7900826 },
        { "address": "平和通", "city": "松山市", "postcode": "790-0807", "prefecture": "愛媛県", "id": 7900807 },
        { "address": "別府町", "city": "松山市", "postcode": "791-8056", "prefecture": "愛媛県", "id": 7918056 },
        { "address": "北条", "city": "松山市", "postcode": "799-2431", "prefecture": "愛媛県", "id": 7992431 },
        { "address": "北条辻", "city": "松山市", "postcode": "799-2430", "prefecture": "愛媛県", "id": 7992430 },
        { "address": "保免上", "city": "松山市", "postcode": "790-0041", "prefecture": "愛媛県", "id": 7900041 },
        { "address": "保免中", "city": "松山市", "postcode": "790-0042", "prefecture": "愛媛県", "id": 7900042 },
        { "address": "保免西", "city": "松山市", "postcode": "790-0043", "prefecture": "愛媛県", "id": 7900043 },
        { "address": "星岡", "city": "松山市", "postcode": "790-0922", "prefecture": "愛媛県", "id": 7900922 },
        { "address": "堀江町", "city": "松山市", "postcode": "799-2651", "prefecture": "愛媛県", "id": 7992651 },
        { "address": "堀之内", "city": "松山市", "postcode": "790-0007", "prefecture": "愛媛県", "id": 7900007 },
        { "address": "本谷", "city": "松山市", "postcode": "799-2456", "prefecture": "愛媛県", "id": 7992456 },
        { "address": "本町", "city": "松山市", "postcode": "790-0811", "prefecture": "愛媛県", "id": 7900811 },
        { "address": "正岡神田", "city": "松山市", "postcode": "799-2421", "prefecture": "愛媛県", "id": 7992421 },
        { "address": "松前町", "city": "松山市", "postcode": "790-0812", "prefecture": "愛媛県", "id": 7900812 },
        { "address": "真砂町", "city": "松山市", "postcode": "790-0021", "prefecture": "愛媛県", "id": 7900021 },
        { "address": "松江町", "city": "松山市", "postcode": "791-8054", "prefecture": "愛媛県", "id": 7918054 },
        { "address": "松末", "city": "松山市", "postcode": "790-0915", "prefecture": "愛媛県", "id": 7900915 },
        { "address": "松ノ木", "city": "松山市", "postcode": "791-8071", "prefecture": "愛媛県", "id": 7918071 },
        { "address": "丸之内", "city": "松山市", "postcode": "790-0008", "prefecture": "愛媛県", "id": 7900008 },
        { "address": "味酒町", "city": "松山市", "postcode": "790-0814", "prefecture": "愛媛県", "id": 7900814 },
        { "address": "美沢", "city": "松山市", "postcode": "791-8022", "prefecture": "愛媛県", "id": 7918022 },
        { "address": "三杉町", "city": "松山市", "postcode": "791-8065", "prefecture": "愛媛県", "id": 7918065 },
        { "address": "溝辺町", "city": "松山市", "postcode": "791-0101", "prefecture": "愛媛県", "id": 7910101 },
        { "address": "御宝町", "city": "松山市", "postcode": "790-0875", "prefecture": "愛媛県", "id": 7900875 },
        { "address": "三津", "city": "松山市", "postcode": "791-8061", "prefecture": "愛媛県", "id": 7918061 },
        { "address": "三津ふ頭", "city": "松山市", "postcode": "791-8060", "prefecture": "愛媛県", "id": 7918060 },
        { "address": "みどりケ丘", "city": "松山市", "postcode": "791-8068", "prefecture": "愛媛県", "id": 7918068 },
        { "address": "緑町", "city": "松山市", "postcode": "790-0806", "prefecture": "愛媛県", "id": 7900806 },
        { "address": "水泥町", "city": "松山市", "postcode": "791-0244", "prefecture": "愛媛県", "id": 7910244 },
        { "address": "水口町", "city": "松山市", "postcode": "791-0131", "prefecture": "愛媛県", "id": 7910131 },
        { "address": "湊町", "city": "松山市", "postcode": "790-0012", "prefecture": "愛媛県", "id": 7900012 },
        { "address": "港山町", "city": "松山市", "postcode": "791-8085", "prefecture": "愛媛県", "id": 7918085 },
        { "address": "南梅本町", "city": "松山市", "postcode": "791-0245", "prefecture": "愛媛県", "id": 7910245 },
        { "address": "南江戸", "city": "松山市", "postcode": "790-0062", "prefecture": "愛媛県", "id": 7900062 },
        { "address": "南江戸町", "city": "松山市", "postcode": "790-0061", "prefecture": "愛媛県", "id": 7900061 },
        { "address": "南久米町", "city": "松山市", "postcode": "790-0924", "prefecture": "愛媛県", "id": 7900924 },
        { "address": "南斎院町", "city": "松山市", "postcode": "791-8032", "prefecture": "愛媛県", "id": 7918032 },
        { "address": "南高井町", "city": "松山市", "postcode": "791-1112", "prefecture": "愛媛県", "id": 7911112 },
        { "address": "南土居町", "city": "松山市", "postcode": "791-1116", "prefecture": "愛媛県", "id": 7911116 },
        { "address": "南白水", "city": "松山市", "postcode": "791-0114", "prefecture": "愛媛県", "id": 7910114 },
        { "address": "南堀端町", "city": "松山市", "postcode": "790-0006", "prefecture": "愛媛県", "id": 7900006 },
        { "address": "南町", "city": "松山市", "postcode": "790-0856", "prefecture": "愛媛県", "id": 7900856 },
        { "address": "南持田町", "city": "松山市", "postcode": "790-0874", "prefecture": "愛媛県", "id": 7900874 },
        { "address": "南吉田町", "city": "松山市", "postcode": "791-8042", "prefecture": "愛媛県", "id": 7918042 },
        { "address": "宮内", "city": "松山市", "postcode": "799-2441", "prefecture": "愛媛県", "id": 7992441 },
        { "address": "宮田町", "city": "松山市", "postcode": "790-0066", "prefecture": "愛媛県", "id": 7900066 },
        { "address": "宮西", "city": "松山市", "postcode": "790-0065", "prefecture": "愛媛県", "id": 7900065 },
        { "address": "宮野", "city": "松山市", "postcode": "791-4504", "prefecture": "愛媛県", "id": 7914504 },
        { "address": "御幸", "city": "松山市", "postcode": "790-0824", "prefecture": "愛媛県", "id": 7900824 },
        { "address": "明神丘", "city": "松山市", "postcode": "791-8027", "prefecture": "愛媛県", "id": 7918027 },
        { "address": "睦月", "city": "松山市", "postcode": "791-4431", "prefecture": "愛媛県", "id": 7914431 },
        { "address": "室町", "city": "松山市", "postcode": "790-0026", "prefecture": "愛媛県", "id": 7900026 },
        { "address": "持田町", "city": "松山市", "postcode": "790-0855", "prefecture": "愛媛県", "id": 7900855 },
        { "address": "元怒和", "city": "松山市", "postcode": "791-4321", "prefecture": "愛媛県", "id": 7914321 },
        { "address": "元町", "city": "松山市", "postcode": "791-8064", "prefecture": "愛媛県", "id": 7918064 },
        { "address": "紅葉町", "city": "松山市", "postcode": "790-0861", "prefecture": "愛媛県", "id": 7900861 },
        { "address": "森松町", "city": "松山市", "postcode": "791-1113", "prefecture": "愛媛県", "id": 7911113 },
        { "address": "安岡", "city": "松山市", "postcode": "799-2464", "prefecture": "愛媛県", "id": 7992464 },
        { "address": "柳谷町", "city": "松山市", "postcode": "790-2641", "prefecture": "愛媛県", "id": 7902641 },
        { "address": "柳井町", "city": "松山市", "postcode": "790-0014", "prefecture": "愛媛県", "id": 7900014 },
        { "address": "柳原", "city": "松山市", "postcode": "799-2434", "prefecture": "愛媛県", "id": 7992434 },
        { "address": "山越", "city": "松山市", "postcode": "791-8013", "prefecture": "愛媛県", "id": 7918013 },
        { "address": "山越町", "city": "松山市", "postcode": "791-8014", "prefecture": "愛媛県", "id": 7918014 },
        { "address": "山田町", "city": "松山市", "postcode": "790-0831", "prefecture": "愛媛県", "id": 7900831 },
        { "address": "山西町", "city": "松山市", "postcode": "791-8026", "prefecture": "愛媛県", "id": 7918026 },
        { "address": "雄郡", "city": "松山市", "postcode": "790-0031", "prefecture": "愛媛県", "id": 7900031 },
        { "address": "湯の山", "city": "松山市", "postcode": "791-0121", "prefecture": "愛媛県", "id": 7910121 },
        { "address": "湯の山東", "city": "松山市", "postcode": "791-0120", "prefecture": "愛媛県", "id": 7910120 },
        { "address": "湯山柳", "city": "松山市", "postcode": "791-0125", "prefecture": "愛媛県", "id": 7910125 },
        { "address": "由良町", "city": "松山市", "postcode": "791-8092", "prefecture": "愛媛県", "id": 7918092 },
        { "address": "湯渡町", "city": "松山市", "postcode": "790-0862", "prefecture": "愛媛県", "id": 7900862 },
        { "address": "余戸中", "city": "松山市", "postcode": "790-0045", "prefecture": "愛媛県", "id": 7900045 },
        { "address": "余戸東", "city": "松山市", "postcode": "790-0044", "prefecture": "愛媛県", "id": 7900044 },
        { "address": "余戸西", "city": "松山市", "postcode": "790-0046", "prefecture": "愛媛県", "id": 7900046 },
        { "address": "余戸南", "city": "松山市", "postcode": "790-0047", "prefecture": "愛媛県", "id": 7900047 },
        { "address": "横谷", "city": "松山市", "postcode": "799-2444", "prefecture": "愛媛県", "id": 7992444 },
        { "address": "吉木", "city": "松山市", "postcode": "791-4508", "prefecture": "愛媛県", "id": 7914508 },
        { "address": "吉野町", "city": "松山市", "postcode": "791-8069", "prefecture": "愛媛県", "id": 7918069 },
        { "address": "吉藤", "city": "松山市", "postcode": "791-8011", "prefecture": "愛媛県", "id": 7918011 },
        { "address": "六軒家町", "city": "松山市", "postcode": "791-8021", "prefecture": "愛媛県", "id": 7918021 },
        { "address": "若草町", "city": "松山市", "postcode": "790-0808", "prefecture": "愛媛県", "id": 7900808 },
        { "address": "若葉町", "city": "松山市", "postcode": "791-8053", "prefecture": "愛媛県", "id": 7918053 },
        { "address": "和気町", "city": "松山市", "postcode": "799-2656", "prefecture": "愛媛県", "id": 7992656 },
        { "address": "和田", "city": "松山市", "postcode": "799-2465", "prefecture": "愛媛県", "id": 7992465 },
        { "city": "今治市", "postcode": "794-0000", "prefecture": "愛媛県", "id": 7940000 },
        { "address": "阿方", "city": "今治市", "postcode": "794-0081", "prefecture": "愛媛県", "id": 7940081 },
        { "address": "朝倉上", "city": "今治市", "postcode": "799-1607", "prefecture": "愛媛県", "id": 7991607 },
        { "address": "朝倉北", "city": "今治市", "postcode": "799-1604", "prefecture": "愛媛県", "id": 7991604 },
        { "address": "朝倉下", "city": "今治市", "postcode": "799-1603", "prefecture": "愛媛県", "id": 7991603 },
        { "address": "朝倉南乙", "city": "今治市", "postcode": "799-1606", "prefecture": "愛媛県", "id": 7991606 },
        { "address": "朝倉南甲", "city": "今治市", "postcode": "799-1605", "prefecture": "愛媛県", "id": 7991605 },
        { "address": "朝倉南丙", "city": "今治市", "postcode": "799-1608", "prefecture": "愛媛県", "id": 7991608 },
        { "address": "旭町", "city": "今治市", "postcode": "794-0042", "prefecture": "愛媛県", "id": 7940042 },
        { "address": "五十嵐", "city": "今治市", "postcode": "794-0861", "prefecture": "愛媛県", "id": 7940861 },
        { "address": "いこいの丘", "city": "今治市", "postcode": "794-0085", "prefecture": "愛媛県", "id": 7940085 },
        { "address": "石井町", "city": "今治市", "postcode": "794-0006", "prefecture": "愛媛県", "id": 7940006 },
        { "address": "石橋町", "city": "今治市", "postcode": "794-0824", "prefecture": "愛媛県", "id": 7940824 },
        { "address": "泉川町", "city": "今治市", "postcode": "794-0057", "prefecture": "愛媛県", "id": 7940057 },
        { "address": "今治村", "city": "今治市", "postcode": "794-0014", "prefecture": "愛媛県", "id": 7940014 },
        { "address": "内堀", "city": "今治市", "postcode": "799-2116", "prefecture": "愛媛県", "id": 7992116 },
        { "address": "馬越町", "city": "今治市", "postcode": "794-0062", "prefecture": "愛媛県", "id": 7940062 },
        { "address": "馬越二番耕地", "city": "今治市", "postcode": "794-0061", "prefecture": "愛媛県", "id": 7940061 },
        { "address": "馬島", "city": "今治市", "postcode": "799-2123", "prefecture": "愛媛県", "id": 7992123 },
        { "address": "枝堀町", "city": "今治市", "postcode": "794-0035", "prefecture": "愛媛県", "id": 7940035 },
        { "address": "恵美須町", "city": "今治市", "postcode": "794-0031", "prefecture": "愛媛県", "id": 7940031 },
        { "address": "延喜", "city": "今治市", "postcode": "794-0084", "prefecture": "愛媛県", "id": 7940084 },
        { "address": "大新田町", "city": "今治市", "postcode": "794-0005", "prefecture": "愛媛県", "id": 7940005 },
        { "address": "大西町大井浜", "city": "今治市", "postcode": "799-2204", "prefecture": "愛媛県", "id": 7992204 },
        { "address": "大西町九王", "city": "今治市", "postcode": "799-2201", "prefecture": "愛媛県", "id": 7992201 },
        { "address": "大西町紺原", "city": "今治市", "postcode": "799-2202", "prefecture": "愛媛県", "id": 7992202 },
        { "address": "大西町新町", "city": "今治市", "postcode": "799-2203", "prefecture": "愛媛県", "id": 7992203 },
        { "address": "大西町別府", "city": "今治市", "postcode": "799-2209", "prefecture": "愛媛県", "id": 7992209 },
        { "address": "大西町星浦", "city": "今治市", "postcode": "799-2208", "prefecture": "愛媛県", "id": 7992208 },
        { "address": "大西町宮脇", "city": "今治市", "postcode": "799-2205", "prefecture": "愛媛県", "id": 7992205 },
        { "address": "大西町山之内", "city": "今治市", "postcode": "799-2207", "prefecture": "愛媛県", "id": 7992207 },
        { "address": "大西町脇", "city": "今治市", "postcode": "799-2206", "prefecture": "愛媛県", "id": 7992206 },
        { "address": "大浜町", "city": "今治市", "postcode": "794-0002", "prefecture": "愛媛県", "id": 7940002 },
        { "address": "大三島町明日", "city": "今治市", "postcode": "794-1303", "prefecture": "愛媛県", "id": 7941303 },
        { "address": "大三島町台", "city": "今治市", "postcode": "794-1305", "prefecture": "愛媛県", "id": 7941305 },
        { "address": "大三島町浦戸", "city": "今治市", "postcode": "794-1308", "prefecture": "愛媛県", "id": 7941308 },
        { "address": "大三島町大見", "city": "今治市", "postcode": "794-1302", "prefecture": "愛媛県", "id": 7941302 },
        { "address": "大三島町口総", "city": "今治市", "postcode": "794-1307", "prefecture": "愛媛県", "id": 7941307 },
        {
            "address": "大三島町野々江",
            "city": "今治市",
            "postcode": "794-1306",
            "prefecture": "愛媛県",
            "id": 7941306
        },
        { "address": "大三島町肥海", "city": "今治市", "postcode": "794-1301", "prefecture": "愛媛県", "id": 7941301 },
        { "address": "大三島町宮浦", "city": "今治市", "postcode": "794-1304", "prefecture": "愛媛県", "id": 7941304 },
        { "address": "大三島町宗方", "city": "今治市", "postcode": "794-1309", "prefecture": "愛媛県", "id": 7941309 },
        { "address": "風早町", "city": "今治市", "postcode": "794-0017", "prefecture": "愛媛県", "id": 7940017 },
        { "address": "片原町", "city": "今治市", "postcode": "794-0013", "prefecture": "愛媛県", "id": 7940013 },
        { "address": "片山", "city": "今治市", "postcode": "794-0063", "prefecture": "愛媛県", "id": 7940063 },
        { "address": "河南町", "city": "今治市", "postcode": "794-0822", "prefecture": "愛媛県", "id": 7940822 },
        { "address": "鐘場町", "city": "今治市", "postcode": "794-0004", "prefecture": "愛媛県", "id": 7940004 },
        { "address": "上浦町甘崎", "city": "今治市", "postcode": "794-1403", "prefecture": "愛媛県", "id": 7941403 },
        { "address": "上浦町井口", "city": "今治市", "postcode": "794-1402", "prefecture": "愛媛県", "id": 7941402 },
        { "address": "上浦町盛", "city": "今治市", "postcode": "794-1401", "prefecture": "愛媛県", "id": 7941401 },
        { "address": "上浦町瀬戸", "city": "今治市", "postcode": "794-1404", "prefecture": "愛媛県", "id": 7941404 },
        { "address": "上徳", "city": "今治市", "postcode": "799-1511", "prefecture": "愛媛県", "id": 7991511 },
        { "address": "唐子台東", "city": "今治市", "postcode": "799-1531", "prefecture": "愛媛県", "id": 7991531 },
        { "address": "唐子台西", "city": "今治市", "postcode": "799-1532", "prefecture": "愛媛県", "id": 7991532 },
        { "address": "神宮", "city": "今治市", "postcode": "794-0074", "prefecture": "愛媛県", "id": 7940074 },
        { "address": "祇園町", "city": "今治市", "postcode": "794-0804", "prefecture": "愛媛県", "id": 7940804 },
        { "address": "菊間町池原", "city": "今治市", "postcode": "799-2304", "prefecture": "愛媛県", "id": 7992304 },
        { "address": "菊間町川上", "city": "今治市", "postcode": "799-2307", "prefecture": "愛媛県", "id": 7992307 },
        { "address": "菊間町河之内", "city": "今治市", "postcode": "799-2306", "prefecture": "愛媛県", "id": 7992306 },
        { "address": "菊間町高田", "city": "今治市", "postcode": "799-2309", "prefecture": "愛媛県", "id": 7992309 },
        { "address": "菊間町佐方", "city": "今治市", "postcode": "799-2301", "prefecture": "愛媛県", "id": 7992301 },
        { "address": "菊間町種", "city": "今治市", "postcode": "799-2302", "prefecture": "愛媛県", "id": 7992302 },
        { "address": "菊間町田之尻", "city": "今治市", "postcode": "799-2312", "prefecture": "愛媛県", "id": 7992312 },
        { "address": "菊間町長坂", "city": "今治市", "postcode": "799-2310", "prefecture": "愛媛県", "id": 7992310 },
        { "address": "菊間町中川", "city": "今治市", "postcode": "799-2308", "prefecture": "愛媛県", "id": 7992308 },
        { "address": "菊間町西山", "city": "今治市", "postcode": "799-2311", "prefecture": "愛媛県", "id": 7992311 },
        { "address": "菊間町浜", "city": "今治市", "postcode": "799-2303", "prefecture": "愛媛県", "id": 7992303 },
        { "address": "菊間町松尾", "city": "今治市", "postcode": "799-2305", "prefecture": "愛媛県", "id": 7992305 },
        { "address": "北高下町", "city": "今治市", "postcode": "794-0812", "prefecture": "愛媛県", "id": 7940812 },
        { "address": "北鳥生町", "city": "今治市", "postcode": "794-0803", "prefecture": "愛媛県", "id": 7940803 },
        { "address": "北浜町", "city": "今治市", "postcode": "794-0011", "prefecture": "愛媛県", "id": 7940011 },
        { "address": "北日吉町", "city": "今治市", "postcode": "794-0054", "prefecture": "愛媛県", "id": 7940054 },
        { "address": "北宝来町", "city": "今治市", "postcode": "794-0028", "prefecture": "愛媛県", "id": 7940028 },
        { "address": "喜田村", "city": "今治市", "postcode": "799-1502", "prefecture": "愛媛県", "id": 7991502 },
        { "address": "喜田村", "city": "今治市", "postcode": "799-1501", "prefecture": "愛媛県", "id": 7991501 },
        { "address": "衣干町", "city": "今治市", "postcode": "794-0813", "prefecture": "愛媛県", "id": 7940813 },
        { "address": "共栄町", "city": "今治市", "postcode": "794-0024", "prefecture": "愛媛県", "id": 7940024 },
        { "address": "蔵敷町", "city": "今治市", "postcode": "794-0044", "prefecture": "愛媛県", "id": 7940044 },
        {
            "address": "クリエイティブヒルズ",
            "city": "今治市",
            "postcode": "794-0069",
            "prefecture": "愛媛県",
            "id": 7940069
        },
        { "address": "来島", "city": "今治市", "postcode": "799-2122", "prefecture": "愛媛県", "id": 7992122 },
        { "address": "来島", "city": "今治市", "postcode": "799-2121", "prefecture": "愛媛県", "id": 7992121 },
        { "address": "鯉池町", "city": "今治市", "postcode": "794-0059", "prefecture": "愛媛県", "id": 7940059 },
        { "address": "小泉", "city": "今治市", "postcode": "794-0064", "prefecture": "愛媛県", "id": 7940064 },
        { "address": "郷新屋敷町", "city": "今治市", "postcode": "794-0826", "prefecture": "愛媛県", "id": 7940826 },
        { "address": "郷本町", "city": "今治市", "postcode": "794-0823", "prefecture": "愛媛県", "id": 7940823 },
        { "address": "郷六ケ内町", "city": "今治市", "postcode": "794-0825", "prefecture": "愛媛県", "id": 7940825 },
        { "address": "郷桜井", "city": "今治市", "postcode": "799-1523", "prefecture": "愛媛県", "id": 7991523 },
        { "address": "広紹寺町", "city": "今治市", "postcode": "794-0805", "prefecture": "愛媛県", "id": 7940805 },
        { "address": "高地町", "city": "今治市", "postcode": "794-0051", "prefecture": "愛媛県", "id": 7940051 },
        { "address": "小浦町", "city": "今治市", "postcode": "799-2111", "prefecture": "愛媛県", "id": 7992111 },
        { "address": "黄金町", "city": "今治市", "postcode": "794-0037", "prefecture": "愛媛県", "id": 7940037 },
        { "address": "国分", "city": "今治市", "postcode": "799-1533", "prefecture": "愛媛県", "id": 7991533 },
        { "address": "米屋町", "city": "今治市", "postcode": "794-0021", "prefecture": "愛媛県", "id": 7940021 },
        { "address": "古谷", "city": "今治市", "postcode": "799-1601", "prefecture": "愛媛県", "id": 7991601 },
        { "address": "栄町", "city": "今治市", "postcode": "794-0023", "prefecture": "愛媛県", "id": 7940023 },
        { "address": "桜井", "city": "今治市", "postcode": "799-1522", "prefecture": "愛媛県", "id": 7991522 },
        { "address": "桜井", "city": "今治市", "postcode": "799-1524", "prefecture": "愛媛県", "id": 7991524 },
        { "address": "桜井団地", "city": "今治市", "postcode": "799-1534", "prefecture": "愛媛県", "id": 7991534 },
        { "address": "地堀", "city": "今治市", "postcode": "799-2117", "prefecture": "愛媛県", "id": 7992117 },
        { "address": "しまなみの杜", "city": "今治市", "postcode": "794-0086", "prefecture": "愛媛県", "id": 7940086 },
        {
            "address": "しまなみヒルズ",
            "city": "今治市",
            "postcode": "794-0087",
            "prefecture": "愛媛県",
            "id": 7940087
        },
        { "address": "末広町", "city": "今治市", "postcode": "794-0038", "prefecture": "愛媛県", "id": 7940038 },
        { "address": "砂場町", "city": "今治市", "postcode": "794-0001", "prefecture": "愛媛県", "id": 7940001 },
        { "address": "関前大下", "city": "今治市", "postcode": "794-1103", "prefecture": "愛媛県", "id": 7941103 },
        { "address": "関前岡村", "city": "今治市", "postcode": "794-1101", "prefecture": "愛媛県", "id": 7941101 },
        { "address": "関前小大下", "city": "今治市", "postcode": "794-1102", "prefecture": "愛媛県", "id": 7941102 },
        { "address": "蒼社町", "city": "今治市", "postcode": "794-0058", "prefecture": "愛媛県", "id": 7940058 },
        { "address": "杣田", "city": "今治市", "postcode": "799-2114", "prefecture": "愛媛県", "id": 7992114 },
        { "address": "大正町", "city": "今治市", "postcode": "794-0025", "prefecture": "愛媛県", "id": 7940025 },
        { "address": "高市", "city": "今治市", "postcode": "799-1512", "prefecture": "愛媛県", "id": 7991512 },
        { "address": "高橋", "city": "今治市", "postcode": "794-0066", "prefecture": "愛媛県", "id": 7940066 },
        {
            "address": "高橋ふれあいの丘",
            "city": "今治市",
            "postcode": "794-0067",
            "prefecture": "愛媛県",
            "id": 7940067
        },
        { "address": "高部", "city": "今治市", "postcode": "799-2113", "prefecture": "愛媛県", "id": 7992113 },
        { "address": "宅間", "city": "今治市", "postcode": "794-0083", "prefecture": "愛媛県", "id": 7940083 },
        { "address": "立花町", "city": "今治市", "postcode": "794-0821", "prefecture": "愛媛県", "id": 7940821 },
        { "address": "玉川町大野", "city": "今治市", "postcode": "794-0102", "prefecture": "愛媛県", "id": 7940102 },
        { "address": "玉川町鬼原", "city": "今治市", "postcode": "794-0117", "prefecture": "愛媛県", "id": 7940117 },
        { "address": "玉川町葛谷", "city": "今治市", "postcode": "794-0125", "prefecture": "愛媛県", "id": 7940125 },
        { "address": "玉川町桂", "city": "今治市", "postcode": "794-0107", "prefecture": "愛媛県", "id": 7940107 },
        { "address": "玉川町木地", "city": "今治市", "postcode": "794-0122", "prefecture": "愛媛県", "id": 7940122 },
        { "address": "玉川町高野", "city": "今治市", "postcode": "794-0115", "prefecture": "愛媛県", "id": 7940115 },
        { "address": "玉川町小鴨部", "city": "今治市", "postcode": "794-0112", "prefecture": "愛媛県", "id": 7940112 },
        { "address": "玉川町三反地", "city": "今治市", "postcode": "794-0101", "prefecture": "愛媛県", "id": 7940101 },
        { "address": "玉川町摺木", "city": "今治市", "postcode": "794-0104", "prefecture": "愛媛県", "id": 7940104 },
        { "address": "玉川町長谷", "city": "今治市", "postcode": "794-0109", "prefecture": "愛媛県", "id": 7940109 },
        { "address": "玉川町中村", "city": "今治市", "postcode": "794-0111", "prefecture": "愛媛県", "id": 7940111 },
        { "address": "玉川町鍋地", "city": "今治市", "postcode": "794-0106", "prefecture": "愛媛県", "id": 7940106 },
        { "address": "玉川町鈍川", "city": "今治市", "postcode": "794-0121", "prefecture": "愛媛県", "id": 7940121 },
        { "address": "玉川町畑寺", "city": "今治市", "postcode": "794-0116", "prefecture": "愛媛県", "id": 7940116 },
        { "address": "玉川町別所", "city": "今治市", "postcode": "794-0113", "prefecture": "愛媛県", "id": 7940113 },
        { "address": "玉川町法界寺", "city": "今治市", "postcode": "794-0103", "prefecture": "愛媛県", "id": 7940103 },
        { "address": "玉川町御厩", "city": "今治市", "postcode": "794-0108", "prefecture": "愛媛県", "id": 7940108 },
        { "address": "玉川町八幡", "city": "今治市", "postcode": "794-0114", "prefecture": "愛媛県", "id": 7940114 },
        { "address": "玉川町與和木", "city": "今治市", "postcode": "794-0105", "prefecture": "愛媛県", "id": 7940105 },
        { "address": "玉川町龍岡上", "city": "今治市", "postcode": "794-0124", "prefecture": "愛媛県", "id": 7940124 },
        { "address": "玉川町龍岡下", "city": "今治市", "postcode": "794-0123", "prefecture": "愛媛県", "id": 7940123 },
        { "address": "旦", "city": "今治市", "postcode": "799-1536", "prefecture": "愛媛県", "id": 7991536 },
        { "address": "近見町", "city": "今治市", "postcode": "794-0007", "prefecture": "愛媛県", "id": 7940007 },
        { "address": "辻堂", "city": "今治市", "postcode": "794-0827", "prefecture": "愛媛県", "id": 7940827 },
        { "address": "土橋町", "city": "今治市", "postcode": "794-0815", "prefecture": "愛媛県", "id": 7940815 },
        { "address": "天保山町", "city": "今治市", "postcode": "794-0032", "prefecture": "愛媛県", "id": 7940032 },
        { "address": "通町", "city": "今治市", "postcode": "794-0036", "prefecture": "愛媛県", "id": 7940036 },
        { "address": "常盤町", "city": "今治市", "postcode": "794-0015", "prefecture": "愛媛県", "id": 7940015 },
        { "address": "徳重", "city": "今治市", "postcode": "794-0863", "prefecture": "愛媛県", "id": 7940863 },
        { "address": "富田新港", "city": "今治市", "postcode": "799-1503", "prefecture": "愛媛県", "id": 7991503 },
        { "address": "長沢", "city": "今治市", "postcode": "799-1527", "prefecture": "愛媛県", "id": 7991527 },
        { "address": "中寺", "city": "今治市", "postcode": "794-0840", "prefecture": "愛媛県", "id": 7940840 },
        { "address": "中浜町", "city": "今治市", "postcode": "794-0016", "prefecture": "愛媛県", "id": 7940016 },
        { "address": "中日吉町", "city": "今治市", "postcode": "794-0055", "prefecture": "愛媛県", "id": 7940055 },
        { "address": "中堀", "city": "今治市", "postcode": "799-2115", "prefecture": "愛媛県", "id": 7992115 },
        { "address": "波方町大浦", "city": "今治市", "postcode": "799-2110", "prefecture": "愛媛県", "id": 7992110 },
        { "address": "波方町岡", "city": "今治市", "postcode": "799-2108", "prefecture": "愛媛県", "id": 7992108 },
        { "address": "波方町小部", "city": "今治市", "postcode": "799-2103", "prefecture": "愛媛県", "id": 7992103 },
        { "address": "波方町波方", "city": "今治市", "postcode": "799-2101", "prefecture": "愛媛県", "id": 7992101 },
        { "address": "波方町西浦", "city": "今治市", "postcode": "799-2107", "prefecture": "愛媛県", "id": 7992107 },
        { "address": "波方町樋口", "city": "今治市", "postcode": "799-2102", "prefecture": "愛媛県", "id": 7992102 },
        { "address": "波方町馬刀潟", "city": "今治市", "postcode": "799-2105", "prefecture": "愛媛県", "id": 7992105 },
        { "address": "波方町宮崎", "city": "今治市", "postcode": "799-2104", "prefecture": "愛媛県", "id": 7992104 },
        { "address": "波方町森上", "city": "今治市", "postcode": "799-2106", "prefecture": "愛媛県", "id": 7992106 },
        { "address": "波方町養老", "city": "今治市", "postcode": "799-2109", "prefecture": "愛媛県", "id": 7992109 },
        { "address": "にぎわい広場", "city": "今治市", "postcode": "794-0068", "prefecture": "愛媛県", "id": 7940068 },
        { "address": "新谷", "city": "今治市", "postcode": "794-0850", "prefecture": "愛媛県", "id": 7940850 },
        { "address": "登畑", "city": "今治市", "postcode": "799-1535", "prefecture": "愛媛県", "id": 7991535 },
        { "address": "野間", "city": "今治市", "postcode": "794-0082", "prefecture": "愛媛県", "id": 7940082 },
        { "address": "拝志", "city": "今治市", "postcode": "799-1504", "prefecture": "愛媛県", "id": 7991504 },
        { "address": "伯方町有津", "city": "今治市", "postcode": "794-2301", "prefecture": "愛媛県", "id": 7942301 },
        { "address": "伯方町伊方", "city": "今治市", "postcode": "794-2303", "prefecture": "愛媛県", "id": 7942303 },
        { "address": "伯方町叶浦", "city": "今治市", "postcode": "794-2302", "prefecture": "愛媛県", "id": 7942302 },
        { "address": "伯方町北浦", "city": "今治市", "postcode": "794-2304", "prefecture": "愛媛県", "id": 7942304 },
        { "address": "伯方町木浦", "city": "今治市", "postcode": "794-2305", "prefecture": "愛媛県", "id": 7942305 },
        { "address": "波止浜", "city": "今治市", "postcode": "799-2112", "prefecture": "愛媛県", "id": 7992112 },
        { "address": "波止浜", "city": "今治市", "postcode": "799-2118", "prefecture": "愛媛県", "id": 7992118 },
        { "address": "八町東", "city": "今治市", "postcode": "794-0831", "prefecture": "愛媛県", "id": 7940831 },
        { "address": "八町西", "city": "今治市", "postcode": "794-0832", "prefecture": "愛媛県", "id": 7940832 },
        { "address": "東鳥生町", "city": "今治市", "postcode": "794-0801", "prefecture": "愛媛県", "id": 7940801 },
        { "address": "東村", "city": "今治市", "postcode": "799-1506", "prefecture": "愛媛県", "id": 7991506 },
        { "address": "東村", "city": "今治市", "postcode": "799-1505", "prefecture": "愛媛県", "id": 7991505 },
        { "address": "東村南", "city": "今治市", "postcode": "799-1507", "prefecture": "愛媛県", "id": 7991507 },
        { "address": "東門町", "city": "今治市", "postcode": "794-0033", "prefecture": "愛媛県", "id": 7940033 },
        { "address": "古国分", "city": "今治市", "postcode": "799-1521", "prefecture": "愛媛県", "id": 7991521 },
        { "address": "別宮町", "city": "今治市", "postcode": "794-0026", "prefecture": "愛媛県", "id": 7940026 },
        { "address": "別名", "city": "今治市", "postcode": "794-0065", "prefecture": "愛媛県", "id": 7940065 },
        { "address": "本町", "city": "今治市", "postcode": "794-0018", "prefecture": "愛媛県", "id": 7940018 },
        { "address": "孫兵衛作", "city": "今治市", "postcode": "799-1526", "prefecture": "愛媛県", "id": 7991526 },
        { "address": "町谷", "city": "今治市", "postcode": "799-1514", "prefecture": "愛媛県", "id": 7991514 },
        { "address": "松木", "city": "今治市", "postcode": "799-1513", "prefecture": "愛媛県", "id": 7991513 },
        { "address": "松本町", "city": "今治市", "postcode": "794-0041", "prefecture": "愛媛県", "id": 7940041 },
        { "address": "美須賀町", "city": "今治市", "postcode": "794-0034", "prefecture": "愛媛県", "id": 7940034 },
        { "address": "湊町", "city": "今治市", "postcode": "794-0003", "prefecture": "愛媛県", "id": 7940003 },
        { "address": "南高下町", "city": "今治市", "postcode": "794-0811", "prefecture": "愛媛県", "id": 7940811 },
        { "address": "南大門町", "city": "今治市", "postcode": "794-0027", "prefecture": "愛媛県", "id": 7940027 },
        { "address": "南鳥生町", "city": "今治市", "postcode": "794-0802", "prefecture": "愛媛県", "id": 7940802 },
        { "address": "南日吉町", "city": "今治市", "postcode": "794-0056", "prefecture": "愛媛県", "id": 7940056 },
        { "address": "南宝来町", "city": "今治市", "postcode": "794-0043", "prefecture": "愛媛県", "id": 7940043 },
        { "address": "美保町", "city": "今治市", "postcode": "794-0012", "prefecture": "愛媛県", "id": 7940012 },
        { "address": "宮ヶ崎", "city": "今治市", "postcode": "799-1537", "prefecture": "愛媛県", "id": 7991537 },
        { "address": "宮窪町四阪島", "city": "今治市", "postcode": "792-0080", "prefecture": "愛媛県", "id": 7920080 },
        { "address": "宮窪町友浦", "city": "今治市", "postcode": "794-2204", "prefecture": "愛媛県", "id": 7942204 },
        { "address": "宮窪町早川", "city": "今治市", "postcode": "794-2201", "prefecture": "愛媛県", "id": 7942201 },
        { "address": "宮窪町宮窪", "city": "今治市", "postcode": "794-2203", "prefecture": "愛媛県", "id": 7942203 },
        { "address": "宮窪町余所国", "city": "今治市", "postcode": "794-2202", "prefecture": "愛媛県", "id": 7942202 },
        { "address": "宮下町", "city": "今治市", "postcode": "794-0052", "prefecture": "愛媛県", "id": 7940052 },
        { "address": "室屋町", "city": "今治市", "postcode": "794-0022", "prefecture": "愛媛県", "id": 7940022 },
        { "address": "矢田", "city": "今治市", "postcode": "794-0073", "prefecture": "愛媛県", "id": 7940073 },
        { "address": "山方町", "city": "今治市", "postcode": "794-0053", "prefecture": "愛媛県", "id": 7940053 },
        { "address": "山口", "city": "今治市", "postcode": "799-1602", "prefecture": "愛媛県", "id": 7991602 },
        { "address": "山路", "city": "今治市", "postcode": "794-0072", "prefecture": "愛媛県", "id": 7940072 },
        { "address": "山路町", "city": "今治市", "postcode": "794-0071", "prefecture": "愛媛県", "id": 7940071 },
        { "address": "湯ノ浦", "city": "今治市", "postcode": "799-1525", "prefecture": "愛媛県", "id": 7991525 },
        { "address": "横田町", "city": "今治市", "postcode": "794-0814", "prefecture": "愛媛県", "id": 7940814 },
        { "address": "吉海町幸新田", "city": "今治市", "postcode": "794-2111", "prefecture": "愛媛県", "id": 7942111 },
        { "address": "吉海町正味", "city": "今治市", "postcode": "794-2117", "prefecture": "愛媛県", "id": 7942117 },
        { "address": "吉海町田浦", "city": "今治市", "postcode": "794-2101", "prefecture": "愛媛県", "id": 7942101 },
        { "address": "吉海町津島", "city": "今治市", "postcode": "794-2119", "prefecture": "愛媛県", "id": 7942119 },
        { "address": "吉海町泊", "city": "今治市", "postcode": "794-2102", "prefecture": "愛媛県", "id": 7942102 },
        { "address": "吉海町名駒", "city": "今治市", "postcode": "794-2116", "prefecture": "愛媛県", "id": 7942116 },
        { "address": "吉海町仁江", "city": "今治市", "postcode": "794-2104", "prefecture": "愛媛県", "id": 7942104 },
        { "address": "吉海町福田", "city": "今治市", "postcode": "794-2103", "prefecture": "愛媛県", "id": 7942103 },
        { "address": "吉海町臥間", "city": "今治市", "postcode": "794-2118", "prefecture": "愛媛県", "id": 7942118 },
        { "address": "吉海町本庄", "city": "今治市", "postcode": "794-2112", "prefecture": "愛媛県", "id": 7942112 },
        { "address": "吉海町南浦", "city": "今治市", "postcode": "794-2115", "prefecture": "愛媛県", "id": 7942115 },
        { "address": "吉海町名", "city": "今治市", "postcode": "794-2114", "prefecture": "愛媛県", "id": 7942114 },
        { "address": "吉海町椋名", "city": "今治市", "postcode": "794-2113", "prefecture": "愛媛県", "id": 7942113 },
        { "address": "吉海町八幡", "city": "今治市", "postcode": "794-2110", "prefecture": "愛媛県", "id": 7942110 },
        { "address": "四村", "city": "今治市", "postcode": "794-0862", "prefecture": "愛媛県", "id": 7940862 },
        { "city": "宇和島市", "postcode": "798-0000", "prefecture": "愛媛県", "id": 7980000 },
        { "address": "曙町", "city": "宇和島市", "postcode": "798-0030", "prefecture": "愛媛県", "id": 7980030 },
        { "address": "朝日町", "city": "宇和島市", "postcode": "798-0004", "prefecture": "愛媛県", "id": 7980004 },
        { "address": "愛宕町", "city": "宇和島市", "postcode": "798-0042", "prefecture": "愛媛県", "id": 7980042 },
        { "address": "泉町", "city": "宇和島市", "postcode": "798-0026", "prefecture": "愛媛県", "id": 7980026 },
        { "address": "伊吹町", "city": "宇和島市", "postcode": "798-0023", "prefecture": "愛媛県", "id": 7980023 },
        { "address": "伊吹町", "city": "宇和島市", "postcode": "798-0024", "prefecture": "愛媛県", "id": 7980024 },
        { "address": "伊吹町", "city": "宇和島市", "postcode": "798-0025", "prefecture": "愛媛県", "id": 7980025 },
        { "address": "伊吹町", "city": "宇和島市", "postcode": "798-0022", "prefecture": "愛媛県", "id": 7980022 },
        { "address": "祝森", "city": "宇和島市", "postcode": "798-0078", "prefecture": "愛媛県", "id": 7980078 },
        { "address": "宇和津町", "city": "宇和島市", "postcode": "798-0043", "prefecture": "愛媛県", "id": 7980043 },
        { "address": "恵美須町", "city": "宇和島市", "postcode": "798-0032", "prefecture": "愛媛県", "id": 7980032 },
        { "address": "大浦", "city": "宇和島市", "postcode": "798-0001", "prefecture": "愛媛県", "id": 7980001 },
        { "address": "大浦", "city": "宇和島市", "postcode": "798-0002", "prefecture": "愛媛県", "id": 7980002 },
        { "address": "大宮町", "city": "宇和島市", "postcode": "798-0039", "prefecture": "愛媛県", "id": 7980039 },
        { "address": "御徒町", "city": "宇和島市", "postcode": "798-0063", "prefecture": "愛媛県", "id": 7980063 },
        { "address": "柿原", "city": "宇和島市", "postcode": "798-0027", "prefecture": "愛媛県", "id": 7980027 },
        { "address": "賀古町", "city": "宇和島市", "postcode": "798-0053", "prefecture": "愛媛県", "id": 7980053 },
        { "address": "川内", "city": "宇和島市", "postcode": "798-0076", "prefecture": "愛媛県", "id": 7980076 },
        { "address": "川内", "city": "宇和島市", "postcode": "798-0075", "prefecture": "愛媛県", "id": 7980075 },
        { "address": "北新町", "city": "宇和島市", "postcode": "798-0010", "prefecture": "愛媛県", "id": 7980010 },
        { "address": "京町", "city": "宇和島市", "postcode": "798-0052", "prefecture": "愛媛県", "id": 7980052 },
        { "address": "小池", "city": "宇和島市", "postcode": "798-0093", "prefecture": "愛媛県", "id": 7980093 },
        { "address": "石応", "city": "宇和島市", "postcode": "798-0091", "prefecture": "愛媛県", "id": 7980091 },
        { "address": "御殿町", "city": "宇和島市", "postcode": "798-0061", "prefecture": "愛媛県", "id": 7980061 },
        { "address": "寿町", "city": "宇和島市", "postcode": "798-0007", "prefecture": "愛媛県", "id": 7980007 },
        { "address": "小浜", "city": "宇和島市", "postcode": "798-0092", "prefecture": "愛媛県", "id": 7980092 },
        { "address": "蒋渕", "city": "宇和島市", "postcode": "798-0211", "prefecture": "愛媛県", "id": 7980211 },
        { "address": "佐伯町", "city": "宇和島市", "postcode": "798-0064", "prefecture": "愛媛県", "id": 7980064 },
        { "address": "栄町港", "city": "宇和島市", "postcode": "798-0031", "prefecture": "愛媛県", "id": 7980031 },
        { "address": "坂下津", "city": "宇和島市", "postcode": "798-0087", "prefecture": "愛媛県", "id": 7980087 },
        { "address": "桜町", "city": "宇和島市", "postcode": "798-0062", "prefecture": "愛媛県", "id": 7980062 },
        { "address": "笹町", "city": "宇和島市", "postcode": "798-0054", "prefecture": "愛媛県", "id": 7980054 },
        { "address": "下波", "city": "宇和島市", "postcode": "798-0104", "prefecture": "愛媛県", "id": 7980104 },
        { "address": "白浜", "city": "宇和島市", "postcode": "798-0090", "prefecture": "愛媛県", "id": 7980090 },
        { "address": "神田川原", "city": "宇和島市", "postcode": "798-0070", "prefecture": "愛媛県", "id": 7980070 },
        { "address": "新田町", "city": "宇和島市", "postcode": "798-0080", "prefecture": "愛媛県", "id": 7980080 },
        { "address": "新町", "city": "宇和島市", "postcode": "798-0035", "prefecture": "愛媛県", "id": 7980035 },
        { "address": "須賀通", "city": "宇和島市", "postcode": "798-0011", "prefecture": "愛媛県", "id": 7980011 },
        { "address": "住吉町", "city": "宇和島市", "postcode": "798-0003", "prefecture": "愛媛県", "id": 7980003 },
        { "address": "大超寺奥", "city": "宇和島市", "postcode": "798-0045", "prefecture": "愛媛県", "id": 7980045 },
        { "address": "高串", "city": "宇和島市", "postcode": "798-0020", "prefecture": "愛媛県", "id": 7980020 },
        { "address": "中央町", "city": "宇和島市", "postcode": "798-0040", "prefecture": "愛媛県", "id": 7980040 },
        { "address": "築地町", "city": "宇和島市", "postcode": "798-0005", "prefecture": "愛媛県", "id": 7980005 },
        { "address": "津島町嵐", "city": "宇和島市", "postcode": "798-3344", "prefecture": "愛媛県", "id": 7983344 },
        { "address": "津島町岩渕", "city": "宇和島市", "postcode": "798-3311", "prefecture": "愛媛県", "id": 7983311 },
        { "address": "津島町岩松", "city": "宇和島市", "postcode": "798-3301", "prefecture": "愛媛県", "id": 7983301 },
        { "address": "津島町後", "city": "宇和島市", "postcode": "798-3331", "prefecture": "愛媛県", "id": 7983331 },
        { "address": "津島町浦知", "city": "宇和島市", "postcode": "798-3342", "prefecture": "愛媛県", "id": 7983342 },
        { "address": "津島町塩定", "city": "宇和島市", "postcode": "798-3341", "prefecture": "愛媛県", "id": 7983341 },
        { "address": "津島町大浦", "city": "宇和島市", "postcode": "798-3337", "prefecture": "愛媛県", "id": 7983337 },
        {
            "address": "津島町柿之浦",
            "city": "宇和島市",
            "postcode": "798-3338",
            "prefecture": "愛媛県",
            "id": 7983338
        },
        {
            "address": "津島町上畑地",
            "city": "宇和島市",
            "postcode": "798-3323",
            "prefecture": "愛媛県",
            "id": 7983323
        },
        {
            "address": "津島町北灘乙",
            "city": "宇和島市",
            "postcode": "798-3362",
            "prefecture": "愛媛県",
            "id": 7983362
        },
        {
            "address": "津島町北灘甲",
            "city": "宇和島市",
            "postcode": "798-3361",
            "prefecture": "愛媛県",
            "id": 7983361
        },
        {
            "address": "津島町北灘丙",
            "city": "宇和島市",
            "postcode": "798-3363",
            "prefecture": "愛媛県",
            "id": 7983363
        },
        {
            "address": "津島町北灘丁",
            "city": "宇和島市",
            "postcode": "798-3364",
            "prefecture": "愛媛県",
            "id": 7983364
        },
        { "address": "津島町山財", "city": "宇和島市", "postcode": "798-3312", "prefecture": "愛媛県", "id": 7983312 },
        {
            "address": "津島町下畑地乙",
            "city": "宇和島市",
            "postcode": "798-3322",
            "prefecture": "愛媛県",
            "id": 7983322
        },
        {
            "address": "津島町下畑地",
            "city": "宇和島市",
            "postcode": "798-3321",
            "prefecture": "愛媛県",
            "id": 7983321
        },
        { "address": "津島町須下", "city": "宇和島市", "postcode": "798-3332", "prefecture": "愛媛県", "id": 7983332 },
        { "address": "津島町曽根", "city": "宇和島市", "postcode": "798-3356", "prefecture": "愛媛県", "id": 7983356 },
        { "address": "津島町田颪", "city": "宇和島市", "postcode": "798-3354", "prefecture": "愛媛県", "id": 7983354 },
        { "address": "津島町高田", "city": "宇和島市", "postcode": "798-3302", "prefecture": "愛媛県", "id": 7983302 },
        {
            "address": "津島町竹ケ島",
            "city": "宇和島市",
            "postcode": "798-3358",
            "prefecture": "愛媛県",
            "id": 7983358
        },
        {
            "address": "津島町田之浜",
            "city": "宇和島市",
            "postcode": "798-3357",
            "prefecture": "愛媛県",
            "id": 7983357
        },
        { "address": "津島町近家", "city": "宇和島市", "postcode": "798-3303", "prefecture": "愛媛県", "id": 7983303 },
        { "address": "津島町坪井", "city": "宇和島市", "postcode": "798-3352", "prefecture": "愛媛県", "id": 7983352 },
        {
            "address": "津島町泥目水",
            "city": "宇和島市",
            "postcode": "798-3353",
            "prefecture": "愛媛県",
            "id": 7983353
        },
        { "address": "津島町成", "city": "宇和島市", "postcode": "798-3333", "prefecture": "愛媛県", "id": 7983333 },
        { "address": "津島町鼡鳴", "city": "宇和島市", "postcode": "798-3346", "prefecture": "愛媛県", "id": 7983346 },
        { "address": "津島町針木", "city": "宇和島市", "postcode": "798-3343", "prefecture": "愛媛県", "id": 7983343 },
        { "address": "津島町平井", "city": "宇和島市", "postcode": "798-3335", "prefecture": "愛媛県", "id": 7983335 },
        { "address": "津島町曲烏", "city": "宇和島市", "postcode": "798-3336", "prefecture": "愛媛県", "id": 7983336 },
        { "address": "津島町槇川", "city": "宇和島市", "postcode": "798-3272", "prefecture": "愛媛県", "id": 7983272 },
        { "address": "津島町増穂", "city": "宇和島市", "postcode": "798-3313", "prefecture": "愛媛県", "id": 7983313 },
        { "address": "津島町御内", "city": "宇和島市", "postcode": "798-3271", "prefecture": "愛媛県", "id": 7983271 },
        { "address": "津島町弓立", "city": "宇和島市", "postcode": "798-3351", "prefecture": "愛媛県", "id": 7983351 },
        { "address": "津島町横浦", "city": "宇和島市", "postcode": "798-3345", "prefecture": "愛媛県", "id": 7983345 },
        { "address": "津島町漁家", "city": "宇和島市", "postcode": "798-3334", "prefecture": "愛媛県", "id": 7983334 },
        { "address": "津島町脇", "city": "宇和島市", "postcode": "798-3355", "prefecture": "愛媛県", "id": 7983355 },
        { "address": "鶴島町", "city": "宇和島市", "postcode": "798-0033", "prefecture": "愛媛県", "id": 7980033 },
        { "address": "天赦公園", "city": "宇和島市", "postcode": "798-0065", "prefecture": "愛媛県", "id": 7980065 },
        { "address": "天神町", "city": "宇和島市", "postcode": "798-0036", "prefecture": "愛媛県", "id": 7980036 },
        { "address": "戸島", "city": "宇和島市", "postcode": "798-0212", "prefecture": "愛媛県", "id": 7980212 },
        { "address": "中沢町", "city": "宇和島市", "postcode": "798-0081", "prefecture": "愛媛県", "id": 7980081 },
        { "address": "長堀", "city": "宇和島市", "postcode": "798-0082", "prefecture": "愛媛県", "id": 7980082 },
        { "address": "夏目町", "city": "宇和島市", "postcode": "798-0083", "prefecture": "愛媛県", "id": 7980083 },
        { "address": "並松", "city": "宇和島市", "postcode": "798-0074", "prefecture": "愛媛県", "id": 7980074 },
        { "address": "錦町", "city": "宇和島市", "postcode": "798-0034", "prefecture": "愛媛県", "id": 7980034 },
        { "address": "野川", "city": "宇和島市", "postcode": "798-2146", "prefecture": "愛媛県", "id": 7982146 },
        { "address": "野川", "city": "宇和島市", "postcode": "798-0044", "prefecture": "愛媛県", "id": 7980044 },
        { "address": "蛤", "city": "宇和島市", "postcode": "798-0098", "prefecture": "愛媛県", "id": 7980098 },
        { "address": "日振島", "city": "宇和島市", "postcode": "798-0099", "prefecture": "愛媛県", "id": 7980099 },
        { "address": "百之浦", "city": "宇和島市", "postcode": "798-0097", "prefecture": "愛媛県", "id": 7980097 },
        { "address": "平浦", "city": "宇和島市", "postcode": "798-0095", "prefecture": "愛媛県", "id": 7980095 },
        { "address": "広小路", "city": "宇和島市", "postcode": "798-0051", "prefecture": "愛媛県", "id": 7980051 },
        { "address": "文京町", "city": "宇和島市", "postcode": "798-0066", "prefecture": "愛媛県", "id": 7980066 },
        { "address": "別当", "city": "宇和島市", "postcode": "798-0086", "prefecture": "愛媛県", "id": 7980086 },
        { "address": "弁天町", "city": "宇和島市", "postcode": "798-0006", "prefecture": "愛媛県", "id": 7980006 },
        { "address": "保手", "city": "宇和島市", "postcode": "798-0088", "prefecture": "愛媛県", "id": 7980088 },
        { "address": "堀端町", "city": "宇和島市", "postcode": "798-0050", "prefecture": "愛媛県", "id": 7980050 },
        { "address": "本九島", "city": "宇和島市", "postcode": "798-0096", "prefecture": "愛媛県", "id": 7980096 },
        { "address": "本町追手", "city": "宇和島市", "postcode": "798-0041", "prefecture": "愛媛県", "id": 7980041 },
        { "address": "桝形町", "city": "宇和島市", "postcode": "798-0067", "prefecture": "愛媛県", "id": 7980067 },
        { "address": "丸穂町", "city": "宇和島市", "postcode": "798-0037", "prefecture": "愛媛県", "id": 7980037 },
        { "address": "丸穂", "city": "宇和島市", "postcode": "798-0038", "prefecture": "愛媛県", "id": 7980038 },
        { "address": "丸之内", "city": "宇和島市", "postcode": "798-0060", "prefecture": "愛媛県", "id": 7980060 },
        { "address": "三浦東", "city": "宇和島市", "postcode": "798-0101", "prefecture": "愛媛県", "id": 7980101 },
        { "address": "三浦西", "city": "宇和島市", "postcode": "798-0102", "prefecture": "愛媛県", "id": 7980102 },
        { "address": "光満", "city": "宇和島市", "postcode": "798-0021", "prefecture": "愛媛県", "id": 7980021 },
        { "address": "三間町大内", "city": "宇和島市", "postcode": "798-1136", "prefecture": "愛媛県", "id": 7981136 },
        { "address": "三間町大藤", "city": "宇和島市", "postcode": "798-1101", "prefecture": "愛媛県", "id": 7981101 },
        { "address": "三間町音地", "city": "宇和島市", "postcode": "798-1141", "prefecture": "愛媛県", "id": 7981141 },
        { "address": "三間町金銅", "city": "宇和島市", "postcode": "798-1134", "prefecture": "愛媛県", "id": 7981134 },
        { "address": "三間町兼近", "city": "宇和島市", "postcode": "798-1137", "prefecture": "愛媛県", "id": 7981137 },
        {
            "address": "三間町川之内",
            "city": "宇和島市",
            "postcode": "798-1121",
            "prefecture": "愛媛県",
            "id": 7981121
        },
        {
            "address": "三間町北増穂",
            "city": "宇和島市",
            "postcode": "798-1111",
            "prefecture": "愛媛県",
            "id": 7981111
        },
        {
            "address": "三間町黒井地",
            "city": "宇和島市",
            "postcode": "798-1116",
            "prefecture": "愛媛県",
            "id": 7981116
        },
        { "address": "三間町黒川", "city": "宇和島市", "postcode": "798-1143", "prefecture": "愛媛県", "id": 7981143 },
        {
            "address": "三間町小沢川",
            "city": "宇和島市",
            "postcode": "798-1122",
            "prefecture": "愛媛県",
            "id": 7981122
        },
        {
            "address": "三間町古藤田",
            "city": "宇和島市",
            "postcode": "798-1135",
            "prefecture": "愛媛県",
            "id": 7981135
        },
        { "address": "三間町是延", "city": "宇和島市", "postcode": "798-1139", "prefecture": "愛媛県", "id": 7981139 },
        { "address": "三間町是能", "city": "宇和島市", "postcode": "798-1105", "prefecture": "愛媛県", "id": 7981105 },
        { "address": "三間町則", "city": "宇和島市", "postcode": "798-1102", "prefecture": "愛媛県", "id": 7981102 },
        { "address": "三間町曽根", "city": "宇和島市", "postcode": "798-1104", "prefecture": "愛媛県", "id": 7981104 },
        { "address": "三間町田川", "city": "宇和島市", "postcode": "798-1131", "prefecture": "愛媛県", "id": 7981131 },
        {
            "address": "三間町土居垣内",
            "city": "宇和島市",
            "postcode": "798-1138",
            "prefecture": "愛媛県",
            "id": 7981138
        },
        {
            "address": "三間町土居中",
            "city": "宇和島市",
            "postcode": "798-1125",
            "prefecture": "愛媛県",
            "id": 7981125
        },
        { "address": "三間町戸雁", "city": "宇和島市", "postcode": "798-1115", "prefecture": "愛媛県", "id": 7981115 },
        {
            "address": "三間町中野中",
            "city": "宇和島市",
            "postcode": "798-1133",
            "prefecture": "愛媛県",
            "id": 7981133
        },
        { "address": "三間町波岡", "city": "宇和島市", "postcode": "798-1132", "prefecture": "愛媛県", "id": 7981132 },
        { "address": "三間町成家", "city": "宇和島市", "postcode": "798-1103", "prefecture": "愛媛県", "id": 7981103 },
        { "address": "三間町迫目", "city": "宇和島市", "postcode": "798-1113", "prefecture": "愛媛県", "id": 7981113 },
        { "address": "三間町増田", "city": "宇和島市", "postcode": "798-1124", "prefecture": "愛媛県", "id": 7981124 },
        {
            "address": "三間町三間中間",
            "city": "宇和島市",
            "postcode": "798-1142",
            "prefecture": "愛媛県",
            "id": 7981142
        },
        {
            "address": "三間町宮野下",
            "city": "宇和島市",
            "postcode": "798-1112",
            "prefecture": "愛媛県",
            "id": 7981112
        },
        { "address": "三間町務田", "city": "宇和島市", "postcode": "798-1114", "prefecture": "愛媛県", "id": 7981114 },
        { "address": "三間町元宗", "city": "宇和島市", "postcode": "798-1123", "prefecture": "愛媛県", "id": 7981123 },
        { "address": "宮下", "city": "宇和島市", "postcode": "798-0085", "prefecture": "愛媛県", "id": 7980085 },
        { "address": "御幸町", "city": "宇和島市", "postcode": "798-0013", "prefecture": "愛媛県", "id": 7980013 },
        { "address": "妙典寺前", "city": "宇和島市", "postcode": "798-0071", "prefecture": "愛媛県", "id": 7980071 },
        { "address": "明倫町", "city": "宇和島市", "postcode": "798-0068", "prefecture": "愛媛県", "id": 7980068 },
        { "address": "元結掛", "city": "宇和島市", "postcode": "798-0072", "prefecture": "愛媛県", "id": 7980072 },
        { "address": "保田", "city": "宇和島市", "postcode": "798-0077", "prefecture": "愛媛県", "id": 7980077 },
        { "address": "山際", "city": "宇和島市", "postcode": "798-0073", "prefecture": "愛媛県", "id": 7980073 },
        { "address": "遊子", "city": "宇和島市", "postcode": "798-0103", "prefecture": "愛媛県", "id": 7980103 },
        { "address": "吉田町浅川", "city": "宇和島市", "postcode": "799-3763", "prefecture": "愛媛県", "id": 7993763 },
        { "address": "吉田町魚棚", "city": "宇和島市", "postcode": "799-3704", "prefecture": "愛媛県", "id": 7993704 },
        { "address": "吉田町裡町", "city": "宇和島市", "postcode": "799-3706", "prefecture": "愛媛県", "id": 7993706 },
        { "address": "吉田町沖村", "city": "宇和島市", "postcode": "799-3751", "prefecture": "愛媛県", "id": 7993751 },
        { "address": "吉田町奥浦", "city": "宇和島市", "postcode": "799-3772", "prefecture": "愛媛県", "id": 7993772 },
        { "address": "吉田町河内", "city": "宇和島市", "postcode": "799-3752", "prefecture": "愛媛県", "id": 7993752 },
        {
            "address": "吉田町北小路",
            "city": "宇和島市",
            "postcode": "799-3701",
            "prefecture": "愛媛県",
            "id": 7993701
        },
        { "address": "吉田町白浦", "city": "宇和島市", "postcode": "799-3741", "prefecture": "愛媛県", "id": 7993741 },
        { "address": "吉田町立間", "city": "宇和島市", "postcode": "799-3730", "prefecture": "愛媛県", "id": 7993730 },
        {
            "address": "吉田町立間尻",
            "city": "宇和島市",
            "postcode": "799-3710",
            "prefecture": "愛媛県",
            "id": 7993710
        },
        { "address": "吉田町知永", "city": "宇和島市", "postcode": "799-3720", "prefecture": "愛媛県", "id": 7993720 },
        { "address": "吉田町鶴間", "city": "宇和島市", "postcode": "799-3707", "prefecture": "愛媛県", "id": 7993707 },
        { "address": "吉田町鶴間", "city": "宇和島市", "postcode": "799-3762", "prefecture": "愛媛県", "id": 7993762 },
        { "address": "吉田町鶴間", "city": "宇和島市", "postcode": "799-3761", "prefecture": "愛媛県", "id": 7993761 },
        { "address": "吉田町南君", "city": "宇和島市", "postcode": "799-3771", "prefecture": "愛媛県", "id": 7993771 },
        {
            "address": "吉田町西小路",
            "city": "宇和島市",
            "postcode": "799-3702",
            "prefecture": "愛媛県",
            "id": 7993702
        },
        {
            "address": "吉田町東小路",
            "city": "宇和島市",
            "postcode": "799-3703",
            "prefecture": "愛媛県",
            "id": 7993703
        },
        { "address": "吉田町深浦", "city": "宇和島市", "postcode": "799-3743", "prefecture": "愛媛県", "id": 7993743 },
        {
            "address": "吉田町法花津",
            "city": "宇和島市",
            "postcode": "799-3742",
            "prefecture": "愛媛県",
            "id": 7993742
        },
        { "address": "吉田町本町", "city": "宇和島市", "postcode": "799-3705", "prefecture": "愛媛県", "id": 7993705 },
        { "address": "寄松", "city": "宇和島市", "postcode": "798-0084", "prefecture": "愛媛県", "id": 7980084 },
        { "address": "蕨", "city": "宇和島市", "postcode": "798-0094", "prefecture": "愛媛県", "id": 7980094 },
        { "address": "和霊公園", "city": "宇和島市", "postcode": "798-0014", "prefecture": "愛媛県", "id": 7980014 },
        { "address": "和霊中町", "city": "宇和島市", "postcode": "798-0016", "prefecture": "愛媛県", "id": 7980016 },
        { "address": "和霊東町", "city": "宇和島市", "postcode": "798-0017", "prefecture": "愛媛県", "id": 7980017 },
        { "address": "和霊元町", "city": "宇和島市", "postcode": "798-0015", "prefecture": "愛媛県", "id": 7980015 },
        { "address": "和霊町", "city": "宇和島市", "postcode": "798-0012", "prefecture": "愛媛県", "id": 7980012 },
        { "city": "八幡浜市", "postcode": "796-0000", "prefecture": "愛媛県", "id": 7960000 },
        { "city": "八幡浜市", "postcode": "796-0088", "prefecture": "愛媛県", "id": 7960088 },
        { "address": "朝潮橋", "city": "八幡浜市", "postcode": "796-0081", "prefecture": "愛媛県", "id": 7960081 },
        { "address": "旭町", "city": "八幡浜市", "postcode": "796-0086", "prefecture": "愛媛県", "id": 7960086 },
        { "address": "愛宕", "city": "八幡浜市", "postcode": "796-0056", "prefecture": "愛媛県", "id": 7960056 },
        { "address": "愛宕山団地", "city": "八幡浜市", "postcode": "796-0057", "prefecture": "愛媛県", "id": 7960057 },
        { "address": "穴井", "city": "八幡浜市", "postcode": "796-8054", "prefecture": "愛媛県", "id": 7968054 },
        { "address": "駅前", "city": "八幡浜市", "postcode": "796-0022", "prefecture": "愛媛県", "id": 7960022 },
        { "address": "江戸岡", "city": "八幡浜市", "postcode": "796-0031", "prefecture": "愛媛県", "id": 7960031 },
        { "address": "海老崎", "city": "八幡浜市", "postcode": "796-0061", "prefecture": "愛媛県", "id": 7960061 },
        { "address": "戎町", "city": "八幡浜市", "postcode": "796-0073", "prefecture": "愛媛県", "id": 7960073 },
        { "address": "大島", "city": "八幡浜市", "postcode": "796-8060", "prefecture": "愛媛県", "id": 7968060 },
        { "address": "大谷口", "city": "八幡浜市", "postcode": "796-8001", "prefecture": "愛媛県", "id": 7968001 },
        { "address": "大平", "city": "八幡浜市", "postcode": "796-0004", "prefecture": "愛媛県", "id": 7960004 },
        { "address": "大平", "city": "八幡浜市", "postcode": "796-0002", "prefecture": "愛媛県", "id": 7960002 },
        { "address": "大平", "city": "八幡浜市", "postcode": "796-0003", "prefecture": "愛媛県", "id": 7960003 },
        { "address": "沖新田", "city": "八幡浜市", "postcode": "796-0087", "prefecture": "愛媛県", "id": 7960087 },
        { "address": "海望園", "city": "八幡浜市", "postcode": "796-0053", "prefecture": "愛媛県", "id": 7960053 },
        { "address": "片山町", "city": "八幡浜市", "postcode": "796-0065", "prefecture": "愛媛県", "id": 7960065 },
        { "address": "釜倉", "city": "八幡浜市", "postcode": "796-8036", "prefecture": "愛媛県", "id": 7968036 },
        { "address": "川上町上泊", "city": "八幡浜市", "postcode": "796-8051", "prefecture": "愛媛県", "id": 7968051 },
        {
            "address": "川上町川名津",
            "city": "八幡浜市",
            "postcode": "796-8050",
            "prefecture": "愛媛県",
            "id": 7968050
        },
        { "address": "川上町白石", "city": "八幡浜市", "postcode": "796-8052", "prefecture": "愛媛県", "id": 7968052 },
        { "address": "川之内", "city": "八幡浜市", "postcode": "796-8025", "prefecture": "愛媛県", "id": 7968025 },
        { "address": "北大黒町", "city": "八幡浜市", "postcode": "796-0082", "prefecture": "愛媛県", "id": 7960082 },
        { "address": "北浜", "city": "八幡浜市", "postcode": "796-0048", "prefecture": "愛媛県", "id": 7960048 },
        { "address": "木多町", "city": "八幡浜市", "postcode": "796-0011", "prefecture": "愛媛県", "id": 7960011 },
        { "address": "喜多町", "city": "八幡浜市", "postcode": "796-0042", "prefecture": "愛媛県", "id": 7960042 },
        { "address": "旧港", "city": "八幡浜市", "postcode": "796-0046", "prefecture": "愛媛県", "id": 7960046 },
        { "address": "旧役場前通", "city": "八幡浜市", "postcode": "796-0077", "prefecture": "愛媛県", "id": 7960077 },
        { "address": "国木", "city": "八幡浜市", "postcode": "796-8015", "prefecture": "愛媛県", "id": 7968015 },
        { "address": "栗野浦", "city": "八幡浜市", "postcode": "796-8008", "prefecture": "愛媛県", "id": 7968008 },
        { "address": "郷", "city": "八幡浜市", "postcode": "796-8020", "prefecture": "愛媛県", "id": 7968020 },
        { "address": "合田", "city": "八幡浜市", "postcode": "796-8041", "prefecture": "愛媛県", "id": 7968041 },
        { "address": "五反田", "city": "八幡浜市", "postcode": "796-8010", "prefecture": "愛媛県", "id": 7968010 },
        { "address": "琴平町", "city": "八幡浜市", "postcode": "796-0054", "prefecture": "愛媛県", "id": 7960054 },
        { "address": "裁判所通", "city": "八幡浜市", "postcode": "796-0041", "prefecture": "愛媛県", "id": 7960041 },
        { "address": "幸町", "city": "八幡浜市", "postcode": "796-0051", "prefecture": "愛媛県", "id": 7960051 },
        { "address": "産業通", "city": "八幡浜市", "postcode": "796-8004", "prefecture": "愛媛県", "id": 7968004 },
        { "address": "舌間", "city": "八幡浜市", "postcode": "796-8040", "prefecture": "愛媛県", "id": 7968040 },
        { "address": "下道", "city": "八幡浜市", "postcode": "796-0069", "prefecture": "愛媛県", "id": 7960069 },
        { "address": "清水町", "city": "八幡浜市", "postcode": "796-0028", "prefecture": "愛媛県", "id": 7960028 },
        {
            "address": "清水町花小路",
            "city": "八幡浜市",
            "postcode": "796-0038",
            "prefecture": "愛媛県",
            "id": 7960038
        },
        { "address": "昭和通", "city": "八幡浜市", "postcode": "796-0037", "prefecture": "愛媛県", "id": 7960037 },
        { "address": "白浜通", "city": "八幡浜市", "postcode": "796-0047", "prefecture": "愛媛県", "id": 7960047 },
        { "address": "新栄町", "city": "八幡浜市", "postcode": "796-0062", "prefecture": "愛媛県", "id": 7960062 },
        { "address": "新川", "city": "八幡浜市", "postcode": "796-0036", "prefecture": "愛媛県", "id": 7960036 },
        { "address": "神宮", "city": "八幡浜市", "postcode": "796-0020", "prefecture": "愛媛県", "id": 7960020 },
        { "address": "神宮通", "city": "八幡浜市", "postcode": "796-0024", "prefecture": "愛媛県", "id": 7960024 },
        { "address": "神宮前", "city": "八幡浜市", "postcode": "796-0023", "prefecture": "愛媛県", "id": 7960023 },
        { "address": "新町", "city": "八幡浜市", "postcode": "796-0071", "prefecture": "愛媛県", "id": 7960071 },
        { "address": "新港", "city": "八幡浜市", "postcode": "796-0074", "prefecture": "愛媛県", "id": 7960074 },
        { "address": "新港戎町", "city": "八幡浜市", "postcode": "796-0079", "prefecture": "愛媛県", "id": 7960079 },
        { "address": "新和田町", "city": "八幡浜市", "postcode": "796-0014", "prefecture": "愛媛県", "id": 7960014 },
        { "address": "須崎", "city": "八幡浜市", "postcode": "796-0035", "prefecture": "愛媛県", "id": 7960035 },
        { "address": "船場通", "city": "八幡浜市", "postcode": "796-0064", "prefecture": "愛媛県", "id": 7960064 },
        { "address": "大黒町", "city": "八幡浜市", "postcode": "796-0083", "prefecture": "愛媛県", "id": 7960083 },
        { "address": "大正町", "city": "八幡浜市", "postcode": "796-0033", "prefecture": "愛媛県", "id": 7960033 },
        { "address": "大門", "city": "八幡浜市", "postcode": "796-0055", "prefecture": "愛媛県", "id": 7960055 },
        { "address": "高野地", "city": "八幡浜市", "postcode": "796-0005", "prefecture": "愛媛県", "id": 7960005 },
        { "address": "谷", "city": "八幡浜市", "postcode": "796-8037", "prefecture": "愛媛県", "id": 7968037 },
        { "address": "中央", "city": "八幡浜市", "postcode": "796-0067", "prefecture": "愛媛県", "id": 7960067 },
        { "address": "千代田町", "city": "八幡浜市", "postcode": "796-0076", "prefecture": "愛媛県", "id": 7960076 },
        { "address": "出島", "city": "八幡浜市", "postcode": "796-0089", "prefecture": "愛媛県", "id": 7960089 },
        { "address": "天神通", "city": "八幡浜市", "postcode": "796-0085", "prefecture": "愛媛県", "id": 7960085 },
        { "address": "中津川", "city": "八幡浜市", "postcode": "796-8030", "prefecture": "愛媛県", "id": 7968030 },
        { "address": "仲之町", "city": "八幡浜市", "postcode": "796-0075", "prefecture": "愛媛県", "id": 7960075 },
        { "address": "西近江屋町", "city": "八幡浜市", "postcode": "796-0044", "prefecture": "愛媛県", "id": 7960044 },
        {
            "address": "西近江屋町浜通",
            "city": "八幡浜市",
            "postcode": "796-0045",
            "prefecture": "愛媛県",
            "id": 7960045
        },
        { "address": "花小路", "city": "八幡浜市", "postcode": "796-0029", "prefecture": "愛媛県", "id": 7960029 },
        { "address": "浜田町", "city": "八幡浜市", "postcode": "796-0034", "prefecture": "愛媛県", "id": 7960034 },
        { "address": "浜之町", "city": "八幡浜市", "postcode": "796-0068", "prefecture": "愛媛県", "id": 7960068 },
        { "address": "東近江屋町", "city": "八幡浜市", "postcode": "796-0043", "prefecture": "愛媛県", "id": 7960043 },
        { "address": "東新川", "city": "八幡浜市", "postcode": "796-0032", "prefecture": "愛媛県", "id": 7960032 },
        { "address": "東矢野町", "city": "八幡浜市", "postcode": "796-0025", "prefecture": "愛媛県", "id": 7960025 },
        { "address": "日土町", "city": "八幡浜市", "postcode": "796-0170", "prefecture": "愛媛県", "id": 7960170 },
        { "address": "桧谷", "city": "八幡浜市", "postcode": "796-0021", "prefecture": "愛媛県", "id": 7960021 },
        { "address": "広瀬", "city": "八幡浜市", "postcode": "796-8002", "prefecture": "愛媛県", "id": 7968002 },
        { "address": "布喜川", "city": "八幡浜市", "postcode": "796-8039", "prefecture": "愛媛県", "id": 7968039 },
        { "address": "古町", "city": "八幡浜市", "postcode": "796-8003", "prefecture": "愛媛県", "id": 7968003 },
        { "address": "保内町磯崎", "city": "八幡浜市", "postcode": "796-0203", "prefecture": "愛媛県", "id": 7960203 },
        {
            "address": "保内町川之石",
            "city": "八幡浜市",
            "postcode": "796-0201",
            "prefecture": "愛媛県",
            "id": 7960201
        },
        { "address": "保内町喜木", "city": "八幡浜市", "postcode": "796-0111", "prefecture": "愛媛県", "id": 7960111 },
        {
            "address": "保内町喜木津",
            "city": "八幡浜市",
            "postcode": "796-0204",
            "prefecture": "愛媛県",
            "id": 7960204
        },
        { "address": "保内町須川", "city": "八幡浜市", "postcode": "796-0112", "prefecture": "愛媛県", "id": 7960112 },
        { "address": "保内町広早", "city": "八幡浜市", "postcode": "796-0205", "prefecture": "愛媛県", "id": 7960205 },
        { "address": "保内町宮内", "city": "八幡浜市", "postcode": "796-0202", "prefecture": "愛媛県", "id": 7960202 },
        { "address": "本町", "city": "八幡浜市", "postcode": "796-0066", "prefecture": "愛媛県", "id": 7960066 },
        { "address": "真網代", "city": "八幡浜市", "postcode": "796-8053", "prefecture": "愛媛県", "id": 7968053 },
        { "address": "松蔭町", "city": "八幡浜市", "postcode": "796-0027", "prefecture": "愛媛県", "id": 7960027 },
        { "address": "松柏", "city": "八幡浜市", "postcode": "796-0010", "prefecture": "愛媛県", "id": 7960010 },
        { "address": "松本町", "city": "八幡浜市", "postcode": "796-0052", "prefecture": "愛媛県", "id": 7960052 },
        { "address": "港町", "city": "八幡浜市", "postcode": "796-0072", "prefecture": "愛媛県", "id": 7960072 },
        { "address": "南柏", "city": "八幡浜市", "postcode": "796-0012", "prefecture": "愛媛県", "id": 7960012 },
        { "address": "南大黒町", "city": "八幡浜市", "postcode": "796-0084", "prefecture": "愛媛県", "id": 7960084 },
        { "address": "向灘", "city": "八幡浜市", "postcode": "796-0001", "prefecture": "愛媛県", "id": 7960001 },
        { "address": "元城団地", "city": "八幡浜市", "postcode": "796-8011", "prefecture": "愛媛県", "id": 7968011 },
        { "address": "八代", "city": "八幡浜市", "postcode": "796-8006", "prefecture": "愛媛県", "id": 7968006 },
        { "address": "八代", "city": "八幡浜市", "postcode": "796-8007", "prefecture": "愛媛県", "id": 7968007 },
        { "address": "矢野町", "city": "八幡浜市", "postcode": "796-8005", "prefecture": "愛媛県", "id": 7968005 },
        { "address": "矢野町", "city": "八幡浜市", "postcode": "796-0026", "prefecture": "愛媛県", "id": 7960026 },
        { "address": "山越", "city": "八幡浜市", "postcode": "796-0013", "prefecture": "愛媛県", "id": 7960013 },
        { "address": "横平", "city": "八幡浜市", "postcode": "796-8038", "prefecture": "愛媛県", "id": 7968038 },
        { "address": "横町", "city": "八幡浜市", "postcode": "796-0063", "prefecture": "愛媛県", "id": 7960063 },
        { "address": "若山", "city": "八幡浜市", "postcode": "796-8035", "prefecture": "愛媛県", "id": 7968035 },
        { "city": "新居浜市", "postcode": "792-0000", "prefecture": "愛媛県", "id": 7920000 },
        { "address": "阿島乙", "city": "新居浜市", "postcode": "792-0897", "prefecture": "愛媛県", "id": 7920897 },
        { "address": "阿島", "city": "新居浜市", "postcode": "792-0896", "prefecture": "愛媛県", "id": 7920896 },
        { "address": "泉池町", "city": "新居浜市", "postcode": "792-0013", "prefecture": "愛媛県", "id": 7920013 },
        { "address": "泉宮町", "city": "新居浜市", "postcode": "792-0021", "prefecture": "愛媛県", "id": 7920021 },
        { "address": "磯浦町", "city": "新居浜市", "postcode": "792-0002", "prefecture": "愛媛県", "id": 7920002 },
        { "address": "一宮町", "city": "新居浜市", "postcode": "792-0025", "prefecture": "愛媛県", "id": 7920025 },
        { "address": "宇高町", "city": "新居浜市", "postcode": "792-0866", "prefecture": "愛媛県", "id": 7920866 },
        { "address": "上原", "city": "新居浜市", "postcode": "792-0046", "prefecture": "愛媛県", "id": 7920046 },
        { "address": "江口町", "city": "新居浜市", "postcode": "792-0005", "prefecture": "愛媛県", "id": 7920005 },
        { "address": "王子町", "city": "新居浜市", "postcode": "792-0008", "prefecture": "愛媛県", "id": 7920008 },
        { "address": "大江町", "city": "新居浜市", "postcode": "792-0015", "prefecture": "愛媛県", "id": 7920015 },
        { "address": "大島", "city": "新居浜市", "postcode": "792-0891", "prefecture": "愛媛県", "id": 7920891 },
        { "address": "大生院", "city": "新居浜市", "postcode": "792-0060", "prefecture": "愛媛県", "id": 7920060 },
        { "address": "御蔵町", "city": "新居浜市", "postcode": "792-0047", "prefecture": "愛媛県", "id": 7920047 },
        { "address": "落神町", "city": "新居浜市", "postcode": "792-0883", "prefecture": "愛媛県", "id": 7920883 },
        { "address": "金子丙", "city": "新居浜市", "postcode": "792-0071", "prefecture": "愛媛県", "id": 7920071 },
        { "address": "上泉町", "city": "新居浜市", "postcode": "792-0824", "prefecture": "愛媛県", "id": 7920824 },
        { "address": "観音原町", "city": "新居浜市", "postcode": "792-0851", "prefecture": "愛媛県", "id": 7920851 },
        { "address": "菊本町", "city": "新居浜市", "postcode": "792-0801", "prefecture": "愛媛県", "id": 7920801 },
        { "address": "喜光地町", "city": "新居浜市", "postcode": "792-0826", "prefecture": "愛媛県", "id": 7920826 },
        { "address": "岸の上町", "city": "新居浜市", "postcode": "792-0815", "prefecture": "愛媛県", "id": 7920815 },
        { "address": "北内町", "city": "新居浜市", "postcode": "792-0842", "prefecture": "愛媛県", "id": 7920842 },
        { "address": "北新町", "city": "新居浜市", "postcode": "792-0004", "prefecture": "愛媛県", "id": 7920004 },
        { "address": "清住町", "city": "新居浜市", "postcode": "792-0885", "prefecture": "愛媛県", "id": 7920885 },
        { "address": "楠崎", "city": "新居浜市", "postcode": "792-0890", "prefecture": "愛媛県", "id": 7920890 },
        { "address": "久保田町", "city": "新居浜市", "postcode": "792-0026", "prefecture": "愛媛県", "id": 7920026 },
        { "address": "黒島", "city": "新居浜市", "postcode": "792-0892", "prefecture": "愛媛県", "id": 7920892 },
        { "address": "神郷", "city": "新居浜市", "postcode": "792-0884", "prefecture": "愛媛県", "id": 7920884 },
        { "address": "河内町", "city": "新居浜市", "postcode": "792-0006", "prefecture": "愛媛県", "id": 7920006 },
        { "address": "光明寺", "city": "新居浜市", "postcode": "792-0853", "prefecture": "愛媛県", "id": 7920853 },
        { "address": "国領", "city": "新居浜市", "postcode": "792-0854", "prefecture": "愛媛県", "id": 7920854 },
        { "address": "寿町", "city": "新居浜市", "postcode": "792-0822", "prefecture": "愛媛県", "id": 7920822 },
        { "address": "郷", "city": "新居浜市", "postcode": "792-0886", "prefecture": "愛媛県", "id": 7920886 },
        { "address": "郷乙", "city": "新居浜市", "postcode": "792-0895", "prefecture": "愛媛県", "id": 7920895 },
        { "address": "郷", "city": "新居浜市", "postcode": "792-0894", "prefecture": "愛媛県", "id": 7920894 },
        { "address": "西連寺町", "city": "新居浜市", "postcode": "792-0831", "prefecture": "愛媛県", "id": 7920831 },
        { "address": "坂井町", "city": "新居浜市", "postcode": "792-0812", "prefecture": "愛媛県", "id": 7920812 },
        { "address": "桜木町", "city": "新居浜市", "postcode": "792-0865", "prefecture": "愛媛県", "id": 7920865 },
        { "address": "沢津町", "city": "新居浜市", "postcode": "792-0862", "prefecture": "愛媛県", "id": 7920862 },
        { "address": "繁本町", "city": "新居浜市", "postcode": "792-0023", "prefecture": "愛媛県", "id": 7920023 },
        { "address": "七宝台町", "city": "新居浜市", "postcode": "792-0855", "prefecture": "愛媛県", "id": 7920855 },
        { "address": "東雲町", "city": "新居浜市", "postcode": "792-0864", "prefecture": "愛媛県", "id": 7920864 },
        { "address": "篠場町", "city": "新居浜市", "postcode": "792-0836", "prefecture": "愛媛県", "id": 7920836 },
        { "address": "清水町", "city": "新居浜市", "postcode": "792-0861", "prefecture": "愛媛県", "id": 7920861 },
        { "address": "下泉町", "city": "新居浜市", "postcode": "792-0813", "prefecture": "愛媛県", "id": 7920813 },
        { "address": "庄内町", "city": "新居浜市", "postcode": "792-0811", "prefecture": "愛媛県", "id": 7920811 },
        { "address": "城下町", "city": "新居浜市", "postcode": "792-0814", "prefecture": "愛媛県", "id": 7920814 },
        { "address": "新須賀町", "city": "新居浜市", "postcode": "792-0802", "prefecture": "愛媛県", "id": 7920802 },
        { "address": "新田町", "city": "新居浜市", "postcode": "792-0003", "prefecture": "愛媛県", "id": 7920003 },
        { "address": "角野", "city": "新居浜市", "postcode": "792-0857", "prefecture": "愛媛県", "id": 7920857 },
        { "address": "角野新田町", "city": "新居浜市", "postcode": "792-0844", "prefecture": "愛媛県", "id": 7920844 },
        { "address": "瀬戸町", "city": "新居浜市", "postcode": "792-0821", "prefecture": "愛媛県", "id": 7920821 },
        { "address": "惣開町", "city": "新居浜市", "postcode": "792-0001", "prefecture": "愛媛県", "id": 7920001 },
        { "address": "大永山", "city": "新居浜市", "postcode": "792-0847", "prefecture": "愛媛県", "id": 7920847 },
        { "address": "高木町", "city": "新居浜市", "postcode": "792-0031", "prefecture": "愛媛県", "id": 7920031 },
        { "address": "高田", "city": "新居浜市", "postcode": "792-0887", "prefecture": "愛媛県", "id": 7920887 },
        { "address": "高津町", "city": "新居浜市", "postcode": "792-0867", "prefecture": "愛媛県", "id": 7920867 },
        { "address": "滝の宮町", "city": "新居浜市", "postcode": "792-0034", "prefecture": "愛媛県", "id": 7920034 },
        { "address": "多喜浜", "city": "新居浜市", "postcode": "792-0893", "prefecture": "愛媛県", "id": 7920893 },
        { "address": "立川町", "city": "新居浜市", "postcode": "792-0846", "prefecture": "愛媛県", "id": 7920846 },
        { "address": "田所町", "city": "新居浜市", "postcode": "792-0804", "prefecture": "愛媛県", "id": 7920804 },
        { "address": "種子川町", "city": "新居浜市", "postcode": "792-0845", "prefecture": "愛媛県", "id": 7920845 },
        { "address": "種子川山", "city": "新居浜市", "postcode": "792-0848", "prefecture": "愛媛県", "id": 7920848 },
        { "address": "田の上", "city": "新居浜市", "postcode": "792-0888", "prefecture": "愛媛県", "id": 7920888 },
        { "address": "土橋", "city": "新居浜市", "postcode": "792-0043", "prefecture": "愛媛県", "id": 7920043 },
        { "address": "東田", "city": "新居浜市", "postcode": "792-0852", "prefecture": "愛媛県", "id": 7920852 },
        { "address": "徳常町", "city": "新居浜市", "postcode": "792-0022", "prefecture": "愛媛県", "id": 7920022 },
        { "address": "外山町", "city": "新居浜市", "postcode": "792-0823", "prefecture": "愛媛県", "id": 7920823 },
        { "address": "中須賀町", "city": "新居浜市", "postcode": "792-0012", "prefecture": "愛媛県", "id": 7920012 },
        { "address": "中筋町", "city": "新居浜市", "postcode": "792-0841", "prefecture": "愛媛県", "id": 7920841 },
        { "address": "中西町", "city": "新居浜市", "postcode": "792-0834", "prefecture": "愛媛県", "id": 7920834 },
        { "address": "中萩町", "city": "新居浜市", "postcode": "792-0045", "prefecture": "愛媛県", "id": 7920045 },
        { "address": "中村", "city": "新居浜市", "postcode": "792-0044", "prefecture": "愛媛県", "id": 7920044 },
        { "address": "中村松木", "city": "新居浜市", "postcode": "792-0041", "prefecture": "愛媛県", "id": 7920041 },
        { "address": "長岩町", "city": "新居浜市", "postcode": "792-0874", "prefecture": "愛媛県", "id": 7920874 },
        { "address": "新居浜乙", "city": "新居浜市", "postcode": "792-0072", "prefecture": "愛媛県", "id": 7920072 },
        { "address": "西泉町", "city": "新居浜市", "postcode": "792-0832", "prefecture": "愛媛県", "id": 7920832 },
        { "address": "西喜光地町", "city": "新居浜市", "postcode": "792-0827", "prefecture": "愛媛県", "id": 7920827 },
        { "address": "西の土居町", "city": "新居浜市", "postcode": "792-0035", "prefecture": "愛媛県", "id": 7920035 },
        { "address": "西原町", "city": "新居浜市", "postcode": "792-0011", "prefecture": "愛媛県", "id": 7920011 },
        { "address": "西町", "city": "新居浜市", "postcode": "792-0014", "prefecture": "愛媛県", "id": 7920014 },
        { "address": "荷内町", "city": "新居浜市", "postcode": "792-0898", "prefecture": "愛媛県", "id": 7920898 },
        { "address": "萩生", "city": "新居浜市", "postcode": "792-0050", "prefecture": "愛媛県", "id": 7920050 },
        { "address": "八幡", "city": "新居浜市", "postcode": "792-0871", "prefecture": "愛媛県", "id": 7920871 },
        { "address": "垣生", "city": "新居浜市", "postcode": "792-0872", "prefecture": "愛媛県", "id": 7920872 },
        { "address": "垣生", "city": "新居浜市", "postcode": "792-0873", "prefecture": "愛媛県", "id": 7920873 },
        { "address": "平形町", "city": "新居浜市", "postcode": "792-0803", "prefecture": "愛媛県", "id": 7920803 },
        { "address": "船木", "city": "新居浜市", "postcode": "792-0856", "prefecture": "愛媛県", "id": 7920856 },
        { "address": "別子山", "city": "新居浜市", "postcode": "799-0650", "prefecture": "愛媛県", "id": 7990650 },
        { "address": "星越町", "city": "新居浜市", "postcode": "792-0009", "prefecture": "愛媛県", "id": 7920009 },
        { "address": "星原町", "city": "新居浜市", "postcode": "792-0825", "prefecture": "愛媛県", "id": 7920825 },
        { "address": "本郷", "city": "新居浜市", "postcode": "792-0042", "prefecture": "愛媛県", "id": 7920042 },
        { "address": "前田町", "city": "新居浜市", "postcode": "792-0007", "prefecture": "愛媛県", "id": 7920007 },
        { "address": "政枝町", "city": "新居浜市", "postcode": "792-0032", "prefecture": "愛媛県", "id": 7920032 },
        { "address": "又野", "city": "新居浜市", "postcode": "792-0882", "prefecture": "愛媛県", "id": 7920882 },
        { "address": "松木町", "city": "新居浜市", "postcode": "792-0829", "prefecture": "愛媛県", "id": 7920829 },
        { "address": "松の木町", "city": "新居浜市", "postcode": "792-0868", "prefecture": "愛媛県", "id": 7920868 },
        { "address": "松原町", "city": "新居浜市", "postcode": "792-0828", "prefecture": "愛媛県", "id": 7920828 },
        { "address": "松神子", "city": "新居浜市", "postcode": "792-0881", "prefecture": "愛媛県", "id": 7920881 },
        { "address": "港町", "city": "新居浜市", "postcode": "792-0016", "prefecture": "愛媛県", "id": 7920016 },
        { "address": "南小松原町", "city": "新居浜市", "postcode": "792-0863", "prefecture": "愛媛県", "id": 7920863 },
        { "address": "宮西町", "city": "新居浜市", "postcode": "792-0024", "prefecture": "愛媛県", "id": 7920024 },
        { "address": "宮原町", "city": "新居浜市", "postcode": "792-0833", "prefecture": "愛媛県", "id": 7920833 },
        { "address": "八雲町", "city": "新居浜市", "postcode": "792-0805", "prefecture": "愛媛県", "id": 7920805 },
        { "address": "山田町", "city": "新居浜市", "postcode": "792-0837", "prefecture": "愛媛県", "id": 7920837 },
        { "address": "山根町", "city": "新居浜市", "postcode": "792-0835", "prefecture": "愛媛県", "id": 7920835 },
        { "address": "横水町", "city": "新居浜市", "postcode": "792-0033", "prefecture": "愛媛県", "id": 7920033 },
        { "address": "吉岡町", "city": "新居浜市", "postcode": "792-0843", "prefecture": "愛媛県", "id": 7920843 },
        { "address": "若水町", "city": "新居浜市", "postcode": "792-0017", "prefecture": "愛媛県", "id": 7920017 },
        { "city": "西条市", "postcode": "793-0000", "prefecture": "愛媛県", "id": 7930000 },
        { "address": "明理川", "city": "西条市", "postcode": "799-1345", "prefecture": "愛媛県", "id": 7991345 },
        { "address": "明屋敷", "city": "西条市", "postcode": "793-0023", "prefecture": "愛媛県", "id": 7930023 },
        { "address": "荒川", "city": "西条市", "postcode": "793-0103", "prefecture": "愛媛県", "id": 7930103 },
        { "address": "安知生", "city": "西条市", "postcode": "793-0051", "prefecture": "愛媛県", "id": 7930051 },
        { "address": "飯岡", "city": "西条市", "postcode": "793-0010", "prefecture": "愛媛県", "id": 7930010 },
        { "address": "石田", "city": "西条市", "postcode": "799-1364", "prefecture": "愛媛県", "id": 7991364 },
        { "address": "石延", "city": "西条市", "postcode": "799-1335", "prefecture": "愛媛県", "id": 7991335 },
        { "address": "市之川", "city": "西条市", "postcode": "793-0037", "prefecture": "愛媛県", "id": 7930037 },
        { "address": "今在家", "city": "西条市", "postcode": "799-1362", "prefecture": "愛媛県", "id": 7991362 },
        { "address": "円海寺", "city": "西条市", "postcode": "799-1344", "prefecture": "愛媛県", "id": 7991344 },
        { "address": "大新田", "city": "西条市", "postcode": "799-1342", "prefecture": "愛媛県", "id": 7991342 },
        { "address": "大野", "city": "西条市", "postcode": "799-1312", "prefecture": "愛媛県", "id": 7991312 },
        { "address": "大浜", "city": "西条市", "postcode": "793-0016", "prefecture": "愛媛県", "id": 7930016 },
        { "address": "大保木", "city": "西条市", "postcode": "793-0211", "prefecture": "愛媛県", "id": 7930211 },
        { "address": "大町", "city": "西条市", "postcode": "793-0030", "prefecture": "愛媛県", "id": 7930030 },
        { "address": "上市", "city": "西条市", "postcode": "799-1336", "prefecture": "愛媛県", "id": 7991336 },
        { "address": "河之内", "city": "西条市", "postcode": "799-1314", "prefecture": "愛媛県", "id": 7991314 },
        { "address": "河原津", "city": "西条市", "postcode": "799-1303", "prefecture": "愛媛県", "id": 7991303 },
        { "address": "河原津新田", "city": "西条市", "postcode": "799-1304", "prefecture": "愛媛県", "id": 7991304 },
        { "address": "神拝甲", "city": "西条市", "postcode": "793-0041", "prefecture": "愛媛県", "id": 7930041 },
        { "address": "神拝乙", "city": "西条市", "postcode": "793-0021", "prefecture": "愛媛県", "id": 7930021 },
        { "address": "喜多川", "city": "西条市", "postcode": "793-0042", "prefecture": "愛媛県", "id": 7930042 },
        { "address": "喜多台", "city": "西条市", "postcode": "799-1343", "prefecture": "愛媛県", "id": 7991343 },
        { "address": "楠", "city": "西条市", "postcode": "799-1302", "prefecture": "愛媛県", "id": 7991302 },
        { "address": "国安", "city": "西条市", "postcode": "799-1322", "prefecture": "愛媛県", "id": 7991322 },
        { "address": "黒瀬", "city": "西条市", "postcode": "793-0212", "prefecture": "愛媛県", "id": 7930212 },
        { "address": "黒谷", "city": "西条市", "postcode": "799-1315", "prefecture": "愛媛県", "id": 7991315 },
        { "address": "桑村", "city": "西条市", "postcode": "799-1323", "prefecture": "愛媛県", "id": 7991323 },
        { "address": "小松町明穂", "city": "西条市", "postcode": "799-1107", "prefecture": "愛媛県", "id": 7991107 },
        { "address": "小松町石鎚", "city": "西条市", "postcode": "791-0562", "prefecture": "愛媛県", "id": 7910562 },
        { "address": "小松町石鎚", "city": "西条市", "postcode": "799-1111", "prefecture": "愛媛県", "id": 7991111 },
        { "address": "小松町石鎚", "city": "西条市", "postcode": "799-1112", "prefecture": "愛媛県", "id": 7991112 },
        { "address": "小松町大郷", "city": "西条市", "postcode": "799-1105", "prefecture": "愛媛県", "id": 7991105 },
        { "address": "小松町大頭", "city": "西条市", "postcode": "799-1106", "prefecture": "愛媛県", "id": 7991106 },
        { "address": "小松町北川", "city": "西条市", "postcode": "799-1103", "prefecture": "愛媛県", "id": 7991103 },
        { "address": "小松町新屋敷", "city": "西条市", "postcode": "799-1101", "prefecture": "愛媛県", "id": 7991101 },
        { "address": "小松町南川", "city": "西条市", "postcode": "799-1102", "prefecture": "愛媛県", "id": 7991102 },
        { "address": "小松町妙口", "city": "西条市", "postcode": "799-1104", "prefecture": "愛媛県", "id": 7991104 },
        { "address": "小松町安井", "city": "西条市", "postcode": "799-1108", "prefecture": "愛媛県", "id": 7991108 },
        { "address": "栄町", "city": "西条市", "postcode": "793-0025", "prefecture": "愛媛県", "id": 7930025 },
        { "address": "坂元甲", "city": "西条市", "postcode": "793-0067", "prefecture": "愛媛県", "id": 7930067 },
        { "address": "実報寺", "city": "西条市", "postcode": "799-1317", "prefecture": "愛媛県", "id": 7991317 },
        { "address": "下島山甲", "city": "西条市", "postcode": "793-0006", "prefecture": "愛媛県", "id": 7930006 },
        { "address": "下島山乙", "city": "西条市", "postcode": "793-0007", "prefecture": "愛媛県", "id": 7930007 },
        { "address": "周布", "city": "西条市", "postcode": "799-1371", "prefecture": "愛媛県", "id": 7991371 },
        { "address": "新市", "city": "西条市", "postcode": "799-1325", "prefecture": "愛媛県", "id": 7991325 },
        { "address": "新田", "city": "西条市", "postcode": "793-0028", "prefecture": "愛媛県", "id": 7930028 },
        { "address": "新町", "city": "西条市", "postcode": "799-1331", "prefecture": "愛媛県", "id": 7991331 },
        { "address": "洲之内甲", "city": "西条市", "postcode": "793-0053", "prefecture": "愛媛県", "id": 7930053 },
        { "address": "千町", "city": "西条市", "postcode": "793-0101", "prefecture": "愛媛県", "id": 7930101 },
        { "address": "大師町", "city": "西条市", "postcode": "793-0024", "prefecture": "愛媛県", "id": 7930024 },
        { "address": "高田", "city": "西条市", "postcode": "799-1324", "prefecture": "愛媛県", "id": 7991324 },
        { "address": "高田", "city": "西条市", "postcode": "799-1321", "prefecture": "愛媛県", "id": 7991321 },
        { "address": "玉津", "city": "西条市", "postcode": "793-0001", "prefecture": "愛媛県", "id": 7930001 },
        { "address": "玉之江", "city": "西条市", "postcode": "799-1363", "prefecture": "愛媛県", "id": 7991363 },
        { "address": "旦之上", "city": "西条市", "postcode": "799-1313", "prefecture": "愛媛県", "id": 7991313 },
        { "address": "丹原町明穂", "city": "西条市", "postcode": "791-0533", "prefecture": "愛媛県", "id": 7910533 },
        { "address": "丹原町池田", "city": "西条市", "postcode": "791-0508", "prefecture": "愛媛県", "id": 7910508 },
        { "address": "丹原町石経", "city": "西条市", "postcode": "791-0532", "prefecture": "愛媛県", "id": 7910532 },
        { "address": "丹原町今井", "city": "西条市", "postcode": "791-0503", "prefecture": "愛媛県", "id": 7910503 },
        { "address": "丹原町臼坂", "city": "西条市", "postcode": "791-0537", "prefecture": "愛媛県", "id": 7910537 },
        { "address": "丹原町川根", "city": "西条市", "postcode": "791-0525", "prefecture": "愛媛県", "id": 7910525 },
        { "address": "丹原町願連寺", "city": "西条市", "postcode": "791-0502", "prefecture": "愛媛県", "id": 7910502 },
        { "address": "丹原町北田野", "city": "西条市", "postcode": "791-0523", "prefecture": "愛媛県", "id": 7910523 },
        { "address": "丹原町楠窪", "city": "西条市", "postcode": "791-0542", "prefecture": "愛媛県", "id": 7910542 },
        { "address": "丹原町久妙寺", "city": "西条市", "postcode": "791-0504", "prefecture": "愛媛県", "id": 7910504 },
        { "address": "丹原町鞍瀬", "city": "西条市", "postcode": "791-0541", "prefecture": "愛媛県", "id": 7910541 },
        { "address": "丹原町来見", "city": "西条市", "postcode": "791-0531", "prefecture": "愛媛県", "id": 7910531 },
        { "address": "丹原町高知", "city": "西条市", "postcode": "791-0507", "prefecture": "愛媛県", "id": 7910507 },
        { "address": "丹原町古田", "city": "西条市", "postcode": "791-0505", "prefecture": "愛媛県", "id": 7910505 },
        { "address": "丹原町志川", "city": "西条市", "postcode": "791-0535", "prefecture": "愛媛県", "id": 7910535 },
        { "address": "丹原町関屋", "city": "西条市", "postcode": "791-0527", "prefecture": "愛媛県", "id": 7910527 },
        { "address": "丹原町高松", "city": "西条市", "postcode": "791-0524", "prefecture": "愛媛県", "id": 7910524 },
        { "address": "丹原町田滝", "city": "西条市", "postcode": "791-0526", "prefecture": "愛媛県", "id": 7910526 },
        {
            "address": "丹原町田野上方",
            "city": "西条市",
            "postcode": "791-0522",
            "prefecture": "愛媛県",
            "id": 7910522
        },
        { "address": "丹原町丹原", "city": "西条市", "postcode": "791-0510", "prefecture": "愛媛県", "id": 7910510 },
        { "address": "丹原町千原", "city": "西条市", "postcode": "791-0538", "prefecture": "愛媛県", "id": 7910538 },
        { "address": "丹原町寺尾", "city": "西条市", "postcode": "791-0534", "prefecture": "愛媛県", "id": 7910534 },
        { "address": "丹原町徳能", "city": "西条市", "postcode": "791-0506", "prefecture": "愛媛県", "id": 7910506 },
        {
            "address": "丹原町徳能出作",
            "city": "西条市",
            "postcode": "791-0501",
            "prefecture": "愛媛県",
            "id": 7910501
        },
        { "address": "丹原町長野", "city": "西条市", "postcode": "791-0521", "prefecture": "愛媛県", "id": 7910521 },
        { "address": "丹原町明河", "city": "西条市", "postcode": "791-0543", "prefecture": "愛媛県", "id": 7910543 },
        { "address": "丹原町湯谷口", "city": "西条市", "postcode": "791-0536", "prefecture": "愛媛県", "id": 7910536 },
        { "address": "朔日市", "city": "西条市", "postcode": "793-0027", "prefecture": "愛媛県", "id": 7930027 },
        { "address": "津越", "city": "西条市", "postcode": "793-0057", "prefecture": "愛媛県", "id": 7930057 },
        { "address": "禎瑞", "city": "西条市", "postcode": "793-0061", "prefecture": "愛媛県", "id": 7930061 },
        { "address": "天神", "city": "西条市", "postcode": "793-0002", "prefecture": "愛媛県", "id": 7930002 },
        { "address": "兎之山", "city": "西条市", "postcode": "793-0213", "prefecture": "愛媛県", "id": 7930213 },
        { "address": "中奥", "city": "西条市", "postcode": "793-0214", "prefecture": "愛媛県", "id": 7930214 },
        { "address": "中西", "city": "西条市", "postcode": "793-0052", "prefecture": "愛媛県", "id": 7930052 },
        { "address": "中野甲", "city": "西条市", "postcode": "793-0054", "prefecture": "愛媛県", "id": 7930054 },
        { "address": "中野乙", "city": "西条市", "postcode": "793-0055", "prefecture": "愛媛県", "id": 7930055 },
        { "address": "中野丙", "city": "西条市", "postcode": "793-0056", "prefecture": "愛媛県", "id": 7930056 },
        { "address": "楢木", "city": "西条市", "postcode": "793-0065", "prefecture": "愛媛県", "id": 7930065 },
        { "address": "西泉甲", "city": "西条市", "postcode": "793-0063", "prefecture": "愛媛県", "id": 7930063 },
        { "address": "西泉乙", "city": "西条市", "postcode": "793-0064", "prefecture": "愛媛県", "id": 7930064 },
        { "address": "西田甲", "city": "西条市", "postcode": "793-0062", "prefecture": "愛媛県", "id": 7930062 },
        { "address": "西之川", "city": "西条市", "postcode": "793-0215", "prefecture": "愛媛県", "id": 7930215 },
        { "address": "壬生川", "city": "西条市", "postcode": "799-1341", "prefecture": "愛媛県", "id": 7991341 },
        { "address": "野々市", "city": "西条市", "postcode": "793-0066", "prefecture": "愛媛県", "id": 7930066 },
        { "address": "早川", "city": "西条市", "postcode": "793-0017", "prefecture": "愛媛県", "id": 7930017 },
        { "address": "ひうち", "city": "西条市", "postcode": "793-0003", "prefecture": "愛媛県", "id": 7930003 },
        { "address": "東之川", "city": "西条市", "postcode": "793-0216", "prefecture": "愛媛県", "id": 7930216 },
        { "address": "東町", "city": "西条市", "postcode": "793-0026", "prefecture": "愛媛県", "id": 7930026 },
        { "address": "樋之口", "city": "西条市", "postcode": "793-0043", "prefecture": "愛媛県", "id": 7930043 },
        { "address": "氷見甲", "city": "西条市", "postcode": "793-0071", "prefecture": "愛媛県", "id": 7930071 },
        { "address": "氷見乙", "city": "西条市", "postcode": "793-0072", "prefecture": "愛媛県", "id": 7930072 },
        { "address": "氷見丙", "city": "西条市", "postcode": "793-0073", "prefecture": "愛媛県", "id": 7930073 },
        { "address": "氷見丁", "city": "西条市", "postcode": "793-0074", "prefecture": "愛媛県", "id": 7930074 },
        { "address": "氷見戊", "city": "西条市", "postcode": "793-0075", "prefecture": "愛媛県", "id": 7930075 },
        { "address": "広江", "city": "西条市", "postcode": "799-1361", "prefecture": "愛媛県", "id": 7991361 },
        { "address": "広岡", "city": "西条市", "postcode": "799-1334", "prefecture": "愛媛県", "id": 7991334 },
        { "address": "福成寺", "city": "西条市", "postcode": "799-1316", "prefecture": "愛媛県", "id": 7991316 },
        { "address": "福武甲", "city": "西条市", "postcode": "793-0035", "prefecture": "愛媛県", "id": 7930035 },
        { "address": "福武乙", "city": "西条市", "postcode": "793-0036", "prefecture": "愛媛県", "id": 7930036 },
        { "address": "藤之石", "city": "西条市", "postcode": "793-0102", "prefecture": "愛媛県", "id": 7930102 },
        { "address": "船屋甲", "city": "西条市", "postcode": "793-0004", "prefecture": "愛媛県", "id": 7930004 },
        { "address": "船屋乙", "city": "西条市", "postcode": "793-0005", "prefecture": "愛媛県", "id": 7930005 },
        { "address": "古川甲", "city": "西条市", "postcode": "793-0044", "prefecture": "愛媛県", "id": 7930044 },
        { "address": "古川乙", "city": "西条市", "postcode": "793-0045", "prefecture": "愛媛県", "id": 7930045 },
        { "address": "北条", "city": "西条市", "postcode": "799-1354", "prefecture": "愛媛県", "id": 7991354 },
        { "address": "保野", "city": "西条市", "postcode": "793-0039", "prefecture": "愛媛県", "id": 7930039 },
        { "address": "本町", "city": "西条市", "postcode": "793-0022", "prefecture": "愛媛県", "id": 7930022 },
        { "address": "丸野", "city": "西条市", "postcode": "793-0038", "prefecture": "愛媛県", "id": 7930038 },
        { "address": "三津屋", "city": "西条市", "postcode": "799-1351", "prefecture": "愛媛県", "id": 7991351 },
        { "address": "三津屋東", "city": "西条市", "postcode": "799-1352", "prefecture": "愛媛県", "id": 7991352 },
        { "address": "三津屋南", "city": "西条市", "postcode": "799-1353", "prefecture": "愛媛県", "id": 7991353 },
        { "address": "港", "city": "西条市", "postcode": "793-0046", "prefecture": "愛媛県", "id": 7930046 },
        { "address": "宮之内", "city": "西条市", "postcode": "799-1311", "prefecture": "愛媛県", "id": 7991311 },
        { "address": "明神木", "city": "西条市", "postcode": "793-0034", "prefecture": "愛媛県", "id": 7930034 },
        { "address": "三芳", "city": "西条市", "postcode": "799-1301", "prefecture": "愛媛県", "id": 7991301 },
        { "address": "安用", "city": "西条市", "postcode": "799-1333", "prefecture": "愛媛県", "id": 7991333 },
        { "address": "安用出作", "city": "西条市", "postcode": "799-1332", "prefecture": "愛媛県", "id": 7991332 },
        { "address": "吉田", "city": "西条市", "postcode": "799-1372", "prefecture": "愛媛県", "id": 7991372 },
        { "city": "大洲市", "postcode": "795-0000", "prefecture": "愛媛県", "id": 7950000 },
        { "address": "阿蔵", "city": "大洲市", "postcode": "795-0025", "prefecture": "愛媛県", "id": 7950025 },
        { "address": "市木", "city": "大洲市", "postcode": "795-0062", "prefecture": "愛媛県", "id": 7950062 },
        { "address": "稲積", "city": "大洲市", "postcode": "795-0007", "prefecture": "愛媛県", "id": 7950007 },
        { "address": "梅川", "city": "大洲市", "postcode": "795-0003", "prefecture": "愛媛県", "id": 7950003 },
        { "address": "宇和川", "city": "大洲市", "postcode": "795-0088", "prefecture": "愛媛県", "id": 7950088 },
        { "address": "大洲", "city": "大洲市", "postcode": "795-0012", "prefecture": "愛媛県", "id": 7950012 },
        { "address": "戒川甲", "city": "大洲市", "postcode": "799-3421", "prefecture": "愛媛県", "id": 7993421 },
        { "address": "上須戒", "city": "大洲市", "postcode": "795-0032", "prefecture": "愛媛県", "id": 7950032 },
        { "address": "河辺町植松", "city": "大洲市", "postcode": "797-1601", "prefecture": "愛媛県", "id": 7971601 },
        { "address": "河辺町川上", "city": "大洲市", "postcode": "797-1607", "prefecture": "愛媛県", "id": 7971607 },
        { "address": "河辺町川崎", "city": "大洲市", "postcode": "797-1604", "prefecture": "愛媛県", "id": 7971604 },
        { "address": "河辺町河都", "city": "大洲市", "postcode": "797-1605", "prefecture": "愛媛県", "id": 7971605 },
        { "address": "河辺町北平", "city": "大洲市", "postcode": "797-1608", "prefecture": "愛媛県", "id": 7971608 },
        { "address": "河辺町三嶋", "city": "大洲市", "postcode": "797-1606", "prefecture": "愛媛県", "id": 7971606 },
        { "address": "河辺町山鳥坂", "city": "大洲市", "postcode": "797-1602", "prefecture": "愛媛県", "id": 7971602 },
        { "address": "河辺町横山", "city": "大洲市", "postcode": "797-1603", "prefecture": "愛媛県", "id": 7971603 },
        { "address": "北裏", "city": "大洲市", "postcode": "795-0009", "prefecture": "愛媛県", "id": 7950009 },
        { "address": "北只", "city": "大洲市", "postcode": "795-0001", "prefecture": "愛媛県", "id": 7950001 },
        { "address": "喜多山", "city": "大洲市", "postcode": "795-0075", "prefecture": "愛媛県", "id": 7950075 },
        { "address": "蔵川", "city": "大洲市", "postcode": "795-0089", "prefecture": "愛媛県", "id": 7950089 },
        { "address": "黒木", "city": "大洲市", "postcode": "795-0008", "prefecture": "愛媛県", "id": 7950008 },
        { "address": "恋木", "city": "大洲市", "postcode": "795-0074", "prefecture": "愛媛県", "id": 7950074 },
        { "address": "五郎", "city": "大洲市", "postcode": "795-0051", "prefecture": "愛媛県", "id": 7950051 },
        { "address": "柴乙", "city": "大洲市", "postcode": "799-3433", "prefecture": "愛媛県", "id": 7993433 },
        { "address": "柴甲", "city": "大洲市", "postcode": "799-3432", "prefecture": "愛媛県", "id": 7993432 },
        { "address": "白滝甲", "city": "大洲市", "postcode": "799-3431", "prefecture": "愛媛県", "id": 7993431 },
        { "address": "菅田町宇津甲", "city": "大洲市", "postcode": "795-0084", "prefecture": "愛媛県", "id": 7950084 },
        { "address": "菅田町宇津乙", "city": "大洲市", "postcode": "795-0085", "prefecture": "愛媛県", "id": 7950085 },
        { "address": "菅田町大竹", "city": "大洲市", "postcode": "795-0083", "prefecture": "愛媛県", "id": 7950083 },
        { "address": "菅田町菅田甲", "city": "大洲市", "postcode": "795-0081", "prefecture": "愛媛県", "id": 7950081 },
        { "address": "菅田町菅田乙", "city": "大洲市", "postcode": "795-0082", "prefecture": "愛媛県", "id": 7950082 },
        { "address": "高山", "city": "大洲市", "postcode": "795-0024", "prefecture": "愛媛県", "id": 7950024 },
        { "address": "多田", "city": "大洲市", "postcode": "795-0031", "prefecture": "愛媛県", "id": 7950031 },
        { "address": "田処", "city": "大洲市", "postcode": "795-0078", "prefecture": "愛媛県", "id": 7950078 },
        { "address": "田口", "city": "大洲市", "postcode": "795-0063", "prefecture": "愛媛県", "id": 7950063 },
        { "address": "手成", "city": "大洲市", "postcode": "795-0044", "prefecture": "愛媛県", "id": 7950044 },
        { "address": "常磐町", "city": "大洲市", "postcode": "795-0053", "prefecture": "愛媛県", "id": 7950053 },
        { "address": "徳森", "city": "大洲市", "postcode": "795-0061", "prefecture": "愛媛県", "id": 7950061 },
        { "address": "豊茂乙", "city": "大洲市", "postcode": "799-3462", "prefecture": "愛媛県", "id": 7993462 },
        { "address": "豊茂甲", "city": "大洲市", "postcode": "799-3461", "prefecture": "愛媛県", "id": 7993461 },
        { "address": "豊茂丁", "city": "大洲市", "postcode": "799-3464", "prefecture": "愛媛県", "id": 7993464 },
        { "address": "豊茂丙", "city": "大洲市", "postcode": "799-3463", "prefecture": "愛媛県", "id": 7993463 },
        { "address": "長谷", "city": "大洲市", "postcode": "795-0004", "prefecture": "愛媛県", "id": 7950004 },
        { "address": "長浜乙", "city": "大洲市", "postcode": "799-3402", "prefecture": "愛媛県", "id": 7993402 },
        { "address": "長浜甲", "city": "大洲市", "postcode": "799-3401", "prefecture": "愛媛県", "id": 7993401 },
        { "address": "長浜町青島", "city": "大洲市", "postcode": "799-3470", "prefecture": "愛媛県", "id": 7993470 },
        { "address": "長浜町出海乙", "city": "大洲市", "postcode": "799-3456", "prefecture": "愛媛県", "id": 7993456 },
        { "address": "長浜町出海甲", "city": "大洲市", "postcode": "799-3455", "prefecture": "愛媛県", "id": 7993455 },
        { "address": "長浜町大越甲", "city": "大洲市", "postcode": "799-3422", "prefecture": "愛媛県", "id": 7993422 },
        { "address": "長浜町沖浦乙", "city": "大洲市", "postcode": "799-3405", "prefecture": "愛媛県", "id": 7993405 },
        { "address": "長浜町沖浦甲", "city": "大洲市", "postcode": "799-3404", "prefecture": "愛媛県", "id": 7993404 },
        { "address": "長浜町沖浦丙", "city": "大洲市", "postcode": "799-3406", "prefecture": "愛媛県", "id": 7993406 },
        { "address": "長浜町櫛生乙", "city": "大洲市", "postcode": "799-3453", "prefecture": "愛媛県", "id": 7993453 },
        { "address": "長浜町櫛生甲", "city": "大洲市", "postcode": "799-3452", "prefecture": "愛媛県", "id": 7993452 },
        { "address": "長浜町櫛生丙", "city": "大洲市", "postcode": "799-3454", "prefecture": "愛媛県", "id": 7993454 },
        { "address": "長浜町黒田甲", "city": "大洲市", "postcode": "799-3407", "prefecture": "愛媛県", "id": 7993407 },
        { "address": "長浜町今坊甲", "city": "大洲市", "postcode": "799-3411", "prefecture": "愛媛県", "id": 7993411 },
        {
            "address": "長浜町下須戒甲",
            "city": "大洲市",
            "postcode": "799-3441",
            "prefecture": "愛媛県",
            "id": 7993441
        },
        {
            "address": "長浜町上老松甲",
            "city": "大洲市",
            "postcode": "799-3444",
            "prefecture": "愛媛県",
            "id": 7993444
        },
        { "address": "長浜町須沢丙", "city": "大洲市", "postcode": "799-3451", "prefecture": "愛媛県", "id": 7993451 },
        { "address": "長浜町拓海", "city": "大洲市", "postcode": "799-3413", "prefecture": "愛媛県", "id": 7993413 },
        { "address": "長浜町仁久甲", "city": "大洲市", "postcode": "799-3403", "prefecture": "愛媛県", "id": 7993403 },
        { "address": "長浜町晴海", "city": "大洲市", "postcode": "799-3412", "prefecture": "愛媛県", "id": 7993412 },
        { "address": "長浜町穂積甲", "city": "大洲市", "postcode": "799-3442", "prefecture": "愛媛県", "id": 7993442 },
        { "address": "長浜町穂積乙", "city": "大洲市", "postcode": "799-3443", "prefecture": "愛媛県", "id": 7993443 },
        { "address": "中村", "city": "大洲市", "postcode": "795-0054", "prefecture": "愛媛県", "id": 7950054 },
        { "address": "成能", "city": "大洲市", "postcode": "795-0086", "prefecture": "愛媛県", "id": 7950086 },
        { "address": "新谷", "city": "大洲市", "postcode": "795-0069", "prefecture": "愛媛県", "id": 7950069 },
        { "address": "新谷甲", "city": "大洲市", "postcode": "795-0072", "prefecture": "愛媛県", "id": 7950072 },
        { "address": "新谷乙", "city": "大洲市", "postcode": "795-0071", "prefecture": "愛媛県", "id": 7950071 },
        { "address": "新谷丙", "city": "大洲市", "postcode": "795-0070", "prefecture": "愛媛県", "id": 7950070 },
        { "address": "新谷町", "city": "大洲市", "postcode": "795-0073", "prefecture": "愛媛県", "id": 7950073 },
        { "address": "西大洲", "city": "大洲市", "postcode": "795-0013", "prefecture": "愛媛県", "id": 7950013 },
        { "address": "八多喜町", "city": "大洲市", "postcode": "795-0041", "prefecture": "愛媛県", "id": 7950041 },
        { "address": "春賀", "city": "大洲市", "postcode": "795-0046", "prefecture": "愛媛県", "id": 7950046 },
        { "address": "東宇山", "city": "大洲市", "postcode": "795-0045", "prefecture": "愛媛県", "id": 7950045 },
        { "address": "東大洲", "city": "大洲市", "postcode": "795-0064", "prefecture": "愛媛県", "id": 7950064 },
        { "address": "東若宮", "city": "大洲市", "postcode": "795-0065", "prefecture": "愛媛県", "id": 7950065 },
        { "address": "肱川町宇和川", "city": "大洲市", "postcode": "797-1503", "prefecture": "愛媛県", "id": 7971503 },
        { "address": "肱川町大谷", "city": "大洲市", "postcode": "797-1507", "prefecture": "愛媛県", "id": 7971507 },
        { "address": "肱川町中居谷", "city": "大洲市", "postcode": "797-1501", "prefecture": "愛媛県", "id": 7971501 },
        { "address": "肱川町中津", "city": "大洲市", "postcode": "797-1506", "prefecture": "愛媛県", "id": 7971506 },
        { "address": "肱川町西", "city": "大洲市", "postcode": "797-1508", "prefecture": "愛媛県", "id": 7971508 },
        { "address": "肱川町名荷谷", "city": "大洲市", "postcode": "797-1502", "prefecture": "愛媛県", "id": 7971502 },
        { "address": "肱川町山鳥坂", "city": "大洲市", "postcode": "797-1504", "prefecture": "愛媛県", "id": 7971504 },
        { "address": "肱川町予子林", "city": "大洲市", "postcode": "797-1505", "prefecture": "愛媛県", "id": 7971505 },
        { "address": "平野町野田", "city": "大洲市", "postcode": "795-0021", "prefecture": "愛媛県", "id": 7950021 },
        { "address": "平野町平地", "city": "大洲市", "postcode": "795-0023", "prefecture": "愛媛県", "id": 7950023 },
        { "address": "平野町平地", "city": "大洲市", "postcode": "795-0022", "prefecture": "愛媛県", "id": 7950022 },
        { "address": "藤縄", "city": "大洲市", "postcode": "795-0076", "prefecture": "愛媛県", "id": 7950076 },
        { "address": "松尾", "city": "大洲市", "postcode": "795-0002", "prefecture": "愛媛県", "id": 7950002 },
        { "address": "森山", "city": "大洲市", "postcode": "795-0087", "prefecture": "愛媛県", "id": 7950087 },
        { "address": "野佐来", "city": "大洲市", "postcode": "795-0006", "prefecture": "愛媛県", "id": 7950006 },
        { "address": "柳沢", "city": "大洲市", "postcode": "795-0077", "prefecture": "愛媛県", "id": 7950077 },
        { "address": "柚木", "city": "大洲市", "postcode": "795-0011", "prefecture": "愛媛県", "id": 7950011 },
        { "address": "横野", "city": "大洲市", "postcode": "795-0005", "prefecture": "愛媛県", "id": 7950005 },
        { "address": "米津", "city": "大洲市", "postcode": "795-0042", "prefecture": "愛媛県", "id": 7950042 },
        { "address": "米津", "city": "大洲市", "postcode": "795-0043", "prefecture": "愛媛県", "id": 7950043 },
        { "address": "若宮", "city": "大洲市", "postcode": "795-0052", "prefecture": "愛媛県", "id": 7950052 },
        { "city": "伊予市", "postcode": "799-3100", "prefecture": "愛媛県", "id": 7993100 },
        { "address": "市場", "city": "伊予市", "postcode": "799-3122", "prefecture": "愛媛県", "id": 7993122 },
        { "address": "稲荷", "city": "伊予市", "postcode": "799-3121", "prefecture": "愛媛県", "id": 7993121 },
        { "address": "上野", "city": "伊予市", "postcode": "799-3103", "prefecture": "愛媛県", "id": 7993103 },
        { "address": "鵜崎", "city": "伊予市", "postcode": "799-3136", "prefecture": "愛媛県", "id": 7993136 },
        { "address": "大平", "city": "伊予市", "postcode": "799-3131", "prefecture": "愛媛県", "id": 7993131 },
        { "address": "尾崎", "city": "伊予市", "postcode": "799-3127", "prefecture": "愛媛県", "id": 7993127 },
        { "address": "上吾川", "city": "伊予市", "postcode": "799-3112", "prefecture": "愛媛県", "id": 7993112 },
        { "address": "上唐川", "city": "伊予市", "postcode": "799-3134", "prefecture": "愛媛県", "id": 7993134 },
        { "address": "上三谷", "city": "伊予市", "postcode": "799-3104", "prefecture": "愛媛県", "id": 7993104 },
        { "address": "米湊", "city": "伊予市", "postcode": "799-3113", "prefecture": "愛媛県", "id": 7993113 },
        { "address": "下吾川", "city": "伊予市", "postcode": "799-3111", "prefecture": "愛媛県", "id": 7993111 },
        { "address": "下唐川", "city": "伊予市", "postcode": "799-3133", "prefecture": "愛媛県", "id": 7993133 },
        { "address": "下三谷", "city": "伊予市", "postcode": "799-3105", "prefecture": "愛媛県", "id": 7993105 },
        { "address": "中村", "city": "伊予市", "postcode": "799-3123", "prefecture": "愛媛県", "id": 7993123 },
        { "address": "中山町出渕", "city": "伊予市", "postcode": "791-3203", "prefecture": "愛媛県", "id": 7913203 },
        { "address": "中山町出渕", "city": "伊予市", "postcode": "791-3204", "prefecture": "愛媛県", "id": 7913204 },
        { "address": "中山町栗田", "city": "伊予市", "postcode": "791-3202", "prefecture": "愛媛県", "id": 7913202 },
        { "address": "中山町佐礼谷", "city": "伊予市", "postcode": "791-3201", "prefecture": "愛媛県", "id": 7913201 },
        { "address": "中山町中山", "city": "伊予市", "postcode": "791-3205", "prefecture": "愛媛県", "id": 7913205 },
        { "address": "中山町中山", "city": "伊予市", "postcode": "791-3206", "prefecture": "愛媛県", "id": 7913206 },
        { "address": "灘町", "city": "伊予市", "postcode": "799-3114", "prefecture": "愛媛県", "id": 7993114 },
        { "address": "平岡", "city": "伊予市", "postcode": "799-3132", "prefecture": "愛媛県", "id": 7993132 },
        { "address": "双海町大久保", "city": "伊予市", "postcode": "799-3311", "prefecture": "愛媛県", "id": 7993311 },
        { "address": "双海町上灘", "city": "伊予市", "postcode": "799-3202", "prefecture": "愛媛県", "id": 7993202 },
        { "address": "双海町串", "city": "伊予市", "postcode": "799-3313", "prefecture": "愛媛県", "id": 7993313 },
        { "address": "双海町串", "city": "伊予市", "postcode": "799-3314", "prefecture": "愛媛県", "id": 7993314 },
        { "address": "双海町串", "city": "伊予市", "postcode": "799-3312", "prefecture": "愛媛県", "id": 7993312 },
        { "address": "双海町高野川", "city": "伊予市", "postcode": "799-3201", "prefecture": "愛媛県", "id": 7993201 },
        { "address": "双海町高岸", "city": "伊予市", "postcode": "799-3207", "prefecture": "愛媛県", "id": 7993207 },
        { "address": "本郡", "city": "伊予市", "postcode": "799-3126", "prefecture": "愛媛県", "id": 7993126 },
        { "address": "三秋", "city": "伊予市", "postcode": "799-3124", "prefecture": "愛媛県", "id": 7993124 },
        { "address": "三島町", "city": "伊予市", "postcode": "799-3128", "prefecture": "愛媛県", "id": 7993128 },
        { "address": "湊町", "city": "伊予市", "postcode": "799-3115", "prefecture": "愛媛県", "id": 7993115 },
        { "address": "宮下", "city": "伊予市", "postcode": "799-3102", "prefecture": "愛媛県", "id": 7993102 },
        { "address": "森", "city": "伊予市", "postcode": "799-3125", "prefecture": "愛媛県", "id": 7993125 },
        { "address": "八倉", "city": "伊予市", "postcode": "799-3101", "prefecture": "愛媛県", "id": 7993101 },
        { "address": "両沢", "city": "伊予市", "postcode": "799-3135", "prefecture": "愛媛県", "id": 7993135 },
        { "city": "四国中央市", "postcode": "799-0400", "prefecture": "愛媛県", "id": 7990400 },
        {
            "address": "金田町金川",
            "city": "四国中央市",
            "postcode": "799-0123",
            "prefecture": "愛媛県",
            "id": 7990123
        },
        {
            "address": "金田町三角寺",
            "city": "四国中央市",
            "postcode": "799-0124",
            "prefecture": "愛媛県",
            "id": 7990124
        },
        {
            "address": "金田町半田",
            "city": "四国中央市",
            "postcode": "799-0122",
            "prefecture": "愛媛県",
            "id": 7990122
        },
        { "address": "上柏町", "city": "四国中央市", "postcode": "799-0412", "prefecture": "愛媛県", "id": 7990412 },
        { "address": "上分町", "city": "四国中央市", "postcode": "799-0121", "prefecture": "愛媛県", "id": 7990121 },
        {
            "address": "川滝町下山",
            "city": "四国中央市",
            "postcode": "799-0127",
            "prefecture": "愛媛県",
            "id": 7990127
        },
        {
            "address": "川滝町領家",
            "city": "四国中央市",
            "postcode": "799-0128",
            "prefecture": "愛媛県",
            "id": 7990128
        },
        { "address": "川之江町", "city": "四国中央市", "postcode": "799-0101", "prefecture": "愛媛県", "id": 7990101 },
        {
            "address": "川之江町長須",
            "city": "四国中央市",
            "postcode": "799-0102",
            "prefecture": "愛媛県",
            "id": 7990102
        },
        {
            "address": "川之江町余木",
            "city": "四国中央市",
            "postcode": "799-0103",
            "prefecture": "愛媛県",
            "id": 7990103
        },
        {
            "address": "金砂町小川山",
            "city": "四国中央市",
            "postcode": "799-0641",
            "prefecture": "愛媛県",
            "id": 7990641
        },
        {
            "address": "金砂町平野山",
            "city": "四国中央市",
            "postcode": "799-0642",
            "prefecture": "愛媛県",
            "id": 7990642
        },
        {
            "address": "金生町下分",
            "city": "四国中央市",
            "postcode": "799-0111",
            "prefecture": "愛媛県",
            "id": 7990111
        },
        {
            "address": "金生町山田井",
            "city": "四国中央市",
            "postcode": "799-0112",
            "prefecture": "愛媛県",
            "id": 7990112
        },
        { "address": "具定町", "city": "四国中央市", "postcode": "799-0423", "prefecture": "愛媛県", "id": 7990423 },
        { "address": "寒川町", "city": "四国中央市", "postcode": "799-0431", "prefecture": "愛媛県", "id": 7990431 },
        { "address": "柴生町", "city": "四国中央市", "postcode": "799-0125", "prefecture": "愛媛県", "id": 7990125 },
        { "address": "下柏町", "city": "四国中央市", "postcode": "799-0411", "prefecture": "愛媛県", "id": 7990411 },
        { "address": "下川町", "city": "四国中央市", "postcode": "799-0126", "prefecture": "愛媛県", "id": 7990126 },
        {
            "address": "新宮町馬立",
            "city": "四国中央市",
            "postcode": "799-0301",
            "prefecture": "愛媛県",
            "id": 7990301
        },
        {
            "address": "新宮町上山",
            "city": "四国中央市",
            "postcode": "799-0302",
            "prefecture": "愛媛県",
            "id": 7990302
        },
        {
            "address": "新宮町新宮",
            "city": "四国中央市",
            "postcode": "799-0303",
            "prefecture": "愛媛県",
            "id": 7990303
        },
        {
            "address": "新宮町新瀬川",
            "city": "四国中央市",
            "postcode": "799-0304",
            "prefecture": "愛媛県",
            "id": 7990304
        },
        {
            "address": "土居町入野",
            "city": "四国中央市",
            "postcode": "799-0712",
            "prefecture": "愛媛県",
            "id": 7990712
        },
        {
            "address": "土居町上野",
            "city": "四国中央市",
            "postcode": "799-0721",
            "prefecture": "愛媛県",
            "id": 7990721
        },
        {
            "address": "土居町浦山",
            "city": "四国中央市",
            "postcode": "799-0713",
            "prefecture": "愛媛県",
            "id": 7990713
        },
        {
            "address": "土居町蕪崎",
            "city": "四国中央市",
            "postcode": "799-0724",
            "prefecture": "愛媛県",
            "id": 7990724
        },
        {
            "address": "土居町北野",
            "city": "四国中央市",
            "postcode": "799-0722",
            "prefecture": "愛媛県",
            "id": 7990722
        },
        {
            "address": "土居町小林",
            "city": "四国中央市",
            "postcode": "799-0702",
            "prefecture": "愛媛県",
            "id": 7990702
        },
        {
            "address": "土居町津根",
            "city": "四国中央市",
            "postcode": "799-0704",
            "prefecture": "愛媛県",
            "id": 7990704
        },
        {
            "address": "土居町天満",
            "city": "四国中央市",
            "postcode": "799-0723",
            "prefecture": "愛媛県",
            "id": 7990723
        },
        {
            "address": "土居町土居",
            "city": "四国中央市",
            "postcode": "799-0711",
            "prefecture": "愛媛県",
            "id": 7990711
        },
        {
            "address": "土居町中村",
            "city": "四国中央市",
            "postcode": "799-0701",
            "prefecture": "愛媛県",
            "id": 7990701
        },
        {
            "address": "土居町野田",
            "city": "四国中央市",
            "postcode": "799-0705",
            "prefecture": "愛媛県",
            "id": 7990705
        },
        {
            "address": "土居町畑野",
            "city": "四国中央市",
            "postcode": "799-0714",
            "prefecture": "愛媛県",
            "id": 7990714
        },
        {
            "address": "土居町藤原",
            "city": "四国中央市",
            "postcode": "799-0703",
            "prefecture": "愛媛県",
            "id": 7990703
        },
        {
            "address": "富郷町寒川山",
            "city": "四国中央市",
            "postcode": "799-0643",
            "prefecture": "愛媛県",
            "id": 7990643
        },
        {
            "address": "富郷町津根山",
            "city": "四国中央市",
            "postcode": "799-0645",
            "prefecture": "愛媛県",
            "id": 7990645
        },
        {
            "address": "富郷町豊坂",
            "city": "四国中央市",
            "postcode": "799-0644",
            "prefecture": "愛媛県",
            "id": 7990644
        },
        {
            "address": "豊岡町五良野",
            "city": "四国中央市",
            "postcode": "799-0434",
            "prefecture": "愛媛県",
            "id": 7990434
        },
        {
            "address": "豊岡町大町",
            "city": "四国中央市",
            "postcode": "799-0432",
            "prefecture": "愛媛県",
            "id": 7990432
        },
        {
            "address": "豊岡町岡銅",
            "city": "四国中央市",
            "postcode": "799-0436",
            "prefecture": "愛媛県",
            "id": 7990436
        },
        {
            "address": "豊岡町長田",
            "city": "四国中央市",
            "postcode": "799-0435",
            "prefecture": "愛媛県",
            "id": 7990435
        },
        {
            "address": "豊岡町豊田",
            "city": "四国中央市",
            "postcode": "799-0433",
            "prefecture": "愛媛県",
            "id": 7990433
        },
        { "address": "中曽根町", "city": "四国中央市", "postcode": "799-0413", "prefecture": "愛媛県", "id": 7990413 },
        { "address": "中之庄町", "city": "四国中央市", "postcode": "799-0422", "prefecture": "愛媛県", "id": 7990422 },
        { "address": "三島朝日", "city": "四国中央市", "postcode": "799-0403", "prefecture": "愛媛県", "id": 7990403 },
        { "address": "三島金子", "city": "四国中央市", "postcode": "799-0421", "prefecture": "愛媛県", "id": 7990421 },
        {
            "address": "三島紙屋町",
            "city": "四国中央市",
            "postcode": "799-0402",
            "prefecture": "愛媛県",
            "id": 7990402
        },
        { "address": "三島中央", "city": "四国中央市", "postcode": "799-0405", "prefecture": "愛媛県", "id": 7990405 },
        { "address": "三島宮川", "city": "四国中央市", "postcode": "799-0404", "prefecture": "愛媛県", "id": 7990404 },
        { "address": "村松町", "city": "四国中央市", "postcode": "799-0401", "prefecture": "愛媛県", "id": 7990401 },
        { "address": "妻鳥町", "city": "四国中央市", "postcode": "799-0113", "prefecture": "愛媛県", "id": 7990113 },
        { "city": "西予市", "postcode": "797-0000", "prefecture": "愛媛県", "id": 7970000 },
        { "address": "明浜町狩浜", "city": "西予市", "postcode": "797-0113", "prefecture": "愛媛県", "id": 7970113 },
        { "address": "明浜町高山", "city": "西予市", "postcode": "797-0201", "prefecture": "愛媛県", "id": 7970201 },
        { "address": "明浜町田之浜", "city": "西予市", "postcode": "797-0203", "prefecture": "愛媛県", "id": 7970203 },
        { "address": "明浜町俵津", "city": "西予市", "postcode": "797-0111", "prefecture": "愛媛県", "id": 7970111 },
        { "address": "明浜町渡江", "city": "西予市", "postcode": "797-0112", "prefecture": "愛媛県", "id": 7970112 },
        { "address": "明浜町宮野浦", "city": "西予市", "postcode": "797-0202", "prefecture": "愛媛県", "id": 7970202 },
        { "address": "宇和町明間", "city": "西予市", "postcode": "797-0010", "prefecture": "愛媛県", "id": 7970010 },
        { "address": "宇和町明石", "city": "西予市", "postcode": "797-0007", "prefecture": "愛媛県", "id": 7970007 },
        { "address": "宇和町伊賀上", "city": "西予市", "postcode": "797-0014", "prefecture": "愛媛県", "id": 7970014 },
        { "address": "宇和町伊崎", "city": "西予市", "postcode": "797-0004", "prefecture": "愛媛県", "id": 7970004 },
        { "address": "宇和町稲生", "city": "西予市", "postcode": "797-0013", "prefecture": "愛媛県", "id": 7970013 },
        { "address": "宇和町伊延", "city": "西予市", "postcode": "797-0034", "prefecture": "愛媛県", "id": 7970034 },
        { "address": "宇和町岩木", "city": "西予市", "postcode": "797-0026", "prefecture": "愛媛県", "id": 7970026 },
        { "address": "宇和町卯之町", "city": "西予市", "postcode": "797-0015", "prefecture": "愛媛県", "id": 7970015 },
        { "address": "宇和町大江", "city": "西予市", "postcode": "797-0043", "prefecture": "愛媛県", "id": 7970043 },
        { "address": "宇和町岡山", "city": "西予市", "postcode": "797-0033", "prefecture": "愛媛県", "id": 7970033 },
        { "address": "宇和町小野田", "city": "西予市", "postcode": "797-0022", "prefecture": "愛媛県", "id": 7970022 },
        { "address": "宇和町小原", "city": "西予市", "postcode": "797-0027", "prefecture": "愛媛県", "id": 7970027 },
        { "address": "宇和町皆田", "city": "西予市", "postcode": "797-0012", "prefecture": "愛媛県", "id": 7970012 },
        { "address": "宇和町上松葉", "city": "西予市", "postcode": "797-0046", "prefecture": "愛媛県", "id": 7970046 },
        { "address": "宇和町加茂", "city": "西予市", "postcode": "797-0044", "prefecture": "愛媛県", "id": 7970044 },
        { "address": "宇和町河内", "city": "西予市", "postcode": "797-0035", "prefecture": "愛媛県", "id": 7970035 },
        { "address": "宇和町清沢", "city": "西予市", "postcode": "797-0030", "prefecture": "愛媛県", "id": 7970030 },
        { "address": "宇和町久保", "city": "西予市", "postcode": "797-0036", "prefecture": "愛媛県", "id": 7970036 },
        { "address": "宇和町窪", "city": "西予市", "postcode": "797-0003", "prefecture": "愛媛県", "id": 7970003 },
        { "address": "宇和町郷内", "city": "西予市", "postcode": "797-0025", "prefecture": "愛媛県", "id": 7970025 },
        { "address": "宇和町坂戸", "city": "西予市", "postcode": "797-0045", "prefecture": "愛媛県", "id": 7970045 },
        { "address": "宇和町さくら", "city": "西予市", "postcode": "797-0008", "prefecture": "愛媛県", "id": 7970008 },
        { "address": "宇和町下松葉", "city": "西予市", "postcode": "797-0018", "prefecture": "愛媛県", "id": 7970018 },
        { "address": "宇和町常定寺", "city": "西予市", "postcode": "797-0005", "prefecture": "愛媛県", "id": 7970005 },
        { "address": "宇和町新城", "city": "西予市", "postcode": "797-0006", "prefecture": "愛媛県", "id": 7970006 },
        { "address": "宇和町神領", "city": "西予市", "postcode": "797-0016", "prefecture": "愛媛県", "id": 7970016 },
        { "address": "宇和町瀬戸", "city": "西予市", "postcode": "797-0042", "prefecture": "愛媛県", "id": 7970042 },
        {
            "address": "宇和町田苗真土",
            "city": "西予市",
            "postcode": "797-0032",
            "prefecture": "愛媛県",
            "id": 7970032
        },
        { "address": "宇和町田野中", "city": "西予市", "postcode": "797-0001", "prefecture": "愛媛県", "id": 7970001 },
        { "address": "宇和町永長", "city": "西予市", "postcode": "797-0029", "prefecture": "愛媛県", "id": 7970029 },
        { "address": "宇和町西山田", "city": "西予市", "postcode": "797-0024", "prefecture": "愛媛県", "id": 7970024 },
        { "address": "宇和町野田", "city": "西予市", "postcode": "797-0021", "prefecture": "愛媛県", "id": 7970021 },
        { "address": "宇和町信里", "city": "西予市", "postcode": "797-0037", "prefecture": "愛媛県", "id": 7970037 },
        { "address": "宇和町東多田", "city": "西予市", "postcode": "797-0041", "prefecture": "愛媛県", "id": 7970041 },
        { "address": "宇和町久枝", "city": "西予市", "postcode": "797-0020", "prefecture": "愛媛県", "id": 7970020 },
        { "address": "宇和町下川", "city": "西予市", "postcode": "797-0011", "prefecture": "愛媛県", "id": 7970011 },
        {
            "address": "宇和町ひまわり",
            "city": "西予市",
            "postcode": "797-0017",
            "prefecture": "愛媛県",
            "id": 7970017
        },
        { "address": "宇和町平野", "city": "西予市", "postcode": "797-0002", "prefecture": "愛媛県", "id": 7970002 },
        { "address": "宇和町杢所", "city": "西予市", "postcode": "797-0031", "prefecture": "愛媛県", "id": 7970031 },
        { "address": "宇和町山田", "city": "西予市", "postcode": "797-0023", "prefecture": "愛媛県", "id": 7970023 },
        { "address": "宇和町れんげ", "city": "西予市", "postcode": "797-0028", "prefecture": "愛媛県", "id": 7970028 },
        { "address": "城川町魚成", "city": "西予市", "postcode": "797-1716", "prefecture": "愛媛県", "id": 7971716 },
        { "address": "城川町下相", "city": "西予市", "postcode": "797-1717", "prefecture": "愛媛県", "id": 7971717 },
        { "address": "城川町男河内", "city": "西予市", "postcode": "797-1714", "prefecture": "愛媛県", "id": 7971714 },
        { "address": "城川町嘉喜尾", "city": "西予市", "postcode": "797-1713", "prefecture": "愛媛県", "id": 7971713 },
        { "address": "城川町川津南", "city": "西予市", "postcode": "797-1704", "prefecture": "愛媛県", "id": 7971704 },
        { "address": "城川町窪野", "city": "西予市", "postcode": "797-1703", "prefecture": "愛媛県", "id": 7971703 },
        { "address": "城川町田穂", "city": "西予市", "postcode": "797-1715", "prefecture": "愛媛県", "id": 7971715 },
        { "address": "城川町高野子", "city": "西予市", "postcode": "797-1705", "prefecture": "愛媛県", "id": 7971705 },
        { "address": "城川町土居", "city": "西予市", "postcode": "797-1701", "prefecture": "愛媛県", "id": 7971701 },
        { "address": "城川町野井川", "city": "西予市", "postcode": "797-1711", "prefecture": "愛媛県", "id": 7971711 },
        { "address": "城川町古市", "city": "西予市", "postcode": "797-1702", "prefecture": "愛媛県", "id": 7971702 },
        { "address": "城川町遊子谷", "city": "西予市", "postcode": "797-1712", "prefecture": "愛媛県", "id": 7971712 },
        { "address": "野村町阿下", "city": "西予市", "postcode": "797-1211", "prefecture": "愛媛県", "id": 7971211 },
        { "address": "野村町旭", "city": "西予市", "postcode": "797-1106", "prefecture": "愛媛県", "id": 7971106 },
        { "address": "野村町大西", "city": "西予市", "postcode": "797-1324", "prefecture": "愛媛県", "id": 7971324 },
        {
            "address": "野村町大野ケ原",
            "city": "西予市",
            "postcode": "797-1434",
            "prefecture": "愛媛県",
            "id": 7971434
        },
        { "address": "野村町片川", "city": "西予市", "postcode": "797-1213", "prefecture": "愛媛県", "id": 7971213 },
        { "address": "野村町釜川", "city": "西予市", "postcode": "797-1323", "prefecture": "愛媛県", "id": 7971323 },
        { "address": "野村町鎌田", "city": "西予市", "postcode": "797-1326", "prefecture": "愛媛県", "id": 7971326 },
        { "address": "野村町河西", "city": "西予市", "postcode": "797-1104", "prefecture": "愛媛県", "id": 7971104 },
        { "address": "野村町蔵良", "city": "西予市", "postcode": "797-1216", "prefecture": "愛媛県", "id": 7971216 },
        { "address": "野村町栗木", "city": "西予市", "postcode": "797-1327", "prefecture": "愛媛県", "id": 7971327 },
        { "address": "野村町小松", "city": "西予市", "postcode": "797-1433", "prefecture": "愛媛県", "id": 7971433 },
        { "address": "野村町坂石", "city": "西予市", "postcode": "797-1322", "prefecture": "愛媛県", "id": 7971322 },
        { "address": "野村町白髭", "city": "西予市", "postcode": "797-1101", "prefecture": "愛媛県", "id": 7971101 },
        { "address": "野村町四郎谷", "city": "西予市", "postcode": "797-1103", "prefecture": "愛媛県", "id": 7971103 },
        { "address": "野村町惣川", "city": "西予市", "postcode": "797-1432", "prefecture": "愛媛県", "id": 7971432 },
        { "address": "野村町高瀬", "city": "西予市", "postcode": "797-1215", "prefecture": "愛媛県", "id": 7971215 },
        { "address": "野村町鳥鹿野", "city": "西予市", "postcode": "797-1107", "prefecture": "愛媛県", "id": 7971107 },
        { "address": "野村町富野川", "city": "西予市", "postcode": "797-1214", "prefecture": "愛媛県", "id": 7971214 },
        { "address": "野村町長谷", "city": "西予市", "postcode": "797-1105", "prefecture": "愛媛県", "id": 7971105 },
        { "address": "野村町中通川", "city": "西予市", "postcode": "797-1325", "prefecture": "愛媛県", "id": 7971325 },
        { "address": "野村町西", "city": "西予市", "postcode": "797-1328", "prefecture": "愛媛県", "id": 7971328 },
        { "address": "野村町野村", "city": "西予市", "postcode": "797-1212", "prefecture": "愛媛県", "id": 7971212 },
        { "address": "野村町平野", "city": "西予市", "postcode": "797-1217", "prefecture": "愛媛県", "id": 7971217 },
        { "address": "野村町舟戸", "city": "西予市", "postcode": "797-1431", "prefecture": "愛媛県", "id": 7971431 },
        { "address": "野村町松渓", "city": "西予市", "postcode": "797-1102", "prefecture": "愛媛県", "id": 7971102 },
        { "address": "野村町予子林", "city": "西予市", "postcode": "797-1321", "prefecture": "愛媛県", "id": 7971321 },
        { "address": "三瓶町朝立", "city": "西予市", "postcode": "796-0907", "prefecture": "愛媛県", "id": 7960907 },
        { "address": "三瓶町安土", "city": "西予市", "postcode": "796-0909", "prefecture": "愛媛県", "id": 7960909 },
        { "address": "三瓶町有網代", "city": "西予市", "postcode": "796-0910", "prefecture": "愛媛県", "id": 7960910 },
        { "address": "三瓶町有太刀", "city": "西予市", "postcode": "796-0911", "prefecture": "愛媛県", "id": 7960911 },
        { "address": "三瓶町和泉", "city": "西予市", "postcode": "796-0906", "prefecture": "愛媛県", "id": 7960906 },
        { "address": "三瓶町蔵貫", "city": "西予市", "postcode": "796-0913", "prefecture": "愛媛県", "id": 7960913 },
        { "address": "三瓶町蔵貫浦", "city": "西予市", "postcode": "796-0912", "prefecture": "愛媛県", "id": 7960912 },
        { "address": "三瓶町鴫山", "city": "西予市", "postcode": "796-0905", "prefecture": "愛媛県", "id": 7960905 },
        { "address": "三瓶町下泊", "city": "西予市", "postcode": "796-0915", "prefecture": "愛媛県", "id": 7960915 },
        { "address": "三瓶町周木", "city": "西予市", "postcode": "796-0901", "prefecture": "愛媛県", "id": 7960901 },
        { "address": "三瓶町津布理", "city": "西予市", "postcode": "796-0908", "prefecture": "愛媛県", "id": 7960908 },
        { "address": "三瓶町長早", "city": "西予市", "postcode": "796-0902", "prefecture": "愛媛県", "id": 7960902 },
        { "address": "三瓶町二及", "city": "西予市", "postcode": "796-0903", "prefecture": "愛媛県", "id": 7960903 },
        { "address": "三瓶町垣生", "city": "西予市", "postcode": "796-0904", "prefecture": "愛媛県", "id": 7960904 },
        { "address": "三瓶町皆江", "city": "西予市", "postcode": "796-0914", "prefecture": "愛媛県", "id": 7960914 },
        { "city": "東温市", "postcode": "791-0200", "prefecture": "愛媛県", "id": 7910200 },
        { "address": "井内", "city": "東温市", "postcode": "791-0315", "prefecture": "愛媛県", "id": 7910315 },
        { "address": "上村", "city": "東温市", "postcode": "791-0221", "prefecture": "愛媛県", "id": 7910221 },
        { "address": "牛渕", "city": "東温市", "postcode": "791-0213", "prefecture": "愛媛県", "id": 7910213 },
        { "address": "上林", "city": "東温市", "postcode": "791-0223", "prefecture": "愛媛県", "id": 7910223 },
        { "address": "河之内", "city": "東温市", "postcode": "791-0321", "prefecture": "愛媛県", "id": 7910321 },
        { "address": "北方", "city": "東温市", "postcode": "791-0303", "prefecture": "愛媛県", "id": 7910303 },
        { "address": "北野田", "city": "東温市", "postcode": "791-0215", "prefecture": "愛媛県", "id": 7910215 },
        { "address": "志津川", "city": "東温市", "postcode": "791-0204", "prefecture": "愛媛県", "id": 7910204 },
        { "address": "志津川南", "city": "東温市", "postcode": "791-0206", "prefecture": "愛媛県", "id": 7910206 },
        { "address": "下林", "city": "東温市", "postcode": "791-0222", "prefecture": "愛媛県", "id": 7910222 },
        { "address": "則之内甲", "city": "東温市", "postcode": "791-0311", "prefecture": "愛媛県", "id": 7910311 },
        { "address": "則之内乙", "city": "東温市", "postcode": "791-0312", "prefecture": "愛媛県", "id": 7910312 },
        { "address": "則之内丙", "city": "東温市", "postcode": "791-0313", "prefecture": "愛媛県", "id": 7910313 },
        { "address": "田窪", "city": "東温市", "postcode": "791-0212", "prefecture": "愛媛県", "id": 7910212 },
        { "address": "滑川", "city": "東温市", "postcode": "791-0322", "prefecture": "愛媛県", "id": 7910322 },
        { "address": "西岡", "city": "東温市", "postcode": "791-0205", "prefecture": "愛媛県", "id": 7910205 },
        { "address": "野田", "city": "東温市", "postcode": "791-0216", "prefecture": "愛媛県", "id": 7910216 },
        { "address": "樋口", "city": "東温市", "postcode": "791-0202", "prefecture": "愛媛県", "id": 7910202 },
        { "address": "松瀬川", "city": "東温市", "postcode": "791-0314", "prefecture": "愛媛県", "id": 7910314 },
        { "address": "南方", "city": "東温市", "postcode": "791-0301", "prefecture": "愛媛県", "id": 7910301 },
        { "address": "南野田", "city": "東温市", "postcode": "791-0214", "prefecture": "愛媛県", "id": 7910214 },
        { "address": "見奈良", "city": "東温市", "postcode": "791-0211", "prefecture": "愛媛県", "id": 7910211 },
        { "address": "明河", "city": "東温市", "postcode": "791-0323", "prefecture": "愛媛県", "id": 7910323 },
        { "address": "山之内", "city": "東温市", "postcode": "791-0201", "prefecture": "愛媛県", "id": 7910201 },
        { "address": "横河原", "city": "東温市", "postcode": "791-0203", "prefecture": "愛媛県", "id": 7910203 },
        { "address": "吉久", "city": "東温市", "postcode": "791-0302", "prefecture": "愛媛県", "id": 7910302 },
        { "city": "越智郡上島町", "postcode": "794-2500", "prefecture": "愛媛県", "id": 7942500 },
        { "address": "生名", "city": "越智郡上島町", "postcode": "794-2550", "prefecture": "愛媛県", "id": 7942550 },
        { "address": "岩城", "city": "越智郡上島町", "postcode": "794-2410", "prefecture": "愛媛県", "id": 7942410 },
        {
            "address": "魚島一番耕地",
            "city": "越智郡上島町",
            "postcode": "794-2540",
            "prefecture": "愛媛県",
            "id": 7942540
        },
        {
            "address": "魚島二番耕地",
            "city": "越智郡上島町",
            "postcode": "794-2541",
            "prefecture": "愛媛県",
            "id": 7942541
        },
        {
            "address": "魚島三番耕地",
            "city": "越智郡上島町",
            "postcode": "794-2542",
            "prefecture": "愛媛県",
            "id": 7942542
        },
        {
            "address": "弓削太田",
            "city": "越智郡上島町",
            "postcode": "794-2508",
            "prefecture": "愛媛県",
            "id": 7942508
        },
        {
            "address": "弓削大谷",
            "city": "越智郡上島町",
            "postcode": "794-2513",
            "prefecture": "愛媛県",
            "id": 7942513
        },
        {
            "address": "弓削鎌田",
            "city": "越智郡上島町",
            "postcode": "794-2510",
            "prefecture": "愛媛県",
            "id": 7942510
        },
        {
            "address": "弓削上弓削",
            "city": "越智郡上島町",
            "postcode": "794-2503",
            "prefecture": "愛媛県",
            "id": 7942503
        },
        {
            "address": "弓削狩尾",
            "city": "越智郡上島町",
            "postcode": "794-2512",
            "prefecture": "愛媛県",
            "id": 7942512
        },
        {
            "address": "弓削久司浦",
            "city": "越智郡上島町",
            "postcode": "794-2501",
            "prefecture": "愛媛県",
            "id": 7942501
        },
        {
            "address": "弓削佐島",
            "city": "越智郡上島町",
            "postcode": "794-2520",
            "prefecture": "愛媛県",
            "id": 7942520
        },
        {
            "address": "弓削沢津",
            "city": "越智郡上島町",
            "postcode": "794-2502",
            "prefecture": "愛媛県",
            "id": 7942502
        },
        {
            "address": "弓削下弓削",
            "city": "越智郡上島町",
            "postcode": "794-2506",
            "prefecture": "愛媛県",
            "id": 7942506
        },
        {
            "address": "弓削豊島",
            "city": "越智郡上島町",
            "postcode": "794-2530",
            "prefecture": "愛媛県",
            "id": 7942530
        },
        {
            "address": "弓削土生",
            "city": "越智郡上島町",
            "postcode": "794-2509",
            "prefecture": "愛媛県",
            "id": 7942509
        },
        {
            "address": "弓削引野",
            "city": "越智郡上島町",
            "postcode": "794-2504",
            "prefecture": "愛媛県",
            "id": 7942504
        },
        {
            "address": "弓削日比",
            "city": "越智郡上島町",
            "postcode": "794-2511",
            "prefecture": "愛媛県",
            "id": 7942511
        },
        {
            "address": "弓削藤谷",
            "city": "越智郡上島町",
            "postcode": "794-2507",
            "prefecture": "愛媛県",
            "id": 7942507
        },
        {
            "address": "弓削明神",
            "city": "越智郡上島町",
            "postcode": "794-2505",
            "prefecture": "愛媛県",
            "id": 7942505
        },
        { "city": "上浮穴郡久万高原町", "postcode": "791-1200", "prefecture": "愛媛県", "id": 7911200 },
        {
            "address": "相の木",
            "city": "上浮穴郡久万高原町",
            "postcode": "791-1709",
            "prefecture": "愛媛県",
            "id": 7911709
        },
        {
            "address": "相の峰",
            "city": "上浮穴郡久万高原町",
            "postcode": "791-1705",
            "prefecture": "愛媛県",
            "id": 7911705
        },
        {
            "address": "有枝",
            "city": "上浮穴郡久万高原町",
            "postcode": "791-1505",
            "prefecture": "愛媛県",
            "id": 7911505
        },
        {
            "address": "入野",
            "city": "上浮穴郡久万高原町",
            "postcode": "791-1202",
            "prefecture": "愛媛県",
            "id": 7911202
        },
        {
            "address": "大川",
            "city": "上浮穴郡久万高原町",
            "postcode": "791-1504",
            "prefecture": "愛媛県",
            "id": 7911504
        },
        {
            "address": "大成",
            "city": "上浮穴郡久万高原町",
            "postcode": "791-1702",
            "prefecture": "愛媛県",
            "id": 7911702
        },
        {
            "address": "笠方",
            "city": "上浮穴郡久万高原町",
            "postcode": "791-1703",
            "prefecture": "愛媛県",
            "id": 7911703
        },
        {
            "address": "上黒岩",
            "city": "上浮穴郡久万高原町",
            "postcode": "791-1501",
            "prefecture": "愛媛県",
            "id": 7911501
        },
        {
            "address": "上野尻",
            "city": "上浮穴郡久万高原町",
            "postcode": "791-1206",
            "prefecture": "愛媛県",
            "id": 7911206
        },
        {
            "address": "上畑野川",
            "city": "上浮穴郡久万高原町",
            "postcode": "791-1211",
            "prefecture": "愛媛県",
            "id": 7911211
        },
        {
            "address": "久万",
            "city": "上浮穴郡久万高原町",
            "postcode": "791-1201",
            "prefecture": "愛媛県",
            "id": 7911201
        },
        {
            "address": "黒藤川",
            "city": "上浮穴郡久万高原町",
            "postcode": "791-1515",
            "prefecture": "愛媛県",
            "id": 7911515
        },
        {
            "address": "河の子",
            "city": "上浮穴郡久万高原町",
            "postcode": "791-1708",
            "prefecture": "愛媛県",
            "id": 7911708
        },
        {
            "address": "沢渡",
            "city": "上浮穴郡久万高原町",
            "postcode": "791-1514",
            "prefecture": "愛媛県",
            "id": 7911514
        },
        {
            "address": "仕出",
            "city": "上浮穴郡久万高原町",
            "postcode": "791-1513",
            "prefecture": "愛媛県",
            "id": 7911513
        },
        {
            "address": "渋草",
            "city": "上浮穴郡久万高原町",
            "postcode": "791-1701",
            "prefecture": "愛媛県",
            "id": 7911701
        },
        {
            "address": "下野尻",
            "city": "上浮穴郡久万高原町",
            "postcode": "791-1207",
            "prefecture": "愛媛県",
            "id": 7911207
        },
        {
            "address": "下畑野川",
            "city": "上浮穴郡久万高原町",
            "postcode": "791-1212",
            "prefecture": "愛媛県",
            "id": 7911212
        },
        {
            "address": "菅生",
            "city": "上浮穴郡久万高原町",
            "postcode": "791-1205",
            "prefecture": "愛媛県",
            "id": 7911205
        },
        {
            "address": "父野川",
            "city": "上浮穴郡久万高原町",
            "postcode": "791-1223",
            "prefecture": "愛媛県",
            "id": 7911223
        },
        {
            "address": "露峰",
            "city": "上浮穴郡久万高原町",
            "postcode": "791-1221",
            "prefecture": "愛媛県",
            "id": 7911221
        },
        {
            "address": "直瀬",
            "city": "上浮穴郡久万高原町",
            "postcode": "791-1213",
            "prefecture": "愛媛県",
            "id": 7911213
        },
        {
            "address": "中組",
            "city": "上浮穴郡久万高原町",
            "postcode": "791-1707",
            "prefecture": "愛媛県",
            "id": 7911707
        },
        {
            "address": "中黒岩",
            "city": "上浮穴郡久万高原町",
            "postcode": "791-1502",
            "prefecture": "愛媛県",
            "id": 7911502
        },
        {
            "address": "中津",
            "city": "上浮穴郡久万高原町",
            "postcode": "791-1803",
            "prefecture": "愛媛県",
            "id": 7911803
        },
        {
            "address": "七鳥",
            "city": "上浮穴郡久万高原町",
            "postcode": "791-1511",
            "prefecture": "愛媛県",
            "id": 7911511
        },
        {
            "address": "西谷",
            "city": "上浮穴郡久万高原町",
            "postcode": "791-1802",
            "prefecture": "愛媛県",
            "id": 7911802
        },
        {
            "address": "西明神",
            "city": "上浮穴郡久万高原町",
            "postcode": "791-1203",
            "prefecture": "愛媛県",
            "id": 7911203
        },
        {
            "address": "二名",
            "city": "上浮穴郡久万高原町",
            "postcode": "791-1222",
            "prefecture": "愛媛県",
            "id": 7911222
        },
        {
            "address": "東川",
            "city": "上浮穴郡久万高原町",
            "postcode": "791-1512",
            "prefecture": "愛媛県",
            "id": 7911512
        },
        {
            "address": "東明神",
            "city": "上浮穴郡久万高原町",
            "postcode": "791-1204",
            "prefecture": "愛媛県",
            "id": 7911204
        },
        {
            "address": "日野浦",
            "city": "上浮穴郡久万高原町",
            "postcode": "791-1503",
            "prefecture": "愛媛県",
            "id": 7911503
        },
        {
            "address": "本組",
            "city": "上浮穴郡久万高原町",
            "postcode": "791-1706",
            "prefecture": "愛媛県",
            "id": 7911706
        },
        {
            "address": "前組",
            "city": "上浮穴郡久万高原町",
            "postcode": "791-1704",
            "prefecture": "愛媛県",
            "id": 7911704
        },
        {
            "address": "柳井川",
            "city": "上浮穴郡久万高原町",
            "postcode": "791-1801",
            "prefecture": "愛媛県",
            "id": 7911801
        },
        {
            "address": "若山",
            "city": "上浮穴郡久万高原町",
            "postcode": "791-1710",
            "prefecture": "愛媛県",
            "id": 7911710
        },
        { "city": "伊予郡松前町", "postcode": "791-3100", "prefecture": "愛媛県", "id": 7913100 },
        { "address": "恵久美", "city": "伊予郡松前町", "postcode": "791-3141", "prefecture": "愛媛県", "id": 7913141 },
        { "address": "大溝", "city": "伊予郡松前町", "postcode": "791-3153", "prefecture": "愛媛県", "id": 7913153 },
        { "address": "上高柳", "city": "伊予郡松前町", "postcode": "791-3142", "prefecture": "愛媛県", "id": 7913142 },
        { "address": "神崎", "city": "伊予郡松前町", "postcode": "791-3161", "prefecture": "愛媛県", "id": 7913161 },
        { "address": "北川原", "city": "伊予郡松前町", "postcode": "791-3131", "prefecture": "愛媛県", "id": 7913131 },
        { "address": "北黒田", "city": "伊予郡松前町", "postcode": "791-3102", "prefecture": "愛媛県", "id": 7913102 },
        { "address": "出作", "city": "伊予郡松前町", "postcode": "791-3162", "prefecture": "愛媛県", "id": 7913162 },
        { "address": "昌農内", "city": "伊予郡松前町", "postcode": "791-3133", "prefecture": "愛媛県", "id": 7913133 },
        { "address": "大間", "city": "伊予郡松前町", "postcode": "791-3143", "prefecture": "愛媛県", "id": 7913143 },
        { "address": "筒井", "city": "伊予郡松前町", "postcode": "791-3120", "prefecture": "愛媛県", "id": 7913120 },
        { "address": "鶴吉", "city": "伊予郡松前町", "postcode": "791-3155", "prefecture": "愛媛県", "id": 7913155 },
        { "address": "徳丸", "city": "伊予郡松前町", "postcode": "791-3163", "prefecture": "愛媛県", "id": 7913163 },
        { "address": "中川原", "city": "伊予郡松前町", "postcode": "791-3164", "prefecture": "愛媛県", "id": 7913164 },
        { "address": "永田", "city": "伊予郡松前町", "postcode": "791-3152", "prefecture": "愛媛県", "id": 7913152 },
        { "address": "西古泉", "city": "伊予郡松前町", "postcode": "791-3134", "prefecture": "愛媛県", "id": 7913134 },
        { "address": "西高柳", "city": "伊予郡松前町", "postcode": "791-3132", "prefecture": "愛媛県", "id": 7913132 },
        { "address": "浜", "city": "伊予郡松前町", "postcode": "791-3110", "prefecture": "愛媛県", "id": 7913110 },
        { "address": "東古泉", "city": "伊予郡松前町", "postcode": "791-3151", "prefecture": "愛媛県", "id": 7913151 },
        { "address": "南黒田", "city": "伊予郡松前町", "postcode": "791-3101", "prefecture": "愛媛県", "id": 7913101 },
        { "address": "横田", "city": "伊予郡松前町", "postcode": "791-3154", "prefecture": "愛媛県", "id": 7913154 },
        { "city": "伊予郡砥部町", "postcode": "791-2100", "prefecture": "愛媛県", "id": 7912100 },
        { "address": "麻生", "city": "伊予郡砥部町", "postcode": "791-2114", "prefecture": "愛媛県", "id": 7912114 },
        { "address": "岩谷", "city": "伊予郡砥部町", "postcode": "791-2142", "prefecture": "愛媛県", "id": 7912142 },
        { "address": "岩谷口", "city": "伊予郡砥部町", "postcode": "791-2141", "prefecture": "愛媛県", "id": 7912141 },
        { "address": "鵜ノ崎", "city": "伊予郡砥部町", "postcode": "791-2135", "prefecture": "愛媛県", "id": 7912135 },
        { "address": "多居谷", "city": "伊予郡砥部町", "postcode": "791-2206", "prefecture": "愛媛県", "id": 7912206 },
        { "address": "大角蔵", "city": "伊予郡砥部町", "postcode": "791-2126", "prefecture": "愛媛県", "id": 7912126 },
        { "address": "大平", "city": "伊予郡砥部町", "postcode": "791-2145", "prefecture": "愛媛県", "id": 7912145 },
        { "address": "大南", "city": "伊予郡砥部町", "postcode": "791-2132", "prefecture": "愛媛県", "id": 7912132 },
        { "address": "上原町", "city": "伊予郡砥部町", "postcode": "791-2117", "prefecture": "愛媛県", "id": 7912117 },
        { "address": "川井", "city": "伊予郡砥部町", "postcode": "791-2123", "prefecture": "愛媛県", "id": 7912123 },
        { "address": "川登", "city": "伊予郡砥部町", "postcode": "791-2143", "prefecture": "愛媛県", "id": 7912143 },
        { "address": "北川毛", "city": "伊予郡砥部町", "postcode": "791-2131", "prefecture": "愛媛県", "id": 7912131 },
        { "address": "五本松", "city": "伊予郡砥部町", "postcode": "791-2133", "prefecture": "愛媛県", "id": 7912133 },
        { "address": "重光", "city": "伊予郡砥部町", "postcode": "791-2112", "prefecture": "愛媛県", "id": 7912112 },
        { "address": "拾町", "city": "伊予郡砥部町", "postcode": "791-2113", "prefecture": "愛媛県", "id": 7912113 },
        { "address": "千足", "city": "伊予郡砥部町", "postcode": "791-2122", "prefecture": "愛媛県", "id": 7912122 },
        { "address": "仙波", "city": "伊予郡砥部町", "postcode": "791-2207", "prefecture": "愛媛県", "id": 7912207 },
        { "address": "総津", "city": "伊予郡砥部町", "postcode": "791-2205", "prefecture": "愛媛県", "id": 7912205 },
        { "address": "高市", "city": "伊予郡砥部町", "postcode": "791-2204", "prefecture": "愛媛県", "id": 7912204 },
        { "address": "高尾田", "city": "伊予郡砥部町", "postcode": "791-2103", "prefecture": "愛媛県", "id": 7912103 },
        { "address": "高尾田", "city": "伊予郡砥部町", "postcode": "791-2102", "prefecture": "愛媛県", "id": 7912102 },
        { "address": "高尾田", "city": "伊予郡砥部町", "postcode": "791-2101", "prefecture": "愛媛県", "id": 7912101 },
        { "address": "田ノ浦", "city": "伊予郡砥部町", "postcode": "791-2124", "prefecture": "愛媛県", "id": 7912124 },
        { "address": "玉谷", "city": "伊予郡砥部町", "postcode": "791-2202", "prefecture": "愛媛県", "id": 7912202 },
        { "address": "外山", "city": "伊予郡砥部町", "postcode": "791-2134", "prefecture": "愛媛県", "id": 7912134 },
        { "address": "中野川", "city": "伊予郡砥部町", "postcode": "791-2203", "prefecture": "愛媛県", "id": 7912203 },
        { "address": "七折", "city": "伊予郡砥部町", "postcode": "791-2125", "prefecture": "愛媛県", "id": 7912125 },
        { "address": "原町", "city": "伊予郡砥部町", "postcode": "791-2116", "prefecture": "愛媛県", "id": 7912116 },
        { "address": "万年", "city": "伊予郡砥部町", "postcode": "791-2144", "prefecture": "愛媛県", "id": 7912144 },
        { "address": "満穂", "city": "伊予郡砥部町", "postcode": "791-2201", "prefecture": "愛媛県", "id": 7912201 },
        { "address": "宮内", "city": "伊予郡砥部町", "postcode": "791-2121", "prefecture": "愛媛県", "id": 7912121 },
        { "address": "宮内", "city": "伊予郡砥部町", "postcode": "791-2120", "prefecture": "愛媛県", "id": 7912120 },
        { "address": "三角", "city": "伊予郡砥部町", "postcode": "791-2115", "prefecture": "愛媛県", "id": 7912115 },
        { "address": "八倉", "city": "伊予郡砥部町", "postcode": "791-2111", "prefecture": "愛媛県", "id": 7912111 },
        { "city": "喜多郡内子町", "postcode": "791-3300", "prefecture": "愛媛県", "id": 7913300 },
        { "address": "五十崎", "city": "喜多郡内子町", "postcode": "795-0301", "prefecture": "愛媛県", "id": 7950301 },
        { "address": "石畳", "city": "喜多郡内子町", "postcode": "791-3343", "prefecture": "愛媛県", "id": 7913343 },
        { "address": "五百木", "city": "喜多郡内子町", "postcode": "791-3351", "prefecture": "愛媛県", "id": 7913351 },
        { "address": "臼杵", "city": "喜多郡内子町", "postcode": "791-3514", "prefecture": "愛媛県", "id": 7913514 },
        { "address": "内子", "city": "喜多郡内子町", "postcode": "791-3301", "prefecture": "愛媛県", "id": 7913301 },
        { "address": "大久喜", "city": "喜多郡内子町", "postcode": "795-0302", "prefecture": "愛媛県", "id": 7950302 },
        { "address": "大瀬", "city": "喜多郡内子町", "postcode": "791-3360", "prefecture": "愛媛県", "id": 7913360 },
        { "address": "大瀬東", "city": "喜多郡内子町", "postcode": "791-3363", "prefecture": "愛媛県", "id": 7913363 },
        { "address": "大瀬南", "city": "喜多郡内子町", "postcode": "791-3364", "prefecture": "愛媛県", "id": 7913364 },
        { "address": "大瀬北", "city": "喜多郡内子町", "postcode": "791-3362", "prefecture": "愛媛県", "id": 7913362 },
        {
            "address": "大瀬中央",
            "city": "喜多郡内子町",
            "postcode": "791-3361",
            "prefecture": "愛媛県",
            "id": 7913361
        },
        { "address": "大平", "city": "喜多郡内子町", "postcode": "791-3504", "prefecture": "愛媛県", "id": 7913504 },
        { "address": "小田", "city": "喜多郡内子町", "postcode": "791-3501", "prefecture": "愛媛県", "id": 7913501 },
        {
            "address": "小田深山",
            "city": "喜多郡内子町",
            "postcode": "791-3524",
            "prefecture": "愛媛県",
            "id": 7913524
        },
        { "address": "上川", "city": "喜多郡内子町", "postcode": "791-3523", "prefecture": "愛媛県", "id": 7913523 },
        { "address": "上田渡", "city": "喜多郡内子町", "postcode": "791-3513", "prefecture": "愛媛県", "id": 7913513 },
        { "address": "川中", "city": "喜多郡内子町", "postcode": "791-3321", "prefecture": "愛媛県", "id": 7913321 },
        { "address": "河内", "city": "喜多郡内子町", "postcode": "791-3342", "prefecture": "愛媛県", "id": 7913342 },
        { "address": "北表", "city": "喜多郡内子町", "postcode": "795-0307", "prefecture": "愛媛県", "id": 7950307 },
        { "address": "重松", "city": "喜多郡内子町", "postcode": "795-0304", "prefecture": "愛媛県", "id": 7950304 },
        { "address": "宿間", "city": "喜多郡内子町", "postcode": "795-0305", "prefecture": "愛媛県", "id": 7950305 },
        { "address": "城廻", "city": "喜多郡内子町", "postcode": "791-3310", "prefecture": "愛媛県", "id": 7913310 },
        { "address": "只海", "city": "喜多郡内子町", "postcode": "795-0309", "prefecture": "愛媛県", "id": 7950309 },
        { "address": "立山", "city": "喜多郡内子町", "postcode": "791-3331", "prefecture": "愛媛県", "id": 7913331 },
        { "address": "立石", "city": "喜多郡内子町", "postcode": "791-3505", "prefecture": "愛媛県", "id": 7913505 },
        { "address": "知清", "city": "喜多郡内子町", "postcode": "791-3322", "prefecture": "愛媛県", "id": 7913322 },
        { "address": "寺村", "city": "喜多郡内子町", "postcode": "791-3502", "prefecture": "愛媛県", "id": 7913502 },
        { "address": "中川", "city": "喜多郡内子町", "postcode": "791-3522", "prefecture": "愛媛県", "id": 7913522 },
        { "address": "中田渡", "city": "喜多郡内子町", "postcode": "791-3512", "prefecture": "愛媛県", "id": 7913512 },
        { "address": "日野川", "city": "喜多郡内子町", "postcode": "791-3503", "prefecture": "愛媛県", "id": 7913503 },
        { "address": "平岡", "city": "喜多郡内子町", "postcode": "795-0303", "prefecture": "愛媛県", "id": 7950303 },
        { "address": "福岡", "city": "喜多郡内子町", "postcode": "795-0306", "prefecture": "愛媛県", "id": 7950306 },
        { "address": "袋口", "city": "喜多郡内子町", "postcode": "791-3332", "prefecture": "愛媛県", "id": 7913332 },
        { "address": "本川", "city": "喜多郡内子町", "postcode": "791-3521", "prefecture": "愛媛県", "id": 7913521 },
        { "address": "南山", "city": "喜多郡内子町", "postcode": "791-3506", "prefecture": "愛媛県", "id": 7913506 },
        { "address": "村前", "city": "喜多郡内子町", "postcode": "791-3352", "prefecture": "愛媛県", "id": 7913352 },
        { "address": "山鳥坂", "city": "喜多郡内子町", "postcode": "795-0308", "prefecture": "愛媛県", "id": 7950308 },
        { "address": "吉野川", "city": "喜多郡内子町", "postcode": "791-3511", "prefecture": "愛媛県", "id": 7913511 },
        { "address": "論田", "city": "喜多郡内子町", "postcode": "791-3341", "prefecture": "愛媛県", "id": 7913341 },
        { "city": "西宇和郡伊方町", "postcode": "796-0300", "prefecture": "愛媛県", "id": 7960300 },
        { "address": "足成", "city": "西宇和郡伊方町", "postcode": "796-0501", "prefecture": "愛媛県", "id": 7960501 },
        {
            "address": "伊方越",
            "city": "西宇和郡伊方町",
            "postcode": "796-0304",
            "prefecture": "愛媛県",
            "id": 7960304
        },
        {
            "address": "井野浦",
            "city": "西宇和郡伊方町",
            "postcode": "796-0805",
            "prefecture": "愛媛県",
            "id": 7960805
        },
        { "address": "大江", "city": "西宇和郡伊方町", "postcode": "796-0503", "prefecture": "愛媛県", "id": 7960503 },
        { "address": "大久", "city": "西宇和郡伊方町", "postcode": "796-0612", "prefecture": "愛媛県", "id": 7960612 },
        {
            "address": "大佐田",
            "city": "西宇和郡伊方町",
            "postcode": "796-0804",
            "prefecture": "愛媛県",
            "id": 7960804
        },
        { "address": "大浜", "city": "西宇和郡伊方町", "postcode": "796-0308", "prefecture": "愛媛県", "id": 7960308 },
        { "address": "釜木", "city": "西宇和郡伊方町", "postcode": "796-0815", "prefecture": "愛媛県", "id": 7960815 },
        { "address": "亀浦", "city": "西宇和郡伊方町", "postcode": "796-0303", "prefecture": "愛媛県", "id": 7960303 },
        { "address": "河内", "city": "西宇和郡伊方町", "postcode": "796-0305", "prefecture": "愛媛県", "id": 7960305 },
        {
            "address": "川永田",
            "city": "西宇和郡伊方町",
            "postcode": "796-0312",
            "prefecture": "愛媛県",
            "id": 7960312
        },
        {
            "address": "川之浜",
            "city": "西宇和郡伊方町",
            "postcode": "796-0611",
            "prefecture": "愛媛県",
            "id": 7960611
        },
        { "address": "串", "city": "西宇和郡伊方町", "postcode": "796-0822", "prefecture": "愛媛県", "id": 7960822 },
        { "address": "九町", "city": "西宇和郡伊方町", "postcode": "796-0421", "prefecture": "愛媛県", "id": 7960421 },
        { "address": "神崎", "city": "西宇和郡伊方町", "postcode": "796-0613", "prefecture": "愛媛県", "id": 7960613 },
        { "address": "高茂", "city": "西宇和郡伊方町", "postcode": "796-0615", "prefecture": "愛媛県", "id": 7960615 },
        { "address": "小島", "city": "西宇和郡伊方町", "postcode": "796-0505", "prefecture": "愛媛県", "id": 7960505 },
        {
            "address": "小中浦",
            "city": "西宇和郡伊方町",
            "postcode": "796-0302",
            "prefecture": "愛媛県",
            "id": 7960302
        },
        { "address": "佐田", "city": "西宇和郡伊方町", "postcode": "796-0803", "prefecture": "愛媛県", "id": 7960803 },
        { "address": "塩成", "city": "西宇和郡伊方町", "postcode": "796-0506", "prefecture": "愛媛県", "id": 7960506 },
        { "address": "志津", "city": "西宇和郡伊方町", "postcode": "796-0504", "prefecture": "愛媛県", "id": 7960504 },
        { "address": "正野", "city": "西宇和郡伊方町", "postcode": "796-0823", "prefecture": "愛媛県", "id": 7960823 },
        { "address": "高浦", "city": "西宇和郡伊方町", "postcode": "796-0802", "prefecture": "愛媛県", "id": 7960802 },
        { "address": "田部", "city": "西宇和郡伊方町", "postcode": "796-0614", "prefecture": "愛媛県", "id": 7960614 },
        {
            "address": "豊之浦",
            "city": "西宇和郡伊方町",
            "postcode": "796-0313",
            "prefecture": "愛媛県",
            "id": 7960313
        },
        { "address": "中浦", "city": "西宇和郡伊方町", "postcode": "796-0311", "prefecture": "愛媛県", "id": 7960311 },
        {
            "address": "中之浜",
            "city": "西宇和郡伊方町",
            "postcode": "796-0307",
            "prefecture": "愛媛県",
            "id": 7960307
        },
        { "address": "名取", "city": "西宇和郡伊方町", "postcode": "796-0816", "prefecture": "愛媛県", "id": 7960816 },
        {
            "address": "仁田之浜",
            "city": "西宇和郡伊方町",
            "postcode": "796-0306",
            "prefecture": "愛媛県",
            "id": 7960306
        },
        { "address": "平礒", "city": "西宇和郡伊方町", "postcode": "796-0814", "prefecture": "愛媛県", "id": 7960814 },
        {
            "address": "二名津",
            "city": "西宇和郡伊方町",
            "postcode": "796-0813",
            "prefecture": "愛媛県",
            "id": 7960813
        },
        { "address": "二見", "city": "西宇和郡伊方町", "postcode": "796-0422", "prefecture": "愛媛県", "id": 7960422 },
        { "address": "松", "city": "西宇和郡伊方町", "postcode": "796-0811", "prefecture": "愛媛県", "id": 7960811 },
        { "address": "三崎", "city": "西宇和郡伊方町", "postcode": "796-0801", "prefecture": "愛媛県", "id": 7960801 },
        { "address": "三机", "city": "西宇和郡伊方町", "postcode": "796-0502", "prefecture": "愛媛県", "id": 7960502 },
        { "address": "湊浦", "city": "西宇和郡伊方町", "postcode": "796-0301", "prefecture": "愛媛県", "id": 7960301 },
        { "address": "明神", "city": "西宇和郡伊方町", "postcode": "796-0812", "prefecture": "愛媛県", "id": 7960812 },
        { "address": "与侈", "city": "西宇和郡伊方町", "postcode": "796-0821", "prefecture": "愛媛県", "id": 7960821 },
        { "city": "北宇和郡松野町", "postcode": "798-2100", "prefecture": "愛媛県", "id": 7982100 },
        {
            "address": "奥野川",
            "city": "北宇和郡松野町",
            "postcode": "798-2113",
            "prefecture": "愛媛県",
            "id": 7982113
        },
        {
            "address": "上家地",
            "city": "北宇和郡松野町",
            "postcode": "798-2105",
            "prefecture": "愛媛県",
            "id": 7982105
        },
        { "address": "富岡", "city": "北宇和郡松野町", "postcode": "798-2104", "prefecture": "愛媛県", "id": 7982104 },
        { "address": "豊岡", "city": "北宇和郡松野町", "postcode": "798-2103", "prefecture": "愛媛県", "id": 7982103 },
        {
            "address": "延野々",
            "city": "北宇和郡松野町",
            "postcode": "798-2102",
            "prefecture": "愛媛県",
            "id": 7982102
        },
        { "address": "松丸", "city": "北宇和郡松野町", "postcode": "798-2101", "prefecture": "愛媛県", "id": 7982101 },
        { "address": "目黒", "city": "北宇和郡松野町", "postcode": "798-2106", "prefecture": "愛媛県", "id": 7982106 },
        { "address": "吉野", "city": "北宇和郡松野町", "postcode": "798-2111", "prefecture": "愛媛県", "id": 7982111 },
        { "address": "蕨生", "city": "北宇和郡松野町", "postcode": "798-2112", "prefecture": "愛媛県", "id": 7982112 },
        { "city": "北宇和郡鬼北町", "postcode": "798-1300", "prefecture": "愛媛県", "id": 7981300 },
        { "address": "畔屋", "city": "北宇和郡鬼北町", "postcode": "798-1375", "prefecture": "愛媛県", "id": 7981375 },
        { "address": "生田", "city": "北宇和郡鬼北町", "postcode": "798-1371", "prefecture": "愛媛県", "id": 7981371 },
        { "address": "出目", "city": "北宇和郡鬼北町", "postcode": "798-1332", "prefecture": "愛媛県", "id": 7981332 },
        { "address": "岩谷", "city": "北宇和郡鬼北町", "postcode": "798-1323", "prefecture": "愛媛県", "id": 7981323 },
        {
            "address": "内深田",
            "city": "北宇和郡鬼北町",
            "postcode": "798-1363",
            "prefecture": "愛媛県",
            "id": 7981363
        },
        { "address": "大宿", "city": "北宇和郡鬼北町", "postcode": "798-1301", "prefecture": "愛媛県", "id": 7981301 },
        {
            "address": "興野々",
            "city": "北宇和郡鬼北町",
            "postcode": "798-1331",
            "prefecture": "愛媛県",
            "id": 7981331
        },
        { "address": "小倉", "city": "北宇和郡鬼北町", "postcode": "798-1321", "prefecture": "愛媛県", "id": 7981321 },
        {
            "address": "上大野",
            "city": "北宇和郡鬼北町",
            "postcode": "798-1503",
            "prefecture": "愛媛県",
            "id": 7981503
        },
        {
            "address": "上鍵山",
            "city": "北宇和郡鬼北町",
            "postcode": "798-1501",
            "prefecture": "愛媛県",
            "id": 7981501
        },
        { "address": "上川", "city": "北宇和郡鬼北町", "postcode": "798-1322", "prefecture": "愛媛県", "id": 7981322 },
        { "address": "川上", "city": "北宇和郡鬼北町", "postcode": "798-1312", "prefecture": "愛媛県", "id": 7981312 },
        { "address": "北川", "city": "北宇和郡鬼北町", "postcode": "798-1354", "prefecture": "愛媛県", "id": 7981354 },
        { "address": "清延", "city": "北宇和郡鬼北町", "postcode": "798-1362", "prefecture": "愛媛県", "id": 7981362 },
        { "address": "国遠", "city": "北宇和郡鬼北町", "postcode": "798-1361", "prefecture": "愛媛県", "id": 7981361 },
        { "address": "久保", "city": "北宇和郡鬼北町", "postcode": "798-1314", "prefecture": "愛媛県", "id": 7981314 },
        {
            "address": "小西野々",
            "city": "北宇和郡鬼北町",
            "postcode": "798-1324",
            "prefecture": "愛媛県",
            "id": 7981324
        },
        { "address": "小松", "city": "北宇和郡鬼北町", "postcode": "798-1311", "prefecture": "愛媛県", "id": 7981311 },
        { "address": "沢松", "city": "北宇和郡鬼北町", "postcode": "798-1367", "prefecture": "愛媛県", "id": 7981367 },
        { "address": "芝", "city": "北宇和郡鬼北町", "postcode": "798-1355", "prefecture": "愛媛県", "id": 7981355 },
        {
            "address": "下大野",
            "city": "北宇和郡鬼北町",
            "postcode": "798-1302",
            "prefecture": "愛媛県",
            "id": 7981302
        },
        {
            "address": "下鍵山",
            "city": "北宇和郡鬼北町",
            "postcode": "798-1502",
            "prefecture": "愛媛県",
            "id": 7981502
        },
        { "address": "清水", "city": "北宇和郡鬼北町", "postcode": "798-1373", "prefecture": "愛媛県", "id": 7981373 },
        { "address": "近永", "city": "北宇和郡鬼北町", "postcode": "798-1341", "prefecture": "愛媛県", "id": 7981341 },
        { "address": "近永", "city": "北宇和郡鬼北町", "postcode": "798-1342", "prefecture": "愛媛県", "id": 7981342 },
        { "address": "近永", "city": "北宇和郡鬼北町", "postcode": "798-1343", "prefecture": "愛媛県", "id": 7981343 },
        { "address": "近永", "city": "北宇和郡鬼北町", "postcode": "798-1344", "prefecture": "愛媛県", "id": 7981344 },
        { "address": "近永", "city": "北宇和郡鬼北町", "postcode": "798-1345", "prefecture": "愛媛県", "id": 7981345 },
        {
            "address": "父野川上",
            "city": "北宇和郡鬼北町",
            "postcode": "798-1505",
            "prefecture": "愛媛県",
            "id": 7981505
        },
        {
            "address": "父野川中",
            "city": "北宇和郡鬼北町",
            "postcode": "798-1506",
            "prefecture": "愛媛県",
            "id": 7981506
        },
        {
            "address": "父野川下",
            "city": "北宇和郡鬼北町",
            "postcode": "798-1507",
            "prefecture": "愛媛県",
            "id": 7981507
        },
        {
            "address": "永野市",
            "city": "北宇和郡鬼北町",
            "postcode": "798-1333",
            "prefecture": "愛媛県",
            "id": 7981333
        },
        {
            "address": "中野川",
            "city": "北宇和郡鬼北町",
            "postcode": "798-1356",
            "prefecture": "愛媛県",
            "id": 7981356
        },
        { "address": "奈良", "city": "北宇和郡鬼北町", "postcode": "798-1352", "prefecture": "愛媛県", "id": 7981352 },
        { "address": "奈良", "city": "北宇和郡鬼北町", "postcode": "798-1353", "prefecture": "愛媛県", "id": 7981353 },
        { "address": "奈良", "city": "北宇和郡鬼北町", "postcode": "798-1351", "prefecture": "愛媛県", "id": 7981351 },
        { "address": "成藤", "city": "北宇和郡鬼北町", "postcode": "798-1374", "prefecture": "愛媛県", "id": 7981374 },
        { "address": "西仲", "city": "北宇和郡鬼北町", "postcode": "798-1365", "prefecture": "愛媛県", "id": 7981365 },
        {
            "address": "西野々",
            "city": "北宇和郡鬼北町",
            "postcode": "798-1372",
            "prefecture": "愛媛県",
            "id": 7981372
        },
        { "address": "延川", "city": "北宇和郡鬼北町", "postcode": "798-1313", "prefecture": "愛媛県", "id": 7981313 },
        { "address": "東仲", "city": "北宇和郡鬼北町", "postcode": "798-1366", "prefecture": "愛媛県", "id": 7981366 },
        {
            "address": "日向谷",
            "city": "北宇和郡鬼北町",
            "postcode": "798-1504",
            "prefecture": "愛媛県",
            "id": 7981504
        },
        { "address": "広見", "city": "北宇和郡鬼北町", "postcode": "798-1303", "prefecture": "愛媛県", "id": 7981303 },
        { "address": "吉波", "city": "北宇和郡鬼北町", "postcode": "798-1364", "prefecture": "愛媛県", "id": 7981364 },
        { "city": "南宇和郡愛南町", "postcode": "798-4100", "prefecture": "愛媛県", "id": 7984100 },
        { "address": "赤水", "city": "南宇和郡愛南町", "postcode": "798-4123", "prefecture": "愛媛県", "id": 7984123 },
        { "address": "網代", "city": "南宇和郡愛南町", "postcode": "798-3708", "prefecture": "愛媛県", "id": 7983708 },
        { "address": "敦盛", "city": "南宇和郡愛南町", "postcode": "798-4345", "prefecture": "愛媛県", "id": 7984345 },
        { "address": "家串", "city": "南宇和郡愛南町", "postcode": "798-3705", "prefecture": "愛媛県", "id": 7983705 },
        {
            "address": "一本松",
            "city": "南宇和郡愛南町",
            "postcode": "798-4408",
            "prefecture": "愛媛県",
            "id": 7984408
        },
        { "address": "鯆越", "city": "南宇和郡愛南町", "postcode": "798-4351", "prefecture": "愛媛県", "id": 7984351 },
        { "address": "岩水", "city": "南宇和郡愛南町", "postcode": "798-4344", "prefecture": "愛媛県", "id": 7984344 },
        { "address": "内泊", "city": "南宇和郡愛南町", "postcode": "798-4206", "prefecture": "愛媛県", "id": 7984206 },
        {
            "address": "上大道",
            "city": "南宇和郡愛南町",
            "postcode": "798-4407",
            "prefecture": "愛媛県",
            "id": 7984407
        },
        {
            "address": "大成川",
            "city": "南宇和郡愛南町",
            "postcode": "798-4214",
            "prefecture": "愛媛県",
            "id": 7984214
        },
        { "address": "大浜", "city": "南宇和郡愛南町", "postcode": "798-4347", "prefecture": "愛媛県", "id": 7984347 },
        { "address": "垣内", "city": "南宇和郡愛南町", "postcode": "798-4343", "prefecture": "愛媛県", "id": 7984343 },
        {
            "address": "柿ノ浦",
            "city": "南宇和郡愛南町",
            "postcode": "798-4346",
            "prefecture": "愛媛県",
            "id": 7984346
        },
        { "address": "樫月", "city": "南宇和郡愛南町", "postcode": "798-4204", "prefecture": "愛媛県", "id": 7984204 },
        { "address": "鹿島", "city": "南宇和郡愛南町", "postcode": "798-4209", "prefecture": "愛媛県", "id": 7984209 },
        { "address": "柏", "city": "南宇和郡愛南町", "postcode": "798-3701", "prefecture": "愛媛県", "id": 7983701 },
        { "address": "柏崎", "city": "南宇和郡愛南町", "postcode": "798-3702", "prefecture": "愛媛県", "id": 7983702 },
        { "address": "高茂", "city": "南宇和郡愛南町", "postcode": "798-4219", "prefecture": "愛媛県", "id": 7984219 },
        { "address": "小浦", "city": "南宇和郡愛南町", "postcode": "798-4203", "prefecture": "愛媛県", "id": 7984203 },
        { "address": "越田", "city": "南宇和郡愛南町", "postcode": "798-4201", "prefecture": "愛媛県", "id": 7984201 },
        {
            "address": "小成川",
            "city": "南宇和郡愛南町",
            "postcode": "798-4215",
            "prefecture": "愛媛県",
            "id": 7984215
        },
        { "address": "小山", "city": "南宇和郡愛南町", "postcode": "798-4403", "prefecture": "愛媛県", "id": 7984403 },
        { "address": "猿鳴", "city": "南宇和郡愛南町", "postcode": "798-4126", "prefecture": "愛媛県", "id": 7984126 },
        {
            "address": "下久家",
            "city": "南宇和郡愛南町",
            "postcode": "798-4212",
            "prefecture": "愛媛県",
            "id": 7984212
        },
        {
            "address": "城辺甲",
            "city": "南宇和郡愛南町",
            "postcode": "798-4131",
            "prefecture": "愛媛県",
            "id": 7984131
        },
        {
            "address": "城辺乙",
            "city": "南宇和郡愛南町",
            "postcode": "798-4132",
            "prefecture": "愛媛県",
            "id": 7984132
        },
        {
            "address": "須ノ川",
            "city": "南宇和郡愛南町",
            "postcode": "798-3703",
            "prefecture": "愛媛県",
            "id": 7983703
        },
        { "address": "僧都", "city": "南宇和郡愛南町", "postcode": "798-4136", "prefecture": "愛媛県", "id": 7984136 },
        { "address": "外泊", "city": "南宇和郡愛南町", "postcode": "798-4208", "prefecture": "愛媛県", "id": 7984208 },
        { "address": "高畑", "city": "南宇和郡愛南町", "postcode": "798-4124", "prefecture": "愛媛県", "id": 7984124 },
        { "address": "樽見", "city": "南宇和郡愛南町", "postcode": "798-4213", "prefecture": "愛媛県", "id": 7984213 },
        { "address": "中浦", "city": "南宇和郡愛南町", "postcode": "798-4125", "prefecture": "愛媛県", "id": 7984125 },
        { "address": "中玉", "city": "南宇和郡愛南町", "postcode": "798-4348", "prefecture": "愛媛県", "id": 7984348 },
        { "address": "中泊", "city": "南宇和郡愛南町", "postcode": "798-4207", "prefecture": "愛媛県", "id": 7984207 },
        { "address": "中川", "city": "南宇和郡愛南町", "postcode": "798-4404", "prefecture": "愛媛県", "id": 7984404 },
        {
            "address": "魚神山",
            "city": "南宇和郡愛南町",
            "postcode": "798-3707",
            "prefecture": "愛媛県",
            "id": 7983707
        },
        { "address": "久家", "city": "南宇和郡愛南町", "postcode": "798-4211", "prefecture": "愛媛県", "id": 7984211 },
        { "address": "久良", "city": "南宇和郡愛南町", "postcode": "798-4353", "prefecture": "愛媛県", "id": 7984353 },
        { "address": "平碆", "city": "南宇和郡愛南町", "postcode": "798-3704", "prefecture": "愛媛県", "id": 7983704 },
        { "address": "広見", "city": "南宇和郡愛南町", "postcode": "798-4406", "prefecture": "愛媛県", "id": 7984406 },
        { "address": "深浦", "city": "南宇和郡愛南町", "postcode": "798-4342", "prefecture": "愛媛県", "id": 7984342 },
        { "address": "福浦", "city": "南宇和郡愛南町", "postcode": "798-4216", "prefecture": "愛媛県", "id": 7984216 },
        { "address": "船越", "city": "南宇和郡愛南町", "postcode": "798-4205", "prefecture": "愛媛県", "id": 7984205 },
        { "address": "古月", "city": "南宇和郡愛南町", "postcode": "798-4352", "prefecture": "愛媛県", "id": 7984352 },
        {
            "address": "防城成川",
            "city": "南宇和郡愛南町",
            "postcode": "798-4122",
            "prefecture": "愛媛県",
            "id": 7984122
        },
        { "address": "正木", "city": "南宇和郡愛南町", "postcode": "798-4401", "prefecture": "愛媛県", "id": 7984401 },
        { "address": "増田", "city": "南宇和郡愛南町", "postcode": "798-4402", "prefecture": "愛媛県", "id": 7984402 },
        {
            "address": "御荘菊川",
            "city": "南宇和郡愛南町",
            "postcode": "798-4101",
            "prefecture": "愛媛県",
            "id": 7984101
        },
        {
            "address": "御荘長洲",
            "city": "南宇和郡愛南町",
            "postcode": "798-4103",
            "prefecture": "愛媛県",
            "id": 7984103
        },
        {
            "address": "御荘長月",
            "city": "南宇和郡愛南町",
            "postcode": "798-4105",
            "prefecture": "愛媛県",
            "id": 7984105
        },
        {
            "address": "御荘平城",
            "city": "南宇和郡愛南町",
            "postcode": "798-4110",
            "prefecture": "愛媛県",
            "id": 7984110
        },
        {
            "address": "御荘平山",
            "city": "南宇和郡愛南町",
            "postcode": "798-4102",
            "prefecture": "愛媛県",
            "id": 7984102
        },
        {
            "address": "御荘深泥",
            "city": "南宇和郡愛南町",
            "postcode": "798-4121",
            "prefecture": "愛媛県",
            "id": 7984121
        },
        {
            "address": "御荘和口",
            "city": "南宇和郡愛南町",
            "postcode": "798-4104",
            "prefecture": "愛媛県",
            "id": 7984104
        },
        { "address": "満倉", "city": "南宇和郡愛南町", "postcode": "798-4405", "prefecture": "愛媛県", "id": 7984405 },
        { "address": "緑甲", "city": "南宇和郡愛南町", "postcode": "798-4134", "prefecture": "愛媛県", "id": 7984134 },
        { "address": "緑乙", "city": "南宇和郡愛南町", "postcode": "798-4133", "prefecture": "愛媛県", "id": 7984133 },
        { "address": "緑丙", "city": "南宇和郡愛南町", "postcode": "798-4135", "prefecture": "愛媛県", "id": 7984135 },
        {
            "address": "麦ケ浦",
            "city": "南宇和郡愛南町",
            "postcode": "798-4217",
            "prefecture": "愛媛県",
            "id": 7984217
        },
        {
            "address": "武者泊",
            "city": "南宇和郡愛南町",
            "postcode": "798-4218",
            "prefecture": "愛媛県",
            "id": 7984218
        },
        { "address": "油袋", "city": "南宇和郡愛南町", "postcode": "798-3706", "prefecture": "愛媛県", "id": 7983706 },
        { "address": "弓立", "city": "南宇和郡愛南町", "postcode": "798-4202", "prefecture": "愛媛県", "id": 7984202 },
        {
            "address": "蓮乗寺",
            "city": "南宇和郡愛南町",
            "postcode": "798-4341",
            "prefecture": "愛媛県",
            "id": 7984341
        },
        { "address": "脇本", "city": "南宇和郡愛南町", "postcode": "798-4349", "prefecture": "愛媛県", "id": 7984349 }
    ]
}
