{
    "postcodes": [
        { "city": "宇都宮市", "postcode": "321-0000", "prefecture": "栃木県", "id": 3210000 },
        { "address": "相野沢町", "city": "宇都宮市", "postcode": "329-1113", "prefecture": "栃木県", "id": 3291113 },
        { "address": "明保野町", "city": "宇都宮市", "postcode": "320-0845", "prefecture": "栃木県", "id": 3200845 },
        { "address": "旭", "city": "宇都宮市", "postcode": "320-0818", "prefecture": "栃木県", "id": 3200818 },
        { "address": "芦沼町", "city": "宇都宮市", "postcode": "321-0404", "prefecture": "栃木県", "id": 3210404 },
        { "address": "飯田町", "city": "宇都宮市", "postcode": "321-0347", "prefecture": "栃木県", "id": 3210347 },
        { "address": "飯山町", "city": "宇都宮市", "postcode": "321-2101", "prefecture": "栃木県", "id": 3212101 },
        { "address": "池上町", "city": "宇都宮市", "postcode": "320-0801", "prefecture": "栃木県", "id": 3200801 },
        { "address": "石井町", "city": "宇都宮市", "postcode": "321-0912", "prefecture": "栃木県", "id": 3210912 },
        { "address": "石那田町", "city": "宇都宮市", "postcode": "321-2103", "prefecture": "栃木県", "id": 3212103 },
        { "address": "泉が丘", "city": "宇都宮市", "postcode": "321-0952", "prefecture": "栃木県", "id": 3210952 },
        { "address": "泉町", "city": "宇都宮市", "postcode": "320-0034", "prefecture": "栃木県", "id": 3200034 },
        { "address": "板戸町", "city": "宇都宮市", "postcode": "321-3221", "prefecture": "栃木県", "id": 3213221 },
        { "address": "一条", "city": "宇都宮市", "postcode": "320-0821", "prefecture": "栃木県", "id": 3200821 },
        { "address": "一の沢", "city": "宇都宮市", "postcode": "320-0047", "prefecture": "栃木県", "id": 3200047 },
        { "address": "一ノ沢町", "city": "宇都宮市", "postcode": "320-0049", "prefecture": "栃木県", "id": 3200049 },
        { "address": "一番町", "city": "宇都宮市", "postcode": "320-0812", "prefecture": "栃木県", "id": 3200812 },
        { "address": "今泉", "city": "宇都宮市", "postcode": "321-0966", "prefecture": "栃木県", "id": 3210966 },
        { "address": "今泉新町", "city": "宇都宮市", "postcode": "321-0961", "prefecture": "栃木県", "id": 3210961 },
        { "address": "今泉町", "city": "宇都宮市", "postcode": "321-0962", "prefecture": "栃木県", "id": 3210962 },
        { "address": "今里町", "city": "宇都宮市", "postcode": "321-0402", "prefecture": "栃木県", "id": 3210402 },
        { "address": "今宮", "city": "宇都宮市", "postcode": "321-0166", "prefecture": "栃木県", "id": 3210166 },
        { "address": "岩曽町", "city": "宇都宮市", "postcode": "321-0973", "prefecture": "栃木県", "id": 3210973 },
        { "address": "岩原町", "city": "宇都宮市", "postcode": "321-2117", "prefecture": "栃木県", "id": 3212117 },
        { "address": "岩本町", "city": "宇都宮市", "postcode": "321-0976", "prefecture": "栃木県", "id": 3210976 },
        {
            "address": "インターパーク",
            "city": "宇都宮市",
            "postcode": "321-0118",
            "prefecture": "栃木県",
            "id": 3210118
        },
        { "address": "上野町", "city": "宇都宮市", "postcode": "321-0981", "prefecture": "栃木県", "id": 3210981 },
        { "address": "上田町", "city": "宇都宮市", "postcode": "321-0405", "prefecture": "栃木県", "id": 3210405 },
        { "address": "駅前通り", "city": "宇都宮市", "postcode": "321-0964", "prefecture": "栃木県", "id": 3210964 },
        { "address": "江曽島", "city": "宇都宮市", "postcode": "321-0107", "prefecture": "栃木県", "id": 3210107 },
        { "address": "江曽島本町", "city": "宇都宮市", "postcode": "321-0101", "prefecture": "栃木県", "id": 3210101 },
        { "address": "江曽島町", "city": "宇都宮市", "postcode": "321-0102", "prefecture": "栃木県", "id": 3210102 },
        { "address": "江野町", "city": "宇都宮市", "postcode": "320-0802", "prefecture": "栃木県", "id": 3200802 },
        { "address": "大網町", "city": "宇都宮市", "postcode": "321-2111", "prefecture": "栃木県", "id": 3212111 },
        { "address": "大曽", "city": "宇都宮市", "postcode": "320-0014", "prefecture": "栃木県", "id": 3200014 },
        { "address": "大塚町", "city": "宇都宮市", "postcode": "321-0161", "prefecture": "栃木県", "id": 3210161 },
        { "address": "大通り", "city": "宇都宮市", "postcode": "320-0811", "prefecture": "栃木県", "id": 3200811 },
        { "address": "大谷町", "city": "宇都宮市", "postcode": "321-0345", "prefecture": "栃木県", "id": 3210345 },
        { "address": "御蔵町", "city": "宇都宮市", "postcode": "320-0823", "prefecture": "栃木県", "id": 3200823 },
        { "address": "小幡", "city": "宇都宮市", "postcode": "320-0036", "prefecture": "栃木県", "id": 3200036 },
        { "address": "海道町", "city": "宇都宮市", "postcode": "321-0971", "prefecture": "栃木県", "id": 3210971 },
        { "address": "春日町", "city": "宇都宮市", "postcode": "321-0108", "prefecture": "栃木県", "id": 3210108 },
        { "address": "金田町", "city": "宇都宮市", "postcode": "321-0406", "prefecture": "栃木県", "id": 3210406 },
        { "address": "叶谷町", "city": "宇都宮市", "postcode": "329-1117", "prefecture": "栃木県", "id": 3291117 },
        { "address": "上大曽町", "city": "宇都宮市", "postcode": "320-0013", "prefecture": "栃木県", "id": 3200013 },
        { "address": "上大塚町", "city": "宇都宮市", "postcode": "329-1106", "prefecture": "栃木県", "id": 3291106 },
        { "address": "上欠町", "city": "宇都宮市", "postcode": "320-0855", "prefecture": "栃木県", "id": 3200855 },
        { "address": "上金井町", "city": "宇都宮市", "postcode": "321-2115", "prefecture": "栃木県", "id": 3212115 },
        { "address": "上桑島町", "city": "宇都宮市", "postcode": "321-0913", "prefecture": "栃木県", "id": 3210913 },
        { "address": "上小池町", "city": "宇都宮市", "postcode": "321-2104", "prefecture": "栃木県", "id": 3212104 },
        { "address": "上小倉町", "city": "宇都宮市", "postcode": "321-0401", "prefecture": "栃木県", "id": 3210401 },
        { "address": "上籠谷町", "city": "宇都宮市", "postcode": "321-3233", "prefecture": "栃木県", "id": 3213233 },
        { "address": "上田原町", "city": "宇都宮市", "postcode": "329-1112", "prefecture": "栃木県", "id": 3291112 },
        { "address": "上戸祭", "city": "宇都宮市", "postcode": "320-0058", "prefecture": "栃木県", "id": 3200058 },
        { "address": "上戸祭町", "city": "宇都宮市", "postcode": "320-0051", "prefecture": "栃木県", "id": 3200051 },
        { "address": "上御田町", "city": "宇都宮市", "postcode": "321-0115", "prefecture": "栃木県", "id": 3210115 },
        { "address": "上横倉町", "city": "宇都宮市", "postcode": "321-2112", "prefecture": "栃木県", "id": 3212112 },
        { "address": "上横田町", "city": "宇都宮市", "postcode": "321-0106", "prefecture": "栃木県", "id": 3210106 },
        { "address": "刈沼町", "city": "宇都宮市", "postcode": "321-3224", "prefecture": "栃木県", "id": 3213224 },
        { "address": "川田町", "city": "宇都宮市", "postcode": "321-0111", "prefecture": "栃木県", "id": 3210111 },
        { "address": "川俣町", "city": "宇都宮市", "postcode": "321-0977", "prefecture": "栃木県", "id": 3210977 },
        { "address": "川向町", "city": "宇都宮市", "postcode": "321-0965", "prefecture": "栃木県", "id": 3210965 },
        { "address": "河原町", "city": "宇都宮市", "postcode": "320-0822", "prefecture": "栃木県", "id": 3200822 },
        { "address": "瓦谷町", "city": "宇都宮市", "postcode": "320-0002", "prefecture": "栃木県", "id": 3200002 },
        { "address": "関白町", "city": "宇都宮市", "postcode": "321-0412", "prefecture": "栃木県", "id": 3210412 },
        { "address": "菊水町", "city": "宇都宮市", "postcode": "320-0844", "prefecture": "栃木県", "id": 3200844 },
        { "address": "北一の沢町", "city": "宇都宮市", "postcode": "320-0048", "prefecture": "栃木県", "id": 3200048 },
        { "address": "北若松原", "city": "宇都宮市", "postcode": "321-0153", "prefecture": "栃木県", "id": 3210153 },
        { "address": "京町", "city": "宇都宮市", "postcode": "320-0842", "prefecture": "栃木県", "id": 3200842 },
        { "address": "清住", "city": "宇都宮市", "postcode": "320-0037", "prefecture": "栃木県", "id": 3200037 },
        {
            "address": "清原工業団地",
            "city": "宇都宮市",
            "postcode": "321-3231",
            "prefecture": "栃木県",
            "id": 3213231
        },
        { "address": "清原台", "city": "宇都宮市", "postcode": "321-3223", "prefecture": "栃木県", "id": 3213223 },
        { "address": "桑島町", "city": "宇都宮市", "postcode": "321-3234", "prefecture": "栃木県", "id": 3213234 },
        { "address": "越戸", "city": "宇都宮市", "postcode": "321-0951", "prefecture": "栃木県", "id": 3210951 },
        { "address": "古賀志町", "city": "宇都宮市", "postcode": "321-0341", "prefecture": "栃木県", "id": 3210341 },
        { "address": "五代", "city": "宇都宮市", "postcode": "321-0135", "prefecture": "栃木県", "id": 3210135 },
        { "address": "鐺山町", "city": "宇都宮市", "postcode": "321-3235", "prefecture": "栃木県", "id": 3213235 },
        { "address": "駒生", "city": "宇都宮市", "postcode": "320-0066", "prefecture": "栃木県", "id": 3200066 },
        { "address": "駒生町", "city": "宇都宮市", "postcode": "320-0065", "prefecture": "栃木県", "id": 3200065 },
        { "address": "材木町", "city": "宇都宮市", "postcode": "320-0042", "prefecture": "栃木県", "id": 3200042 },
        { "address": "幸町", "city": "宇都宮市", "postcode": "320-0848", "prefecture": "栃木県", "id": 3200848 },
        { "address": "栄町", "city": "宇都宮市", "postcode": "320-0024", "prefecture": "栃木県", "id": 3200024 },
        { "address": "逆面町", "city": "宇都宮市", "postcode": "329-1111", "prefecture": "栃木県", "id": 3291111 },
        { "address": "鷺の谷町", "city": "宇都宮市", "postcode": "320-0854", "prefecture": "栃木県", "id": 3200854 },
        { "address": "桜", "city": "宇都宮市", "postcode": "320-0043", "prefecture": "栃木県", "id": 3200043 },
        { "address": "下ケ橋町", "city": "宇都宮市", "postcode": "329-1101", "prefecture": "栃木県", "id": 3291101 },
        { "address": "さつき", "city": "宇都宮市", "postcode": "321-0141", "prefecture": "栃木県", "id": 3210141 },
        { "address": "さるやま町", "city": "宇都宮市", "postcode": "321-0922", "prefecture": "栃木県", "id": 3210922 },
        { "address": "三番町", "city": "宇都宮市", "postcode": "320-0814", "prefecture": "栃木県", "id": 3200814 },
        { "address": "篠井町", "city": "宇都宮市", "postcode": "321-2102", "prefecture": "栃木県", "id": 3212102 },
        { "address": "下荒針町", "city": "宇都宮市", "postcode": "321-0346", "prefecture": "栃木県", "id": 3210346 },
        { "address": "下岡本町", "city": "宇都宮市", "postcode": "329-1104", "prefecture": "栃木県", "id": 3291104 },
        { "address": "下欠町", "city": "宇都宮市", "postcode": "320-0853", "prefecture": "栃木県", "id": 3200853 },
        { "address": "下金井町", "city": "宇都宮市", "postcode": "321-2114", "prefecture": "栃木県", "id": 3212114 },
        { "address": "下川俣町", "city": "宇都宮市", "postcode": "321-0972", "prefecture": "栃木県", "id": 3210972 },
        { "address": "下河原", "city": "宇都宮市", "postcode": "320-0824", "prefecture": "栃木県", "id": 3200824 },
        { "address": "下河原町", "city": "宇都宮市", "postcode": "320-0825", "prefecture": "栃木県", "id": 3200825 },
        { "address": "下桑島町", "city": "宇都宮市", "postcode": "321-0914", "prefecture": "栃木県", "id": 3210914 },
        { "address": "下栗", "city": "宇都宮市", "postcode": "321-0924", "prefecture": "栃木県", "id": 3210924 },
        { "address": "下栗町", "city": "宇都宮市", "postcode": "321-0923", "prefecture": "栃木県", "id": 3210923 },
        { "address": "下小池町", "city": "宇都宮市", "postcode": "321-2105", "prefecture": "栃木県", "id": 3212105 },
        { "address": "下小倉町", "city": "宇都宮市", "postcode": "321-0403", "prefecture": "栃木県", "id": 3210403 },
        { "address": "下反町町", "city": "宇都宮市", "postcode": "321-0122", "prefecture": "栃木県", "id": 3210122 },
        { "address": "下田原町", "city": "宇都宮市", "postcode": "329-1115", "prefecture": "栃木県", "id": 3291115 },
        { "address": "下砥上町", "city": "宇都宮市", "postcode": "320-0852", "prefecture": "栃木県", "id": 3200852 },
        { "address": "下戸祭", "city": "宇都宮市", "postcode": "320-0055", "prefecture": "栃木県", "id": 3200055 },
        { "address": "下平出町", "city": "宇都宮市", "postcode": "321-0903", "prefecture": "栃木県", "id": 3210903 },
        { "address": "下横倉町", "city": "宇都宮市", "postcode": "321-2113", "prefecture": "栃木県", "id": 3212113 },
        { "address": "下横田町", "city": "宇都宮市", "postcode": "321-0124", "prefecture": "栃木県", "id": 3210124 },
        { "address": "宿郷", "city": "宇都宮市", "postcode": "321-0945", "prefecture": "栃木県", "id": 3210945 },
        { "address": "城東", "city": "宇都宮市", "postcode": "321-0935", "prefecture": "栃木県", "id": 3210935 },
        { "address": "城南", "city": "宇都宮市", "postcode": "321-0117", "prefecture": "栃木県", "id": 3210117 },
        { "address": "松風台", "city": "宇都宮市", "postcode": "321-0413", "prefecture": "栃木県", "id": 3210413 },
        { "address": "昭和", "city": "宇都宮市", "postcode": "320-0032", "prefecture": "栃木県", "id": 3200032 },
        { "address": "白沢町", "city": "宇都宮市", "postcode": "329-1102", "prefecture": "栃木県", "id": 3291102 },
        { "address": "新富町", "city": "宇都宮市", "postcode": "321-0133", "prefecture": "栃木県", "id": 3210133 },
        { "address": "新町", "city": "宇都宮市", "postcode": "320-0831", "prefecture": "栃木県", "id": 3200831 },
        { "address": "末広", "city": "宇都宮市", "postcode": "321-0144", "prefecture": "栃木県", "id": 3210144 },
        { "address": "雀の宮", "city": "宇都宮市", "postcode": "321-0132", "prefecture": "栃木県", "id": 3210132 },
        { "address": "雀宮町", "city": "宇都宮市", "postcode": "321-0121", "prefecture": "栃木県", "id": 3210121 },
        { "address": "砂田町", "city": "宇都宮市", "postcode": "321-0113", "prefecture": "栃木県", "id": 3210113 },
        { "address": "住吉町", "city": "宇都宮市", "postcode": "320-0864", "prefecture": "栃木県", "id": 3200864 },
        { "address": "関堀町", "city": "宇都宮市", "postcode": "321-0975", "prefecture": "栃木県", "id": 3210975 },
        { "address": "千波町", "city": "宇都宮市", "postcode": "320-0022", "prefecture": "栃木県", "id": 3200022 },
        { "address": "大寛", "city": "宇都宮市", "postcode": "320-0867", "prefecture": "栃木県", "id": 3200867 },
        { "address": "台新田", "city": "宇都宮市", "postcode": "321-0104", "prefecture": "栃木県", "id": 3210104 },
        { "address": "台新田町", "city": "宇都宮市", "postcode": "321-0103", "prefecture": "栃木県", "id": 3210103 },
        { "address": "高砂町", "city": "宇都宮市", "postcode": "321-0134", "prefecture": "栃木県", "id": 3210134 },
        { "address": "高松町", "city": "宇都宮市", "postcode": "321-0416", "prefecture": "栃木県", "id": 3210416 },
        { "address": "宝井町", "city": "宇都宮市", "postcode": "329-1114", "prefecture": "栃木県", "id": 3291114 },
        { "address": "宝木町", "city": "宇都宮市", "postcode": "320-0061", "prefecture": "栃木県", "id": 3200061 },
        { "address": "宝木本町", "city": "宇都宮市", "postcode": "320-0075", "prefecture": "栃木県", "id": 3200075 },
        { "address": "滝の原", "city": "宇都宮市", "postcode": "320-0846", "prefecture": "栃木県", "id": 3200846 },
        { "address": "滝谷町", "city": "宇都宮市", "postcode": "320-0847", "prefecture": "栃木県", "id": 3200847 },
        { "address": "竹下町", "city": "宇都宮市", "postcode": "321-3236", "prefecture": "栃木県", "id": 3213236 },
        { "address": "竹林町", "city": "宇都宮市", "postcode": "321-0974", "prefecture": "栃木県", "id": 3210974 },
        { "address": "田下町", "city": "宇都宮市", "postcode": "321-0343", "prefecture": "栃木県", "id": 3210343 },
        { "address": "田野町", "city": "宇都宮市", "postcode": "321-0344", "prefecture": "栃木県", "id": 3210344 },
        { "address": "中央", "city": "宇都宮市", "postcode": "320-0806", "prefecture": "栃木県", "id": 3200806 },
        { "address": "中央本町", "city": "宇都宮市", "postcode": "320-0805", "prefecture": "栃木県", "id": 3200805 },
        { "address": "鶴田", "city": "宇都宮市", "postcode": "320-0857", "prefecture": "栃木県", "id": 3200857 },
        { "address": "鶴田町", "city": "宇都宮市", "postcode": "320-0851", "prefecture": "栃木県", "id": 3200851 },
        { "address": "天神", "city": "宇都宮市", "postcode": "320-0816", "prefecture": "栃木県", "id": 3200816 },
        { "address": "伝馬町", "city": "宇都宮市", "postcode": "320-0035", "prefecture": "栃木県", "id": 3200035 },
        { "address": "道場宿町", "city": "宇都宮市", "postcode": "321-3237", "prefecture": "栃木県", "id": 3213237 },
        { "address": "東谷町", "city": "宇都宮市", "postcode": "321-0123", "prefecture": "栃木県", "id": 3210123 },
        { "address": "砥上町", "city": "宇都宮市", "postcode": "320-0856", "prefecture": "栃木県", "id": 3200856 },
        { "address": "徳次郎町", "city": "宇都宮市", "postcode": "321-2116", "prefecture": "栃木県", "id": 3212116 },
        { "address": "戸祭", "city": "宇都宮市", "postcode": "320-0056", "prefecture": "栃木県", "id": 3200056 },
        { "address": "戸祭台", "city": "宇都宮市", "postcode": "320-0017", "prefecture": "栃木県", "id": 3200017 },
        { "address": "戸祭町", "city": "宇都宮市", "postcode": "320-0053", "prefecture": "栃木県", "id": 3200053 },
        { "address": "戸祭元町", "city": "宇都宮市", "postcode": "320-0031", "prefecture": "栃木県", "id": 3200031 },
        { "address": "豊郷台", "city": "宇都宮市", "postcode": "320-0003", "prefecture": "栃木県", "id": 3200003 },
        { "address": "問屋町", "city": "宇都宮市", "postcode": "321-0911", "prefecture": "栃木県", "id": 3210911 },
        { "address": "中一の沢町", "city": "宇都宮市", "postcode": "320-0045", "prefecture": "栃木県", "id": 3200045 },
        { "address": "中今泉", "city": "宇都宮市", "postcode": "321-0968", "prefecture": "栃木県", "id": 3210968 },
        { "address": "長岡町", "city": "宇都宮市", "postcode": "320-0004", "prefecture": "栃木県", "id": 3200004 },
        { "address": "中岡本町", "city": "宇都宮市", "postcode": "329-1105", "prefecture": "栃木県", "id": 3291105 },
        { "address": "中河原町", "city": "宇都宮市", "postcode": "320-0815", "prefecture": "栃木県", "id": 3200815 },
        { "address": "中久保", "city": "宇都宮市", "postcode": "321-0906", "prefecture": "栃木県", "id": 3210906 },
        { "address": "中里町", "city": "宇都宮市", "postcode": "321-0414", "prefecture": "栃木県", "id": 3210414 },
        { "address": "中島町", "city": "宇都宮市", "postcode": "321-0114", "prefecture": "栃木県", "id": 3210114 },
        { "address": "中戸祭", "city": "宇都宮市", "postcode": "320-0057", "prefecture": "栃木県", "id": 3200057 },
        { "address": "中戸祭町", "city": "宇都宮市", "postcode": "320-0052", "prefecture": "栃木県", "id": 3200052 },
        { "address": "仲町", "city": "宇都宮市", "postcode": "320-0023", "prefecture": "栃木県", "id": 3200023 },
        { "address": "長峰町", "city": "宇都宮市", "postcode": "329-1107", "prefecture": "栃木県", "id": 3291107 },
        { "address": "西", "city": "宇都宮市", "postcode": "320-0861", "prefecture": "栃木県", "id": 3200861 },
        { "address": "西一の沢町", "city": "宇都宮市", "postcode": "320-0046", "prefecture": "栃木県", "id": 3200046 },
        { "address": "西刑部町", "city": "宇都宮市", "postcode": "321-0917", "prefecture": "栃木県", "id": 3210917 },
        { "address": "西川田", "city": "宇都宮市", "postcode": "321-0152", "prefecture": "栃木県", "id": 3210152 },
        { "address": "西川田東町", "city": "宇都宮市", "postcode": "321-0154", "prefecture": "栃木県", "id": 3210154 },
        { "address": "西川田本町", "city": "宇都宮市", "postcode": "321-0158", "prefecture": "栃木県", "id": 3210158 },
        { "address": "西川田町", "city": "宇都宮市", "postcode": "321-0151", "prefecture": "栃木県", "id": 3210151 },
        { "address": "西川田南", "city": "宇都宮市", "postcode": "321-0155", "prefecture": "栃木県", "id": 3210155 },
        { "address": "錦", "city": "宇都宮市", "postcode": "321-0967", "prefecture": "栃木県", "id": 3210967 },
        { "address": "西大寛", "city": "宇都宮市", "postcode": "320-0866", "prefecture": "栃木県", "id": 3200866 },
        { "address": "西の宮", "city": "宇都宮市", "postcode": "320-0064", "prefecture": "栃木県", "id": 3200064 },
        { "address": "西原", "city": "宇都宮市", "postcode": "320-0862", "prefecture": "栃木県", "id": 3200862 },
        { "address": "西原町", "city": "宇都宮市", "postcode": "320-0826", "prefecture": "栃木県", "id": 3200826 },
        { "address": "新里町", "city": "宇都宮市", "postcode": "321-2118", "prefecture": "栃木県", "id": 3212118 },
        { "address": "二番町", "city": "宇都宮市", "postcode": "320-0813", "prefecture": "栃木県", "id": 3200813 },
        { "address": "野高谷町", "city": "宇都宮市", "postcode": "321-3222", "prefecture": "栃木県", "id": 3213222 },
        { "address": "野沢町", "city": "宇都宮市", "postcode": "320-0071", "prefecture": "栃木県", "id": 3200071 },
        { "address": "羽牛田町", "city": "宇都宮市", "postcode": "321-0127", "prefecture": "栃木県", "id": 3210127 },
        { "address": "八幡台", "city": "宇都宮市", "postcode": "320-0015", "prefecture": "栃木県", "id": 3200015 },
        { "address": "花園町", "city": "宇都宮市", "postcode": "320-0843", "prefecture": "栃木県", "id": 3200843 },
        { "address": "花房", "city": "宇都宮市", "postcode": "320-0827", "prefecture": "栃木県", "id": 3200827 },
        { "address": "花房本町", "city": "宇都宮市", "postcode": "320-0828", "prefecture": "栃木県", "id": 3200828 },
        { "address": "塙田", "city": "宇都宮市", "postcode": "320-0027", "prefecture": "栃木県", "id": 3200027 },
        { "address": "馬場通り", "city": "宇都宮市", "postcode": "320-0026", "prefecture": "栃木県", "id": 3200026 },
        { "address": "針ケ谷", "city": "宇都宮市", "postcode": "321-0137", "prefecture": "栃木県", "id": 3210137 },
        { "address": "針ケ谷町", "city": "宇都宮市", "postcode": "321-0147", "prefecture": "栃木県", "id": 3210147 },
        { "address": "東今泉", "city": "宇都宮市", "postcode": "321-0941", "prefecture": "栃木県", "id": 3210941 },
        { "address": "東浦町", "city": "宇都宮市", "postcode": "321-0167", "prefecture": "栃木県", "id": 3210167 },
        { "address": "東岡本町", "city": "宇都宮市", "postcode": "329-1103", "prefecture": "栃木県", "id": 3291103 },
        { "address": "東刑部町", "city": "宇都宮市", "postcode": "321-0915", "prefecture": "栃木県", "id": 3210915 },
        { "address": "東木代町", "city": "宇都宮市", "postcode": "321-0916", "prefecture": "栃木県", "id": 3210916 },
        { "address": "東宿郷", "city": "宇都宮市", "postcode": "321-0953", "prefecture": "栃木県", "id": 3210953 },
        { "address": "東宝木町", "city": "宇都宮市", "postcode": "320-0062", "prefecture": "栃木県", "id": 3200062 },
        { "address": "東戸祭", "city": "宇都宮市", "postcode": "320-0054", "prefecture": "栃木県", "id": 3200054 },
        { "address": "東塙田", "city": "宇都宮市", "postcode": "320-0021", "prefecture": "栃木県", "id": 3200021 },
        { "address": "東原町", "city": "宇都宮市", "postcode": "321-0168", "prefecture": "栃木県", "id": 3210168 },
        { "address": "東町", "city": "宇都宮市", "postcode": "321-0985", "prefecture": "栃木県", "id": 3210985 },
        { "address": "東峰町", "city": "宇都宮市", "postcode": "321-0944", "prefecture": "栃木県", "id": 3210944 },
        { "address": "東簗瀬", "city": "宇都宮市", "postcode": "321-0925", "prefecture": "栃木県", "id": 3210925 },
        { "address": "東横田町", "city": "宇都宮市", "postcode": "321-0116", "prefecture": "栃木県", "id": 3210116 },
        { "address": "日の出", "city": "宇都宮市", "postcode": "320-0832", "prefecture": "栃木県", "id": 3200832 },
        { "address": "氷室町", "city": "宇都宮市", "postcode": "321-3232", "prefecture": "栃木県", "id": 3213232 },
        { "address": "兵庫塚", "city": "宇都宮市", "postcode": "321-0138", "prefecture": "栃木県", "id": 3210138 },
        { "address": "兵庫塚町", "city": "宇都宮市", "postcode": "321-0156", "prefecture": "栃木県", "id": 3210156 },
        {
            "address": "平出工業団地",
            "city": "宇都宮市",
            "postcode": "321-0905",
            "prefecture": "栃木県",
            "id": 3210905
        },
        { "address": "平出町", "city": "宇都宮市", "postcode": "321-0901", "prefecture": "栃木県", "id": 3210901 },
        { "address": "平塚町", "city": "宇都宮市", "postcode": "321-0918", "prefecture": "栃木県", "id": 3210918 },
        { "address": "平松町", "city": "宇都宮市", "postcode": "321-0931", "prefecture": "栃木県", "id": 3210931 },
        { "address": "平松本町", "city": "宇都宮市", "postcode": "321-0932", "prefecture": "栃木県", "id": 3210932 },
        { "address": "福岡町", "city": "宇都宮市", "postcode": "321-0342", "prefecture": "栃木県", "id": 3210342 },
        { "address": "富士見が丘", "city": "宇都宮市", "postcode": "320-0011", "prefecture": "栃木県", "id": 3200011 },
        { "address": "富士見町", "city": "宇都宮市", "postcode": "321-0146", "prefecture": "栃木県", "id": 3210146 },
        { "address": "二荒町", "city": "宇都宮市", "postcode": "320-0804", "prefecture": "栃木県", "id": 3200804 },
        { "address": "双葉", "city": "宇都宮市", "postcode": "321-0164", "prefecture": "栃木県", "id": 3210164 },
        { "address": "不動前", "city": "宇都宮市", "postcode": "320-0833", "prefecture": "栃木県", "id": 3200833 },
        { "address": "冬室町", "city": "宇都宮市", "postcode": "321-0417", "prefecture": "栃木県", "id": 3210417 },
        { "address": "古田町", "city": "宇都宮市", "postcode": "329-1108", "prefecture": "栃木県", "id": 3291108 },
        { "address": "星が丘", "city": "宇都宮市", "postcode": "320-0038", "prefecture": "栃木県", "id": 3200038 },
        { "address": "細谷", "city": "宇都宮市", "postcode": "320-0073", "prefecture": "栃木県", "id": 3200073 },
        { "address": "細谷町", "city": "宇都宮市", "postcode": "320-0074", "prefecture": "栃木県", "id": 3200074 },
        { "address": "本町", "city": "宇都宮市", "postcode": "320-0033", "prefecture": "栃木県", "id": 3200033 },
        { "address": "本丸町", "city": "宇都宮市", "postcode": "320-0817", "prefecture": "栃木県", "id": 3200817 },
        { "address": "幕田町", "city": "宇都宮市", "postcode": "321-0157", "prefecture": "栃木県", "id": 3210157 },
        { "address": "曲師町", "city": "宇都宮市", "postcode": "320-0803", "prefecture": "栃木県", "id": 3200803 },
        { "address": "松が峰", "city": "宇都宮市", "postcode": "320-0807", "prefecture": "栃木県", "id": 3200807 },
        { "address": "松田新田町", "city": "宇都宮市", "postcode": "321-0407", "prefecture": "栃木県", "id": 3210407 },
        { "address": "松原", "city": "宇都宮市", "postcode": "320-0041", "prefecture": "栃木県", "id": 3200041 },
        { "address": "満美穴町", "city": "宇都宮市", "postcode": "321-3225", "prefecture": "栃木県", "id": 3213225 },
        { "address": "操町", "city": "宇都宮市", "postcode": "320-0863", "prefecture": "栃木県", "id": 3200863 },
        { "address": "瑞穂", "city": "宇都宮市", "postcode": "321-0921", "prefecture": "栃木県", "id": 3210921 },
        { "address": "御田長島町", "city": "宇都宮市", "postcode": "321-0125", "prefecture": "栃木県", "id": 3210125 },
        { "address": "緑", "city": "宇都宮市", "postcode": "321-0165", "prefecture": "栃木県", "id": 3210165 },
        { "address": "みどり野町", "city": "宇都宮市", "postcode": "321-0136", "prefecture": "栃木県", "id": 3210136 },
        { "address": "南一の沢町", "city": "宇都宮市", "postcode": "320-0044", "prefecture": "栃木県", "id": 3200044 },
        { "address": "南大通り", "city": "宇都宮市", "postcode": "321-0963", "prefecture": "栃木県", "id": 3210963 },
        { "address": "南高砂町", "city": "宇都宮市", "postcode": "321-0143", "prefecture": "栃木県", "id": 3210143 },
        { "address": "南町", "city": "宇都宮市", "postcode": "321-0142", "prefecture": "栃木県", "id": 3210142 },
        { "address": "峰", "city": "宇都宮市", "postcode": "321-0942", "prefecture": "栃木県", "id": 3210942 },
        { "address": "峰町", "city": "宇都宮市", "postcode": "321-0943", "prefecture": "栃木県", "id": 3210943 },
        { "address": "宮園町", "city": "宇都宮市", "postcode": "320-0808", "prefecture": "栃木県", "id": 3200808 },
        { "address": "宮の内", "city": "宇都宮市", "postcode": "321-0131", "prefecture": "栃木県", "id": 3210131 },
        { "address": "宮原", "city": "宇都宮市", "postcode": "320-0835", "prefecture": "栃木県", "id": 3200835 },
        { "address": "宮町", "city": "宇都宮市", "postcode": "320-0025", "prefecture": "栃木県", "id": 3200025 },
        { "address": "宮みらい", "city": "宇都宮市", "postcode": "321-0969", "prefecture": "栃木県", "id": 3210969 },
        { "address": "宮本町", "city": "宇都宮市", "postcode": "321-0163", "prefecture": "栃木県", "id": 3210163 },
        { "address": "宮山田町", "city": "宇都宮市", "postcode": "321-0411", "prefecture": "栃木県", "id": 3210411 },
        { "address": "御幸ケ原町", "city": "宇都宮市", "postcode": "321-0982", "prefecture": "栃木県", "id": 3210982 },
        { "address": "御幸町", "city": "宇都宮市", "postcode": "321-0984", "prefecture": "栃木県", "id": 3210984 },
        { "address": "御幸本町", "city": "宇都宮市", "postcode": "321-0983", "prefecture": "栃木県", "id": 3210983 },
        { "address": "睦町", "city": "宇都宮市", "postcode": "320-0865", "prefecture": "栃木県", "id": 3200865 },
        { "address": "免ノ内町", "city": "宇都宮市", "postcode": "321-0415", "prefecture": "栃木県", "id": 3210415 },
        { "address": "元今泉", "city": "宇都宮市", "postcode": "321-0954", "prefecture": "栃木県", "id": 3210954 },
        { "address": "茂原", "city": "宇都宮市", "postcode": "321-0145", "prefecture": "栃木県", "id": 3210145 },
        { "address": "茂原町", "city": "宇都宮市", "postcode": "321-0126", "prefecture": "栃木県", "id": 3210126 },
        { "address": "屋板町", "city": "宇都宮市", "postcode": "321-0112", "prefecture": "栃木県", "id": 3210112 },
        { "address": "八千代", "city": "宇都宮市", "postcode": "321-0169", "prefecture": "栃木県", "id": 3210169 },
        { "address": "柳田町", "city": "宇都宮市", "postcode": "321-0902", "prefecture": "栃木県", "id": 3210902 },
        { "address": "簗瀬", "city": "宇都宮市", "postcode": "321-0934", "prefecture": "栃木県", "id": 3210934 },
        { "address": "簗瀬町", "city": "宇都宮市", "postcode": "321-0933", "prefecture": "栃木県", "id": 3210933 },
        { "address": "大和", "city": "宇都宮市", "postcode": "321-0162", "prefecture": "栃木県", "id": 3210162 },
        { "address": "大和", "city": "宇都宮市", "postcode": "320-0836", "prefecture": "栃木県", "id": 3200836 },
        { "address": "山本", "city": "宇都宮市", "postcode": "320-0012", "prefecture": "栃木県", "id": 3200012 },
        { "address": "山本町", "city": "宇都宮市", "postcode": "320-0016", "prefecture": "栃木県", "id": 3200016 },
        { "address": "弥生", "city": "宇都宮市", "postcode": "320-0837", "prefecture": "栃木県", "id": 3200837 },
        { "address": "ゆいの杜", "city": "宇都宮市", "postcode": "321-3226", "prefecture": "栃木県", "id": 3213226 },
        { "address": "陽西町", "city": "宇都宮市", "postcode": "320-0063", "prefecture": "栃木県", "id": 3200063 },
        { "address": "陽東", "city": "宇都宮市", "postcode": "321-0904", "prefecture": "栃木県", "id": 3210904 },
        { "address": "陽南", "city": "宇都宮市", "postcode": "320-0834", "prefecture": "栃木県", "id": 3200834 },
        { "address": "横田新町", "city": "宇都宮市", "postcode": "321-0105", "prefecture": "栃木県", "id": 3210105 },
        { "address": "横山", "city": "宇都宮市", "postcode": "320-0005", "prefecture": "栃木県", "id": 3200005 },
        { "address": "横山町", "city": "宇都宮市", "postcode": "320-0001", "prefecture": "栃木県", "id": 3200001 },
        { "address": "吉野", "city": "宇都宮市", "postcode": "320-0838", "prefecture": "栃木県", "id": 3200838 },
        { "address": "立伏町", "city": "宇都宮市", "postcode": "329-1116", "prefecture": "栃木県", "id": 3291116 },
        { "address": "六道町", "city": "宇都宮市", "postcode": "320-0841", "prefecture": "栃木県", "id": 3200841 },
        { "address": "若草", "city": "宇都宮市", "postcode": "320-0072", "prefecture": "栃木県", "id": 3200072 },
        { "address": "若松原", "city": "宇都宮市", "postcode": "321-0139", "prefecture": "栃木県", "id": 3210139 },
        { "city": "足利市", "postcode": "326-0000", "prefecture": "栃木県", "id": 3260000 },
        { "address": "相生町", "city": "足利市", "postcode": "326-0052", "prefecture": "栃木県", "id": 3260052 },
        { "address": "赤松台", "city": "足利市", "postcode": "326-0062", "prefecture": "栃木県", "id": 3260062 },
        { "address": "県町", "city": "足利市", "postcode": "326-0328", "prefecture": "栃木県", "id": 3260328 },
        { "address": "朝倉町", "city": "足利市", "postcode": "326-0823", "prefecture": "栃木県", "id": 3260823 },
        { "address": "旭町", "city": "足利市", "postcode": "326-0802", "prefecture": "栃木県", "id": 3260802 },
        { "address": "荒金町", "city": "足利市", "postcode": "326-0832", "prefecture": "栃木県", "id": 3260832 },
        { "address": "新宿町", "city": "足利市", "postcode": "326-0834", "prefecture": "栃木県", "id": 3260834 },
        { "address": "粟谷町", "city": "足利市", "postcode": "326-0103", "prefecture": "栃木県", "id": 3260103 },
        { "address": "家富町", "city": "足利市", "postcode": "326-0803", "prefecture": "栃木県", "id": 3260803 },
        { "address": "鵤木町", "city": "足利市", "postcode": "326-0014", "prefecture": "栃木県", "id": 3260014 },
        { "address": "井草町", "city": "足利市", "postcode": "326-0811", "prefecture": "栃木県", "id": 3260811 },
        { "address": "伊勢町", "city": "足利市", "postcode": "326-0053", "prefecture": "栃木県", "id": 3260053 },
        { "address": "伊勢南町", "city": "足利市", "postcode": "326-0054", "prefecture": "栃木県", "id": 3260054 },
        { "address": "板倉町", "city": "足利市", "postcode": "326-0102", "prefecture": "栃木県", "id": 3260102 },
        { "address": "稲岡町", "city": "足利市", "postcode": "329-4212", "prefecture": "栃木県", "id": 3294212 },
        { "address": "今福町", "city": "足利市", "postcode": "326-0842", "prefecture": "栃木県", "id": 3260842 },
        { "address": "岩井町", "city": "足利市", "postcode": "326-0046", "prefecture": "栃木県", "id": 3260046 },
        { "address": "永楽町", "city": "足利市", "postcode": "326-0055", "prefecture": "栃木県", "id": 3260055 },
        { "address": "江川町", "city": "足利市", "postcode": "326-0067", "prefecture": "栃木県", "id": 3260067 },
        { "address": "大岩町", "city": "足利市", "postcode": "326-0841", "prefecture": "栃木県", "id": 3260841 },
        { "address": "大久保町", "city": "足利市", "postcode": "326-0012", "prefecture": "栃木県", "id": 3260012 },
        { "address": "大月町", "city": "足利市", "postcode": "326-0005", "prefecture": "栃木県", "id": 3260005 },
        { "address": "大沼田町", "city": "足利市", "postcode": "326-0011", "prefecture": "栃木県", "id": 3260011 },
        { "address": "大橋町", "city": "足利市", "postcode": "326-0051", "prefecture": "栃木県", "id": 3260051 },
        { "address": "大前町", "city": "足利市", "postcode": "326-0845", "prefecture": "栃木県", "id": 3260845 },
        { "address": "奥戸町", "city": "足利市", "postcode": "329-4215", "prefecture": "栃木県", "id": 3294215 },
        { "address": "小曽根町", "city": "足利市", "postcode": "326-0326", "prefecture": "栃木県", "id": 3260326 },
        { "address": "小俣町", "city": "足利市", "postcode": "326-0141", "prefecture": "栃木県", "id": 3260141 },
        { "address": "小俣南町", "city": "足利市", "postcode": "326-0142", "prefecture": "栃木県", "id": 3260142 },
        { "address": "利保町", "city": "足利市", "postcode": "326-0006", "prefecture": "栃木県", "id": 3260006 },
        { "address": "鹿島町", "city": "足利市", "postcode": "326-0844", "prefecture": "栃木県", "id": 3260844 },
        { "address": "樺崎町", "city": "足利市", "postcode": "326-0004", "prefecture": "栃木県", "id": 3260004 },
        { "address": "上渋垂町", "city": "足利市", "postcode": "326-0335", "prefecture": "栃木県", "id": 3260335 },
        { "address": "借宿町", "city": "足利市", "postcode": "326-0826", "prefecture": "栃木県", "id": 3260826 },
        { "address": "川崎町", "city": "足利市", "postcode": "326-0013", "prefecture": "栃木県", "id": 3260013 },
        { "address": "久保田町", "city": "足利市", "postcode": "326-0324", "prefecture": "栃木県", "id": 3260324 },
        { "address": "毛野新町", "city": "足利市", "postcode": "326-0016", "prefecture": "栃木県", "id": 3260016 },
        { "address": "寿町", "city": "足利市", "postcode": "326-0025", "prefecture": "栃木県", "id": 3260025 },
        { "address": "駒場町", "city": "足利市", "postcode": "329-4217", "prefecture": "栃木県", "id": 3294217 },
        { "address": "栄町", "city": "足利市", "postcode": "326-0815", "prefecture": "栃木県", "id": 3260815 },
        { "address": "里矢場町", "city": "足利市", "postcode": "326-0835", "prefecture": "栃木県", "id": 3260835 },
        { "address": "猿田町", "city": "足利市", "postcode": "326-0023", "prefecture": "栃木県", "id": 3260023 },
        { "address": "島田町", "city": "足利市", "postcode": "326-0337", "prefecture": "栃木県", "id": 3260337 },
        { "address": "下渋垂町", "city": "足利市", "postcode": "326-0334", "prefecture": "栃木県", "id": 3260334 },
        { "address": "昌平町", "city": "足利市", "postcode": "326-0813", "prefecture": "栃木県", "id": 3260813 },
        { "address": "新山町", "city": "足利市", "postcode": "326-0063", "prefecture": "栃木県", "id": 3260063 },
        { "address": "末広町", "city": "足利市", "postcode": "326-0031", "prefecture": "栃木県", "id": 3260031 },
        { "address": "助戸", "city": "足利市", "postcode": "326-0044", "prefecture": "栃木県", "id": 3260044 },
        { "address": "助戸大橋町", "city": "足利市", "postcode": "326-0048", "prefecture": "栃木県", "id": 3260048 },
        { "address": "助戸新山町", "city": "足利市", "postcode": "326-0041", "prefecture": "栃木県", "id": 3260041 },
        { "address": "助戸仲町", "city": "足利市", "postcode": "326-0043", "prefecture": "栃木県", "id": 3260043 },
        { "address": "助戸東山町", "city": "足利市", "postcode": "326-0042", "prefecture": "栃木県", "id": 3260042 },
        { "address": "菅田町", "city": "足利市", "postcode": "326-0007", "prefecture": "栃木県", "id": 3260007 },
        { "address": "大正町", "city": "足利市", "postcode": "326-0807", "prefecture": "栃木県", "id": 3260807 },
        { "address": "大町", "city": "足利市", "postcode": "326-0056", "prefecture": "栃木県", "id": 3260056 },
        { "address": "大門通", "city": "足利市", "postcode": "326-0812", "prefecture": "栃木県", "id": 3260812 },
        { "address": "高松町", "city": "足利市", "postcode": "326-0325", "prefecture": "栃木県", "id": 3260325 },
        { "address": "田島町", "city": "足利市", "postcode": "326-0061", "prefecture": "栃木県", "id": 3260061 },
        { "address": "多田木町", "city": "足利市", "postcode": "329-4214", "prefecture": "栃木県", "id": 3294214 },
        { "address": "田所町", "city": "足利市", "postcode": "326-0066", "prefecture": "栃木県", "id": 3260066 },
        { "address": "田中町", "city": "足利市", "postcode": "326-0822", "prefecture": "栃木県", "id": 3260822 },
        { "address": "千歳町", "city": "足利市", "postcode": "326-0045", "prefecture": "栃木県", "id": 3260045 },
        { "address": "月谷町", "city": "足利市", "postcode": "326-0068", "prefecture": "栃木県", "id": 3260068 },
        { "address": "常見町", "city": "足利市", "postcode": "326-0022", "prefecture": "栃木県", "id": 3260022 },
        { "address": "寺岡町", "city": "足利市", "postcode": "329-4213", "prefecture": "栃木県", "id": 3294213 },
        { "address": "通", "city": "足利市", "postcode": "326-0814", "prefecture": "栃木県", "id": 3260814 },
        { "address": "常盤町", "city": "足利市", "postcode": "326-0026", "prefecture": "栃木県", "id": 3260026 },
        { "address": "巴町", "city": "足利市", "postcode": "326-0805", "prefecture": "栃木県", "id": 3260805 },
        { "address": "問屋町", "city": "足利市", "postcode": "326-0333", "prefecture": "栃木県", "id": 3260333 },
        { "address": "中川町", "city": "足利市", "postcode": "326-0825", "prefecture": "栃木県", "id": 3260825 },
        { "address": "名草上町", "city": "足利市", "postcode": "326-0001", "prefecture": "栃木県", "id": 3260001 },
        { "address": "名草中町", "city": "足利市", "postcode": "326-0002", "prefecture": "栃木県", "id": 3260002 },
        { "address": "名草下町", "city": "足利市", "postcode": "326-0003", "prefecture": "栃木県", "id": 3260003 },
        { "address": "西新井町", "city": "足利市", "postcode": "326-0837", "prefecture": "栃木県", "id": 3260837 },
        { "address": "錦町", "city": "足利市", "postcode": "326-0047", "prefecture": "栃木県", "id": 3260047 },
        { "address": "西砂原後町", "city": "足利市", "postcode": "326-0065", "prefecture": "栃木県", "id": 3260065 },
        { "address": "西宮町", "city": "足利市", "postcode": "326-0817", "prefecture": "栃木県", "id": 3260817 },
        { "address": "西場町", "city": "足利市", "postcode": "329-4211", "prefecture": "栃木県", "id": 3294211 },
        { "address": "野田町", "city": "足利市", "postcode": "326-0322", "prefecture": "栃木県", "id": 3260322 },
        { "address": "羽刈町", "city": "足利市", "postcode": "326-0327", "prefecture": "栃木県", "id": 3260327 },
        { "address": "迫間町", "city": "足利市", "postcode": "329-4216", "prefecture": "栃木県", "id": 3294216 },
        { "address": "葉鹿町", "city": "足利市", "postcode": "326-0143", "prefecture": "栃木県", "id": 3260143 },
        { "address": "葉鹿南町", "city": "足利市", "postcode": "326-0144", "prefecture": "栃木県", "id": 3260144 },
        { "address": "花園町", "city": "足利市", "postcode": "326-0033", "prefecture": "栃木県", "id": 3260033 },
        { "address": "東砂原後町", "city": "足利市", "postcode": "326-0064", "prefecture": "栃木県", "id": 3260064 },
        { "address": "久松町", "city": "足利市", "postcode": "326-0034", "prefecture": "栃木県", "id": 3260034 },
        { "address": "福居町", "city": "足利市", "postcode": "326-0338", "prefecture": "栃木県", "id": 3260338 },
        { "address": "福富新町", "city": "足利市", "postcode": "326-0332", "prefecture": "栃木県", "id": 3260332 },
        { "address": "福富町", "city": "足利市", "postcode": "326-0331", "prefecture": "栃木県", "id": 3260331 },
        { "address": "富士見町", "city": "足利市", "postcode": "326-0037", "prefecture": "栃木県", "id": 3260037 },
        { "address": "藤本町", "city": "足利市", "postcode": "326-0833", "prefecture": "栃木県", "id": 3260833 },
        { "address": "堀込町", "city": "足利市", "postcode": "326-0831", "prefecture": "栃木県", "id": 3260831 },
        { "address": "本城", "city": "足利市", "postcode": "326-0808", "prefecture": "栃木県", "id": 3260808 },
        { "address": "真砂町", "city": "足利市", "postcode": "326-0032", "prefecture": "栃木県", "id": 3260032 },
        { "address": "松田町", "city": "足利市", "postcode": "326-0101", "prefecture": "栃木県", "id": 3260101 },
        { "address": "丸山町", "city": "足利市", "postcode": "326-0057", "prefecture": "栃木県", "id": 3260057 },
        { "address": "瑞穂野町", "city": "足利市", "postcode": "326-0323", "prefecture": "栃木県", "id": 3260323 },
        { "address": "緑町", "city": "足利市", "postcode": "326-0816", "prefecture": "栃木県", "id": 3260816 },
        { "address": "南大町", "city": "足利市", "postcode": "326-0836", "prefecture": "栃木県", "id": 3260836 },
        { "address": "南町", "city": "足利市", "postcode": "326-0821", "prefecture": "栃木県", "id": 3260821 },
        { "address": "宮北町", "city": "足利市", "postcode": "326-0027", "prefecture": "栃木県", "id": 3260027 },
        { "address": "元学町", "city": "足利市", "postcode": "326-0058", "prefecture": "栃木県", "id": 3260058 },
        { "address": "百頭町", "city": "足利市", "postcode": "326-0336", "prefecture": "栃木県", "id": 3260336 },
        { "address": "八椚町", "city": "足利市", "postcode": "326-0015", "prefecture": "栃木県", "id": 3260015 },
        { "address": "柳原町", "city": "足利市", "postcode": "326-0806", "prefecture": "栃木県", "id": 3260806 },
        { "address": "梁田町", "city": "足利市", "postcode": "326-0321", "prefecture": "栃木県", "id": 3260321 },
        { "address": "山川町", "city": "足利市", "postcode": "326-0021", "prefecture": "栃木県", "id": 3260021 },
        { "address": "山下町", "city": "足利市", "postcode": "326-0846", "prefecture": "栃木県", "id": 3260846 },
        { "address": "弥生町", "city": "足利市", "postcode": "326-0036", "prefecture": "栃木県", "id": 3260036 },
        { "address": "八幡町", "city": "足利市", "postcode": "326-0824", "prefecture": "栃木県", "id": 3260824 },
        { "address": "有楽町", "city": "足利市", "postcode": "326-0801", "prefecture": "栃木県", "id": 3260801 },
        { "address": "雪輪町", "city": "足利市", "postcode": "326-0804", "prefecture": "栃木県", "id": 3260804 },
        { "address": "芳町", "city": "足利市", "postcode": "326-0035", "prefecture": "栃木県", "id": 3260035 },
        { "address": "五十部町", "city": "足利市", "postcode": "326-0843", "prefecture": "栃木県", "id": 3260843 },
        { "address": "若草町", "city": "足利市", "postcode": "326-0024", "prefecture": "栃木県", "id": 3260024 },
        { "city": "栃木市", "postcode": "328-0000", "prefecture": "栃木県", "id": 3280000 },
        { "address": "旭町", "city": "栃木市", "postcode": "328-0035", "prefecture": "栃木県", "id": 3280035 },
        { "address": "梓町", "city": "栃木市", "postcode": "328-0131", "prefecture": "栃木県", "id": 3280131 },
        { "address": "新井町", "city": "栃木市", "postcode": "328-0061", "prefecture": "栃木県", "id": 3280061 },
        { "address": "泉川町", "city": "栃木市", "postcode": "328-0062", "prefecture": "栃木県", "id": 3280062 },
        { "address": "泉町", "city": "栃木市", "postcode": "328-0014", "prefecture": "栃木県", "id": 3280014 },
        { "address": "出流町", "city": "栃木市", "postcode": "328-0206", "prefecture": "栃木県", "id": 3280206 },
        { "address": "今泉町", "city": "栃木市", "postcode": "328-0027", "prefecture": "栃木県", "id": 3280027 },
        { "address": "入舟町", "city": "栃木市", "postcode": "328-0016", "prefecture": "栃木県", "id": 3280016 },
        { "address": "祝町", "city": "栃木市", "postcode": "328-0052", "prefecture": "栃木県", "id": 3280052 },
        { "address": "岩出町", "city": "栃木市", "postcode": "328-0063", "prefecture": "栃木県", "id": 3280063 },
        { "address": "岩舟町五十畑", "city": "栃木市", "postcode": "329-4302", "prefecture": "栃木県", "id": 3294302 },
        { "address": "岩舟町和泉", "city": "栃木市", "postcode": "329-4303", "prefecture": "栃木県", "id": 3294303 },
        { "address": "岩舟町小野寺", "city": "栃木市", "postcode": "329-4314", "prefecture": "栃木県", "id": 3294314 },
        { "address": "岩舟町上岡", "city": "栃木市", "postcode": "329-4313", "prefecture": "栃木県", "id": 3294313 },
        { "address": "岩舟町静", "city": "栃木市", "postcode": "329-4307", "prefecture": "栃木県", "id": 3294307 },
        { "address": "岩舟町静戸", "city": "栃木市", "postcode": "329-4305", "prefecture": "栃木県", "id": 3294305 },
        { "address": "岩舟町静和", "city": "栃木市", "postcode": "329-4304", "prefecture": "栃木県", "id": 3294304 },
        { "address": "岩舟町下岡", "city": "栃木市", "postcode": "329-4312", "prefecture": "栃木県", "id": 3294312 },
        { "address": "岩舟町下津原", "city": "栃木市", "postcode": "329-4308", "prefecture": "栃木県", "id": 3294308 },
        { "address": "岩舟町畳岡", "city": "栃木市", "postcode": "329-4309", "prefecture": "栃木県", "id": 3294309 },
        { "address": "岩舟町新里", "city": "栃木市", "postcode": "329-4316", "prefecture": "栃木県", "id": 3294316 },
        { "address": "岩舟町古江", "city": "栃木市", "postcode": "329-4311", "prefecture": "栃木県", "id": 3294311 },
        { "address": "岩舟町曲ケ島", "city": "栃木市", "postcode": "329-4306", "prefecture": "栃木県", "id": 3294306 },
        { "address": "岩舟町三谷", "city": "栃木市", "postcode": "329-4315", "prefecture": "栃木県", "id": 3294315 },
        { "address": "岩舟町鷲巣", "city": "栃木市", "postcode": "329-4301", "prefecture": "栃木県", "id": 3294301 },
        { "address": "梅沢町", "city": "栃木市", "postcode": "328-0204", "prefecture": "栃木県", "id": 3280204 },
        { "address": "大久保町", "city": "栃木市", "postcode": "328-0202", "prefecture": "栃木県", "id": 3280202 },
        { "address": "大塚町", "city": "栃木市", "postcode": "328-0007", "prefecture": "栃木県", "id": 3280007 },
        { "address": "大平町新", "city": "栃木市", "postcode": "329-4425", "prefecture": "栃木県", "id": 3294425 },
        { "address": "大平町牛久", "city": "栃木市", "postcode": "329-4401", "prefecture": "栃木県", "id": 3294401 },
        { "address": "大平町榎本", "city": "栃木市", "postcode": "329-4422", "prefecture": "栃木県", "id": 3294422 },
        { "address": "大平町上高島", "city": "栃木市", "postcode": "329-4413", "prefecture": "栃木県", "id": 3294413 },
        { "address": "大平町川連", "city": "栃木市", "postcode": "329-4407", "prefecture": "栃木県", "id": 3294407 },
        { "address": "大平町北武井", "city": "栃木市", "postcode": "329-4412", "prefecture": "栃木県", "id": 3294412 },
        { "address": "大平町蔵井", "city": "栃木市", "postcode": "329-4403", "prefecture": "栃木県", "id": 3294403 },
        { "address": "大平町下高島", "city": "栃木市", "postcode": "329-4414", "prefecture": "栃木県", "id": 3294414 },
        { "address": "大平町下皆川", "city": "栃木市", "postcode": "329-4406", "prefecture": "栃木県", "id": 3294406 },
        { "address": "大平町富田", "city": "栃木市", "postcode": "329-4404", "prefecture": "栃木県", "id": 3294404 },
        { "address": "大平町土与", "city": "栃木市", "postcode": "329-4402", "prefecture": "栃木県", "id": 3294402 },
        { "address": "大平町西野田", "city": "栃木市", "postcode": "329-4421", "prefecture": "栃木県", "id": 3294421 },
        { "address": "大平町西水代", "city": "栃木市", "postcode": "329-4423", "prefecture": "栃木県", "id": 3294423 },
        { "address": "大平町西山田", "city": "栃木市", "postcode": "329-4405", "prefecture": "栃木県", "id": 3294405 },
        { "address": "大平町伯仲", "city": "栃木市", "postcode": "329-4424", "prefecture": "栃木県", "id": 3294424 },
        { "address": "大平町真弓", "city": "栃木市", "postcode": "329-4415", "prefecture": "栃木県", "id": 3294415 },
        { "address": "大平町横堀", "city": "栃木市", "postcode": "329-4411", "prefecture": "栃木県", "id": 3294411 },
        { "address": "大皆川町", "city": "栃木市", "postcode": "328-0068", "prefecture": "栃木県", "id": 3280068 },
        { "address": "大宮町", "city": "栃木市", "postcode": "328-0011", "prefecture": "栃木県", "id": 3280011 },
        { "address": "大森町", "city": "栃木市", "postcode": "328-0133", "prefecture": "栃木県", "id": 3280133 },
        { "address": "小野口町", "city": "栃木市", "postcode": "328-0065", "prefecture": "栃木県", "id": 3280065 },
        { "address": "嘉右衛門町", "city": "栃木市", "postcode": "328-0072", "prefecture": "栃木県", "id": 3280072 },
        { "address": "柏倉町", "city": "栃木市", "postcode": "328-0066", "prefecture": "栃木県", "id": 3280066 },
        { "address": "片柳町", "city": "栃木市", "postcode": "328-0053", "prefecture": "栃木県", "id": 3280053 },
        { "address": "河合町", "city": "栃木市", "postcode": "328-0041", "prefecture": "栃木県", "id": 3280041 },
        { "address": "川原田町", "city": "栃木市", "postcode": "328-0123", "prefecture": "栃木県", "id": 3280123 },
        { "address": "神田町", "city": "栃木市", "postcode": "328-0032", "prefecture": "栃木県", "id": 3280032 },
        { "address": "木野地町", "city": "栃木市", "postcode": "328-0122", "prefecture": "栃木県", "id": 3280122 },
        { "address": "久保田町", "city": "栃木市", "postcode": "328-0021", "prefecture": "栃木県", "id": 3280021 },
        { "address": "国府町", "city": "栃木市", "postcode": "328-0006", "prefecture": "栃木県", "id": 3280006 },
        { "address": "高谷町", "city": "栃木市", "postcode": "328-0023", "prefecture": "栃木県", "id": 3280023 },
        { "address": "小平町", "city": "栃木市", "postcode": "328-0073", "prefecture": "栃木県", "id": 3280073 },
        { "address": "境町", "city": "栃木市", "postcode": "328-0043", "prefecture": "栃木県", "id": 3280043 },
        { "address": "志鳥町", "city": "栃木市", "postcode": "328-0064", "prefecture": "栃木県", "id": 3280064 },
        { "address": "城内町", "city": "栃木市", "postcode": "328-0033", "prefecture": "栃木県", "id": 3280033 },
        { "address": "昭和町", "city": "栃木市", "postcode": "328-0013", "prefecture": "栃木県", "id": 3280013 },
        { "address": "尻内町", "city": "栃木市", "postcode": "328-0203", "prefecture": "栃木県", "id": 3280203 },
        { "address": "惣社町", "city": "栃木市", "postcode": "328-0002", "prefecture": "栃木県", "id": 3280002 },
        { "address": "薗部町", "city": "栃木市", "postcode": "328-0074", "prefecture": "栃木県", "id": 3280074 },
        { "address": "大光寺町", "city": "栃木市", "postcode": "328-0003", "prefecture": "栃木県", "id": 3280003 },
        { "address": "大町", "city": "栃木市", "postcode": "328-0071", "prefecture": "栃木県", "id": 3280071 },
        { "address": "田村町", "city": "栃木市", "postcode": "328-0004", "prefecture": "栃木県", "id": 3280004 },
        { "address": "千塚町", "city": "栃木市", "postcode": "328-0135", "prefecture": "栃木県", "id": 3280135 },
        { "address": "都賀町家中", "city": "栃木市", "postcode": "328-0111", "prefecture": "栃木県", "id": 3280111 },
        { "address": "都賀町臼久保", "city": "栃木市", "postcode": "328-0105", "prefecture": "栃木県", "id": 3280105 },
        { "address": "都賀町大柿", "city": "栃木市", "postcode": "328-0101", "prefecture": "栃木県", "id": 3280101 },
        { "address": "都賀町大橋", "city": "栃木市", "postcode": "328-0106", "prefecture": "栃木県", "id": 3280106 },
        { "address": "都賀町合戦場", "city": "栃木市", "postcode": "328-0113", "prefecture": "栃木県", "id": 3280113 },
        { "address": "都賀町木", "city": "栃木市", "postcode": "328-0104", "prefecture": "栃木県", "id": 3280104 },
        { "address": "都賀町富張", "city": "栃木市", "postcode": "328-0102", "prefecture": "栃木県", "id": 3280102 },
        { "address": "都賀町原宿", "city": "栃木市", "postcode": "328-0103", "prefecture": "栃木県", "id": 3280103 },
        { "address": "都賀町平川", "city": "栃木市", "postcode": "328-0112", "prefecture": "栃木県", "id": 3280112 },
        { "address": "都賀町深沢", "city": "栃木市", "postcode": "328-0107", "prefecture": "栃木県", "id": 3280107 },
        { "address": "都賀町升塚", "city": "栃木市", "postcode": "328-0114", "prefecture": "栃木県", "id": 3280114 },
        { "address": "仲方町", "city": "栃木市", "postcode": "328-0132", "prefecture": "栃木県", "id": 3280132 },
        { "address": "仲仕上町", "city": "栃木市", "postcode": "328-0025", "prefecture": "栃木県", "id": 3280025 },
        { "address": "鍋山町", "city": "栃木市", "postcode": "328-0205", "prefecture": "栃木県", "id": 3280205 },
        { "address": "西方町金井", "city": "栃木市", "postcode": "322-0602", "prefecture": "栃木県", "id": 3220602 },
        { "address": "西方町金崎", "city": "栃木市", "postcode": "322-0601", "prefecture": "栃木県", "id": 3220601 },
        { "address": "西方町本郷", "city": "栃木市", "postcode": "322-0603", "prefecture": "栃木県", "id": 3220603 },
        { "address": "西方町本城", "city": "栃木市", "postcode": "322-0606", "prefecture": "栃木県", "id": 3220606 },
        { "address": "西方町真名子", "city": "栃木市", "postcode": "322-0605", "prefecture": "栃木県", "id": 3220605 },
        { "address": "西方町元", "city": "栃木市", "postcode": "322-0604", "prefecture": "栃木県", "id": 3220604 },
        { "address": "錦町", "city": "栃木市", "postcode": "328-0017", "prefecture": "栃木県", "id": 3280017 },
        { "address": "沼和田町", "city": "栃木市", "postcode": "328-0042", "prefecture": "栃木県", "id": 3280042 },
        { "address": "野中町", "city": "栃木市", "postcode": "328-0124", "prefecture": "栃木県", "id": 3280124 },
        { "address": "箱森町", "city": "栃木市", "postcode": "328-0075", "prefecture": "栃木県", "id": 3280075 },
        { "address": "樋ノ口町", "city": "栃木市", "postcode": "328-0024", "prefecture": "栃木県", "id": 3280024 },
        { "address": "日ノ出町", "city": "栃木市", "postcode": "328-0031", "prefecture": "栃木県", "id": 3280031 },
        { "address": "平井町", "city": "栃木市", "postcode": "328-0054", "prefecture": "栃木県", "id": 3280054 },
        { "address": "平柳町", "city": "栃木市", "postcode": "328-0012", "prefecture": "栃木県", "id": 3280012 },
        { "address": "吹上町", "city": "栃木市", "postcode": "328-0125", "prefecture": "栃木県", "id": 3280125 },
        { "address": "藤岡町赤麻", "city": "栃木市", "postcode": "323-1102", "prefecture": "栃木県", "id": 3231102 },
        { "address": "藤岡町石川", "city": "栃木市", "postcode": "329-0316", "prefecture": "栃木県", "id": 3290316 },
        { "address": "藤岡町内野", "city": "栃木市", "postcode": "323-1103", "prefecture": "栃木県", "id": 3231103 },
        { "address": "藤岡町太田", "city": "栃木市", "postcode": "323-1108", "prefecture": "栃木県", "id": 3231108 },
        { "address": "藤岡町大田和", "city": "栃木市", "postcode": "323-1107", "prefecture": "栃木県", "id": 3231107 },
        { "address": "藤岡町大前", "city": "栃木市", "postcode": "323-1101", "prefecture": "栃木県", "id": 3231101 },
        { "address": "藤岡町甲", "city": "栃木市", "postcode": "323-1105", "prefecture": "栃木県", "id": 3231105 },
        { "address": "藤岡町下宮", "city": "栃木市", "postcode": "349-1221", "prefecture": "栃木県", "id": 3491221 },
        { "address": "藤岡町帯刀", "city": "栃木市", "postcode": "329-0317", "prefecture": "栃木県", "id": 3290317 },
        { "address": "藤岡町都賀", "city": "栃木市", "postcode": "323-1106", "prefecture": "栃木県", "id": 3231106 },
        { "address": "藤岡町富吉", "city": "栃木市", "postcode": "329-0311", "prefecture": "栃木県", "id": 3290311 },
        { "address": "藤岡町中根", "city": "栃木市", "postcode": "329-0319", "prefecture": "栃木県", "id": 3290319 },
        { "address": "藤岡町西前原", "city": "栃木市", "postcode": "329-0318", "prefecture": "栃木県", "id": 3290318 },
        { "address": "藤岡町新波", "city": "栃木市", "postcode": "329-0314", "prefecture": "栃木県", "id": 3290314 },
        { "address": "藤岡町蛭沼", "city": "栃木市", "postcode": "329-0312", "prefecture": "栃木県", "id": 3290312 },
        { "address": "藤岡町藤岡", "city": "栃木市", "postcode": "323-1104", "prefecture": "栃木県", "id": 3231104 },
        { "address": "藤岡町部屋", "city": "栃木市", "postcode": "329-0315", "prefecture": "栃木県", "id": 3290315 },
        { "address": "藤岡町緑川", "city": "栃木市", "postcode": "329-0313", "prefecture": "栃木県", "id": 3290313 },
        { "address": "藤田町", "city": "栃木市", "postcode": "328-0026", "prefecture": "栃木県", "id": 3280026 },
        { "address": "富士見町", "city": "栃木市", "postcode": "328-0044", "prefecture": "栃木県", "id": 3280044 },
        { "address": "星野町", "city": "栃木市", "postcode": "328-0201", "prefecture": "栃木県", "id": 3280201 },
        { "address": "細堀町", "city": "栃木市", "postcode": "328-0121", "prefecture": "栃木県", "id": 3280121 },
        { "address": "本町", "city": "栃木市", "postcode": "328-0034", "prefecture": "栃木県", "id": 3280034 },
        { "address": "皆川城内町", "city": "栃木市", "postcode": "328-0067", "prefecture": "栃木県", "id": 3280067 },
        { "address": "湊町", "city": "栃木市", "postcode": "328-0045", "prefecture": "栃木県", "id": 3280045 },
        { "address": "宮田町", "city": "栃木市", "postcode": "328-0022", "prefecture": "栃木県", "id": 3280022 },
        { "address": "宮町", "city": "栃木市", "postcode": "328-0134", "prefecture": "栃木県", "id": 3280134 },
        { "address": "室町", "city": "栃木市", "postcode": "328-0036", "prefecture": "栃木県", "id": 3280036 },
        { "address": "柳橋町", "city": "栃木市", "postcode": "328-0051", "prefecture": "栃木県", "id": 3280051 },
        { "address": "柳原町", "city": "栃木市", "postcode": "328-0001", "prefecture": "栃木県", "id": 3280001 },
        { "address": "倭町", "city": "栃木市", "postcode": "328-0037", "prefecture": "栃木県", "id": 3280037 },
        { "address": "寄居町", "city": "栃木市", "postcode": "328-0005", "prefecture": "栃木県", "id": 3280005 },
        { "address": "万町", "city": "栃木市", "postcode": "328-0015", "prefecture": "栃木県", "id": 3280015 },
        { "city": "佐野市", "postcode": "327-0000", "prefecture": "栃木県", "id": 3270000 },
        { "address": "相生町", "city": "佐野市", "postcode": "327-0023", "prefecture": "栃木県", "id": 3270023 },
        { "address": "会沢町", "city": "佐野市", "postcode": "327-0511", "prefecture": "栃木県", "id": 3270511 },
        { "address": "赤坂町", "city": "佐野市", "postcode": "327-0004", "prefecture": "栃木県", "id": 3270004 },
        { "address": "赤見町", "city": "佐野市", "postcode": "327-0104", "prefecture": "栃木県", "id": 3270104 },
        { "address": "秋山町", "city": "佐野市", "postcode": "327-0517", "prefecture": "栃木県", "id": 3270517 },
        { "address": "あくと町", "city": "佐野市", "postcode": "327-0525", "prefecture": "栃木県", "id": 3270525 },
        { "address": "浅沼町", "city": "佐野市", "postcode": "327-0831", "prefecture": "栃木県", "id": 3270831 },
        { "address": "朝日町", "city": "佐野市", "postcode": "327-0011", "prefecture": "栃木県", "id": 3270011 },
        { "address": "鐙塚町", "city": "佐野市", "postcode": "327-0815", "prefecture": "栃木県", "id": 3270815 },
        { "address": "飯田町", "city": "佐野市", "postcode": "327-0825", "prefecture": "栃木県", "id": 3270825 },
        { "address": "伊賀町", "city": "佐野市", "postcode": "327-0021", "prefecture": "栃木県", "id": 3270021 },
        { "address": "石塚町", "city": "佐野市", "postcode": "327-0103", "prefecture": "栃木県", "id": 3270103 },
        { "address": "出流原町", "city": "佐野市", "postcode": "327-0102", "prefecture": "栃木県", "id": 3270102 },
        { "address": "伊勢山町", "city": "佐野市", "postcode": "327-0817", "prefecture": "栃木県", "id": 3270817 },
        { "address": "犬伏上町", "city": "佐野市", "postcode": "327-0806", "prefecture": "栃木県", "id": 3270806 },
        { "address": "犬伏中町", "city": "佐野市", "postcode": "327-0805", "prefecture": "栃木県", "id": 3270805 },
        { "address": "犬伏下町", "city": "佐野市", "postcode": "327-0804", "prefecture": "栃木県", "id": 3270804 },
        { "address": "犬伏新町", "city": "佐野市", "postcode": "327-0803", "prefecture": "栃木県", "id": 3270803 },
        { "address": "伊保内町", "city": "佐野市", "postcode": "327-0034", "prefecture": "栃木県", "id": 3270034 },
        { "address": "岩崎町", "city": "佐野市", "postcode": "327-0307", "prefecture": "栃木県", "id": 3270307 },
        { "address": "植上町", "city": "佐野市", "postcode": "327-0832", "prefecture": "栃木県", "id": 3270832 },
        { "address": "植下町", "city": "佐野市", "postcode": "327-0835", "prefecture": "栃木県", "id": 3270835 },
        { "address": "植野町", "city": "佐野市", "postcode": "327-0837", "prefecture": "栃木県", "id": 3270837 },
        { "address": "梅園町", "city": "佐野市", "postcode": "327-0322", "prefecture": "栃木県", "id": 3270322 },
        { "address": "大蔵町", "city": "佐野市", "postcode": "327-0012", "prefecture": "栃木県", "id": 3270012 },
        { "address": "大栗町", "city": "佐野市", "postcode": "327-0807", "prefecture": "栃木県", "id": 3270807 },
        { "address": "大古屋町", "city": "佐野市", "postcode": "327-0033", "prefecture": "栃木県", "id": 3270033 },
        { "address": "大橋町", "city": "佐野市", "postcode": "327-0003", "prefecture": "栃木県", "id": 3270003 },
        { "address": "小見町", "city": "佐野市", "postcode": "327-0316", "prefecture": "栃木県", "id": 3270316 },
        { "address": "柿平町", "city": "佐野市", "postcode": "327-0515", "prefecture": "栃木県", "id": 3270515 },
        { "address": "嘉多山町", "city": "佐野市", "postcode": "327-0523", "prefecture": "栃木県", "id": 3270523 },
        { "address": "金井上町", "city": "佐野市", "postcode": "327-0015", "prefecture": "栃木県", "id": 3270015 },
        { "address": "金吹町", "city": "佐野市", "postcode": "327-0007", "prefecture": "栃木県", "id": 3270007 },
        { "address": "金屋下町", "city": "佐野市", "postcode": "327-0025", "prefecture": "栃木県", "id": 3270025 },
        { "address": "金屋仲町", "city": "佐野市", "postcode": "327-0026", "prefecture": "栃木県", "id": 3270026 },
        { "address": "庚申塚町", "city": "佐野市", "postcode": "327-0032", "prefecture": "栃木県", "id": 3270032 },
        { "address": "上台町", "city": "佐野市", "postcode": "327-0006", "prefecture": "栃木県", "id": 3270006 },
        { "address": "上羽田町", "city": "佐野市", "postcode": "327-0042", "prefecture": "栃木県", "id": 3270042 },
        { "address": "亀井町", "city": "佐野市", "postcode": "327-0024", "prefecture": "栃木県", "id": 3270024 },
        { "address": "閑馬町", "city": "佐野市", "postcode": "327-0321", "prefecture": "栃木県", "id": 3270321 },
        { "address": "北茂呂町", "city": "佐野市", "postcode": "327-0827", "prefecture": "栃木県", "id": 3270827 },
        { "address": "君田町", "city": "佐野市", "postcode": "327-0043", "prefecture": "栃木県", "id": 3270043 },
        { "address": "葛生西", "city": "佐野市", "postcode": "327-0507", "prefecture": "栃木県", "id": 3270507 },
        { "address": "葛生東", "city": "佐野市", "postcode": "327-0501", "prefecture": "栃木県", "id": 3270501 },
        { "address": "久保町", "city": "佐野市", "postcode": "327-0845", "prefecture": "栃木県", "id": 3270845 },
        { "address": "黒袴町", "city": "佐野市", "postcode": "327-0813", "prefecture": "栃木県", "id": 3270813 },
        { "address": "越名町", "city": "佐野市", "postcode": "327-0822", "prefecture": "栃木県", "id": 3270822 },
        { "address": "小中町", "city": "佐野市", "postcode": "327-0001", "prefecture": "栃木県", "id": 3270001 },
        { "address": "栄町", "city": "佐野市", "postcode": "327-0816", "prefecture": "栃木県", "id": 3270816 },
        { "address": "作原町", "city": "佐野市", "postcode": "327-0301", "prefecture": "栃木県", "id": 3270301 },
        { "address": "七軒町", "city": "佐野市", "postcode": "327-0005", "prefecture": "栃木県", "id": 3270005 },
        { "address": "寺中町", "city": "佐野市", "postcode": "327-0836", "prefecture": "栃木県", "id": 3270836 },
        { "address": "下羽田町", "city": "佐野市", "postcode": "327-0044", "prefecture": "栃木県", "id": 3270044 },
        { "address": "下彦間町", "city": "佐野市", "postcode": "327-0325", "prefecture": "栃木県", "id": 3270325 },
        { "address": "白岩町", "city": "佐野市", "postcode": "327-0302", "prefecture": "栃木県", "id": 3270302 },
        { "address": "新吉水町", "city": "佐野市", "postcode": "327-0314", "prefecture": "栃木県", "id": 3270314 },
        { "address": "関川町", "city": "佐野市", "postcode": "327-0811", "prefecture": "栃木県", "id": 3270811 },
        { "address": "仙波町", "city": "佐野市", "postcode": "328-0221", "prefecture": "栃木県", "id": 3280221 },
        { "address": "仙波町", "city": "佐野市", "postcode": "327-0514", "prefecture": "栃木県", "id": 3270514 },
        { "address": "大祝町", "city": "佐野市", "postcode": "327-0016", "prefecture": "栃木県", "id": 3270016 },
        { "address": "大町", "city": "佐野市", "postcode": "327-0017", "prefecture": "栃木県", "id": 3270017 },
        { "address": "高砂町", "city": "佐野市", "postcode": "327-0022", "prefecture": "栃木県", "id": 3270022 },
        { "address": "高萩町", "city": "佐野市", "postcode": "327-0821", "prefecture": "栃木県", "id": 3270821 },
        { "address": "高橋町", "city": "佐野市", "postcode": "327-0045", "prefecture": "栃木県", "id": 3270045 },
        { "address": "高山町", "city": "佐野市", "postcode": "327-0823", "prefecture": "栃木県", "id": 3270823 },
        { "address": "田島町", "city": "佐野市", "postcode": "327-0031", "prefecture": "栃木県", "id": 3270031 },
        { "address": "多田町", "city": "佐野市", "postcode": "327-0311", "prefecture": "栃木県", "id": 3270311 },
        { "address": "田沼町", "city": "佐野市", "postcode": "327-0317", "prefecture": "栃木県", "id": 3270317 },
        { "address": "田之入町", "city": "佐野市", "postcode": "327-0841", "prefecture": "栃木県", "id": 3270841 },
        { "address": "築地町", "city": "佐野市", "postcode": "327-0502", "prefecture": "栃木県", "id": 3270502 },
        { "address": "寺久保町", "city": "佐野市", "postcode": "327-0101", "prefecture": "栃木県", "id": 3270101 },
        { "address": "天神町", "city": "佐野市", "postcode": "327-0847", "prefecture": "栃木県", "id": 3270847 },
        { "address": "天明町", "city": "佐野市", "postcode": "327-0014", "prefecture": "栃木県", "id": 3270014 },
        { "address": "栃本町", "city": "佐野市", "postcode": "327-0312", "prefecture": "栃木県", "id": 3270312 },
        { "address": "戸奈良町", "city": "佐野市", "postcode": "327-0323", "prefecture": "栃木県", "id": 3270323 },
        { "address": "富岡町", "city": "佐野市", "postcode": "327-0844", "prefecture": "栃木県", "id": 3270844 },
        { "address": "戸室町", "city": "佐野市", "postcode": "327-0306", "prefecture": "栃木県", "id": 3270306 },
        { "address": "豊代町", "city": "佐野市", "postcode": "327-0512", "prefecture": "栃木県", "id": 3270512 },
        { "address": "長坂町", "city": "佐野市", "postcode": "327-0524", "prefecture": "栃木県", "id": 3270524 },
        { "address": "中町", "city": "佐野市", "postcode": "327-0504", "prefecture": "栃木県", "id": 3270504 },
        { "address": "並木町", "city": "佐野市", "postcode": "327-0002", "prefecture": "栃木県", "id": 3270002 },
        { "address": "奈良渕町", "city": "佐野市", "postcode": "327-0842", "prefecture": "栃木県", "id": 3270842 },
        { "address": "西浦町", "city": "佐野市", "postcode": "327-0814", "prefecture": "栃木県", "id": 3270814 },
        { "address": "韮川町", "city": "佐野市", "postcode": "327-0802", "prefecture": "栃木県", "id": 3270802 },
        { "address": "長谷場町", "city": "佐野市", "postcode": "327-0303", "prefecture": "栃木県", "id": 3270303 },
        { "address": "鉢木町", "city": "佐野市", "postcode": "327-0508", "prefecture": "栃木県", "id": 3270508 },
        { "address": "飛駒町", "city": "佐野市", "postcode": "327-0231", "prefecture": "栃木県", "id": 3270231 },
        { "address": "富士町", "city": "佐野市", "postcode": "327-0801", "prefecture": "栃木県", "id": 3270801 },
        { "address": "富士見町", "city": "佐野市", "postcode": "327-0503", "prefecture": "栃木県", "id": 3270503 },
        { "address": "船越町", "city": "佐野市", "postcode": "327-0305", "prefecture": "栃木県", "id": 3270305 },
        { "address": "船津川町", "city": "佐野市", "postcode": "327-0035", "prefecture": "栃木県", "id": 3270035 },
        { "address": "堀米町", "city": "佐野市", "postcode": "327-0843", "prefecture": "栃木県", "id": 3270843 },
        { "address": "本町", "city": "佐野市", "postcode": "327-0013", "prefecture": "栃木県", "id": 3270013 },
        { "address": "馬門町", "city": "佐野市", "postcode": "327-0824", "prefecture": "栃木県", "id": 3270824 },
        { "address": "牧町", "city": "佐野市", "postcode": "327-0513", "prefecture": "栃木県", "id": 3270513 },
        { "address": "町谷町", "city": "佐野市", "postcode": "327-0812", "prefecture": "栃木県", "id": 3270812 },
        { "address": "御神楽町", "city": "佐野市", "postcode": "327-0304", "prefecture": "栃木県", "id": 3270304 },
        { "address": "水木町", "city": "佐野市", "postcode": "327-0516", "prefecture": "栃木県", "id": 3270516 },
        { "address": "宮下町", "city": "佐野市", "postcode": "327-0509", "prefecture": "栃木県", "id": 3270509 },
        { "address": "村上町", "city": "佐野市", "postcode": "327-0046", "prefecture": "栃木県", "id": 3270046 },
        { "address": "免鳥町", "city": "佐野市", "postcode": "327-0041", "prefecture": "栃木県", "id": 3270041 },
        { "address": "茂呂山町", "city": "佐野市", "postcode": "327-0826", "prefecture": "栃木県", "id": 3270826 },
        { "address": "山形町", "city": "佐野市", "postcode": "327-0324", "prefecture": "栃木県", "id": 3270324 },
        { "address": "山越町", "city": "佐野市", "postcode": "327-0318", "prefecture": "栃木県", "id": 3270318 },
        { "address": "山菅町", "city": "佐野市", "postcode": "327-0505", "prefecture": "栃木県", "id": 3270505 },
        { "address": "大和町", "city": "佐野市", "postcode": "327-0027", "prefecture": "栃木県", "id": 3270027 },
        { "address": "吉水駅前", "city": "佐野市", "postcode": "327-0315", "prefecture": "栃木県", "id": 3270315 },
        { "address": "吉水町", "city": "佐野市", "postcode": "327-0313", "prefecture": "栃木県", "id": 3270313 },
        { "address": "米山南町", "city": "佐野市", "postcode": "327-0818", "prefecture": "栃木県", "id": 3270818 },
        { "address": "万町", "city": "佐野市", "postcode": "327-0028", "prefecture": "栃木県", "id": 3270028 },
        { "address": "若松町", "city": "佐野市", "postcode": "327-0846", "prefecture": "栃木県", "id": 3270846 },
        { "address": "若宮上町", "city": "佐野市", "postcode": "327-0833", "prefecture": "栃木県", "id": 3270833 },
        { "address": "若宮下町", "city": "佐野市", "postcode": "327-0834", "prefecture": "栃木県", "id": 3270834 },
        { "city": "鹿沼市", "postcode": "322-0000", "prefecture": "栃木県", "id": 3220000 },
        { "address": "麻苧町", "city": "鹿沼市", "postcode": "322-0058", "prefecture": "栃木県", "id": 3220058 },
        { "address": "旭が丘", "city": "鹿沼市", "postcode": "322-0345", "prefecture": "栃木県", "id": 3220345 },
        { "address": "朝日町", "city": "鹿沼市", "postcode": "322-0035", "prefecture": "栃木県", "id": 3220035 },
        { "address": "東町", "city": "鹿沼市", "postcode": "322-0022", "prefecture": "栃木県", "id": 3220022 },
        { "address": "油田町", "city": "鹿沼市", "postcode": "322-0342", "prefecture": "栃木県", "id": 3220342 },
        { "address": "池ノ森", "city": "鹿沼市", "postcode": "322-0018", "prefecture": "栃木県", "id": 3220018 },
        { "address": "石橋町", "city": "鹿沼市", "postcode": "322-0055", "prefecture": "栃木県", "id": 3220055 },
        { "address": "泉町", "city": "鹿沼市", "postcode": "322-0062", "prefecture": "栃木県", "id": 3220062 },
        { "address": "磯町", "city": "鹿沼市", "postcode": "322-0536", "prefecture": "栃木県", "id": 3220536 },
        { "address": "板荷", "city": "鹿沼市", "postcode": "321-1111", "prefecture": "栃木県", "id": 3211111 },
        { "address": "今宮町", "city": "鹿沼市", "postcode": "322-0068", "prefecture": "栃木県", "id": 3220068 },
        { "address": "入粟野", "city": "鹿沼市", "postcode": "322-0307", "prefecture": "栃木県", "id": 3220307 },
        { "address": "上野町", "city": "鹿沼市", "postcode": "322-0021", "prefecture": "栃木県", "id": 3220021 },
        { "address": "大和田町", "city": "鹿沼市", "postcode": "322-0525", "prefecture": "栃木県", "id": 3220525 },
        { "address": "御成橋町", "city": "鹿沼市", "postcode": "322-0005", "prefecture": "栃木県", "id": 3220005 },
        { "address": "貝島町", "city": "鹿沼市", "postcode": "322-0027", "prefecture": "栃木県", "id": 3220027 },
        { "address": "柏木", "city": "鹿沼市", "postcode": "322-0304", "prefecture": "栃木県", "id": 3220304 },
        { "address": "加園", "city": "鹿沼市", "postcode": "322-0252", "prefecture": "栃木県", "id": 3220252 },
        { "address": "上石川", "city": "鹿沼市", "postcode": "322-0015", "prefecture": "栃木県", "id": 3220015 },
        { "address": "上大久保", "city": "鹿沼市", "postcode": "322-0102", "prefecture": "栃木県", "id": 3220102 },
        { "address": "上粕尾", "city": "鹿沼市", "postcode": "322-0423", "prefecture": "栃木県", "id": 3220423 },
        { "address": "上久我", "city": "鹿沼市", "postcode": "322-0254", "prefecture": "栃木県", "id": 3220254 },
        { "address": "上材木町", "city": "鹿沼市", "postcode": "322-0065", "prefecture": "栃木県", "id": 3220065 },
        { "address": "上田町", "city": "鹿沼市", "postcode": "322-0066", "prefecture": "栃木県", "id": 3220066 },
        { "address": "上殿町", "city": "鹿沼市", "postcode": "322-0045", "prefecture": "栃木県", "id": 3220045 },
        { "address": "上永野", "city": "鹿沼市", "postcode": "328-0211", "prefecture": "栃木県", "id": 3280211 },
        { "address": "上奈良部町", "city": "鹿沼市", "postcode": "322-0522", "prefecture": "栃木県", "id": 3220522 },
        { "address": "上南摩町", "city": "鹿沼市", "postcode": "322-0346", "prefecture": "栃木県", "id": 3220346 },
        { "address": "上日向", "city": "鹿沼市", "postcode": "322-0076", "prefecture": "栃木県", "id": 3220076 },
        { "address": "亀和田町", "city": "鹿沼市", "postcode": "322-0534", "prefecture": "栃木県", "id": 3220534 },
        { "address": "北赤塚町", "city": "鹿沼市", "postcode": "322-0533", "prefecture": "栃木県", "id": 3220533 },
        { "address": "北半田", "city": "鹿沼市", "postcode": "322-0301", "prefecture": "栃木県", "id": 3220301 },
        { "address": "銀座", "city": "鹿沼市", "postcode": "322-0052", "prefecture": "栃木県", "id": 3220052 },
        { "address": "草久", "city": "鹿沼市", "postcode": "322-0101", "prefecture": "栃木県", "id": 3220101 },
        { "address": "口粟野", "city": "鹿沼市", "postcode": "322-0305", "prefecture": "栃木県", "id": 3220305 },
        { "address": "久野", "city": "鹿沼市", "postcode": "322-0303", "prefecture": "栃木県", "id": 3220303 },
        { "address": "久保町", "city": "鹿沼市", "postcode": "322-0051", "prefecture": "栃木県", "id": 3220051 },
        { "address": "晃望台", "city": "鹿沼市", "postcode": "322-0024", "prefecture": "栃木県", "id": 3220024 },
        { "address": "高谷", "city": "鹿沼市", "postcode": "322-0009", "prefecture": "栃木県", "id": 3220009 },
        { "address": "古賀志町", "city": "鹿沼市", "postcode": "322-0008", "prefecture": "栃木県", "id": 3220008 },
        { "address": "幸町", "city": "鹿沼市", "postcode": "322-0023", "prefecture": "栃木県", "id": 3220023 },
        { "address": "栄町", "city": "鹿沼市", "postcode": "322-0028", "prefecture": "栃木県", "id": 3220028 },
        { "address": "坂田山", "city": "鹿沼市", "postcode": "322-0069", "prefecture": "栃木県", "id": 3220069 },
        { "address": "酒野谷", "city": "鹿沼市", "postcode": "322-0047", "prefecture": "栃木県", "id": 3220047 },
        { "address": "笹原田", "city": "鹿沼市", "postcode": "322-0078", "prefecture": "栃木県", "id": 3220078 },
        { "address": "さつき町", "city": "鹿沼市", "postcode": "322-0014", "prefecture": "栃木県", "id": 3220014 },
        { "address": "佐目町", "city": "鹿沼市", "postcode": "322-0343", "prefecture": "栃木県", "id": 3220343 },
        { "address": "三幸町", "city": "鹿沼市", "postcode": "322-0041", "prefecture": "栃木県", "id": 3220041 },
        { "address": "塩山町", "city": "鹿沼市", "postcode": "322-0527", "prefecture": "栃木県", "id": 3220527 },
        { "address": "下石川", "city": "鹿沼市", "postcode": "322-0017", "prefecture": "栃木県", "id": 3220017 },
        { "address": "下大久保", "city": "鹿沼市", "postcode": "322-0103", "prefecture": "栃木県", "id": 3220103 },
        { "address": "下粕尾", "city": "鹿沼市", "postcode": "322-0421", "prefecture": "栃木県", "id": 3220421 },
        { "address": "下久我", "city": "鹿沼市", "postcode": "322-0253", "prefecture": "栃木県", "id": 3220253 },
        { "address": "下材木町", "city": "鹿沼市", "postcode": "322-0056", "prefecture": "栃木県", "id": 3220056 },
        { "address": "下沢", "city": "鹿沼市", "postcode": "322-0256", "prefecture": "栃木県", "id": 3220256 },
        { "address": "下武子町", "city": "鹿沼市", "postcode": "322-0004", "prefecture": "栃木県", "id": 3220004 },
        { "address": "下田町", "city": "鹿沼市", "postcode": "322-0036", "prefecture": "栃木県", "id": 3220036 },
        { "address": "下遠部", "city": "鹿沼市", "postcode": "322-0079", "prefecture": "栃木県", "id": 3220079 },
        { "address": "下永野", "city": "鹿沼市", "postcode": "328-0212", "prefecture": "栃木県", "id": 3280212 },
        { "address": "下奈良部町", "city": "鹿沼市", "postcode": "322-0523", "prefecture": "栃木県", "id": 3220523 },
        { "address": "下南摩町", "city": "鹿沼市", "postcode": "322-0341", "prefecture": "栃木県", "id": 3220341 },
        { "address": "下日向", "city": "鹿沼市", "postcode": "322-0075", "prefecture": "栃木県", "id": 3220075 },
        { "address": "下横町", "city": "鹿沼市", "postcode": "322-0054", "prefecture": "栃木県", "id": 3220054 },
        { "address": "白桑田", "city": "鹿沼市", "postcode": "322-0011", "prefecture": "栃木県", "id": 3220011 },
        { "address": "末広町", "city": "鹿沼市", "postcode": "322-0038", "prefecture": "栃木県", "id": 3220038 },
        { "address": "千手町", "city": "鹿沼市", "postcode": "322-0061", "prefecture": "栃木県", "id": 3220061 },
        { "address": "千渡", "city": "鹿沼市", "postcode": "322-0002", "prefecture": "栃木県", "id": 3220002 },
        { "address": "武子", "city": "鹿沼市", "postcode": "322-0007", "prefecture": "栃木県", "id": 3220007 },
        { "address": "玉田町", "city": "鹿沼市", "postcode": "322-0072", "prefecture": "栃木県", "id": 3220072 },
        { "address": "寺町", "city": "鹿沼市", "postcode": "322-0057", "prefecture": "栃木県", "id": 3220057 },
        { "address": "天神町", "city": "鹿沼市", "postcode": "322-0067", "prefecture": "栃木県", "id": 3220067 },
        { "address": "栃窪", "city": "鹿沼市", "postcode": "322-0001", "prefecture": "栃木県", "id": 3220001 },
        { "address": "戸張町", "city": "鹿沼市", "postcode": "322-0063", "prefecture": "栃木県", "id": 3220063 },
        { "address": "富岡", "city": "鹿沼市", "postcode": "322-0006", "prefecture": "栃木県", "id": 3220006 },
        { "address": "鳥居跡町", "city": "鹿沼市", "postcode": "322-0044", "prefecture": "栃木県", "id": 3220044 },
        { "address": "中粟野", "city": "鹿沼市", "postcode": "322-0306", "prefecture": "栃木県", "id": 3220306 },
        { "address": "中粕尾", "city": "鹿沼市", "postcode": "322-0422", "prefecture": "栃木県", "id": 3220422 },
        { "address": "中田町", "city": "鹿沼市", "postcode": "322-0037", "prefecture": "栃木県", "id": 3220037 },
        { "address": "仲町", "city": "鹿沼市", "postcode": "322-0053", "prefecture": "栃木県", "id": 3220053 },
        { "address": "奈佐原町", "city": "鹿沼市", "postcode": "322-0528", "prefecture": "栃木県", "id": 3220528 },
        { "address": "仁神堂町", "city": "鹿沼市", "postcode": "322-0003", "prefecture": "栃木県", "id": 3220003 },
        { "address": "西鹿沼町", "city": "鹿沼市", "postcode": "322-0073", "prefecture": "栃木県", "id": 3220073 },
        { "address": "西沢町", "city": "鹿沼市", "postcode": "322-0344", "prefecture": "栃木県", "id": 3220344 },
        { "address": "西茂呂", "city": "鹿沼市", "postcode": "322-0029", "prefecture": "栃木県", "id": 3220029 },
        { "address": "日光奈良部町", "city": "鹿沼市", "postcode": "322-0521", "prefecture": "栃木県", "id": 3220521 },
        { "address": "楡木町", "city": "鹿沼市", "postcode": "322-0526", "prefecture": "栃木県", "id": 3220526 },
        { "address": "野沢町", "city": "鹿沼市", "postcode": "322-0535", "prefecture": "栃木県", "id": 3220535 },
        { "address": "野尻", "city": "鹿沼市", "postcode": "322-0251", "prefecture": "栃木県", "id": 3220251 },
        { "address": "花岡町", "city": "鹿沼市", "postcode": "322-0049", "prefecture": "栃木県", "id": 3220049 },
        { "address": "東末広町", "city": "鹿沼市", "postcode": "322-0039", "prefecture": "栃木県", "id": 3220039 },
        { "address": "引田", "city": "鹿沼市", "postcode": "322-0255", "prefecture": "栃木県", "id": 3220255 },
        { "address": "日吉町", "city": "鹿沼市", "postcode": "322-0074", "prefecture": "栃木県", "id": 3220074 },
        { "address": "深岩", "city": "鹿沼市", "postcode": "322-0077", "prefecture": "栃木県", "id": 3220077 },
        { "address": "深津", "city": "鹿沼市", "postcode": "322-0013", "prefecture": "栃木県", "id": 3220013 },
        { "address": "深程", "city": "鹿沼市", "postcode": "322-0302", "prefecture": "栃木県", "id": 3220302 },
        { "address": "藤江町", "city": "鹿沼市", "postcode": "322-0532", "prefecture": "栃木県", "id": 3220532 },
        { "address": "府中町", "city": "鹿沼市", "postcode": "322-0034", "prefecture": "栃木県", "id": 3220034 },
        { "address": "府所町", "city": "鹿沼市", "postcode": "322-0033", "prefecture": "栃木県", "id": 3220033 },
        { "address": "府所本町", "city": "鹿沼市", "postcode": "322-0032", "prefecture": "栃木県", "id": 3220032 },
        { "address": "文化橋町", "city": "鹿沼市", "postcode": "322-0064", "prefecture": "栃木県", "id": 3220064 },
        { "address": "蓬莱町", "city": "鹿沼市", "postcode": "322-0042", "prefecture": "栃木県", "id": 3220042 },
        { "address": "松原", "city": "鹿沼市", "postcode": "322-0012", "prefecture": "栃木県", "id": 3220012 },
        { "address": "緑町", "city": "鹿沼市", "postcode": "322-0025", "prefecture": "栃木県", "id": 3220025 },
        { "address": "南上野町", "city": "鹿沼市", "postcode": "322-0531", "prefecture": "栃木県", "id": 3220531 },
        { "address": "みなみ町", "city": "鹿沼市", "postcode": "322-0524", "prefecture": "栃木県", "id": 3220524 },
        { "address": "見野", "city": "鹿沼市", "postcode": "322-0071", "prefecture": "栃木県", "id": 3220071 },
        { "address": "睦町", "city": "鹿沼市", "postcode": "322-0031", "prefecture": "栃木県", "id": 3220031 },
        { "address": "村井町", "city": "鹿沼市", "postcode": "322-0048", "prefecture": "栃木県", "id": 3220048 },
        { "address": "樅山町", "city": "鹿沼市", "postcode": "322-0046", "prefecture": "栃木県", "id": 3220046 },
        { "address": "茂呂", "city": "鹿沼市", "postcode": "322-0026", "prefecture": "栃木県", "id": 3220026 },
        { "address": "万町", "city": "鹿沼市", "postcode": "322-0043", "prefecture": "栃木県", "id": 3220043 },
        { "address": "流通センター", "city": "鹿沼市", "postcode": "322-0016", "prefecture": "栃木県", "id": 3220016 },
        { "city": "日光市", "postcode": "321-1200", "prefecture": "栃木県", "id": 3211200 },
        { "address": "相生町", "city": "日光市", "postcode": "321-1413", "prefecture": "栃木県", "id": 3211413 },
        { "address": "赤下", "city": "日光市", "postcode": "321-2604", "prefecture": "栃木県", "id": 3212604 },
        { "address": "足尾町", "city": "日光市", "postcode": "321-1511", "prefecture": "栃木県", "id": 3211511 },
        { "address": "足尾町赤倉", "city": "日光市", "postcode": "321-1502", "prefecture": "栃木県", "id": 3211502 },
        { "address": "足尾町赤沢", "city": "日光市", "postcode": "321-1524", "prefecture": "栃木県", "id": 3211524 },
        { "address": "足尾町愛宕下", "city": "日光市", "postcode": "321-1501", "prefecture": "栃木県", "id": 3211501 },
        { "address": "足尾町上の平", "city": "日光市", "postcode": "321-1505", "prefecture": "栃木県", "id": 3211505 },
        { "address": "足尾町掛水", "city": "日光市", "postcode": "321-1512", "prefecture": "栃木県", "id": 3211512 },
        { "address": "足尾町上間藤", "city": "日光市", "postcode": "321-1504", "prefecture": "栃木県", "id": 3211504 },
        { "address": "足尾町下間藤", "city": "日光市", "postcode": "321-1506", "prefecture": "栃木県", "id": 3211506 },
        { "address": "足尾町砂畑", "city": "日光市", "postcode": "321-1515", "prefecture": "栃木県", "id": 3211515 },
        { "address": "足尾町通洞", "city": "日光市", "postcode": "321-1514", "prefecture": "栃木県", "id": 3211514 },
        { "address": "足尾町遠下", "city": "日光市", "postcode": "321-1521", "prefecture": "栃木県", "id": 3211521 },
        { "address": "足尾町中才", "city": "日光市", "postcode": "321-1522", "prefecture": "栃木県", "id": 3211522 },
        { "address": "足尾町南橋", "city": "日光市", "postcode": "321-1507", "prefecture": "栃木県", "id": 3211507 },
        { "address": "足尾町深沢", "city": "日光市", "postcode": "321-1503", "prefecture": "栃木県", "id": 3211503 },
        { "address": "足尾町本山", "city": "日光市", "postcode": "321-1508", "prefecture": "栃木県", "id": 3211508 },
        { "address": "足尾町松原", "city": "日光市", "postcode": "321-1523", "prefecture": "栃木県", "id": 3211523 },
        { "address": "足尾町向原", "city": "日光市", "postcode": "321-1513", "prefecture": "栃木県", "id": 3211513 },
        { "address": "五十里", "city": "日光市", "postcode": "321-2615", "prefecture": "栃木県", "id": 3212615 },
        { "address": "五十里", "city": "日光市", "postcode": "321-2806", "prefecture": "栃木県", "id": 3212806 },
        { "address": "石屋町", "city": "日光市", "postcode": "321-1405", "prefecture": "栃木県", "id": 3211405 },
        { "address": "和泉", "city": "日光市", "postcode": "321-1425", "prefecture": "栃木県", "id": 3211425 },
        { "address": "板橋", "city": "日光市", "postcode": "321-1102", "prefecture": "栃木県", "id": 3211102 },
        { "address": "稲荷町", "city": "日光市", "postcode": "321-1411", "prefecture": "栃木県", "id": 3211411 },
        { "address": "猪倉", "city": "日光市", "postcode": "321-2344", "prefecture": "栃木県", "id": 3212344 },
        { "address": "今市", "city": "日光市", "postcode": "321-1261", "prefecture": "栃木県", "id": 3211261 },
        { "address": "今市本町", "city": "日光市", "postcode": "321-1272", "prefecture": "栃木県", "id": 3211272 },
        { "address": "岩崎", "city": "日光市", "postcode": "321-1104", "prefecture": "栃木県", "id": 3211104 },
        { "address": "薄井沢", "city": "日光市", "postcode": "321-2333", "prefecture": "栃木県", "id": 3212333 },
        { "address": "大桑町", "city": "日光市", "postcode": "321-2411", "prefecture": "栃木県", "id": 3212411 },
        { "address": "大沢町", "city": "日光市", "postcode": "321-2341", "prefecture": "栃木県", "id": 3212341 },
        { "address": "大室", "city": "日光市", "postcode": "321-2332", "prefecture": "栃木県", "id": 3212332 },
        { "address": "大渡", "city": "日光市", "postcode": "321-2402", "prefecture": "栃木県", "id": 3212402 },
        { "address": "荊沢", "city": "日光市", "postcode": "321-2336", "prefecture": "栃木県", "id": 3212336 },
        { "address": "嘉多蔵", "city": "日光市", "postcode": "321-2354", "prefecture": "栃木県", "id": 3212354 },
        { "address": "上栗山", "city": "日光市", "postcode": "321-2715", "prefecture": "栃木県", "id": 3212715 },
        { "address": "上鉢石町", "city": "日光市", "postcode": "321-1401", "prefecture": "栃木県", "id": 3211401 },
        { "address": "上三依", "city": "日光市", "postcode": "321-2802", "prefecture": "栃木県", "id": 3212802 },
        { "address": "柄倉", "city": "日光市", "postcode": "321-2524", "prefecture": "栃木県", "id": 3212524 },
        { "address": "川治温泉川治", "city": "日光市", "postcode": "321-2611", "prefecture": "栃木県", "id": 3212611 },
        { "address": "川治温泉高原", "city": "日光市", "postcode": "321-2612", "prefecture": "栃木県", "id": 3212612 },
        { "address": "川治温泉滝", "city": "日光市", "postcode": "321-2614", "prefecture": "栃木県", "id": 3212614 },
        { "address": "川俣", "city": "日光市", "postcode": "321-2717", "prefecture": "栃木県", "id": 3212717 },
        { "address": "川室", "city": "日光市", "postcode": "321-2401", "prefecture": "栃木県", "id": 3212401 },
        { "address": "吉沢", "city": "日光市", "postcode": "321-1273", "prefecture": "栃木県", "id": 3211273 },
        {
            "address": "鬼怒川温泉大原",
            "city": "日光市",
            "postcode": "321-2522",
            "prefecture": "栃木県",
            "id": 3212522
        },
        { "address": "鬼怒川温泉滝", "city": "日光市", "postcode": "321-2526", "prefecture": "栃木県", "id": 3212526 },
        { "address": "清滝", "city": "日光市", "postcode": "321-1444", "prefecture": "栃木県", "id": 3211444 },
        { "address": "清滝安良沢町", "city": "日光市", "postcode": "321-1441", "prefecture": "栃木県", "id": 3211441 },
        { "address": "清滝桜ケ丘町", "city": "日光市", "postcode": "321-1443", "prefecture": "栃木県", "id": 3211443 },
        { "address": "清滝新細尾町", "city": "日光市", "postcode": "321-1448", "prefecture": "栃木県", "id": 3211448 },
        { "address": "清滝丹勢町", "city": "日光市", "postcode": "321-1442", "prefecture": "栃木県", "id": 3211442 },
        { "address": "清滝中安戸町", "city": "日光市", "postcode": "321-1446", "prefecture": "栃木県", "id": 3211446 },
        { "address": "清滝和の代町", "city": "日光市", "postcode": "321-1447", "prefecture": "栃木県", "id": 3211447 },
        { "address": "木和田島", "city": "日光市", "postcode": "321-2345", "prefecture": "栃木県", "id": 3212345 },
        { "address": "久次良町", "city": "日光市", "postcode": "321-1436", "prefecture": "栃木県", "id": 3211436 },
        { "address": "沓掛", "city": "日光市", "postcode": "321-2353", "prefecture": "栃木県", "id": 3212353 },
        { "address": "倉ケ崎", "city": "日光市", "postcode": "321-2412", "prefecture": "栃木県", "id": 3212412 },
        { "address": "倉ケ崎新田", "city": "日光市", "postcode": "321-2413", "prefecture": "栃木県", "id": 3212413 },
        { "address": "栗原", "city": "日光市", "postcode": "321-2421", "prefecture": "栃木県", "id": 3212421 },
        { "address": "黒部", "city": "日光市", "postcode": "321-2713", "prefecture": "栃木県", "id": 3212713 },
        { "address": "小倉", "city": "日光市", "postcode": "321-1106", "prefecture": "栃木県", "id": 3211106 },
        { "address": "御幸町", "city": "日光市", "postcode": "321-1404", "prefecture": "栃木県", "id": 3211404 },
        { "address": "小佐越", "city": "日光市", "postcode": "321-2525", "prefecture": "栃木県", "id": 3212525 },
        { "address": "小代", "city": "日光市", "postcode": "321-1107", "prefecture": "栃木県", "id": 3211107 },
        { "address": "小林", "city": "日光市", "postcode": "321-2352", "prefecture": "栃木県", "id": 3212352 },
        { "address": "小百", "city": "日光市", "postcode": "321-2426", "prefecture": "栃木県", "id": 3212426 },
        { "address": "小百", "city": "日光市", "postcode": "321-2424", "prefecture": "栃木県", "id": 3212424 },
        { "address": "小百", "city": "日光市", "postcode": "321-2425", "prefecture": "栃木県", "id": 3212425 },
        { "address": "小百", "city": "日光市", "postcode": "321-1265", "prefecture": "栃木県", "id": 3211265 },
        { "address": "佐下部", "city": "日光市", "postcode": "321-2427", "prefecture": "栃木県", "id": 3212427 },
        { "address": "沢又", "city": "日光市", "postcode": "321-2355", "prefecture": "栃木県", "id": 3212355 },
        { "address": "山内", "city": "日光市", "postcode": "321-1431", "prefecture": "栃木県", "id": 3211431 },
        { "address": "塩野室町", "city": "日光市", "postcode": "321-2351", "prefecture": "栃木県", "id": 3212351 },
        { "address": "七里", "city": "日光市", "postcode": "321-1423", "prefecture": "栃木県", "id": 3211423 },
        { "address": "下の内", "city": "日光市", "postcode": "321-1276", "prefecture": "栃木県", "id": 3211276 },
        { "address": "下鉢石町", "city": "日光市", "postcode": "321-1403", "prefecture": "栃木県", "id": 3211403 },
        { "address": "瀬川", "city": "日光市", "postcode": "321-1263", "prefecture": "栃木県", "id": 3211263 },
        { "address": "瀬尾", "city": "日光市", "postcode": "321-1264", "prefecture": "栃木県", "id": 3211264 },
        { "address": "芹沢", "city": "日光市", "postcode": "321-2804", "prefecture": "栃木県", "id": 3212804 },
        { "address": "芹沼", "city": "日光市", "postcode": "321-2405", "prefecture": "栃木県", "id": 3212405 },
        { "address": "千本木", "city": "日光市", "postcode": "321-1277", "prefecture": "栃木県", "id": 3211277 },
        { "address": "高柴", "city": "日光市", "postcode": "321-2422", "prefecture": "栃木県", "id": 3212422 },
        { "address": "高徳", "city": "日光市", "postcode": "321-2523", "prefecture": "栃木県", "id": 3212523 },
        { "address": "高原", "city": "日光市", "postcode": "321-2616", "prefecture": "栃木県", "id": 3212616 },
        { "address": "滝ケ原", "city": "日光市", "postcode": "321-1356", "prefecture": "栃木県", "id": 3211356 },
        { "address": "匠町", "city": "日光市", "postcode": "321-1433", "prefecture": "栃木県", "id": 3211433 },
        { "address": "丹勢", "city": "日光市", "postcode": "321-1449", "prefecture": "栃木県", "id": 3211449 },
        { "address": "中央町", "city": "日光市", "postcode": "321-1266", "prefecture": "栃木県", "id": 3211266 },
        { "address": "中宮祠", "city": "日光市", "postcode": "321-1661", "prefecture": "栃木県", "id": 3211661 },
        { "address": "手岡", "city": "日光市", "postcode": "321-1103", "prefecture": "栃木県", "id": 3211103 },
        { "address": "東和町", "city": "日光市", "postcode": "321-1412", "prefecture": "栃木県", "id": 3211412 },
        { "address": "所野", "city": "日光市", "postcode": "321-1421", "prefecture": "栃木県", "id": 3211421 },
        { "address": "土沢", "city": "日光市", "postcode": "321-1274", "prefecture": "栃木県", "id": 3211274 },
        { "address": "独鈷沢", "city": "日光市", "postcode": "321-2805", "prefecture": "栃木県", "id": 3212805 },
        { "address": "轟", "city": "日光市", "postcode": "321-2404", "prefecture": "栃木県", "id": 3212404 },
        { "address": "豊田", "city": "日光市", "postcode": "321-2414", "prefecture": "栃木県", "id": 3212414 },
        { "address": "土呂部", "city": "日光市", "postcode": "321-2714", "prefecture": "栃木県", "id": 3212714 },
        { "address": "中小来川", "city": "日光市", "postcode": "321-1354", "prefecture": "栃木県", "id": 3211354 },
        { "address": "長畑", "city": "日光市", "postcode": "321-1108", "prefecture": "栃木県", "id": 3211108 },
        { "address": "中鉢石町", "city": "日光市", "postcode": "321-1402", "prefecture": "栃木県", "id": 3211402 },
        { "address": "中三依", "city": "日光市", "postcode": "321-2803", "prefecture": "栃木県", "id": 3212803 },
        { "address": "並木町", "city": "日光市", "postcode": "321-1271", "prefecture": "栃木県", "id": 3211271 },
        { "address": "西小来川", "city": "日光市", "postcode": "321-1355", "prefecture": "栃木県", "id": 3211355 },
        { "address": "西川", "city": "日光市", "postcode": "321-2603", "prefecture": "栃木県", "id": 3212603 },
        { "address": "日光", "city": "日光市", "postcode": "321-1415", "prefecture": "栃木県", "id": 3211415 },
        { "address": "根室", "city": "日光市", "postcode": "321-2342", "prefecture": "栃木県", "id": 3212342 },
        { "address": "野門", "city": "日光市", "postcode": "321-2716", "prefecture": "栃木県", "id": 3212716 },
        { "address": "野口", "city": "日光市", "postcode": "321-1424", "prefecture": "栃木県", "id": 3211424 },
        { "address": "花石町", "city": "日光市", "postcode": "321-1435", "prefecture": "栃木県", "id": 3211435 },
        { "address": "原宿", "city": "日光市", "postcode": "321-2423", "prefecture": "栃木県", "id": 3212423 },
        { "address": "針貝", "city": "日光市", "postcode": "321-2331", "prefecture": "栃木県", "id": 3212331 },
        { "address": "萩垣面", "city": "日光市", "postcode": "321-1414", "prefecture": "栃木県", "id": 3211414 },
        { "address": "日蔭", "city": "日光市", "postcode": "321-2712", "prefecture": "栃木県", "id": 3212712 },
        { "address": "東小来川", "city": "日光市", "postcode": "321-1351", "prefecture": "栃木県", "id": 3211351 },
        { "address": "一ツ石", "city": "日光市", "postcode": "321-2602", "prefecture": "栃木県", "id": 3212602 },
        { "address": "日向", "city": "日光市", "postcode": "321-2711", "prefecture": "栃木県", "id": 3212711 },
        { "address": "平ケ崎", "city": "日光市", "postcode": "321-1262", "prefecture": "栃木県", "id": 3211262 },
        { "address": "藤原", "city": "日光市", "postcode": "321-2613", "prefecture": "栃木県", "id": 3212613 },
        { "address": "藤原", "city": "日光市", "postcode": "321-2521", "prefecture": "栃木県", "id": 3212521 },
        { "address": "文挾町", "city": "日光市", "postcode": "321-1105", "prefecture": "栃木県", "id": 3211105 },
        { "address": "宝殿", "city": "日光市", "postcode": "321-1422", "prefecture": "栃木県", "id": 3211422 },
        { "address": "細尾町", "city": "日光市", "postcode": "321-1445", "prefecture": "栃木県", "id": 3211445 },
        { "address": "本町", "city": "日光市", "postcode": "321-1434", "prefecture": "栃木県", "id": 3211434 },
        { "address": "町谷", "city": "日光市", "postcode": "321-2403", "prefecture": "栃木県", "id": 3212403 },
        { "address": "松原町", "city": "日光市", "postcode": "321-1406", "prefecture": "栃木県", "id": 3211406 },
        { "address": "水無", "city": "日光市", "postcode": "321-2334", "prefecture": "栃木県", "id": 3212334 },
        { "address": "南小来川", "city": "日光市", "postcode": "321-1353", "prefecture": "栃木県", "id": 3211353 },
        { "address": "宮小来川", "city": "日光市", "postcode": "321-1352", "prefecture": "栃木県", "id": 3211352 },
        { "address": "明神", "city": "日光市", "postcode": "321-1101", "prefecture": "栃木県", "id": 3211101 },
        { "address": "室瀬", "city": "日光市", "postcode": "321-1275", "prefecture": "栃木県", "id": 3211275 },
        { "address": "森友", "city": "日光市", "postcode": "321-2335", "prefecture": "栃木県", "id": 3212335 },
        { "address": "安川町", "city": "日光市", "postcode": "321-1432", "prefecture": "栃木県", "id": 3211432 },
        { "address": "矢野口", "city": "日光市", "postcode": "321-2356", "prefecture": "栃木県", "id": 3212356 },
        { "address": "山口", "city": "日光市", "postcode": "321-2343", "prefecture": "栃木県", "id": 3212343 },
        { "address": "山久保", "city": "日光市", "postcode": "321-1426", "prefecture": "栃木県", "id": 3211426 },
        { "address": "湯西川", "city": "日光市", "postcode": "321-2601", "prefecture": "栃木県", "id": 3212601 },
        { "address": "湯元", "city": "日光市", "postcode": "321-1662", "prefecture": "栃木県", "id": 3211662 },
        { "address": "横川", "city": "日光市", "postcode": "321-2801", "prefecture": "栃木県", "id": 3212801 },
        { "address": "若杉町", "city": "日光市", "postcode": "321-1407", "prefecture": "栃木県", "id": 3211407 },
        { "address": "若間", "city": "日光市", "postcode": "321-2718", "prefecture": "栃木県", "id": 3212718 },
        { "city": "小山市", "postcode": "323-0000", "prefecture": "栃木県", "id": 3230000 },
        { "address": "暁", "city": "小山市", "postcode": "329-0211", "prefecture": "栃木県", "id": 3290211 },
        { "address": "網戸", "city": "小山市", "postcode": "329-0215", "prefecture": "栃木県", "id": 3290215 },
        { "address": "雨ケ谷", "city": "小山市", "postcode": "323-0826", "prefecture": "栃木県", "id": 3230826 },
        { "address": "雨ケ谷新田", "city": "小山市", "postcode": "323-0824", "prefecture": "栃木県", "id": 3230824 },
        { "address": "雨ケ谷町", "city": "小山市", "postcode": "323-0831", "prefecture": "栃木県", "id": 3230831 },
        { "address": "荒井", "city": "小山市", "postcode": "323-0013", "prefecture": "栃木県", "id": 3230013 },
        { "address": "荒川", "city": "小山市", "postcode": "323-0006", "prefecture": "栃木県", "id": 3230006 },
        { "address": "粟宮", "city": "小山市", "postcode": "329-0201", "prefecture": "栃木県", "id": 3290201 },
        { "address": "飯塚", "city": "小山市", "postcode": "323-0017", "prefecture": "栃木県", "id": 3230017 },
        { "address": "井岡", "city": "小山市", "postcode": "323-0054", "prefecture": "栃木県", "id": 3230054 },
        { "address": "生駒", "city": "小山市", "postcode": "323-0051", "prefecture": "栃木県", "id": 3230051 },
        { "address": "石ノ上", "city": "小山市", "postcode": "323-0045", "prefecture": "栃木県", "id": 3230045 },
        { "address": "出井", "city": "小山市", "postcode": "323-0808", "prefecture": "栃木県", "id": 3230808 },
        { "address": "稲葉郷", "city": "小山市", "postcode": "323-0021", "prefecture": "栃木県", "id": 3230021 },
        { "address": "犬塚", "city": "小山市", "postcode": "323-0811", "prefecture": "栃木県", "id": 3230811 },
        { "address": "今里", "city": "小山市", "postcode": "323-0067", "prefecture": "栃木県", "id": 3230067 },
        { "address": "美しが丘", "city": "小山市", "postcode": "329-0207", "prefecture": "栃木県", "id": 3290207 },
        { "address": "駅東通り", "city": "小山市", "postcode": "323-0022", "prefecture": "栃木県", "id": 3230022 },
        { "address": "駅南町", "city": "小山市", "postcode": "323-0822", "prefecture": "栃木県", "id": 3230822 },
        { "address": "大川島", "city": "小山市", "postcode": "323-0058", "prefecture": "栃木県", "id": 3230058 },
        { "address": "大本", "city": "小山市", "postcode": "323-0009", "prefecture": "栃木県", "id": 3230009 },
        { "address": "押切", "city": "小山市", "postcode": "329-0228", "prefecture": "栃木県", "id": 3290228 },
        { "address": "乙女", "city": "小山市", "postcode": "329-0214", "prefecture": "栃木県", "id": 3290214 },
        { "address": "小宅", "city": "小山市", "postcode": "323-0001", "prefecture": "栃木県", "id": 3230001 },
        { "address": "小山", "city": "小山市", "postcode": "323-0825", "prefecture": "栃木県", "id": 3230825 },
        { "address": "鏡", "city": "小山市", "postcode": "329-0229", "prefecture": "栃木県", "id": 3290229 },
        { "address": "上石塚", "city": "小山市", "postcode": "323-0063", "prefecture": "栃木県", "id": 3230063 },
        { "address": "上泉", "city": "小山市", "postcode": "323-0056", "prefecture": "栃木県", "id": 3230056 },
        { "address": "上国府塚", "city": "小山市", "postcode": "323-0066", "prefecture": "栃木県", "id": 3230066 },
        { "address": "上生井", "city": "小山市", "postcode": "329-0222", "prefecture": "栃木県", "id": 3290222 },
        { "address": "上初田", "city": "小山市", "postcode": "323-0069", "prefecture": "栃木県", "id": 3230069 },
        { "address": "神山", "city": "小山市", "postcode": "323-0828", "prefecture": "栃木県", "id": 3230828 },
        { "address": "萱橋", "city": "小山市", "postcode": "323-0804", "prefecture": "栃木県", "id": 3230804 },
        { "address": "喜沢", "city": "小山市", "postcode": "323-0014", "prefecture": "栃木県", "id": 3230014 },
        { "address": "北飯田", "city": "小山市", "postcode": "323-0803", "prefecture": "栃木県", "id": 3230803 },
        { "address": "生良", "city": "小山市", "postcode": "329-0221", "prefecture": "栃木県", "id": 3290221 },
        { "address": "黒本", "city": "小山市", "postcode": "323-0002", "prefecture": "栃木県", "id": 3230002 },
        { "address": "小薬", "city": "小山市", "postcode": "323-0008", "prefecture": "栃木県", "id": 3230008 },
        { "address": "小袋", "city": "小山市", "postcode": "323-0053", "prefecture": "栃木県", "id": 3230053 },
        { "address": "寒川", "city": "小山市", "postcode": "329-0226", "prefecture": "栃木県", "id": 3290226 },
        { "address": "三拝川岸", "city": "小山市", "postcode": "323-0015", "prefecture": "栃木県", "id": 3230015 },
        { "address": "塩沢", "city": "小山市", "postcode": "323-0043", "prefecture": "栃木県", "id": 3230043 },
        { "address": "渋井", "city": "小山市", "postcode": "323-0005", "prefecture": "栃木県", "id": 3230005 },
        { "address": "島田", "city": "小山市", "postcode": "323-0004", "prefecture": "栃木県", "id": 3230004 },
        { "address": "下石塚", "city": "小山市", "postcode": "323-0064", "prefecture": "栃木県", "id": 3230064 },
        { "address": "下泉", "city": "小山市", "postcode": "323-0055", "prefecture": "栃木県", "id": 3230055 },
        { "address": "下河原田", "city": "小山市", "postcode": "323-0052", "prefecture": "栃木県", "id": 3230052 },
        { "address": "下国府塚", "city": "小山市", "postcode": "323-0065", "prefecture": "栃木県", "id": 3230065 },
        { "address": "下生井", "city": "小山市", "postcode": "329-0223", "prefecture": "栃木県", "id": 3290223 },
        { "address": "下初田", "city": "小山市", "postcode": "323-0068", "prefecture": "栃木県", "id": 3230068 },
        { "address": "城東", "city": "小山市", "postcode": "323-0807", "prefecture": "栃木県", "id": 3230807 },
        { "address": "城北", "city": "小山市", "postcode": "323-0029", "prefecture": "栃木県", "id": 3230029 },
        { "address": "白鳥", "city": "小山市", "postcode": "329-0224", "prefecture": "栃木県", "id": 3290224 },
        { "address": "城山町", "city": "小山市", "postcode": "323-0025", "prefecture": "栃木県", "id": 3230025 },
        { "address": "神明町", "city": "小山市", "postcode": "323-0033", "prefecture": "栃木県", "id": 3230033 },
        { "address": "千駄塚", "city": "小山市", "postcode": "329-0202", "prefecture": "栃木県", "id": 3290202 },
        { "address": "卒島", "city": "小山市", "postcode": "323-0061", "prefecture": "栃木県", "id": 3230061 },
        { "address": "大行寺", "city": "小山市", "postcode": "323-0041", "prefecture": "栃木県", "id": 3230041 },
        { "address": "高椅", "city": "小山市", "postcode": "323-0154", "prefecture": "栃木県", "id": 3230154 },
        { "address": "田川", "city": "小山市", "postcode": "323-0151", "prefecture": "栃木県", "id": 3230151 },
        { "address": "武井", "city": "小山市", "postcode": "323-0815", "prefecture": "栃木県", "id": 3230815 },
        { "address": "立木", "city": "小山市", "postcode": "323-0062", "prefecture": "栃木県", "id": 3230062 },
        { "address": "田間", "city": "小山市", "postcode": "323-0814", "prefecture": "栃木県", "id": 3230814 },
        { "address": "中央町", "city": "小山市", "postcode": "323-0023", "prefecture": "栃木県", "id": 3230023 },
        { "address": "塚崎", "city": "小山市", "postcode": "323-0818", "prefecture": "栃木県", "id": 3230818 },
        { "address": "天神町", "city": "小山市", "postcode": "323-0032", "prefecture": "栃木県", "id": 3230032 },
        { "address": "外城", "city": "小山市", "postcode": "323-0042", "prefecture": "栃木県", "id": 3230042 },
        { "address": "土塔", "city": "小山市", "postcode": "323-0812", "prefecture": "栃木県", "id": 3230812 },
        { "address": "中河原", "city": "小山市", "postcode": "323-0157", "prefecture": "栃木県", "id": 3230157 },
        { "address": "中久喜", "city": "小山市", "postcode": "323-0806", "prefecture": "栃木県", "id": 3230806 },
        { "address": "中里", "city": "小山市", "postcode": "329-0227", "prefecture": "栃木県", "id": 3290227 },
        { "address": "中島", "city": "小山市", "postcode": "323-0156", "prefecture": "栃木県", "id": 3230156 },
        { "address": "楢木", "city": "小山市", "postcode": "329-0216", "prefecture": "栃木県", "id": 3290216 },
        { "address": "西黒田", "city": "小山市", "postcode": "329-0203", "prefecture": "栃木県", "id": 3290203 },
        { "address": "西城南", "city": "小山市", "postcode": "323-0820", "prefecture": "栃木県", "id": 3230820 },
        { "address": "延島", "city": "小山市", "postcode": "323-0152", "prefecture": "栃木県", "id": 3230152 },
        { "address": "延島新田", "city": "小山市", "postcode": "323-0153", "prefecture": "栃木県", "id": 3230153 },
        { "address": "萩島", "city": "小山市", "postcode": "323-0046", "prefecture": "栃木県", "id": 3230046 },
        { "address": "迫間田", "city": "小山市", "postcode": "329-0225", "prefecture": "栃木県", "id": 3290225 },
        { "address": "鉢形", "city": "小山市", "postcode": "323-0801", "prefecture": "栃木県", "id": 3230801 },
        { "address": "花垣町", "city": "小山市", "postcode": "323-0027", "prefecture": "栃木県", "id": 3230027 },
        { "address": "羽川", "city": "小山市", "postcode": "323-0012", "prefecture": "栃木県", "id": 3230012 },
        { "address": "東黒田", "city": "小山市", "postcode": "329-0204", "prefecture": "栃木県", "id": 3290204 },
        { "address": "東島田", "city": "小山市", "postcode": "323-0003", "prefecture": "栃木県", "id": 3230003 },
        { "address": "東城南", "city": "小山市", "postcode": "323-0829", "prefecture": "栃木県", "id": 3230829 },
        { "address": "東野田", "city": "小山市", "postcode": "323-0817", "prefecture": "栃木県", "id": 3230817 },
        { "address": "東間々田", "city": "小山市", "postcode": "329-0206", "prefecture": "栃木県", "id": 3290206 },
        { "address": "東山田", "city": "小山市", "postcode": "323-0802", "prefecture": "栃木県", "id": 3230802 },
        { "address": "神鳥谷", "city": "小山市", "postcode": "323-0034", "prefecture": "栃木県", "id": 3230034 },
        { "address": "神鳥谷", "city": "小山市", "postcode": "323-0827", "prefecture": "栃木県", "id": 3230827 },
        { "address": "平和", "city": "小山市", "postcode": "329-0212", "prefecture": "栃木県", "id": 3290212 },
        { "address": "福良", "city": "小山市", "postcode": "323-0155", "prefecture": "栃木県", "id": 3230155 },
        { "address": "扶桑", "city": "小山市", "postcode": "323-0016", "prefecture": "栃木県", "id": 3230016 },
        { "address": "本郷町", "city": "小山市", "postcode": "323-0026", "prefecture": "栃木県", "id": 3230026 },
        { "address": "松沼", "city": "小山市", "postcode": "323-0007", "prefecture": "栃木県", "id": 3230007 },
        { "address": "間中", "city": "小山市", "postcode": "323-0044", "prefecture": "栃木県", "id": 3230044 },
        { "address": "間々田", "city": "小山市", "postcode": "329-0205", "prefecture": "栃木県", "id": 3290205 },
        { "address": "三峯", "city": "小山市", "postcode": "323-0821", "prefecture": "栃木県", "id": 3230821 },
        { "address": "南飯田", "city": "小山市", "postcode": "329-0213", "prefecture": "栃木県", "id": 3290213 },
        { "address": "南和泉", "city": "小山市", "postcode": "323-0816", "prefecture": "栃木県", "id": 3230816 },
        { "address": "南乙女", "city": "小山市", "postcode": "329-0217", "prefecture": "栃木県", "id": 3290217 },
        { "address": "南小林", "city": "小山市", "postcode": "323-0057", "prefecture": "栃木県", "id": 3230057 },
        { "address": "南半田", "city": "小山市", "postcode": "323-0011", "prefecture": "栃木県", "id": 3230011 },
        { "address": "宮本町", "city": "小山市", "postcode": "323-0024", "prefecture": "栃木県", "id": 3230024 },
        { "address": "向野", "city": "小山市", "postcode": "323-0805", "prefecture": "栃木県", "id": 3230805 },
        { "address": "向原新田", "city": "小山市", "postcode": "323-0823", "prefecture": "栃木県", "id": 3230823 },
        { "address": "梁", "city": "小山市", "postcode": "323-0158", "prefecture": "栃木県", "id": 3230158 },
        { "address": "八幡町", "city": "小山市", "postcode": "323-0031", "prefecture": "栃木県", "id": 3230031 },
        { "address": "横倉", "city": "小山市", "postcode": "323-0813", "prefecture": "栃木県", "id": 3230813 },
        { "address": "横倉新田", "city": "小山市", "postcode": "323-0819", "prefecture": "栃木県", "id": 3230819 },
        { "address": "若木町", "city": "小山市", "postcode": "323-0028", "prefecture": "栃木県", "id": 3230028 },
        { "city": "真岡市", "postcode": "321-4300", "prefecture": "栃木県", "id": 3214300 },
        { "address": "青田", "city": "真岡市", "postcode": "321-4531", "prefecture": "栃木県", "id": 3214531 },
        { "address": "青谷", "city": "真岡市", "postcode": "321-4312", "prefecture": "栃木県", "id": 3214312 },
        { "address": "赤羽", "city": "真岡市", "postcode": "321-4401", "prefecture": "栃木県", "id": 3214401 },
        { "address": "阿部岡", "city": "真岡市", "postcode": "321-4512", "prefecture": "栃木県", "id": 3214512 },
        { "address": "阿部品", "city": "真岡市", "postcode": "321-4517", "prefecture": "栃木県", "id": 3214517 },
        { "address": "荒町", "city": "真岡市", "postcode": "321-4305", "prefecture": "栃木県", "id": 3214305 },
        { "address": "飯貝", "city": "真岡市", "postcode": "321-4405", "prefecture": "栃木県", "id": 3214405 },
        { "address": "砂ケ原", "city": "真岡市", "postcode": "321-4546", "prefecture": "栃木県", "id": 3214546 },
        { "address": "石島", "city": "真岡市", "postcode": "321-4507", "prefecture": "栃木県", "id": 3214507 },
        { "address": "伊勢崎", "city": "真岡市", "postcode": "321-4342", "prefecture": "栃木県", "id": 3214342 },
        { "address": "大沼", "city": "真岡市", "postcode": "321-4356", "prefecture": "栃木県", "id": 3214356 },
        { "address": "大根田", "city": "真岡市", "postcode": "321-4506", "prefecture": "栃木県", "id": 3214506 },
        { "address": "大谷新町", "city": "真岡市", "postcode": "321-4332", "prefecture": "栃木県", "id": 3214332 },
        { "address": "大谷台町", "city": "真岡市", "postcode": "321-4338", "prefecture": "栃木県", "id": 3214338 },
        { "address": "大谷本町", "city": "真岡市", "postcode": "321-4333", "prefecture": "栃木県", "id": 3214333 },
        { "address": "大和田", "city": "真岡市", "postcode": "321-4508", "prefecture": "栃木県", "id": 3214508 },
        { "address": "沖", "city": "真岡市", "postcode": "321-4505", "prefecture": "栃木県", "id": 3214505 },
        { "address": "加倉", "city": "真岡市", "postcode": "321-4347", "prefecture": "栃木県", "id": 3214347 },
        { "address": "粕田", "city": "真岡市", "postcode": "321-4353", "prefecture": "栃木県", "id": 3214353 },
        { "address": "勝瓜", "city": "真岡市", "postcode": "321-4366", "prefecture": "栃木県", "id": 3214366 },
        { "address": "上江連", "city": "真岡市", "postcode": "321-4536", "prefecture": "栃木県", "id": 3214536 },
        { "address": "上大曽", "city": "真岡市", "postcode": "321-4542", "prefecture": "栃木県", "id": 3214542 },
        { "address": "上大田和", "city": "真岡市", "postcode": "321-4411", "prefecture": "栃木県", "id": 3214411 },
        { "address": "上大沼", "city": "真岡市", "postcode": "321-4355", "prefecture": "栃木県", "id": 3214355 },
        { "address": "上高間木", "city": "真岡市", "postcode": "321-4337", "prefecture": "栃木県", "id": 3214337 },
        { "address": "上鷺谷", "city": "真岡市", "postcode": "321-4416", "prefecture": "栃木県", "id": 3214416 },
        { "address": "上谷貝", "city": "真岡市", "postcode": "321-4541", "prefecture": "栃木県", "id": 3214541 },
        { "address": "亀山", "city": "真岡市", "postcode": "321-4363", "prefecture": "栃木県", "id": 3214363 },
        { "address": "茅堤", "city": "真岡市", "postcode": "321-4344", "prefecture": "栃木県", "id": 3214344 },
        { "address": "鬼怒ケ丘", "city": "真岡市", "postcode": "321-4367", "prefecture": "栃木県", "id": 3214367 },
        { "address": "君島", "city": "真岡市", "postcode": "321-4316", "prefecture": "栃木県", "id": 3214316 },
        { "address": "京泉", "city": "真岡市", "postcode": "321-4406", "prefecture": "栃木県", "id": 3214406 },
        { "address": "久下田", "city": "真岡市", "postcode": "321-4521", "prefecture": "栃木県", "id": 3214521 },
        { "address": "久下田西", "city": "真岡市", "postcode": "321-4522", "prefecture": "栃木県", "id": 3214522 },
        { "address": "熊倉", "city": "真岡市", "postcode": "321-4369", "prefecture": "栃木県", "id": 3214369 },
        { "address": "熊倉町", "city": "真岡市", "postcode": "321-4362", "prefecture": "栃木県", "id": 3214362 },
        { "address": "桑ノ川", "city": "真岡市", "postcode": "321-4503", "prefecture": "栃木県", "id": 3214503 },
        { "address": "小橋", "city": "真岡市", "postcode": "321-4343", "prefecture": "栃木県", "id": 3214343 },
        { "address": "小林", "city": "真岡市", "postcode": "321-4321", "prefecture": "栃木県", "id": 3214321 },
        { "address": "古山", "city": "真岡市", "postcode": "321-4535", "prefecture": "栃木県", "id": 3214535 },
        { "address": "境", "city": "真岡市", "postcode": "321-4534", "prefecture": "栃木県", "id": 3214534 },
        { "address": "さくら", "city": "真岡市", "postcode": "321-4523", "prefecture": "栃木県", "id": 3214523 },
        { "address": "道祖土", "city": "真岡市", "postcode": "321-4315", "prefecture": "栃木県", "id": 3214315 },
        { "address": "鹿", "city": "真岡市", "postcode": "321-4504", "prefecture": "栃木県", "id": 3214504 },
        { "address": "島", "city": "真岡市", "postcode": "321-4326", "prefecture": "栃木県", "id": 3214326 },
        { "address": "清水", "city": "真岡市", "postcode": "321-4402", "prefecture": "栃木県", "id": 3214402 },
        { "address": "下大曽", "city": "真岡市", "postcode": "321-4543", "prefecture": "栃木県", "id": 3214543 },
        { "address": "下大田和", "city": "真岡市", "postcode": "321-4413", "prefecture": "栃木県", "id": 3214413 },
        { "address": "下大沼", "city": "真岡市", "postcode": "321-4357", "prefecture": "栃木県", "id": 3214357 },
        { "address": "下高間木", "city": "真岡市", "postcode": "321-4335", "prefecture": "栃木県", "id": 3214335 },
        { "address": "下籠谷", "city": "真岡市", "postcode": "321-4415", "prefecture": "栃木県", "id": 3214415 },
        { "address": "下鷺谷", "city": "真岡市", "postcode": "321-4414", "prefecture": "栃木県", "id": 3214414 },
        { "address": "須釜", "city": "真岡市", "postcode": "321-4313", "prefecture": "栃木県", "id": 3214313 },
        { "address": "反町", "city": "真岡市", "postcode": "321-4515", "prefecture": "栃木県", "id": 3214515 },
        { "address": "大道泉", "city": "真岡市", "postcode": "321-4545", "prefecture": "栃木県", "id": 3214545 },
        { "address": "台町", "city": "真岡市", "postcode": "321-4306", "prefecture": "栃木県", "id": 3214306 },
        { "address": "高勢町", "city": "真岡市", "postcode": "321-4341", "prefecture": "栃木県", "id": 3214341 },
        { "address": "高田", "city": "真岡市", "postcode": "321-4511", "prefecture": "栃木県", "id": 3214511 },
        { "address": "田島", "city": "真岡市", "postcode": "321-4404", "prefecture": "栃木県", "id": 3214404 },
        { "address": "田町", "city": "真岡市", "postcode": "321-4325", "prefecture": "栃木県", "id": 3214325 },
        { "address": "鶴田", "city": "真岡市", "postcode": "321-4302", "prefecture": "栃木県", "id": 3214302 },
        { "address": "寺内", "city": "真岡市", "postcode": "321-4345", "prefecture": "栃木県", "id": 3214345 },
        { "address": "寺久保", "city": "真岡市", "postcode": "321-4368", "prefecture": "栃木県", "id": 3214368 },
        { "address": "寺分", "city": "真岡市", "postcode": "321-4354", "prefecture": "栃木県", "id": 3214354 },
        { "address": "東光寺", "city": "真岡市", "postcode": "321-4309", "prefecture": "栃木県", "id": 3214309 },
        { "address": "中", "city": "真岡市", "postcode": "321-4351", "prefecture": "栃木県", "id": 3214351 },
        { "address": "中郷", "city": "真岡市", "postcode": "321-4308", "prefecture": "栃木県", "id": 3214308 },
        { "address": "長島", "city": "真岡市", "postcode": "321-4532", "prefecture": "栃木県", "id": 3214532 },
        { "address": "長田", "city": "真岡市", "postcode": "321-4364", "prefecture": "栃木県", "id": 3214364 },
        { "address": "長沼", "city": "真岡市", "postcode": "321-4539", "prefecture": "栃木県", "id": 3214539 },
        { "address": "並木町", "city": "真岡市", "postcode": "321-4361", "prefecture": "栃木県", "id": 3214361 },
        { "address": "西大島", "city": "真岡市", "postcode": "321-4537", "prefecture": "栃木県", "id": 3214537 },
        { "address": "西高間木", "city": "真岡市", "postcode": "321-4336", "prefecture": "栃木県", "id": 3214336 },
        { "address": "西郷", "city": "真岡市", "postcode": "321-4307", "prefecture": "栃木県", "id": 3214307 },
        { "address": "西田井", "city": "真岡市", "postcode": "321-4301", "prefecture": "栃木県", "id": 3214301 },
        { "address": "西沼", "city": "真岡市", "postcode": "321-4324", "prefecture": "栃木県", "id": 3214324 },
        { "address": "根小屋", "city": "真岡市", "postcode": "321-4516", "prefecture": "栃木県", "id": 3214516 },
        { "address": "根本", "city": "真岡市", "postcode": "321-4311", "prefecture": "栃木県", "id": 3214311 },
        { "address": "白布ケ丘", "city": "真岡市", "postcode": "321-4331", "prefecture": "栃木県", "id": 3214331 },
        { "address": "八條", "city": "真岡市", "postcode": "321-4303", "prefecture": "栃木県", "id": 3214303 },
        { "address": "原町", "city": "真岡市", "postcode": "321-4403", "prefecture": "栃木県", "id": 3214403 },
        { "address": "東大島", "city": "真岡市", "postcode": "321-4322", "prefecture": "栃木県", "id": 3214322 },
        { "address": "東郷", "city": "真岡市", "postcode": "321-4304", "prefecture": "栃木県", "id": 3214304 },
        { "address": "東沼", "city": "真岡市", "postcode": "321-4323", "prefecture": "栃木県", "id": 3214323 },
        { "address": "程島", "city": "真岡市", "postcode": "321-4533", "prefecture": "栃木県", "id": 3214533 },
        { "address": "堀内", "city": "真岡市", "postcode": "321-4412", "prefecture": "栃木県", "id": 3214412 },
        { "address": "堀込", "city": "真岡市", "postcode": "321-4544", "prefecture": "栃木県", "id": 3214544 },
        { "address": "松山町", "city": "真岡市", "postcode": "321-4346", "prefecture": "栃木県", "id": 3214346 },
        { "address": "水戸部", "city": "真岡市", "postcode": "321-4514", "prefecture": "栃木県", "id": 3214514 },
        { "address": "南高岡", "city": "真岡市", "postcode": "321-4314", "prefecture": "栃木県", "id": 3214314 },
        { "address": "三谷", "city": "真岡市", "postcode": "321-4513", "prefecture": "栃木県", "id": 3214513 },
        { "address": "物井", "city": "真岡市", "postcode": "321-4502", "prefecture": "栃木県", "id": 3214502 },
        { "address": "谷貝新田", "city": "真岡市", "postcode": "321-4547", "prefecture": "栃木県", "id": 3214547 },
        { "address": "八木岡", "city": "真岡市", "postcode": "321-4334", "prefecture": "栃木県", "id": 3214334 },
        { "address": "柳林", "city": "真岡市", "postcode": "321-4365", "prefecture": "栃木県", "id": 3214365 },
        { "address": "横田", "city": "真岡市", "postcode": "321-4501", "prefecture": "栃木県", "id": 3214501 },
        { "address": "若旅", "city": "真岡市", "postcode": "321-4551", "prefecture": "栃木県", "id": 3214551 },
        { "address": "若旅", "city": "真岡市", "postcode": "321-4352", "prefecture": "栃木県", "id": 3214352 },
        { "address": "鷲巣", "city": "真岡市", "postcode": "321-4538", "prefecture": "栃木県", "id": 3214538 },
        { "city": "大田原市", "postcode": "324-0000", "prefecture": "栃木県", "id": 3240000 },
        { "address": "赤瀬", "city": "大田原市", "postcode": "324-0015", "prefecture": "栃木県", "id": 3240015 },
        { "address": "浅香", "city": "大田原市", "postcode": "324-0043", "prefecture": "栃木県", "id": 3240043 },
        { "address": "荒井", "city": "大田原市", "postcode": "324-0061", "prefecture": "栃木県", "id": 3240061 },
        { "address": "新宿", "city": "大田原市", "postcode": "324-0413", "prefecture": "栃木県", "id": 3240413 },
        { "address": "市野沢", "city": "大田原市", "postcode": "324-0006", "prefecture": "栃木県", "id": 3240006 },
        { "address": "今泉", "city": "大田原市", "postcode": "324-0064", "prefecture": "栃木県", "id": 3240064 },
        { "address": "薄葉", "city": "大田原市", "postcode": "324-0035", "prefecture": "栃木県", "id": 3240035 },
        { "address": "宇田川", "city": "大田原市", "postcode": "324-0022", "prefecture": "栃木県", "id": 3240022 },
        { "address": "雲岩寺", "city": "大田原市", "postcode": "324-0213", "prefecture": "栃木県", "id": 3240213 },
        { "address": "大神", "city": "大田原市", "postcode": "324-0025", "prefecture": "栃木県", "id": 3240025 },
        { "address": "大久保", "city": "大田原市", "postcode": "324-0204", "prefecture": "栃木県", "id": 3240204 },
        { "address": "大豆田", "city": "大田原市", "postcode": "324-0242", "prefecture": "栃木県", "id": 3240242 },
        { "address": "大輪", "city": "大田原市", "postcode": "324-0236", "prefecture": "栃木県", "id": 3240236 },
        { "address": "岡", "city": "大田原市", "postcode": "324-0065", "prefecture": "栃木県", "id": 3240065 },
        { "address": "荻野目", "city": "大田原市", "postcode": "324-0027", "prefecture": "栃木県", "id": 3240027 },
        { "address": "奥沢", "city": "大田原市", "postcode": "324-0017", "prefecture": "栃木県", "id": 3240017 },
        { "address": "乙連沢", "city": "大田原市", "postcode": "324-0001", "prefecture": "栃木県", "id": 3240001 },
        { "address": "加治屋", "city": "大田原市", "postcode": "324-0046", "prefecture": "栃木県", "id": 3240046 },
        { "address": "片田", "city": "大田原市", "postcode": "324-0223", "prefecture": "栃木県", "id": 3240223 },
        { "address": "片府田", "city": "大田原市", "postcode": "324-0414", "prefecture": "栃木県", "id": 3240414 },
        { "address": "鹿畑", "city": "大田原市", "postcode": "324-0013", "prefecture": "栃木県", "id": 3240013 },
        { "address": "上石上", "city": "大田原市", "postcode": "324-0037", "prefecture": "栃木県", "id": 3240037 },
        { "address": "上奥沢", "city": "大田原市", "postcode": "324-0018", "prefecture": "栃木県", "id": 3240018 },
        { "address": "亀久", "city": "大田原市", "postcode": "324-0221", "prefecture": "栃木県", "id": 3240221 },
        { "address": "川上", "city": "大田原市", "postcode": "324-0214", "prefecture": "栃木県", "id": 3240214 },
        { "address": "川田", "city": "大田原市", "postcode": "324-0208", "prefecture": "栃木県", "id": 3240208 },
        { "address": "河原", "city": "大田原市", "postcode": "324-0207", "prefecture": "栃木県", "id": 3240207 },
        { "address": "木佐美", "city": "大田原市", "postcode": "324-0202", "prefecture": "栃木県", "id": 3240202 },
        { "address": "北大和久", "city": "大田原市", "postcode": "324-0016", "prefecture": "栃木県", "id": 3240016 },
        { "address": "北金丸", "city": "大田原市", "postcode": "324-0011", "prefecture": "栃木県", "id": 3240011 },
        { "address": "北滝", "city": "大田原市", "postcode": "324-0224", "prefecture": "栃木県", "id": 3240224 },
        { "address": "北野上", "city": "大田原市", "postcode": "324-0231", "prefecture": "栃木県", "id": 3240231 },
        { "address": "久野又", "city": "大田原市", "postcode": "324-0205", "prefecture": "栃木県", "id": 3240205 },
        { "address": "倉骨", "city": "大田原市", "postcode": "324-0014", "prefecture": "栃木県", "id": 3240014 },
        { "address": "黒羽田町", "city": "大田原市", "postcode": "324-0233", "prefecture": "栃木県", "id": 3240233 },
        { "address": "黒羽向町", "city": "大田原市", "postcode": "324-0241", "prefecture": "栃木県", "id": 3240241 },
        { "address": "小滝", "city": "大田原市", "postcode": "324-0003", "prefecture": "栃木県", "id": 3240003 },
        { "address": "小船渡", "city": "大田原市", "postcode": "324-0402", "prefecture": "栃木県", "id": 3240402 },
        { "address": "佐久山", "city": "大田原市", "postcode": "324-0032", "prefecture": "栃木県", "id": 3240032 },
        { "address": "寒井", "city": "大田原市", "postcode": "324-0246", "prefecture": "栃木県", "id": 3240246 },
        { "address": "佐良土", "city": "大田原市", "postcode": "324-0404", "prefecture": "栃木県", "id": 3240404 },
        { "address": "品川", "city": "大田原市", "postcode": "324-0415", "prefecture": "栃木県", "id": 3240415 },
        { "address": "下石上", "city": "大田原市", "postcode": "324-0036", "prefecture": "栃木県", "id": 3240036 },
        { "address": "城山", "city": "大田原市", "postcode": "324-0052", "prefecture": "栃木県", "id": 3240052 },
        { "address": "新富町", "city": "大田原市", "postcode": "324-0055", "prefecture": "栃木県", "id": 3240055 },
        { "address": "末広", "city": "大田原市", "postcode": "324-0042", "prefecture": "栃木県", "id": 3240042 },
        { "address": "須賀川", "city": "大田原市", "postcode": "324-0211", "prefecture": "栃木県", "id": 3240211 },
        { "address": "須佐木", "city": "大田原市", "postcode": "324-0212", "prefecture": "栃木県", "id": 3240212 },
        { "address": "住吉町", "city": "大田原市", "postcode": "324-0057", "prefecture": "栃木県", "id": 3240057 },
        { "address": "狭原", "city": "大田原市", "postcode": "324-0401", "prefecture": "栃木県", "id": 3240401 },
        { "address": "滝岡", "city": "大田原市", "postcode": "324-0026", "prefecture": "栃木県", "id": 3240026 },
        { "address": "滝沢", "city": "大田原市", "postcode": "324-0033", "prefecture": "栃木県", "id": 3240033 },
        { "address": "親園", "city": "大田原市", "postcode": "324-0044", "prefecture": "栃木県", "id": 3240044 },
        { "address": "中央", "city": "大田原市", "postcode": "324-0056", "prefecture": "栃木県", "id": 3240056 },
        { "address": "寺宿", "city": "大田原市", "postcode": "324-0203", "prefecture": "栃木県", "id": 3240203 },
        { "address": "戸野内", "city": "大田原市", "postcode": "324-0066", "prefecture": "栃木県", "id": 3240066 },
        { "address": "富池", "city": "大田原市", "postcode": "324-0004", "prefecture": "栃木県", "id": 3240004 },
        { "address": "中田原", "city": "大田原市", "postcode": "324-0062", "prefecture": "栃木県", "id": 3240062 },
        { "address": "中野内", "city": "大田原市", "postcode": "324-0206", "prefecture": "栃木県", "id": 3240206 },
        { "address": "中の原", "city": "大田原市", "postcode": "324-0405", "prefecture": "栃木県", "id": 3240405 },
        { "address": "南方", "city": "大田原市", "postcode": "324-0215", "prefecture": "栃木県", "id": 3240215 },
        { "address": "練貫", "city": "大田原市", "postcode": "324-0005", "prefecture": "栃木県", "id": 3240005 },
        { "address": "野崎", "city": "大田原市", "postcode": "324-0038", "prefecture": "栃木県", "id": 3240038 },
        { "address": "蜂巣", "city": "大田原市", "postcode": "324-0244", "prefecture": "栃木県", "id": 3240244 },
        { "address": "花園", "city": "大田原市", "postcode": "324-0023", "prefecture": "栃木県", "id": 3240023 },
        { "address": "羽田", "city": "大田原市", "postcode": "324-0002", "prefecture": "栃木県", "id": 3240002 },
        { "address": "桧木沢", "city": "大田原市", "postcode": "324-0245", "prefecture": "栃木県", "id": 3240245 },
        { "address": "平沢", "city": "大田原市", "postcode": "324-0034", "prefecture": "栃木県", "id": 3240034 },
        { "address": "蛭田", "city": "大田原市", "postcode": "324-0412", "prefecture": "栃木県", "id": 3240412 },
        { "address": "蛭畑", "city": "大田原市", "postcode": "324-0411", "prefecture": "栃木県", "id": 3240411 },
        { "address": "福原", "city": "大田原市", "postcode": "324-0024", "prefecture": "栃木県", "id": 3240024 },
        { "address": "藤沢", "city": "大田原市", "postcode": "324-0031", "prefecture": "栃木県", "id": 3240031 },
        { "address": "富士見", "city": "大田原市", "postcode": "324-0028", "prefecture": "栃木県", "id": 3240028 },
        { "address": "堀之内", "city": "大田原市", "postcode": "324-0235", "prefecture": "栃木県", "id": 3240235 },
        { "address": "本町", "city": "大田原市", "postcode": "324-0041", "prefecture": "栃木県", "id": 3240041 },
        { "address": "前田", "city": "大田原市", "postcode": "324-0234", "prefecture": "栃木県", "id": 3240234 },
        { "address": "町島", "city": "大田原市", "postcode": "324-0063", "prefecture": "栃木県", "id": 3240063 },
        { "address": "実取", "city": "大田原市", "postcode": "324-0045", "prefecture": "栃木県", "id": 3240045 },
        { "address": "南金丸", "city": "大田原市", "postcode": "324-0012", "prefecture": "栃木県", "id": 3240012 },
        { "address": "美原", "city": "大田原市", "postcode": "324-0047", "prefecture": "栃木県", "id": 3240047 },
        { "address": "紫塚", "city": "大田原市", "postcode": "324-0058", "prefecture": "栃木県", "id": 3240058 },
        { "address": "元町", "city": "大田原市", "postcode": "324-0053", "prefecture": "栃木県", "id": 3240053 },
        { "address": "矢倉", "city": "大田原市", "postcode": "324-0222", "prefecture": "栃木県", "id": 3240222 },
        { "address": "八塩", "city": "大田原市", "postcode": "324-0232", "prefecture": "栃木県", "id": 3240232 },
        { "address": "山の手", "city": "大田原市", "postcode": "324-0051", "prefecture": "栃木県", "id": 3240051 },
        { "address": "湯津上", "city": "大田原市", "postcode": "324-0403", "prefecture": "栃木県", "id": 3240403 },
        { "address": "余瀬", "city": "大田原市", "postcode": "324-0243", "prefecture": "栃木県", "id": 3240243 },
        { "address": "両郷", "city": "大田原市", "postcode": "324-0201", "prefecture": "栃木県", "id": 3240201 },
        { "address": "若草", "city": "大田原市", "postcode": "324-0021", "prefecture": "栃木県", "id": 3240021 },
        { "address": "若松町", "city": "大田原市", "postcode": "324-0054", "prefecture": "栃木県", "id": 3240054 },
        { "city": "矢板市", "postcode": "329-2100", "prefecture": "栃木県", "id": 3292100 },
        { "address": "東町", "city": "矢板市", "postcode": "329-2136", "prefecture": "栃木県", "id": 3292136 },
        { "address": "荒井", "city": "矢板市", "postcode": "329-2121", "prefecture": "栃木県", "id": 3292121 },
        { "address": "安沢", "city": "矢板市", "postcode": "329-1572", "prefecture": "栃木県", "id": 3291572 },
        { "address": "石関", "city": "矢板市", "postcode": "329-1576", "prefecture": "栃木県", "id": 3291576 },
        { "address": "泉", "city": "矢板市", "postcode": "329-2504", "prefecture": "栃木県", "id": 3292504 },
        { "address": "扇町", "city": "矢板市", "postcode": "329-2161", "prefecture": "栃木県", "id": 3292161 },
        { "address": "大槻", "city": "矢板市", "postcode": "329-1575", "prefecture": "栃木県", "id": 3291575 },
        { "address": "乙畑", "city": "矢板市", "postcode": "329-1574", "prefecture": "栃木県", "id": 3291574 },
        { "address": "鹿島町", "city": "矢板市", "postcode": "329-2163", "prefecture": "栃木県", "id": 3292163 },
        { "address": "片岡", "city": "矢板市", "postcode": "329-1571", "prefecture": "栃木県", "id": 3291571 },
        { "address": "片俣", "city": "矢板市", "postcode": "329-2155", "prefecture": "栃木県", "id": 3292155 },
        { "address": "上伊佐野", "city": "矢板市", "postcode": "329-2501", "prefecture": "栃木県", "id": 3292501 },
        { "address": "上太田", "city": "矢板市", "postcode": "329-2513", "prefecture": "栃木県", "id": 3292513 },
        { "address": "上町", "city": "矢板市", "postcode": "329-2123", "prefecture": "栃木県", "id": 3292123 },
        { "address": "川崎反町", "city": "矢板市", "postcode": "329-2144", "prefecture": "栃木県", "id": 3292144 },
        { "address": "木幡", "city": "矢板市", "postcode": "329-2142", "prefecture": "栃木県", "id": 3292142 },
        { "address": "倉掛", "city": "矢板市", "postcode": "329-2154", "prefecture": "栃木県", "id": 3292154 },
        { "address": "幸岡", "city": "矢板市", "postcode": "329-2151", "prefecture": "栃木県", "id": 3292151 },
        { "address": "越畑", "city": "矢板市", "postcode": "329-1573", "prefecture": "栃木県", "id": 3291573 },
        { "address": "こぶし台", "city": "矢板市", "postcode": "329-1579", "prefecture": "栃木県", "id": 3291579 },
        { "address": "境林", "city": "矢板市", "postcode": "329-2143", "prefecture": "栃木県", "id": 3292143 },
        { "address": "沢", "city": "矢板市", "postcode": "329-2132", "prefecture": "栃木県", "id": 3292132 },
        { "address": "塩田", "city": "矢板市", "postcode": "329-2156", "prefecture": "栃木県", "id": 3292156 },
        { "address": "下伊佐野", "city": "矢板市", "postcode": "329-2502", "prefecture": "栃木県", "id": 3292502 },
        { "address": "下太田", "city": "矢板市", "postcode": "329-2124", "prefecture": "栃木県", "id": 3292124 },
        { "address": "末広町", "city": "矢板市", "postcode": "329-2162", "prefecture": "栃木県", "id": 3292162 },
        { "address": "高塩", "city": "矢板市", "postcode": "329-2153", "prefecture": "栃木県", "id": 3292153 },
        { "address": "立足", "city": "矢板市", "postcode": "329-2505", "prefecture": "栃木県", "id": 3292505 },
        { "address": "館ノ川", "city": "矢板市", "postcode": "329-2152", "prefecture": "栃木県", "id": 3292152 },
        { "address": "田野原", "city": "矢板市", "postcode": "329-2503", "prefecture": "栃木県", "id": 3292503 },
        { "address": "玉田", "city": "矢板市", "postcode": "329-1577", "prefecture": "栃木県", "id": 3291577 },
        { "address": "土屋", "city": "矢板市", "postcode": "329-2131", "prefecture": "栃木県", "id": 3292131 },
        { "address": "富田", "city": "矢板市", "postcode": "329-2145", "prefecture": "栃木県", "id": 3292145 },
        { "address": "豊田", "city": "矢板市", "postcode": "329-2133", "prefecture": "栃木県", "id": 3292133 },
        { "address": "中", "city": "矢板市", "postcode": "329-2135", "prefecture": "栃木県", "id": 3292135 },
        { "address": "長井", "city": "矢板市", "postcode": "329-2514", "prefecture": "栃木県", "id": 3292514 },
        { "address": "成田", "city": "矢板市", "postcode": "329-2134", "prefecture": "栃木県", "id": 3292134 },
        { "address": "早川町", "city": "矢板市", "postcode": "329-2141", "prefecture": "栃木県", "id": 3292141 },
        { "address": "針生", "city": "矢板市", "postcode": "329-2122", "prefecture": "栃木県", "id": 3292122 },
        { "address": "東泉", "city": "矢板市", "postcode": "329-2512", "prefecture": "栃木県", "id": 3292512 },
        { "address": "平野", "city": "矢板市", "postcode": "329-2506", "prefecture": "栃木県", "id": 3292506 },
        { "address": "本町", "city": "矢板市", "postcode": "329-2164", "prefecture": "栃木県", "id": 3292164 },
        { "address": "矢板", "city": "矢板市", "postcode": "329-2165", "prefecture": "栃木県", "id": 3292165 },
        { "address": "山田", "city": "矢板市", "postcode": "329-2511", "prefecture": "栃木県", "id": 3292511 },
        { "address": "山苗代", "city": "矢板市", "postcode": "329-1578", "prefecture": "栃木県", "id": 3291578 },
        { "city": "那須塩原市", "postcode": "325-0000", "prefecture": "栃木県", "id": 3250000 },
        { "address": "青木", "city": "那須塩原市", "postcode": "325-0103", "prefecture": "栃木県", "id": 3250103 },
        { "address": "東町", "city": "那須塩原市", "postcode": "329-2721", "prefecture": "栃木県", "id": 3292721 },
        { "address": "あたご町", "city": "那須塩原市", "postcode": "329-2725", "prefecture": "栃木県", "id": 3292725 },
        { "address": "阿波町", "city": "那須塩原市", "postcode": "325-0073", "prefecture": "栃木県", "id": 3250073 },
        { "address": "安藤町", "city": "那須塩原市", "postcode": "325-0021", "prefecture": "栃木県", "id": 3250021 },
        { "address": "井口", "city": "那須塩原市", "postcode": "329-2763", "prefecture": "栃木県", "id": 3292763 },
        { "address": "石林", "city": "那須塩原市", "postcode": "329-2711", "prefecture": "栃木県", "id": 3292711 },
        { "address": "板室", "city": "那須塩原市", "postcode": "325-0111", "prefecture": "栃木県", "id": 3250111 },
        { "address": "一区町", "city": "那須塩原市", "postcode": "329-2732", "prefecture": "栃木県", "id": 3292732 },
        { "address": "宇都野", "city": "那須塩原市", "postcode": "329-2816", "prefecture": "栃木県", "id": 3292816 },
        { "address": "扇町", "city": "那須塩原市", "postcode": "329-2726", "prefecture": "栃木県", "id": 3292726 },
        { "address": "大原間", "city": "那須塩原市", "postcode": "329-3153", "prefecture": "栃木県", "id": 3293153 },
        { "address": "大原間西", "city": "那須塩原市", "postcode": "329-3157", "prefecture": "栃木県", "id": 3293157 },
        { "address": "遅野沢", "city": "那須塩原市", "postcode": "329-2803", "prefecture": "栃木県", "id": 3292803 },
        { "address": "折戸", "city": "那須塩原市", "postcode": "329-2804", "prefecture": "栃木県", "id": 3292804 },
        { "address": "春日町", "city": "那須塩原市", "postcode": "325-0075", "prefecture": "栃木県", "id": 3250075 },
        { "address": "金沢", "city": "那須塩原市", "postcode": "329-2812", "prefecture": "栃木県", "id": 3292812 },
        { "address": "鹿野崎", "city": "那須塩原市", "postcode": "329-3121", "prefecture": "栃木県", "id": 3293121 },
        {
            "address": "鹿野崎新田",
            "city": "那須塩原市",
            "postcode": "325-0104",
            "prefecture": "栃木県",
            "id": 3250104
        },
        { "address": "上赤田", "city": "那須塩原市", "postcode": "329-2748", "prefecture": "栃木県", "id": 3292748 },
        { "address": "上厚崎", "city": "那須塩原市", "postcode": "325-0026", "prefecture": "栃木県", "id": 3250026 },
        {
            "address": "上大塚新田",
            "city": "那須塩原市",
            "postcode": "329-3134",
            "prefecture": "栃木県",
            "id": 3293134
        },
        { "address": "上大貫", "city": "那須塩原市", "postcode": "329-2814", "prefecture": "栃木県", "id": 3292814 },
        { "address": "上郷屋", "city": "那須塩原市", "postcode": "329-3127", "prefecture": "栃木県", "id": 3293127 },
        { "address": "上塩原", "city": "那須塩原市", "postcode": "329-2923", "prefecture": "栃木県", "id": 3292923 },
        { "address": "上中野", "city": "那須塩原市", "postcode": "329-3154", "prefecture": "栃木県", "id": 3293154 },
        { "address": "上横林", "city": "那須塩原市", "postcode": "329-2805", "prefecture": "栃木県", "id": 3292805 },
        { "address": "亀山", "city": "那須塩原市", "postcode": "325-0102", "prefecture": "栃木県", "id": 3250102 },
        { "address": "唐杉", "city": "那須塩原市", "postcode": "329-3131", "prefecture": "栃木県", "id": 3293131 },
        { "address": "木曾畑中", "city": "那須塩原市", "postcode": "329-3145", "prefecture": "栃木県", "id": 3293145 },
        { "address": "北赤田", "city": "那須塩原市", "postcode": "329-2741", "prefecture": "栃木県", "id": 3292741 },
        { "address": "北栄町", "city": "那須塩原市", "postcode": "325-0039", "prefecture": "栃木県", "id": 3250039 },
        { "address": "北二つ室", "city": "那須塩原市", "postcode": "329-2734", "prefecture": "栃木県", "id": 3292734 },
        { "address": "北弥六", "city": "那須塩原市", "postcode": "329-3132", "prefecture": "栃木県", "id": 3293132 },
        { "address": "北和田", "city": "那須塩原市", "postcode": "329-3151", "prefecture": "栃木県", "id": 3293151 },
        { "address": "共墾社", "city": "那須塩原市", "postcode": "325-0027", "prefecture": "栃木県", "id": 3250027 },
        { "address": "清住町", "city": "那須塩原市", "postcode": "325-0067", "prefecture": "栃木県", "id": 3250067 },
        { "address": "木綿畑", "city": "那須塩原市", "postcode": "325-0116", "prefecture": "栃木県", "id": 3250116 },
        { "address": "沓掛", "city": "那須塩原市", "postcode": "329-3133", "prefecture": "栃木県", "id": 3293133 },
        { "address": "黒磯", "city": "那須塩原市", "postcode": "325-0017", "prefecture": "栃木県", "id": 3250017 },
        { "address": "黒磯幸町", "city": "那須塩原市", "postcode": "325-0057", "prefecture": "栃木県", "id": 3250057 },
        { "address": "越堀", "city": "那須塩原市", "postcode": "325-0012", "prefecture": "栃木県", "id": 3250012 },
        { "address": "五軒町", "city": "那須塩原市", "postcode": "329-2753", "prefecture": "栃木県", "id": 3292753 },
        { "address": "小結", "city": "那須塩原市", "postcode": "325-0035", "prefecture": "栃木県", "id": 3250035 },
        { "address": "材木町", "city": "那須塩原市", "postcode": "325-0048", "prefecture": "栃木県", "id": 3250048 },
        { "address": "埼玉", "city": "那須塩原市", "postcode": "325-0033", "prefecture": "栃木県", "id": 3250033 },
        { "address": "桜町", "city": "那須塩原市", "postcode": "325-0042", "prefecture": "栃木県", "id": 3250042 },
        { "address": "笹沼", "city": "那須塩原市", "postcode": "329-3155", "prefecture": "栃木県", "id": 3293155 },
        { "address": "佐野", "city": "那須塩原市", "postcode": "329-3142", "prefecture": "栃木県", "id": 3293142 },
        { "address": "三区町", "city": "那須塩原市", "postcode": "329-2745", "prefecture": "栃木県", "id": 3292745 },
        { "address": "三本木", "city": "那須塩原市", "postcode": "329-3143", "prefecture": "栃木県", "id": 3293143 },
        { "address": "塩野崎", "city": "那須塩原市", "postcode": "329-3122", "prefecture": "栃木県", "id": 3293122 },
        {
            "address": "塩野崎新田",
            "city": "那須塩原市",
            "postcode": "329-3123",
            "prefecture": "栃木県",
            "id": 3293123
        },
        { "address": "塩原", "city": "那須塩原市", "postcode": "329-2921", "prefecture": "栃木県", "id": 3292921 },
        { "address": "鴫内", "city": "那須塩原市", "postcode": "325-0118", "prefecture": "栃木県", "id": 3250118 },
        { "address": "島方", "city": "那須塩原市", "postcode": "329-3152", "prefecture": "栃木県", "id": 3293152 },
        { "address": "下厚崎", "city": "那須塩原市", "postcode": "325-0025", "prefecture": "栃木県", "id": 3250025 },
        { "address": "下大貫", "city": "那須塩原市", "postcode": "329-2815", "prefecture": "栃木県", "id": 3292815 },
        { "address": "下田野", "city": "那須塩原市", "postcode": "329-2811", "prefecture": "栃木県", "id": 3292811 },
        { "address": "下永田", "city": "那須塩原市", "postcode": "329-2712", "prefecture": "栃木県", "id": 3292712 },
        { "address": "下中野", "city": "那須塩原市", "postcode": "329-3146", "prefecture": "栃木県", "id": 3293146 },
        { "address": "新朝日", "city": "那須塩原市", "postcode": "325-0054", "prefecture": "栃木県", "id": 3250054 },
        { "address": "新南", "city": "那須塩原市", "postcode": "329-2704", "prefecture": "栃木県", "id": 3292704 },
        { "address": "新町", "city": "那須塩原市", "postcode": "325-0071", "prefecture": "栃木県", "id": 3250071 },
        { "address": "新緑町", "city": "那須塩原市", "postcode": "325-0066", "prefecture": "栃木県", "id": 3250066 },
        { "address": "末広町", "city": "那須塩原市", "postcode": "325-0061", "prefecture": "栃木県", "id": 3250061 },
        { "address": "住吉町", "city": "那須塩原市", "postcode": "325-0062", "prefecture": "栃木県", "id": 3250062 },
        { "address": "関根", "city": "那須塩原市", "postcode": "329-2701", "prefecture": "栃木県", "id": 3292701 },
        { "address": "関谷", "city": "那須塩原市", "postcode": "329-2801", "prefecture": "栃木県", "id": 3292801 },
        { "address": "千本松", "city": "那須塩原市", "postcode": "329-2747", "prefecture": "栃木県", "id": 3292747 },
        { "address": "大黒町", "city": "那須塩原市", "postcode": "325-0046", "prefecture": "栃木県", "id": 3250046 },
        { "address": "高阿津", "city": "那須塩原市", "postcode": "329-2813", "prefecture": "栃木県", "id": 3292813 },
        { "address": "高砂町", "city": "那須塩原市", "postcode": "325-0045", "prefecture": "栃木県", "id": 3250045 },
        { "address": "高林", "city": "那須塩原市", "postcode": "325-0107", "prefecture": "栃木県", "id": 3250107 },
        { "address": "高柳", "city": "那須塩原市", "postcode": "329-2707", "prefecture": "栃木県", "id": 3292707 },
        { "address": "太夫塚", "city": "那須塩原市", "postcode": "329-2735", "prefecture": "栃木県", "id": 3292735 },
        { "address": "中央町", "city": "那須塩原市", "postcode": "325-0052", "prefecture": "栃木県", "id": 3250052 },
        { "address": "槻沢", "city": "那須塩原市", "postcode": "329-2703", "prefecture": "栃木県", "id": 3292703 },
        { "address": "寺子", "city": "那須塩原市", "postcode": "325-0011", "prefecture": "栃木県", "id": 3250011 },
        { "address": "東栄", "city": "那須塩原市", "postcode": "325-0016", "prefecture": "栃木県", "id": 3250016 },
        { "address": "洞島", "city": "那須塩原市", "postcode": "325-0106", "prefecture": "栃木県", "id": 3250106 },
        { "address": "戸田", "city": "那須塩原市", "postcode": "325-0114", "prefecture": "栃木県", "id": 3250114 },
        { "address": "豊浦", "city": "那須塩原市", "postcode": "325-0023", "prefecture": "栃木県", "id": 3250023 },
        { "address": "豊浦北町", "city": "那須塩原市", "postcode": "325-0038", "prefecture": "栃木県", "id": 3250038 },
        { "address": "豊浦町", "city": "那須塩原市", "postcode": "325-0064", "prefecture": "栃木県", "id": 3250064 },
        { "address": "豊浦中町", "city": "那須塩原市", "postcode": "325-0063", "prefecture": "栃木県", "id": 3250063 },
        { "address": "豊浦南町", "city": "那須塩原市", "postcode": "325-0065", "prefecture": "栃木県", "id": 3250065 },
        { "address": "豊住町", "city": "那須塩原市", "postcode": "325-0072", "prefecture": "栃木県", "id": 3250072 },
        { "address": "鳥野目", "city": "那須塩原市", "postcode": "325-0036", "prefecture": "栃木県", "id": 3250036 },
        { "address": "中内", "city": "那須塩原市", "postcode": "329-3126", "prefecture": "栃木県", "id": 3293126 },
        { "address": "中塩原", "city": "那須塩原市", "postcode": "329-2924", "prefecture": "栃木県", "id": 3292924 },
        { "address": "永田町", "city": "那須塩原市", "postcode": "329-2727", "prefecture": "栃木県", "id": 3292727 },
        { "address": "鍋掛", "city": "那須塩原市", "postcode": "325-0013", "prefecture": "栃木県", "id": 3250013 },
        { "address": "並木町", "city": "那須塩原市", "postcode": "325-0031", "prefecture": "栃木県", "id": 3250031 },
        { "address": "二区町", "city": "那須塩原市", "postcode": "329-2733", "prefecture": "栃木県", "id": 3292733 },
        { "address": "西赤田", "city": "那須塩原市", "postcode": "329-2744", "prefecture": "栃木県", "id": 3292744 },
        { "address": "西朝日町", "city": "那須塩原市", "postcode": "329-2722", "prefecture": "栃木県", "id": 3292722 },
        { "address": "西岩崎", "city": "那須塩原市", "postcode": "325-0101", "prefecture": "栃木県", "id": 3250101 },
        { "address": "西遅沢", "city": "那須塩原市", "postcode": "329-2764", "prefecture": "栃木県", "id": 3292764 },
        { "address": "錦町", "city": "那須塩原市", "postcode": "325-0058", "prefecture": "栃木県", "id": 3250058 },
        { "address": "西幸町", "city": "那須塩原市", "postcode": "329-2724", "prefecture": "栃木県", "id": 3292724 },
        { "address": "西栄町", "city": "那須塩原市", "postcode": "329-2728", "prefecture": "栃木県", "id": 3292728 },
        { "address": "西新町", "city": "那須塩原市", "postcode": "325-0076", "prefecture": "栃木県", "id": 3250076 },
        { "address": "西富山", "city": "那須塩原市", "postcode": "329-2762", "prefecture": "栃木県", "id": 3292762 },
        { "address": "西原町", "city": "那須塩原市", "postcode": "329-2755", "prefecture": "栃木県", "id": 3292755 },
        { "address": "西三島", "city": "那須塩原市", "postcode": "329-2756", "prefecture": "栃木県", "id": 3292756 },
        { "address": "西大和", "city": "那須塩原市", "postcode": "329-2754", "prefecture": "栃木県", "id": 3292754 },
        { "address": "接骨木", "city": "那須塩原市", "postcode": "329-2807", "prefecture": "栃木県", "id": 3292807 },
        { "address": "沼野田和", "city": "那須塩原市", "postcode": "329-3144", "prefecture": "栃木県", "id": 3293144 },
        { "address": "野間", "city": "那須塩原市", "postcode": "325-0014", "prefecture": "栃木県", "id": 3250014 },
        { "address": "橋本町", "city": "那須塩原市", "postcode": "325-0043", "prefecture": "栃木県", "id": 3250043 },
        { "address": "波立", "city": "那須塩原市", "postcode": "329-3124", "prefecture": "栃木県", "id": 3293124 },
        { "address": "原町", "city": "那須塩原市", "postcode": "325-0015", "prefecture": "栃木県", "id": 3250015 },
        { "address": "東赤田", "city": "那須塩原市", "postcode": "329-2742", "prefecture": "栃木県", "id": 3292742 },
        { "address": "東遅沢", "city": "那須塩原市", "postcode": "329-2761", "prefecture": "栃木県", "id": 3292761 },
        { "address": "東小屋", "city": "那須塩原市", "postcode": "329-3147", "prefecture": "栃木県", "id": 3293147 },
        { "address": "東関根", "city": "那須塩原市", "postcode": "329-2702", "prefecture": "栃木県", "id": 3292702 },
        { "address": "東豊浦", "city": "那須塩原市", "postcode": "325-0022", "prefecture": "栃木県", "id": 3250022 },
        { "address": "東原", "city": "那須塩原市", "postcode": "325-0034", "prefecture": "栃木県", "id": 3250034 },
        { "address": "東三島", "city": "那須塩原市", "postcode": "329-2751", "prefecture": "栃木県", "id": 3292751 },
        { "address": "東大和町", "city": "那須塩原市", "postcode": "325-0041", "prefecture": "栃木県", "id": 3250041 },
        { "address": "蟇沼", "city": "那須塩原市", "postcode": "329-2802", "prefecture": "栃木県", "id": 3292802 },
        { "address": "二つ室", "city": "那須塩原市", "postcode": "329-2731", "prefecture": "栃木県", "id": 3292731 },
        { "address": "方京", "city": "那須塩原市", "postcode": "329-3156", "prefecture": "栃木県", "id": 3293156 },
        { "address": "細竹", "city": "那須塩原市", "postcode": "325-0113", "prefecture": "栃木県", "id": 3250113 },
        { "address": "本郷町", "city": "那須塩原市", "postcode": "325-0053", "prefecture": "栃木県", "id": 3250053 },
        { "address": "本町", "city": "那須塩原市", "postcode": "325-0056", "prefecture": "栃木県", "id": 3250056 },
        { "address": "前弥六", "city": "那須塩原市", "postcode": "329-3135", "prefecture": "栃木県", "id": 3293135 },
        {
            "address": "前弥六南町",
            "city": "那須塩原市",
            "postcode": "329-3136",
            "prefecture": "栃木県",
            "id": 3293136
        },
        { "address": "松浦町", "city": "那須塩原市", "postcode": "325-0074", "prefecture": "栃木県", "id": 3250074 },
        { "address": "三島", "city": "那須塩原市", "postcode": "329-2752", "prefecture": "栃木県", "id": 3292752 },
        { "address": "緑", "city": "那須塩原市", "postcode": "329-2713", "prefecture": "栃木県", "id": 3292713 },
        { "address": "南赤田", "city": "那須塩原市", "postcode": "329-2743", "prefecture": "栃木県", "id": 3292743 },
        { "address": "南郷屋", "city": "那須塩原市", "postcode": "329-2705", "prefecture": "栃木県", "id": 3292705 },
        { "address": "南町", "city": "那須塩原市", "postcode": "329-2723", "prefecture": "栃木県", "id": 3292723 },
        { "address": "箕輪", "city": "那須塩原市", "postcode": "325-0105", "prefecture": "栃木県", "id": 3250105 },
        { "address": "美原町", "city": "那須塩原市", "postcode": "325-0037", "prefecture": "栃木県", "id": 3250037 },
        { "address": "宮町", "city": "那須塩原市", "postcode": "325-0055", "prefecture": "栃木県", "id": 3250055 },
        { "address": "無栗屋", "city": "那須塩原市", "postcode": "329-3125", "prefecture": "栃木県", "id": 3293125 },
        { "address": "睦", "city": "那須塩原市", "postcode": "329-2706", "prefecture": "栃木県", "id": 3292706 },
        { "address": "百村", "city": "那須塩原市", "postcode": "325-0115", "prefecture": "栃木県", "id": 3250115 },
        { "address": "箭坪", "city": "那須塩原市", "postcode": "325-0108", "prefecture": "栃木県", "id": 3250108 },
        { "address": "山中新田", "city": "那須塩原市", "postcode": "329-3141", "prefecture": "栃木県", "id": 3293141 },
        { "address": "弥生町", "city": "那須塩原市", "postcode": "325-0044", "prefecture": "栃木県", "id": 3250044 },
        { "address": "油井", "city": "那須塩原市", "postcode": "325-0112", "prefecture": "栃木県", "id": 3250112 },
        { "address": "湯宮", "city": "那須塩原市", "postcode": "325-0117", "prefecture": "栃木県", "id": 3250117 },
        { "address": "豊町", "city": "那須塩原市", "postcode": "325-0051", "prefecture": "栃木県", "id": 3250051 },
        { "address": "湯本塩原", "city": "那須塩原市", "postcode": "329-2922", "prefecture": "栃木県", "id": 3292922 },
        { "address": "横林", "city": "那須塩原市", "postcode": "329-2806", "prefecture": "栃木県", "id": 3292806 },
        { "address": "四区町", "city": "那須塩原市", "postcode": "329-2746", "prefecture": "栃木県", "id": 3292746 },
        { "address": "若草町", "city": "那須塩原市", "postcode": "325-0032", "prefecture": "栃木県", "id": 3250032 },
        { "address": "若葉町", "city": "那須塩原市", "postcode": "325-0047", "prefecture": "栃木県", "id": 3250047 },
        { "address": "渡辺", "city": "那須塩原市", "postcode": "325-0024", "prefecture": "栃木県", "id": 3250024 },
        { "city": "さくら市", "postcode": "329-1300", "prefecture": "栃木県", "id": 3291300 },
        { "address": "氏家", "city": "さくら市", "postcode": "329-1311", "prefecture": "栃木県", "id": 3291311 },
        { "address": "氏家新田", "city": "さくら市", "postcode": "329-1315", "prefecture": "栃木県", "id": 3291315 },
        { "address": "卯の里", "city": "さくら市", "postcode": "329-1323", "prefecture": "栃木県", "id": 3291323 },
        { "address": "上野", "city": "さくら市", "postcode": "329-1306", "prefecture": "栃木県", "id": 3291306 },
        { "address": "小入", "city": "さくら市", "postcode": "329-1415", "prefecture": "栃木県", "id": 3291415 },
        { "address": "大中", "city": "さくら市", "postcode": "329-1325", "prefecture": "栃木県", "id": 3291325 },
        { "address": "押上", "city": "さくら市", "postcode": "329-1334", "prefecture": "栃木県", "id": 3291334 },
        { "address": "柿木沢", "city": "さくら市", "postcode": "329-1314", "prefecture": "栃木県", "id": 3291314 },
        { "address": "柿木沢新田", "city": "さくら市", "postcode": "329-1313", "prefecture": "栃木県", "id": 3291313 },
        { "address": "鍛冶ケ沢", "city": "さくら市", "postcode": "329-1304", "prefecture": "栃木県", "id": 3291304 },
        { "address": "葛城", "city": "さくら市", "postcode": "329-1413", "prefecture": "栃木県", "id": 3291413 },
        { "address": "金枝", "city": "さくら市", "postcode": "329-1405", "prefecture": "栃木県", "id": 3291405 },
        { "address": "鹿子畑", "city": "さくら市", "postcode": "329-1404", "prefecture": "栃木県", "id": 3291404 },
        { "address": "蒲須坂", "city": "さくら市", "postcode": "329-1332", "prefecture": "栃木県", "id": 3291332 },
        { "address": "上阿久津", "city": "さくら市", "postcode": "329-1316", "prefecture": "栃木県", "id": 3291316 },
        { "address": "上河戸", "city": "さくら市", "postcode": "329-1401", "prefecture": "栃木県", "id": 3291401 },
        { "address": "北草川", "city": "さくら市", "postcode": "329-1322", "prefecture": "栃木県", "id": 3291322 },
        { "address": "喜連川", "city": "さくら市", "postcode": "329-1412", "prefecture": "栃木県", "id": 3291412 },
        { "address": "草川", "city": "さくら市", "postcode": "329-1324", "prefecture": "栃木県", "id": 3291324 },
        { "address": "桜ケ丘", "city": "さくら市", "postcode": "329-1416", "prefecture": "栃木県", "id": 3291416 },
        { "address": "櫻野", "city": "さくら市", "postcode": "329-1312", "prefecture": "栃木県", "id": 3291312 },
        { "address": "下河戸", "city": "さくら市", "postcode": "329-1402", "prefecture": "栃木県", "id": 3291402 },
        { "address": "早乙女", "city": "さくら市", "postcode": "329-1414", "prefecture": "栃木県", "id": 3291414 },
        { "address": "富野岡", "city": "さくら市", "postcode": "329-1327", "prefecture": "栃木県", "id": 3291327 },
        { "address": "長久保", "city": "さくら市", "postcode": "329-1333", "prefecture": "栃木県", "id": 3291333 },
        { "address": "箱森新田", "city": "さくら市", "postcode": "329-1301", "prefecture": "栃木県", "id": 3291301 },
        { "address": "狹間田", "city": "さくら市", "postcode": "329-1305", "prefecture": "栃木県", "id": 3291305 },
        { "address": "馬場", "city": "さくら市", "postcode": "329-1321", "prefecture": "栃木県", "id": 3291321 },
        {
            "address": "フィオーレ喜連川",
            "city": "さくら市",
            "postcode": "329-1417",
            "prefecture": "栃木県",
            "id": 3291417
        },
        { "address": "穂積", "city": "さくら市", "postcode": "329-1403", "prefecture": "栃木県", "id": 3291403 },
        { "address": "松島", "city": "さくら市", "postcode": "329-1331", "prefecture": "栃木県", "id": 3291331 },
        { "address": "松山", "city": "さくら市", "postcode": "329-1303", "prefecture": "栃木県", "id": 3291303 },
        { "address": "松山新田", "city": "さくら市", "postcode": "329-1302", "prefecture": "栃木県", "id": 3291302 },
        { "address": "南和田", "city": "さくら市", "postcode": "329-1406", "prefecture": "栃木県", "id": 3291406 },
        { "address": "向河原", "city": "さくら市", "postcode": "329-1326", "prefecture": "栃木県", "id": 3291326 },
        { "address": "鷲宿", "city": "さくら市", "postcode": "329-1411", "prefecture": "栃木県", "id": 3291411 },
        { "city": "那須烏山市", "postcode": "321-0600", "prefecture": "栃木県", "id": 3210600 },
        { "address": "旭", "city": "那須烏山市", "postcode": "321-0624", "prefecture": "栃木県", "id": 3210624 },
        { "address": "愛宕台", "city": "那須烏山市", "postcode": "321-0629", "prefecture": "栃木県", "id": 3210629 },
        { "address": "岩子", "city": "那須烏山市", "postcode": "321-0521", "prefecture": "栃木県", "id": 3210521 },
        { "address": "宇井", "city": "那須烏山市", "postcode": "321-0527", "prefecture": "栃木県", "id": 3210527 },
        { "address": "大金", "city": "那須烏山市", "postcode": "321-0522", "prefecture": "栃木県", "id": 3210522 },
        { "address": "大木須", "city": "那須烏山市", "postcode": "321-0613", "prefecture": "栃木県", "id": 3210613 },
        { "address": "大桶", "city": "那須烏山市", "postcode": "321-0602", "prefecture": "栃木県", "id": 3210602 },
        { "address": "大里", "city": "那須烏山市", "postcode": "321-0516", "prefecture": "栃木県", "id": 3210516 },
        { "address": "大沢", "city": "那須烏山市", "postcode": "321-0612", "prefecture": "栃木県", "id": 3210612 },
        { "address": "小倉", "city": "那須烏山市", "postcode": "321-0528", "prefecture": "栃木県", "id": 3210528 },
        { "address": "落合", "city": "那須烏山市", "postcode": "321-0636", "prefecture": "栃木県", "id": 3210636 },
        { "address": "表", "city": "那須烏山市", "postcode": "321-0623", "prefecture": "栃木県", "id": 3210623 },
        { "address": "金井", "city": "那須烏山市", "postcode": "321-0628", "prefecture": "栃木県", "id": 3210628 },
        { "address": "神長", "city": "那須烏山市", "postcode": "321-0632", "prefecture": "栃木県", "id": 3210632 },
        { "address": "上川井", "city": "那須烏山市", "postcode": "321-0505", "prefecture": "栃木県", "id": 3210505 },
        { "address": "上境", "city": "那須烏山市", "postcode": "321-0617", "prefecture": "栃木県", "id": 3210617 },
        { "address": "興野", "city": "那須烏山市", "postcode": "321-0611", "prefecture": "栃木県", "id": 3210611 },
        { "address": "熊田", "city": "那須烏山市", "postcode": "321-0502", "prefecture": "栃木県", "id": 3210502 },
        { "address": "鴻野山", "city": "那須烏山市", "postcode": "321-0534", "prefecture": "栃木県", "id": 3210534 },
        { "address": "小河原", "city": "那須烏山市", "postcode": "321-0511", "prefecture": "栃木県", "id": 3210511 },
        { "address": "小木須", "city": "那須烏山市", "postcode": "321-0614", "prefecture": "栃木県", "id": 3210614 },
        { "address": "小白井", "city": "那須烏山市", "postcode": "321-0535", "prefecture": "栃木県", "id": 3210535 },
        { "address": "小塙", "city": "那須烏山市", "postcode": "321-0513", "prefecture": "栃木県", "id": 3210513 },
        { "address": "小原沢", "city": "那須烏山市", "postcode": "321-0615", "prefecture": "栃木県", "id": 3210615 },
        { "address": "三箇", "city": "那須烏山市", "postcode": "321-0531", "prefecture": "栃木県", "id": 3210531 },
        { "address": "志鳥", "city": "那須烏山市", "postcode": "321-0501", "prefecture": "栃木県", "id": 3210501 },
        { "address": "下川井", "city": "那須烏山市", "postcode": "321-0504", "prefecture": "栃木県", "id": 3210504 },
        { "address": "下境", "city": "那須烏山市", "postcode": "321-0616", "prefecture": "栃木県", "id": 3210616 },
        { "address": "城東", "city": "那須烏山市", "postcode": "321-0622", "prefecture": "栃木県", "id": 3210622 },
        { "address": "白久", "city": "那須烏山市", "postcode": "321-0601", "prefecture": "栃木県", "id": 3210601 },
        { "address": "城山", "city": "那須烏山市", "postcode": "321-0631", "prefecture": "栃木県", "id": 3210631 },
        { "address": "曲畑", "city": "那須烏山市", "postcode": "321-0523", "prefecture": "栃木県", "id": 3210523 },
        { "address": "高瀬", "city": "那須烏山市", "postcode": "321-0512", "prefecture": "栃木県", "id": 3210512 },
        { "address": "滝", "city": "那須烏山市", "postcode": "321-0633", "prefecture": "栃木県", "id": 3210633 },
        { "address": "滝田", "city": "那須烏山市", "postcode": "321-0605", "prefecture": "栃木県", "id": 3210605 },
        { "address": "田野倉", "city": "那須烏山市", "postcode": "321-0526", "prefecture": "栃木県", "id": 3210526 },
        { "address": "中央", "city": "那須烏山市", "postcode": "321-0621", "prefecture": "栃木県", "id": 3210621 },
        { "address": "月次", "city": "那須烏山市", "postcode": "321-0503", "prefecture": "栃木県", "id": 3210503 },
        { "address": "東原", "city": "那須烏山市", "postcode": "321-0517", "prefecture": "栃木県", "id": 3210517 },
        { "address": "中山", "city": "那須烏山市", "postcode": "321-0604", "prefecture": "栃木県", "id": 3210604 },
        { "address": "野上", "city": "那須烏山市", "postcode": "321-0634", "prefecture": "栃木県", "id": 3210634 },
        { "address": "初音", "city": "那須烏山市", "postcode": "321-0626", "prefecture": "栃木県", "id": 3210626 },
        { "address": "福岡", "city": "那須烏山市", "postcode": "321-0525", "prefecture": "栃木県", "id": 3210525 },
        { "address": "藤田", "city": "那須烏山市", "postcode": "321-0532", "prefecture": "栃木県", "id": 3210532 },
        { "address": "曲田", "city": "那須烏山市", "postcode": "321-0515", "prefecture": "栃木県", "id": 3210515 },
        { "address": "南", "city": "那須烏山市", "postcode": "321-0627", "prefecture": "栃木県", "id": 3210627 },
        { "address": "南大和久", "city": "那須烏山市", "postcode": "321-0533", "prefecture": "栃木県", "id": 3210533 },
        { "address": "宮原", "city": "那須烏山市", "postcode": "321-0625", "prefecture": "栃木県", "id": 3210625 },
        { "address": "向田", "city": "那須烏山市", "postcode": "321-0635", "prefecture": "栃木県", "id": 3210635 },
        { "address": "森田", "city": "那須烏山市", "postcode": "321-0514", "prefecture": "栃木県", "id": 3210514 },
        { "address": "谷浅見", "city": "那須烏山市", "postcode": "321-0603", "prefecture": "栃木県", "id": 3210603 },
        { "address": "八ケ代", "city": "那須烏山市", "postcode": "321-0524", "prefecture": "栃木県", "id": 3210524 },
        { "address": "横枕", "city": "那須烏山市", "postcode": "321-0618", "prefecture": "栃木県", "id": 3210618 },
        { "city": "下野市", "postcode": "329-0400", "prefecture": "栃木県", "id": 3290400 },
        { "address": "石橋", "city": "下野市", "postcode": "329-0511", "prefecture": "栃木県", "id": 3290511 },
        { "address": "磯部", "city": "下野市", "postcode": "323-0111", "prefecture": "栃木県", "id": 3230111 },
        { "address": "医大前", "city": "下野市", "postcode": "329-0403", "prefecture": "栃木県", "id": 3290403 },
        { "address": "駅東", "city": "下野市", "postcode": "329-0413", "prefecture": "栃木県", "id": 3290413 },
        { "address": "大松山", "city": "下野市", "postcode": "329-0519", "prefecture": "栃木県", "id": 3290519 },
        { "address": "上川島", "city": "下野市", "postcode": "323-0103", "prefecture": "栃木県", "id": 3230103 },
        { "address": "上古山", "city": "下野市", "postcode": "329-0501", "prefecture": "栃木県", "id": 3290501 },
        { "address": "上台", "city": "下野市", "postcode": "329-0504", "prefecture": "栃木県", "id": 3290504 },
        { "address": "上大領", "city": "下野市", "postcode": "329-0517", "prefecture": "栃木県", "id": 3290517 },
        { "address": "上坪山", "city": "下野市", "postcode": "323-0113", "prefecture": "栃木県", "id": 3230113 },
        { "address": "上吉田", "city": "下野市", "postcode": "323-0102", "prefecture": "栃木県", "id": 3230102 },
        { "address": "烏ケ森", "city": "下野市", "postcode": "329-0411", "prefecture": "栃木県", "id": 3290411 },
        { "address": "川中子", "city": "下野市", "postcode": "329-0415", "prefecture": "栃木県", "id": 3290415 },
        { "address": "祇園", "city": "下野市", "postcode": "329-0434", "prefecture": "栃木県", "id": 3290434 },
        { "address": "絹板", "city": "下野市", "postcode": "323-0114", "prefecture": "栃木県", "id": 3230114 },
        { "address": "小金井", "city": "下野市", "postcode": "329-0414", "prefecture": "栃木県", "id": 3290414 },
        { "address": "国分寺", "city": "下野市", "postcode": "329-0417", "prefecture": "栃木県", "id": 3290417 },
        { "address": "笹原", "city": "下野市", "postcode": "329-0402", "prefecture": "栃木県", "id": 3290402 },
        { "address": "三王山", "city": "下野市", "postcode": "323-0101", "prefecture": "栃木県", "id": 3230101 },
        { "address": "柴", "city": "下野市", "postcode": "329-0412", "prefecture": "栃木県", "id": 3290412 },
        { "address": "下石橋", "city": "下野市", "postcode": "329-0512", "prefecture": "栃木県", "id": 3290512 },
        { "address": "下古山", "city": "下野市", "postcode": "329-0502", "prefecture": "栃木県", "id": 3290502 },
        { "address": "下大領", "city": "下野市", "postcode": "329-0513", "prefecture": "栃木県", "id": 3290513 },
        { "address": "下坪山", "city": "下野市", "postcode": "323-0115", "prefecture": "栃木県", "id": 3230115 },
        { "address": "下長田", "city": "下野市", "postcode": "329-0503", "prefecture": "栃木県", "id": 3290503 },
        { "address": "下文狹", "city": "下野市", "postcode": "329-0424", "prefecture": "栃木県", "id": 3290424 },
        { "address": "下吉田", "city": "下野市", "postcode": "323-0106", "prefecture": "栃木県", "id": 3230106 },
        { "address": "大光寺", "city": "下野市", "postcode": "329-0516", "prefecture": "栃木県", "id": 3290516 },
        { "address": "田中", "city": "下野市", "postcode": "329-0425", "prefecture": "栃木県", "id": 3290425 },
        { "address": "中川島", "city": "下野市", "postcode": "323-0104", "prefecture": "栃木県", "id": 3230104 },
        { "address": "中大領", "city": "下野市", "postcode": "329-0515", "prefecture": "栃木県", "id": 3290515 },
        { "address": "成田", "city": "下野市", "postcode": "329-0421", "prefecture": "栃木県", "id": 3290421 },
        { "address": "仁良川", "city": "下野市", "postcode": "329-0432", "prefecture": "栃木県", "id": 3290432 },
        { "address": "橋本", "city": "下野市", "postcode": "329-0506", "prefecture": "栃木県", "id": 3290506 },
        { "address": "花田", "city": "下野市", "postcode": "323-0116", "prefecture": "栃木県", "id": 3230116 },
        { "address": "花の木", "city": "下野市", "postcode": "329-0518", "prefecture": "栃木県", "id": 3290518 },
        { "address": "東根", "city": "下野市", "postcode": "323-0112", "prefecture": "栃木県", "id": 3230112 },
        { "address": "東前原", "city": "下野市", "postcode": "329-0514", "prefecture": "栃木県", "id": 3290514 },
        { "address": "文教", "city": "下野市", "postcode": "329-0507", "prefecture": "栃木県", "id": 3290507 },
        { "address": "別当河原", "city": "下野市", "postcode": "323-0107", "prefecture": "栃木県", "id": 3230107 },
        { "address": "細谷", "city": "下野市", "postcode": "329-0505", "prefecture": "栃木県", "id": 3290505 },
        { "address": "町田", "city": "下野市", "postcode": "329-0422", "prefecture": "栃木県", "id": 3290422 },
        { "address": "緑", "city": "下野市", "postcode": "329-0433", "prefecture": "栃木県", "id": 3290433 },
        { "address": "箕輪", "city": "下野市", "postcode": "329-0401", "prefecture": "栃木県", "id": 3290401 },
        { "address": "紫", "city": "下野市", "postcode": "329-0418", "prefecture": "栃木県", "id": 3290418 },
        { "address": "本吉田", "city": "下野市", "postcode": "323-0105", "prefecture": "栃木県", "id": 3230105 },
        { "address": "薬師寺", "city": "下野市", "postcode": "329-0431", "prefecture": "栃木県", "id": 3290431 },
        { "address": "谷地賀", "city": "下野市", "postcode": "329-0423", "prefecture": "栃木県", "id": 3290423 },
        { "city": "河内郡上三川町", "postcode": "329-0600", "prefecture": "栃木県", "id": 3290600 },
        { "address": "石田", "city": "河内郡上三川町", "postcode": "329-0521", "prefecture": "栃木県", "id": 3290521 },
        { "address": "磯岡", "city": "河内郡上三川町", "postcode": "329-0606", "prefecture": "栃木県", "id": 3290606 },
        { "address": "大山", "city": "河内郡上三川町", "postcode": "329-0525", "prefecture": "栃木県", "id": 3290525 },
        {
            "address": "上蒲生",
            "city": "河内郡上三川町",
            "postcode": "329-0617",
            "prefecture": "栃木県",
            "id": 3290617
        },
        {
            "address": "上神主",
            "city": "河内郡上三川町",
            "postcode": "329-0527",
            "prefecture": "栃木県",
            "id": 3290527
        },
        { "address": "上郷", "city": "河内郡上三川町", "postcode": "329-0604", "prefecture": "栃木県", "id": 3290604 },
        {
            "address": "上三川",
            "city": "河内郡上三川町",
            "postcode": "329-0611",
            "prefecture": "栃木県",
            "id": 3290611
        },
        {
            "address": "上文挾",
            "city": "河内郡上三川町",
            "postcode": "329-0601",
            "prefecture": "栃木県",
            "id": 3290601
        },
        {
            "address": "川中子",
            "city": "河内郡上三川町",
            "postcode": "329-0522",
            "prefecture": "栃木県",
            "id": 3290522
        },
        {
            "address": "五分一",
            "city": "河内郡上三川町",
            "postcode": "329-0614",
            "prefecture": "栃木県",
            "id": 3290614
        },
        { "address": "坂上", "city": "河内郡上三川町", "postcode": "329-0613", "prefecture": "栃木県", "id": 3290613 },
        { "address": "鞘堂", "city": "河内郡上三川町", "postcode": "329-0526", "prefecture": "栃木県", "id": 3290526 },
        {
            "address": "三本木",
            "city": "河内郡上三川町",
            "postcode": "329-0612",
            "prefecture": "栃木県",
            "id": 3290612
        },
        {
            "address": "下蒲生",
            "city": "河内郡上三川町",
            "postcode": "329-0616",
            "prefecture": "栃木県",
            "id": 3290616
        },
        {
            "address": "下神主",
            "city": "河内郡上三川町",
            "postcode": "329-0529",
            "prefecture": "栃木県",
            "id": 3290529
        },
        {
            "address": "しらさぎ",
            "city": "河内郡上三川町",
            "postcode": "329-0618",
            "prefecture": "栃木県",
            "id": 3290618
        },
        { "address": "多功", "city": "河内郡上三川町", "postcode": "329-0524", "prefecture": "栃木県", "id": 3290524 },
        {
            "address": "天神町",
            "city": "河内郡上三川町",
            "postcode": "329-0530",
            "prefecture": "栃木県",
            "id": 3290530
        },
        {
            "address": "西木代",
            "city": "河内郡上三川町",
            "postcode": "329-0608",
            "prefecture": "栃木県",
            "id": 3290608
        },
        {
            "address": "西蓼沼",
            "city": "河内郡上三川町",
            "postcode": "329-0605",
            "prefecture": "栃木県",
            "id": 3290605
        },
        { "address": "西汗", "city": "河内郡上三川町", "postcode": "329-0607", "prefecture": "栃木県", "id": 3290607 },
        {
            "address": "東蓼沼",
            "city": "河内郡上三川町",
            "postcode": "329-0603",
            "prefecture": "栃木県",
            "id": 3290603
        },
        { "address": "東汗", "city": "河内郡上三川町", "postcode": "329-0602", "prefecture": "栃木県", "id": 3290602 },
        { "address": "三村", "city": "河内郡上三川町", "postcode": "329-0615", "prefecture": "栃木県", "id": 3290615 },
        { "address": "梁", "city": "河内郡上三川町", "postcode": "329-0523", "prefecture": "栃木県", "id": 3290523 },
        {
            "address": "ゆうきが丘",
            "city": "河内郡上三川町",
            "postcode": "329-0528",
            "prefecture": "栃木県",
            "id": 3290528
        },
        { "city": "芳賀郡益子町", "postcode": "321-4200", "prefecture": "栃木県", "id": 3214200 },
        { "address": "芦沼", "city": "芳賀郡益子町", "postcode": "321-4102", "prefecture": "栃木県", "id": 3214102 },
        { "address": "梅ケ内", "city": "芳賀郡益子町", "postcode": "321-4223", "prefecture": "栃木県", "id": 3214223 },
        { "address": "大郷戸", "city": "芳賀郡益子町", "postcode": "321-4221", "prefecture": "栃木県", "id": 3214221 },
        { "address": "大沢", "city": "芳賀郡益子町", "postcode": "321-4104", "prefecture": "栃木県", "id": 3214104 },
        { "address": "大平", "city": "芳賀郡益子町", "postcode": "321-4103", "prefecture": "栃木県", "id": 3214103 },
        { "address": "小宅", "city": "芳賀郡益子町", "postcode": "321-4101", "prefecture": "栃木県", "id": 3214101 },
        { "address": "上大羽", "city": "芳賀郡益子町", "postcode": "321-4212", "prefecture": "栃木県", "id": 3214212 },
        { "address": "上山", "city": "芳賀郡益子町", "postcode": "321-4226", "prefecture": "栃木県", "id": 3214226 },
        { "address": "北中", "city": "芳賀郡益子町", "postcode": "321-4105", "prefecture": "栃木県", "id": 3214105 },
        { "address": "小泉", "city": "芳賀郡益子町", "postcode": "321-4222", "prefecture": "栃木県", "id": 3214222 },
        { "address": "下大羽", "city": "芳賀郡益子町", "postcode": "321-4211", "prefecture": "栃木県", "id": 3214211 },
        { "address": "城内坂", "city": "芳賀郡益子町", "postcode": "321-4218", "prefecture": "栃木県", "id": 3214218 },
        { "address": "長堤", "city": "芳賀郡益子町", "postcode": "321-4225", "prefecture": "栃木県", "id": 3214225 },
        { "address": "七井", "city": "芳賀郡益子町", "postcode": "321-4106", "prefecture": "栃木県", "id": 3214106 },
        {
            "address": "七井中央",
            "city": "芳賀郡益子町",
            "postcode": "321-4107",
            "prefecture": "栃木県",
            "id": 3214107
        },
        { "address": "生田目", "city": "芳賀郡益子町", "postcode": "321-4215", "prefecture": "栃木県", "id": 3214215 },
        { "address": "塙", "city": "芳賀郡益子町", "postcode": "321-4216", "prefecture": "栃木県", "id": 3214216 },
        { "address": "東田井", "city": "芳賀郡益子町", "postcode": "321-4227", "prefecture": "栃木県", "id": 3214227 },
        { "address": "前沢", "city": "芳賀郡益子町", "postcode": "321-4214", "prefecture": "栃木県", "id": 3214214 },
        { "address": "益子", "city": "芳賀郡益子町", "postcode": "321-4217", "prefecture": "栃木県", "id": 3214217 },
        { "address": "本沼", "city": "芳賀郡益子町", "postcode": "321-4224", "prefecture": "栃木県", "id": 3214224 },
        { "address": "山本", "city": "芳賀郡益子町", "postcode": "321-4213", "prefecture": "栃木県", "id": 3214213 },
        { "city": "芳賀郡茂木町", "postcode": "321-3500", "prefecture": "栃木県", "id": 3213500 },
        { "address": "鮎田", "city": "芳賀郡茂木町", "postcode": "321-3535", "prefecture": "栃木県", "id": 3213535 },
        { "address": "天子", "city": "芳賀郡茂木町", "postcode": "321-3621", "prefecture": "栃木県", "id": 3213621 },
        { "address": "飯", "city": "芳賀郡茂木町", "postcode": "321-3626", "prefecture": "栃木県", "id": 3213626 },
        { "address": "飯野", "city": "芳賀郡茂木町", "postcode": "321-3702", "prefecture": "栃木県", "id": 3213702 },
        { "address": "入郷", "city": "芳賀郡茂木町", "postcode": "321-3705", "prefecture": "栃木県", "id": 3213705 },
        { "address": "烏生田", "city": "芳賀郡茂木町", "postcode": "321-3541", "prefecture": "栃木県", "id": 3213541 },
        { "address": "後郷", "city": "芳賀郡茂木町", "postcode": "321-3561", "prefecture": "栃木県", "id": 3213561 },
        { "address": "青梅", "city": "芳賀郡茂木町", "postcode": "321-3534", "prefecture": "栃木県", "id": 3213534 },
        { "address": "大瀬", "city": "芳賀郡茂木町", "postcode": "321-3554", "prefecture": "栃木県", "id": 3213554 },
        { "address": "大畑", "city": "芳賀郡茂木町", "postcode": "321-3553", "prefecture": "栃木県", "id": 3213553 },
        { "address": "小貫", "city": "芳賀郡茂木町", "postcode": "321-3627", "prefecture": "栃木県", "id": 3213627 },
        { "address": "小深", "city": "芳賀郡茂木町", "postcode": "321-3707", "prefecture": "栃木県", "id": 3213707 },
        { "address": "小山", "city": "芳賀郡茂木町", "postcode": "321-3624", "prefecture": "栃木県", "id": 3213624 },
        { "address": "神井", "city": "芳賀郡茂木町", "postcode": "321-3536", "prefecture": "栃木県", "id": 3213536 },
        { "address": "上後郷", "city": "芳賀郡茂木町", "postcode": "321-3543", "prefecture": "栃木県", "id": 3213543 },
        { "address": "上菅又", "city": "芳賀郡茂木町", "postcode": "321-3546", "prefecture": "栃木県", "id": 3213546 },
        { "address": "河井", "city": "芳賀郡茂木町", "postcode": "321-3703", "prefecture": "栃木県", "id": 3213703 },
        { "address": "河又", "city": "芳賀郡茂木町", "postcode": "321-3706", "prefecture": "栃木県", "id": 3213706 },
        { "address": "北高岡", "city": "芳賀郡茂木町", "postcode": "321-3622", "prefecture": "栃木県", "id": 3213622 },
        { "address": "木幡", "city": "芳賀郡茂木町", "postcode": "321-3623", "prefecture": "栃木県", "id": 3213623 },
        { "address": "黒田", "city": "芳賀郡茂木町", "postcode": "321-3557", "prefecture": "栃木県", "id": 3213557 },
        { "address": "小井戸", "city": "芳賀郡茂木町", "postcode": "321-3566", "prefecture": "栃木県", "id": 3213566 },
        { "address": "坂井", "city": "芳賀郡茂木町", "postcode": "321-3544", "prefecture": "栃木県", "id": 3213544 },
        { "address": "九石", "city": "芳賀郡茂木町", "postcode": "321-3542", "prefecture": "栃木県", "id": 3213542 },
        { "address": "塩田", "city": "芳賀郡茂木町", "postcode": "321-3565", "prefecture": "栃木県", "id": 3213565 },
        { "address": "下菅又", "city": "芳賀郡茂木町", "postcode": "321-3545", "prefecture": "栃木県", "id": 3213545 },
        { "address": "千本", "city": "芳賀郡茂木町", "postcode": "321-3547", "prefecture": "栃木県", "id": 3213547 },
        { "address": "竹原", "city": "芳賀郡茂木町", "postcode": "321-3552", "prefecture": "栃木県", "id": 3213552 },
        { "address": "所草", "city": "芳賀郡茂木町", "postcode": "321-3555", "prefecture": "栃木県", "id": 3213555 },
        { "address": "生井", "city": "芳賀郡茂木町", "postcode": "321-3551", "prefecture": "栃木県", "id": 3213551 },
        { "address": "林", "city": "芳賀郡茂木町", "postcode": "321-3563", "prefecture": "栃木県", "id": 3213563 },
        { "address": "桧山", "city": "芳賀郡茂木町", "postcode": "311-4411", "prefecture": "栃木県", "id": 3114411 },
        { "address": "桧山", "city": "芳賀郡茂木町", "postcode": "321-3533", "prefecture": "栃木県", "id": 3213533 },
        { "address": "深沢", "city": "芳賀郡茂木町", "postcode": "321-3628", "prefecture": "栃木県", "id": 3213628 },
        { "address": "福手", "city": "芳賀郡茂木町", "postcode": "321-3625", "prefecture": "栃木県", "id": 3213625 },
        { "address": "馬門", "city": "芳賀郡茂木町", "postcode": "321-3562", "prefecture": "栃木県", "id": 3213562 },
        { "address": "牧野", "city": "芳賀郡茂木町", "postcode": "321-3704", "prefecture": "栃木県", "id": 3213704 },
        { "address": "増井", "city": "芳賀郡茂木町", "postcode": "321-3564", "prefecture": "栃木県", "id": 3213564 },
        { "address": "町田", "city": "芳賀郡茂木町", "postcode": "321-3556", "prefecture": "栃木県", "id": 3213556 },
        { "address": "三坂", "city": "芳賀郡茂木町", "postcode": "321-3532", "prefecture": "栃木県", "id": 3213532 },
        { "address": "茂木", "city": "芳賀郡茂木町", "postcode": "321-3531", "prefecture": "栃木県", "id": 3213531 },
        { "address": "山内", "city": "芳賀郡茂木町", "postcode": "321-3701", "prefecture": "栃木県", "id": 3213701 },
        { "city": "芳賀郡市貝町", "postcode": "321-3400", "prefecture": "栃木県", "id": 3213400 },
        { "address": "赤羽", "city": "芳賀郡市貝町", "postcode": "321-3426", "prefecture": "栃木県", "id": 3213426 },
        { "address": "石下", "city": "芳賀郡市貝町", "postcode": "321-3422", "prefecture": "栃木県", "id": 3213422 },
        { "address": "市塙", "city": "芳賀郡市貝町", "postcode": "321-3423", "prefecture": "栃木県", "id": 3213423 },
        { "address": "大谷津", "city": "芳賀郡市貝町", "postcode": "321-3405", "prefecture": "栃木県", "id": 3213405 },
        { "address": "上根", "city": "芳賀郡市貝町", "postcode": "321-3424", "prefecture": "栃木県", "id": 3213424 },
        { "address": "刈生田", "city": "芳賀郡市貝町", "postcode": "321-3411", "prefecture": "栃木県", "id": 3213411 },
        { "address": "笹原田", "city": "芳賀郡市貝町", "postcode": "321-3421", "prefecture": "栃木県", "id": 3213421 },
        { "address": "塩田", "city": "芳賀郡市貝町", "postcode": "321-3406", "prefecture": "栃木県", "id": 3213406 },
        { "address": "椎谷", "city": "芳賀郡市貝町", "postcode": "321-3414", "prefecture": "栃木県", "id": 3213414 },
        { "address": "杉山", "city": "芳賀郡市貝町", "postcode": "321-3415", "prefecture": "栃木県", "id": 3213415 },
        { "address": "竹内", "city": "芳賀郡市貝町", "postcode": "321-3401", "prefecture": "栃木県", "id": 3213401 },
        { "address": "多田羅", "city": "芳賀郡市貝町", "postcode": "321-3425", "prefecture": "栃木県", "id": 3213425 },
        { "address": "田野辺", "city": "芳賀郡市貝町", "postcode": "321-3412", "prefecture": "栃木県", "id": 3213412 },
        { "address": "続谷", "city": "芳賀郡市貝町", "postcode": "321-3404", "prefecture": "栃木県", "id": 3213404 },
        { "address": "羽仏", "city": "芳賀郡市貝町", "postcode": "321-3403", "prefecture": "栃木県", "id": 3213403 },
        { "address": "文谷", "city": "芳賀郡市貝町", "postcode": "321-3413", "prefecture": "栃木県", "id": 3213413 },
        { "address": "見上", "city": "芳賀郡市貝町", "postcode": "321-3402", "prefecture": "栃木県", "id": 3213402 },
        { "city": "芳賀郡芳賀町", "postcode": "321-3300", "prefecture": "栃木県", "id": 3213300 },
        { "address": "稲毛田", "city": "芳賀郡芳賀町", "postcode": "321-3303", "prefecture": "栃木県", "id": 3213303 },
        {
            "address": "打越新田",
            "city": "芳賀郡芳賀町",
            "postcode": "321-3314",
            "prefecture": "栃木県",
            "id": 3213314
        },
        { "address": "祖母井", "city": "芳賀郡芳賀町", "postcode": "321-3304", "prefecture": "栃木県", "id": 3213304 },
        {
            "address": "祖母井南",
            "city": "芳賀郡芳賀町",
            "postcode": "321-3307",
            "prefecture": "栃木県",
            "id": 3213307
        },
        {
            "address": "上稲毛田",
            "city": "芳賀郡芳賀町",
            "postcode": "321-3302",
            "prefecture": "栃木県",
            "id": 3213302
        },
        { "address": "上延生", "city": "芳賀郡芳賀町", "postcode": "321-3311", "prefecture": "栃木県", "id": 3213311 },
        { "address": "北長島", "city": "芳賀郡芳賀町", "postcode": "321-3323", "prefecture": "栃木県", "id": 3213323 },
        { "address": "給部", "city": "芳賀郡芳賀町", "postcode": "321-3301", "prefecture": "栃木県", "id": 3213301 },
        {
            "address": "下高根沢",
            "city": "芳賀郡芳賀町",
            "postcode": "321-3321",
            "prefecture": "栃木県",
            "id": 3213321
        },
        { "address": "下延生", "city": "芳賀郡芳賀町", "postcode": "321-3312", "prefecture": "栃木県", "id": 3213312 },
        { "address": "西高橋", "city": "芳賀郡芳賀町", "postcode": "321-3315", "prefecture": "栃木県", "id": 3213315 },
        { "address": "西水沼", "city": "芳賀郡芳賀町", "postcode": "321-3324", "prefecture": "栃木県", "id": 3213324 },
        { "address": "芳賀台", "city": "芳賀郡芳賀町", "postcode": "321-3325", "prefecture": "栃木県", "id": 3213325 },
        { "address": "東高橋", "city": "芳賀郡芳賀町", "postcode": "321-3313", "prefecture": "栃木県", "id": 3213313 },
        { "address": "東水沼", "city": "芳賀郡芳賀町", "postcode": "321-3322", "prefecture": "栃木県", "id": 3213322 },
        { "address": "芳志戸", "city": "芳賀郡芳賀町", "postcode": "321-3305", "prefecture": "栃木県", "id": 3213305 },
        { "address": "八ツ木", "city": "芳賀郡芳賀町", "postcode": "321-3306", "prefecture": "栃木県", "id": 3213306 },
        { "address": "与能", "city": "芳賀郡芳賀町", "postcode": "321-3316", "prefecture": "栃木県", "id": 3213316 },
        { "city": "下都賀郡壬生町", "postcode": "321-0200", "prefecture": "栃木県", "id": 3210200 },
        {
            "address": "あけぼの町",
            "city": "下都賀郡壬生町",
            "postcode": "321-0206",
            "prefecture": "栃木県",
            "id": 3210206
        },
        {
            "address": "いずみ町",
            "city": "下都賀郡壬生町",
            "postcode": "321-0213",
            "prefecture": "栃木県",
            "id": 3210213
        },
        {
            "address": "駅東町",
            "city": "下都賀郡壬生町",
            "postcode": "321-0222",
            "prefecture": "栃木県",
            "id": 3210222
        },
        { "address": "落合", "city": "下都賀郡壬生町", "postcode": "321-0218", "prefecture": "栃木県", "id": 3210218 },
        {
            "address": "おもちゃのまち",
            "city": "下都賀郡壬生町",
            "postcode": "321-0202",
            "prefecture": "栃木県",
            "id": 3210202
        },
        { "address": "表町", "city": "下都賀郡壬生町", "postcode": "321-0224", "prefecture": "栃木県", "id": 3210224 },
        {
            "address": "上稲葉",
            "city": "下都賀郡壬生町",
            "postcode": "321-0236",
            "prefecture": "栃木県",
            "id": 3210236
        },
        { "address": "上田", "city": "下都賀郡壬生町", "postcode": "321-0231", "prefecture": "栃木県", "id": 3210231 },
        {
            "address": "北小林",
            "city": "下都賀郡壬生町",
            "postcode": "321-0207",
            "prefecture": "栃木県",
            "id": 3210207
        },
        { "address": "国谷", "city": "下都賀郡壬生町", "postcode": "321-0211", "prefecture": "栃木県", "id": 3210211 },
        { "address": "寿町", "city": "下都賀郡壬生町", "postcode": "321-0212", "prefecture": "栃木県", "id": 3210212 },
        { "address": "幸町", "city": "下都賀郡壬生町", "postcode": "321-0203", "prefecture": "栃木県", "id": 3210203 },
        { "address": "至宝", "city": "下都賀郡壬生町", "postcode": "321-0217", "prefecture": "栃木県", "id": 3210217 },
        {
            "address": "下稲葉",
            "city": "下都賀郡壬生町",
            "postcode": "321-0237",
            "prefecture": "栃木県",
            "id": 3210237
        },
        { "address": "助谷", "city": "下都賀郡壬生町", "postcode": "321-0233", "prefecture": "栃木県", "id": 3210233 },
        {
            "address": "大師町",
            "city": "下都賀郡壬生町",
            "postcode": "321-0228",
            "prefecture": "栃木県",
            "id": 3210228
        },
        {
            "address": "中央町",
            "city": "下都賀郡壬生町",
            "postcode": "321-0226",
            "prefecture": "栃木県",
            "id": 3210226
        },
        { "address": "通町", "city": "下都賀郡壬生町", "postcode": "321-0227", "prefecture": "栃木県", "id": 3210227 },
        { "address": "中泉", "city": "下都賀郡壬生町", "postcode": "321-0232", "prefecture": "栃木県", "id": 3210232 },
        {
            "address": "七ツ石",
            "city": "下都賀郡壬生町",
            "postcode": "321-0235",
            "prefecture": "栃木県",
            "id": 3210235
        },
        {
            "address": "羽生田",
            "city": "下都賀郡壬生町",
            "postcode": "321-0234",
            "prefecture": "栃木県",
            "id": 3210234
        },
        {
            "address": "福和田",
            "city": "下都賀郡壬生町",
            "postcode": "321-0219",
            "prefecture": "栃木県",
            "id": 3210219
        },
        { "address": "藤井", "city": "下都賀郡壬生町", "postcode": "321-0221", "prefecture": "栃木県", "id": 3210221 },
        { "address": "本丸", "city": "下都賀郡壬生町", "postcode": "321-0225", "prefecture": "栃木県", "id": 3210225 },
        { "address": "緑町", "city": "下都賀郡壬生町", "postcode": "321-0204", "prefecture": "栃木県", "id": 3210204 },
        {
            "address": "壬生甲",
            "city": "下都賀郡壬生町",
            "postcode": "321-0214",
            "prefecture": "栃木県",
            "id": 3210214
        },
        {
            "address": "壬生乙",
            "city": "下都賀郡壬生町",
            "postcode": "321-0215",
            "prefecture": "栃木県",
            "id": 3210215
        },
        {
            "address": "壬生丁",
            "city": "下都賀郡壬生町",
            "postcode": "321-0216",
            "prefecture": "栃木県",
            "id": 3210216
        },
        {
            "address": "みぶ羽生田産業団地",
            "city": "下都賀郡壬生町",
            "postcode": "321-0238",
            "prefecture": "栃木県",
            "id": 3210238
        },
        { "address": "元町", "city": "下都賀郡壬生町", "postcode": "321-0223", "prefecture": "栃木県", "id": 3210223 },
        { "address": "安塚", "city": "下都賀郡壬生町", "postcode": "321-0201", "prefecture": "栃木県", "id": 3210201 },
        {
            "address": "若草町",
            "city": "下都賀郡壬生町",
            "postcode": "321-0205",
            "prefecture": "栃木県",
            "id": 3210205
        },
        { "city": "下都賀郡野木町", "postcode": "329-0100", "prefecture": "栃木県", "id": 3290100 },
        { "address": "潤島", "city": "下都賀郡野木町", "postcode": "329-0102", "prefecture": "栃木県", "id": 3290102 },
        { "address": "川田", "city": "下都賀郡野木町", "postcode": "329-0105", "prefecture": "栃木県", "id": 3290105 },
        {
            "address": "佐川野",
            "city": "下都賀郡野木町",
            "postcode": "329-0104",
            "prefecture": "栃木県",
            "id": 3290104
        },
        { "address": "友沼", "city": "下都賀郡野木町", "postcode": "329-0101", "prefecture": "栃木県", "id": 3290101 },
        { "address": "中谷", "city": "下都賀郡野木町", "postcode": "329-0113", "prefecture": "栃木県", "id": 3290113 },
        { "address": "野木", "city": "下都賀郡野木町", "postcode": "329-0114", "prefecture": "栃木県", "id": 3290114 },
        { "address": "野渡", "city": "下都賀郡野木町", "postcode": "329-0115", "prefecture": "栃木県", "id": 3290115 },
        { "address": "丸林", "city": "下都賀郡野木町", "postcode": "329-0111", "prefecture": "栃木県", "id": 3290111 },
        {
            "address": "南赤塚",
            "city": "下都賀郡野木町",
            "postcode": "329-0112",
            "prefecture": "栃木県",
            "id": 3290112
        },
        { "address": "若林", "city": "下都賀郡野木町", "postcode": "329-0103", "prefecture": "栃木県", "id": 3290103 },
        { "city": "塩谷郡塩谷町", "postcode": "329-2200", "prefecture": "栃木県", "id": 3292200 },
        { "address": "飯岡", "city": "塩谷郡塩谷町", "postcode": "329-2225", "prefecture": "栃木県", "id": 3292225 },
        { "address": "泉", "city": "塩谷郡塩谷町", "postcode": "329-2337", "prefecture": "栃木県", "id": 3292337 },
        { "address": "上沢", "city": "塩谷郡塩谷町", "postcode": "329-2339", "prefecture": "栃木県", "id": 3292339 },
        { "address": "上平", "city": "塩谷郡塩谷町", "postcode": "329-2335", "prefecture": "栃木県", "id": 3292335 },
        { "address": "大久保", "city": "塩谷郡塩谷町", "postcode": "329-2334", "prefecture": "栃木県", "id": 3292334 },
        { "address": "大宮", "city": "塩谷郡塩谷町", "postcode": "329-2332", "prefecture": "栃木県", "id": 3292332 },
        { "address": "風見", "city": "塩谷郡塩谷町", "postcode": "329-2336", "prefecture": "栃木県", "id": 3292336 },
        {
            "address": "風見山田",
            "city": "塩谷郡塩谷町",
            "postcode": "329-2338",
            "prefecture": "栃木県",
            "id": 3292338
        },
        { "address": "金枝", "city": "塩谷郡塩谷町", "postcode": "329-2224", "prefecture": "栃木県", "id": 3292224 },
        { "address": "上寺島", "city": "塩谷郡塩谷町", "postcode": "321-2501", "prefecture": "栃木県", "id": 3212501 },
        { "address": "上寺島", "city": "塩谷郡塩谷町", "postcode": "329-2216", "prefecture": "栃木県", "id": 3292216 },
        { "address": "喜佐見", "city": "塩谷郡塩谷町", "postcode": "329-2212", "prefecture": "栃木県", "id": 3292212 },
        { "address": "熊ノ木", "city": "塩谷郡塩谷町", "postcode": "329-2213", "prefecture": "栃木県", "id": 3292213 },
        { "address": "佐貫", "city": "塩谷郡塩谷町", "postcode": "329-2442", "prefecture": "栃木県", "id": 3292442 },
        { "address": "下寺島", "city": "塩谷郡塩谷町", "postcode": "329-2215", "prefecture": "栃木県", "id": 3292215 },
        { "address": "田所", "city": "塩谷郡塩谷町", "postcode": "329-2331", "prefecture": "栃木県", "id": 3292331 },
        { "address": "玉生", "city": "塩谷郡塩谷町", "postcode": "329-2221", "prefecture": "栃木県", "id": 3292221 },
        { "address": "道下", "city": "塩谷郡塩谷町", "postcode": "329-2222", "prefecture": "栃木県", "id": 3292222 },
        {
            "address": "鳥羽新田",
            "city": "塩谷郡塩谷町",
            "postcode": "329-2211",
            "prefecture": "栃木県",
            "id": 3292211
        },
        {
            "address": "原荻野目",
            "city": "塩谷郡塩谷町",
            "postcode": "329-2223",
            "prefecture": "栃木県",
            "id": 3292223
        },
        { "address": "東房", "city": "塩谷郡塩谷町", "postcode": "329-2214", "prefecture": "栃木県", "id": 3292214 },
        { "address": "肘内", "city": "塩谷郡塩谷町", "postcode": "329-2333", "prefecture": "栃木県", "id": 3292333 },
        { "address": "船生", "city": "塩谷郡塩谷町", "postcode": "329-2441", "prefecture": "栃木県", "id": 3292441 },
        {
            "address": "芦場新田",
            "city": "塩谷郡塩谷町",
            "postcode": "329-2226",
            "prefecture": "栃木県",
            "id": 3292226
        },
        { "city": "塩谷郡高根沢町", "postcode": "329-1200", "prefecture": "栃木県", "id": 3291200 },
        { "address": "飯室", "city": "塩谷郡高根沢町", "postcode": "329-1205", "prefecture": "栃木県", "id": 3291205 },
        { "address": "石末", "city": "塩谷郡高根沢町", "postcode": "329-1225", "prefecture": "栃木県", "id": 3291225 },
        { "address": "太田", "city": "塩谷郡高根沢町", "postcode": "329-1217", "prefecture": "栃木県", "id": 3291217 },
        { "address": "大谷", "city": "塩谷郡高根沢町", "postcode": "329-1226", "prefecture": "栃木県", "id": 3291226 },
        {
            "address": "柿木沢",
            "city": "塩谷郡高根沢町",
            "postcode": "329-1201",
            "prefecture": "栃木県",
            "id": 3291201
        },
        {
            "address": "上阿久津",
            "city": "塩谷郡高根沢町",
            "postcode": "329-1235",
            "prefecture": "栃木県",
            "id": 3291235
        },
        {
            "address": "上柏崎",
            "city": "塩谷郡高根沢町",
            "postcode": "329-1212",
            "prefecture": "栃木県",
            "id": 3291212
        },
        {
            "address": "上高根沢",
            "city": "塩谷郡高根沢町",
            "postcode": "329-1224",
            "prefecture": "栃木県",
            "id": 3291224
        },
        { "address": "亀梨", "city": "塩谷郡高根沢町", "postcode": "329-1211", "prefecture": "栃木県", "id": 3291211 },
        { "address": "給部", "city": "塩谷郡高根沢町", "postcode": "329-1215", "prefecture": "栃木県", "id": 3291215 },
        {
            "address": "栗ケ島",
            "city": "塩谷郡高根沢町",
            "postcode": "329-1223",
            "prefecture": "栃木県",
            "id": 3291223
        },
        { "address": "桑窪", "city": "塩谷郡高根沢町", "postcode": "329-1216", "prefecture": "栃木県", "id": 3291216 },
        {
            "address": "光陽台",
            "city": "塩谷郡高根沢町",
            "postcode": "329-1232",
            "prefecture": "栃木県",
            "id": 3291232
        },
        {
            "address": "下柏崎",
            "city": "塩谷郡高根沢町",
            "postcode": "329-1213",
            "prefecture": "栃木県",
            "id": 3291213
        },
        {
            "address": "寺渡戸",
            "city": "塩谷郡高根沢町",
            "postcode": "329-1222",
            "prefecture": "栃木県",
            "id": 3291222
        },
        {
            "address": "中阿久津",
            "city": "塩谷郡高根沢町",
            "postcode": "329-1234",
            "prefecture": "栃木県",
            "id": 3291234
        },
        {
            "address": "中柏崎",
            "city": "塩谷郡高根沢町",
            "postcode": "329-1214",
            "prefecture": "栃木県",
            "id": 3291214
        },
        {
            "address": "西高谷",
            "city": "塩谷郡高根沢町",
            "postcode": "329-1221",
            "prefecture": "栃木県",
            "id": 3291221
        },
        {
            "address": "狭間田",
            "city": "塩谷郡高根沢町",
            "postcode": "329-1202",
            "prefecture": "栃木県",
            "id": 3291202
        },
        { "address": "花岡", "city": "塩谷郡高根沢町", "postcode": "329-1207", "prefecture": "栃木県", "id": 3291207 },
        { "address": "平田", "city": "塩谷郡高根沢町", "postcode": "329-1206", "prefecture": "栃木県", "id": 3291206 },
        { "address": "伏久", "city": "塩谷郡高根沢町", "postcode": "329-1203", "prefecture": "栃木県", "id": 3291203 },
        { "address": "文挾", "city": "塩谷郡高根沢町", "postcode": "329-1204", "prefecture": "栃木県", "id": 3291204 },
        {
            "address": "宝積寺",
            "city": "塩谷郡高根沢町",
            "postcode": "329-1233",
            "prefecture": "栃木県",
            "id": 3291233
        },
        {
            "address": "宝石台",
            "city": "塩谷郡高根沢町",
            "postcode": "329-1231",
            "prefecture": "栃木県",
            "id": 3291231
        },
        { "city": "那須郡那須町", "postcode": "329-3200", "prefecture": "栃木県", "id": 3293200 },
        { "address": "芦野", "city": "那須郡那須町", "postcode": "329-3443", "prefecture": "栃木県", "id": 3293443 },
        { "address": "梓", "city": "那須郡那須町", "postcode": "329-3432", "prefecture": "栃木県", "id": 3293432 },
        { "address": "伊王野", "city": "那須郡那須町", "postcode": "329-3436", "prefecture": "栃木県", "id": 3293436 },
        { "address": "稲沢", "city": "那須郡那須町", "postcode": "329-3447", "prefecture": "栃木県", "id": 3293447 },
        { "address": "漆塚", "city": "那須郡那須町", "postcode": "329-3221", "prefecture": "栃木県", "id": 3293221 },
        { "address": "大島", "city": "那須郡那須町", "postcode": "329-3223", "prefecture": "栃木県", "id": 3293223 },
        { "address": "大畑", "city": "那須郡那須町", "postcode": "329-3431", "prefecture": "栃木県", "id": 3293431 },
        { "address": "大和須", "city": "那須郡那須町", "postcode": "329-3433", "prefecture": "栃木県", "id": 3293433 },
        { "address": "高久甲", "city": "那須郡那須町", "postcode": "325-0304", "prefecture": "栃木県", "id": 3250304 },
        { "address": "高久甲", "city": "那須郡那須町", "postcode": "325-0001", "prefecture": "栃木県", "id": 3250001 },
        { "address": "高久乙", "city": "那須郡那須町", "postcode": "325-0303", "prefecture": "栃木県", "id": 3250303 },
        { "address": "高久丙", "city": "那須郡那須町", "postcode": "325-0002", "prefecture": "栃木県", "id": 3250002 },
        { "address": "高久丙", "city": "那須郡那須町", "postcode": "325-0302", "prefecture": "栃木県", "id": 3250302 },
        { "address": "寺子", "city": "那須郡那須町", "postcode": "329-3444", "prefecture": "栃木県", "id": 3293444 },
        { "address": "寺子乙", "city": "那須郡那須町", "postcode": "325-0003", "prefecture": "栃木県", "id": 3250003 },
        { "address": "寺子乙", "city": "那須郡那須町", "postcode": "329-3215", "prefecture": "栃木県", "id": 3293215 },
        { "address": "寺子丙", "city": "那須郡那須町", "postcode": "329-3222", "prefecture": "栃木県", "id": 3293222 },
        { "address": "富岡", "city": "那須郡那須町", "postcode": "329-3212", "prefecture": "栃木県", "id": 3293212 },
        { "address": "豊原", "city": "那須郡那須町", "postcode": "329-3213", "prefecture": "栃木県", "id": 3293213 },
        { "address": "豊原甲", "city": "那須郡那須町", "postcode": "329-3211", "prefecture": "栃木県", "id": 3293211 },
        { "address": "豊原乙", "city": "那須郡那須町", "postcode": "329-3224", "prefecture": "栃木県", "id": 3293224 },
        { "address": "豊原丙", "city": "那須郡那須町", "postcode": "329-3225", "prefecture": "栃木県", "id": 3293225 },
        { "address": "沼野井", "city": "那須郡那須町", "postcode": "329-3446", "prefecture": "栃木県", "id": 3293446 },
        { "address": "東岩崎", "city": "那須郡那須町", "postcode": "329-3445", "prefecture": "栃木県", "id": 3293445 },
        { "address": "蓑沢", "city": "那須郡那須町", "postcode": "329-3437", "prefecture": "栃木県", "id": 3293437 },
        { "address": "睦家", "city": "那須郡那須町", "postcode": "329-3435", "prefecture": "栃木県", "id": 3293435 },
        { "address": "梁瀬", "city": "那須郡那須町", "postcode": "329-3434", "prefecture": "栃木県", "id": 3293434 },
        { "address": "湯本", "city": "那須郡那須町", "postcode": "325-0301", "prefecture": "栃木県", "id": 3250301 },
        { "address": "横岡", "city": "那須郡那須町", "postcode": "329-3214", "prefecture": "栃木県", "id": 3293214 },
        { "address": "横岡", "city": "那須郡那須町", "postcode": "329-3442", "prefecture": "栃木県", "id": 3293442 },
        { "address": "寄居", "city": "那須郡那須町", "postcode": "329-3441", "prefecture": "栃木県", "id": 3293441 },
        { "city": "那須郡那珂川町", "postcode": "324-0600", "prefecture": "栃木県", "id": 3240600 },
        { "address": "大内", "city": "那須郡那珂川町", "postcode": "324-0605", "prefecture": "栃木県", "id": 3240605 },
        {
            "address": "大那地",
            "city": "那須郡那珂川町",
            "postcode": "324-0606",
            "prefecture": "栃木県",
            "id": 3240606
        },
        {
            "address": "大山田上郷",
            "city": "那須郡那珂川町",
            "postcode": "324-0601",
            "prefecture": "栃木県",
            "id": 3240601
        },
        {
            "address": "大山田下郷",
            "city": "那須郡那珂川町",
            "postcode": "324-0602",
            "prefecture": "栃木県",
            "id": 3240602
        },
        { "address": "小川", "city": "那須郡那珂川町", "postcode": "324-0501", "prefecture": "栃木県", "id": 3240501 },
        { "address": "恩田", "city": "那須郡那珂川町", "postcode": "324-0503", "prefecture": "栃木県", "id": 3240503 },
        { "address": "片平", "city": "那須郡那珂川町", "postcode": "324-0515", "prefecture": "栃木県", "id": 3240515 },
        {
            "address": "北向田",
            "city": "那須郡那珂川町",
            "postcode": "324-0617",
            "prefecture": "栃木県",
            "id": 3240617
        },
        { "address": "薬利", "city": "那須郡那珂川町", "postcode": "324-0504", "prefecture": "栃木県", "id": 3240504 },
        {
            "address": "久那瀬",
            "city": "那須郡那珂川町",
            "postcode": "324-0614",
            "prefecture": "栃木県",
            "id": 3240614
        },
        { "address": "小砂", "city": "那須郡那珂川町", "postcode": "324-0611", "prefecture": "栃木県", "id": 3240611 },
        { "address": "小口", "city": "那須郡那珂川町", "postcode": "324-0618", "prefecture": "栃木県", "id": 3240618 },
        {
            "address": "浄法寺",
            "city": "那須郡那珂川町",
            "postcode": "324-0506",
            "prefecture": "栃木県",
            "id": 3240506
        },
        { "address": "白久", "city": "那須郡那珂川町", "postcode": "324-0513", "prefecture": "栃木県", "id": 3240513 },
        { "address": "高岡", "city": "那須郡那珂川町", "postcode": "324-0514", "prefecture": "栃木県", "id": 3240514 },
        { "address": "健武", "city": "那須郡那珂川町", "postcode": "324-0608", "prefecture": "栃木県", "id": 3240608 },
        { "address": "富山", "city": "那須郡那珂川町", "postcode": "324-0616", "prefecture": "栃木県", "id": 3240616 },
        { "address": "馬頭", "city": "那須郡那珂川町", "postcode": "324-0613", "prefecture": "栃木県", "id": 3240613 },
        {
            "address": "東戸田",
            "city": "那須郡那珂川町",
            "postcode": "324-0516",
            "prefecture": "栃木県",
            "id": 3240516
        },
        { "address": "松野", "city": "那須郡那珂川町", "postcode": "324-0615", "prefecture": "栃木県", "id": 3240615 },
        { "address": "三輪", "city": "那須郡那珂川町", "postcode": "324-0502", "prefecture": "栃木県", "id": 3240502 },
        { "address": "盛泉", "city": "那須郡那珂川町", "postcode": "324-0604", "prefecture": "栃木県", "id": 3240604 },
        { "address": "谷川", "city": "那須郡那珂川町", "postcode": "324-0603", "prefecture": "栃木県", "id": 3240603 },
        { "address": "谷田", "city": "那須郡那珂川町", "postcode": "324-0512", "prefecture": "栃木県", "id": 3240512 },
        { "address": "矢又", "city": "那須郡那珂川町", "postcode": "324-0607", "prefecture": "栃木県", "id": 3240607 },
        { "address": "芳井", "city": "那須郡那珂川町", "postcode": "324-0505", "prefecture": "栃木県", "id": 3240505 },
        { "address": "吉田", "city": "那須郡那珂川町", "postcode": "324-0511", "prefecture": "栃木県", "id": 3240511 },
        { "address": "和見", "city": "那須郡那珂川町", "postcode": "324-0612", "prefecture": "栃木県", "id": 3240612 }
    ]
}
