{
    "postcodes": [
        { "city": "大津市", "postcode": "5200000", "prefecture": "滋賀県", "id": 0 },
        { "address": "青山", "city": "大津市", "postcode": "5202101", "prefecture": "滋賀県", "id": 1 },
        { "address": "赤尾町", "city": "大津市", "postcode": "5200864", "prefecture": "滋賀県", "id": 2 },
        { "address": "あかね町", "city": "大津市", "postcode": "5200003", "prefecture": "滋賀県", "id": 3 },
        { "address": "秋葉台", "city": "大津市", "postcode": "5200822", "prefecture": "滋賀県", "id": 4 },
        { "address": "朝日", "city": "大津市", "postcode": "5200533", "prefecture": "滋賀県", "id": 5 },
        { "address": "朝日が丘", "city": "大津市", "postcode": "5200052", "prefecture": "滋賀県", "id": 6 },
        { "address": "穴太", "city": "大津市", "postcode": "5200114", "prefecture": "滋賀県", "id": 7 },
        { "address": "荒川", "city": "大津市", "postcode": "5200513", "prefecture": "滋賀県", "id": 8 },
        { "address": "粟津町", "city": "大津市", "postcode": "5200832", "prefecture": "滋賀県", "id": 9 },
        { "address": "伊香立上在地町", "city": "大津市", "postcode": "5200356", "prefecture": "滋賀県", "id": 10 },
        { "address": "伊香立下在地町", "city": "大津市", "postcode": "5200352", "prefecture": "滋賀県", "id": 11 },
        { "address": "伊香立上龍華町", "city": "大津市", "postcode": "5200362", "prefecture": "滋賀県", "id": 12 },
        { "address": "伊香立下龍華町", "city": "大津市", "postcode": "5200363", "prefecture": "滋賀県", "id": 13 },
        { "address": "伊香立北在地町", "city": "大津市", "postcode": "5200351", "prefecture": "滋賀県", "id": 14 },
        { "address": "伊香立途中町", "city": "大津市", "postcode": "5200361", "prefecture": "滋賀県", "id": 15 },
        { "address": "伊香立生津町", "city": "大津市", "postcode": "5200355", "prefecture": "滋賀県", "id": 16 },
        { "address": "伊香立南庄町", "city": "大津市", "postcode": "5200354", "prefecture": "滋賀県", "id": 17 },
        { "address": "伊香立向在地町", "city": "大津市", "postcode": "5200353", "prefecture": "滋賀県", "id": 18 },
        { "address": "池の里", "city": "大津市", "postcode": "5200827", "prefecture": "滋賀県", "id": 19 },
        { "address": "石居", "city": "大津市", "postcode": "5202272", "prefecture": "滋賀県", "id": 20 },
        { "address": "石場", "city": "大津市", "postcode": "5200805", "prefecture": "滋賀県", "id": 21 },
        { "address": "石山内畑町", "city": "大津市", "postcode": "5200869", "prefecture": "滋賀県", "id": 22 },
        { "address": "石山千町", "city": "大津市", "postcode": "5200860", "prefecture": "滋賀県", "id": 23 },
        { "address": "石山外畑町", "city": "大津市", "postcode": "5200868", "prefecture": "滋賀県", "id": 24 },
        { "address": "石山寺", "city": "大津市", "postcode": "5200861", "prefecture": "滋賀県", "id": 25 },
        { "address": "石山寺辺町", "city": "大津市", "postcode": "5200866", "prefecture": "滋賀県", "id": 26 },
        { "address": "一里山", "city": "大津市", "postcode": "5202153", "prefecture": "滋賀県", "id": 27 },
        { "address": "稲津", "city": "大津市", "postcode": "5202271", "prefecture": "滋賀県", "id": 28 },
        { "address": "稲葉台", "city": "大津市", "postcode": "5200065", "prefecture": "滋賀県", "id": 29 },
        { "address": "今堅田", "city": "大津市", "postcode": "5200241", "prefecture": "滋賀県", "id": 30 },
        { "address": "打出浜", "city": "大津市", "postcode": "5200806", "prefecture": "滋賀県", "id": 31 },
        { "address": "梅林", "city": "大津市", "postcode": "5200051", "prefecture": "滋賀県", "id": 32 },
        { "address": "枝", "city": "大津市", "postcode": "5202275", "prefecture": "滋賀県", "id": 33 },
        { "address": "追分町", "city": "大津市", "postcode": "5200064", "prefecture": "滋賀県", "id": 34 },
        { "address": "逢坂", "city": "大津市", "postcode": "5200054", "prefecture": "滋賀県", "id": 35 },
        { "address": "皇子が丘", "city": "大津市", "postcode": "5200025", "prefecture": "滋賀県", "id": 36 },
        { "address": "大石小田原", "city": "大津市", "postcode": "5202267", "prefecture": "滋賀県", "id": 37 },
        { "address": "大石曽束", "city": "大津市", "postcode": "5202261", "prefecture": "滋賀県", "id": 38 },
        { "address": "大石富川", "city": "大津市", "postcode": "5202265", "prefecture": "滋賀県", "id": 39 },
        { "address": "大石中", "city": "大津市", "postcode": "5202263", "prefecture": "滋賀県", "id": 40 },
        { "address": "大石東", "city": "大津市", "postcode": "5202264", "prefecture": "滋賀県", "id": 41 },
        { "address": "大石淀", "city": "大津市", "postcode": "5202262", "prefecture": "滋賀県", "id": 42 },
        { "address": "大石龍門", "city": "大津市", "postcode": "5202266", "prefecture": "滋賀県", "id": 43 },
        { "address": "大江", "city": "大津市", "postcode": "5202141", "prefecture": "滋賀県", "id": 44 },
        { "address": "大萱", "city": "大津市", "postcode": "5202144", "prefecture": "滋賀県", "id": 45 },
        { "address": "仰木", "city": "大津市", "postcode": "5200247", "prefecture": "滋賀県", "id": 46 },
        { "address": "仰木町", "city": "大津市", "postcode": "5200245", "prefecture": "滋賀県", "id": 47 },
        { "address": "仰木の里", "city": "大津市", "postcode": "5200246", "prefecture": "滋賀県", "id": 48 },
        { "address": "仰木の里東", "city": "大津市", "postcode": "5200248", "prefecture": "滋賀県", "id": 49 },
        { "address": "大谷町", "city": "大津市", "postcode": "5200062", "prefecture": "滋賀県", "id": 50 },
        { "address": "大鳥居", "city": "大津市", "postcode": "5202118", "prefecture": "滋賀県", "id": 51 },
        { "address": "大平", "city": "大津市", "postcode": "5200867", "prefecture": "滋賀県", "id": 52 },
        { "address": "雄琴", "city": "大津市", "postcode": "5200101", "prefecture": "滋賀県", "id": 53 },
        { "address": "雄琴北", "city": "大津市", "postcode": "5200107", "prefecture": "滋賀県", "id": 54 },
        { "address": "音羽台", "city": "大津市", "postcode": "5200053", "prefecture": "滋賀県", "id": 55 },
        { "address": "小野", "city": "大津市", "postcode": "5200525", "prefecture": "滋賀県", "id": 56 },
        { "address": "尾花川", "city": "大津市", "postcode": "5200031", "prefecture": "滋賀県", "id": 57 },
        { "address": "園城寺町", "city": "大津市", "postcode": "5200036", "prefecture": "滋賀県", "id": 58 },
        { "address": "鏡が浜", "city": "大津市", "postcode": "5200012", "prefecture": "滋賀県", "id": 59 },
        { "address": "春日町", "city": "大津市", "postcode": "5200055", "prefecture": "滋賀県", "id": 60 },
        { "address": "堅田", "city": "大津市", "postcode": "5200243", "prefecture": "滋賀県", "id": 61 },
        { "address": "葛川梅ノ木町", "city": "大津市", "postcode": "5200473", "prefecture": "滋賀県", "id": 62 },
        { "address": "葛川木戸口町", "city": "大津市", "postcode": "5200477", "prefecture": "滋賀県", "id": 63 },
        { "address": "葛川坂下町", "city": "大津市", "postcode": "5200478", "prefecture": "滋賀県", "id": 64 },
        { "address": "葛川中村町", "city": "大津市", "postcode": "5200476", "prefecture": "滋賀県", "id": 65 },
        { "address": "葛川貫井町", "city": "大津市", "postcode": "5200472", "prefecture": "滋賀県", "id": 66 },
        { "address": "葛川細川町", "city": "大津市", "postcode": "5200471", "prefecture": "滋賀県", "id": 67 },
        { "address": "葛川坊村町", "city": "大津市", "postcode": "5200475", "prefecture": "滋賀県", "id": 68 },
        { "address": "葛川町居町", "city": "大津市", "postcode": "5200474", "prefecture": "滋賀県", "id": 69 },
        { "address": "上田上桐生町", "city": "大津市", "postcode": "5202161", "prefecture": "滋賀県", "id": 70 },
        { "address": "上田上芝原町", "city": "大津市", "postcode": "5202167", "prefecture": "滋賀県", "id": 71 },
        { "address": "上田上新免町", "city": "大津市", "postcode": "5202165", "prefecture": "滋賀県", "id": 72 },
        { "address": "上田上堂町", "city": "大津市", "postcode": "5202166", "prefecture": "滋賀県", "id": 73 },
        { "address": "上田上中野町", "city": "大津市", "postcode": "5202164", "prefecture": "滋賀県", "id": 74 },
        { "address": "上田上平野町", "city": "大津市", "postcode": "5202163", "prefecture": "滋賀県", "id": 75 },
        { "address": "上田上牧町", "city": "大津市", "postcode": "5202162", "prefecture": "滋賀県", "id": 76 },
        { "address": "神出開町", "city": "大津市", "postcode": "5200061", "prefecture": "滋賀県", "id": 77 },
        { "address": "萱野浦", "city": "大津市", "postcode": "5202143", "prefecture": "滋賀県", "id": 78 },
        { "address": "唐崎", "city": "大津市", "postcode": "5200106", "prefecture": "滋賀県", "id": 79 },
        { "address": "唐橋町", "city": "大津市", "postcode": "5200851", "prefecture": "滋賀県", "id": 80 },
        { "address": "勧学", "city": "大津市", "postcode": "5200013", "prefecture": "滋賀県", "id": 81 },
        { "address": "観音寺", "city": "大津市", "postcode": "5200032", "prefecture": "滋賀県", "id": 82 },
        { "address": "北大路", "city": "大津市", "postcode": "5200843", "prefecture": "滋賀県", "id": 83 },
        { "address": "北小松", "city": "大津市", "postcode": "5200501", "prefecture": "滋賀県", "id": 84 },
        { "address": "北比良", "city": "大津市", "postcode": "5200503", "prefecture": "滋賀県", "id": 85 },
        { "address": "木戸", "city": "大津市", "postcode": "5200514", "prefecture": "滋賀県", "id": 86 },
        { "address": "衣川", "city": "大津市", "postcode": "5200244", "prefecture": "滋賀県", "id": 87 },
        { "address": "木下町", "city": "大津市", "postcode": "5200812", "prefecture": "滋賀県", "id": 88 },
        { "address": "京町", "city": "大津市", "postcode": "5200044", "prefecture": "滋賀県", "id": 89 },
        { "address": "桐生", "city": "大津市", "postcode": "5202111", "prefecture": "滋賀県", "id": 90 },
        { "address": "栗林町", "city": "大津市", "postcode": "5202151", "prefecture": "滋賀県", "id": 91 },
        { "address": "栗原", "city": "大津市", "postcode": "5200527", "prefecture": "滋賀県", "id": 92 },
        { "address": "黒津", "city": "大津市", "postcode": "5202279", "prefecture": "滋賀県", "id": 93 },
        { "address": "向陽町", "city": "大津市", "postcode": "5200224", "prefecture": "滋賀県", "id": 94 },
        { "address": "国分", "city": "大津市", "postcode": "5200844", "prefecture": "滋賀県", "id": 95 },
        { "address": "湖城が丘", "city": "大津市", "postcode": "5200821", "prefecture": "滋賀県", "id": 96 },
        { "address": "湖青", "city": "大津市", "postcode": "5200532", "prefecture": "滋賀県", "id": 97 },
        { "address": "小関町", "city": "大津市", "postcode": "5200035", "prefecture": "滋賀県", "id": 98 },
        { "address": "御殿浜", "city": "大津市", "postcode": "5200834", "prefecture": "滋賀県", "id": 99 },
        { "address": "木の岡町", "city": "大津市", "postcode": "5200103", "prefecture": "滋賀県", "id": 100 },
        { "address": "御陵町", "city": "大津市", "postcode": "5200037", "prefecture": "滋賀県", "id": 101 },
        { "address": "際川", "city": "大津市", "postcode": "5200002", "prefecture": "滋賀県", "id": 102 },
        { "address": "栄町", "city": "大津市", "postcode": "5200855", "prefecture": "滋賀県", "id": 103 },
        { "address": "坂本", "city": "大津市", "postcode": "5200113", "prefecture": "滋賀県", "id": 104 },
        { "address": "坂本本町", "city": "大津市", "postcode": "5200116", "prefecture": "滋賀県", "id": 105 },
        { "address": "相模町", "city": "大津市", "postcode": "5200816", "prefecture": "滋賀県", "id": 106 },
        { "address": "桜野町", "city": "大津市", "postcode": "5200026", "prefecture": "滋賀県", "id": 107 },
        { "address": "里", "city": "大津市", "postcode": "5202276", "prefecture": "滋賀県", "id": 108 },
        { "address": "三大寺", "city": "大津市", "postcode": "5202131", "prefecture": "滋賀県", "id": 109 },
        { "address": "滋賀里", "city": "大津市", "postcode": "5200006", "prefecture": "滋賀県", "id": 110 },
        { "address": "芝原", "city": "大津市", "postcode": "5202117", "prefecture": "滋賀県", "id": 111 },
        { "address": "島の関", "city": "大津市", "postcode": "5200042", "prefecture": "滋賀県", "id": 112 },
        { "address": "下阪本", "city": "大津市", "postcode": "5200105", "prefecture": "滋賀県", "id": 113 },
        { "address": "松陽", "city": "大津市", "postcode": "5202135", "prefecture": "滋賀県", "id": 114 },
        { "address": "昭和町", "city": "大津市", "postcode": "5200817", "prefecture": "滋賀県", "id": 115 },
        { "address": "神宮町", "city": "大津市", "postcode": "5200015", "prefecture": "滋賀県", "id": 116 },
        { "address": "新免", "city": "大津市", "postcode": "5202115", "prefecture": "滋賀県", "id": 117 },
        { "address": "神領", "city": "大津市", "postcode": "5202132", "prefecture": "滋賀県", "id": 118 },
        { "address": "水明", "city": "大津市", "postcode": "5200531", "prefecture": "滋賀県", "id": 119 },
        { "address": "末広町", "city": "大津市", "postcode": "5200056", "prefecture": "滋賀県", "id": 120 },
        { "address": "杉浦町", "city": "大津市", "postcode": "5200836", "prefecture": "滋賀県", "id": 121 },
        { "address": "清風町", "city": "大津市", "postcode": "5200225", "prefecture": "滋賀県", "id": 122 },
        { "address": "晴嵐", "city": "大津市", "postcode": "5200833", "prefecture": "滋賀県", "id": 123 },
        { "address": "清和町", "city": "大津市", "postcode": "5200227", "prefecture": "滋賀県", "id": 124 },
        { "address": "関津", "city": "大津市", "postcode": "5202277", "prefecture": "滋賀県", "id": 125 },
        { "address": "膳所", "city": "大津市", "postcode": "5200815", "prefecture": "滋賀県", "id": 126 },
        { "address": "膳所池ノ内町", "city": "大津市", "postcode": "5200825", "prefecture": "滋賀県", "id": 127 },
        { "address": "膳所上別保町", "city": "大津市", "postcode": "5200823", "prefecture": "滋賀県", "id": 128 },
        { "address": "膳所平尾町", "city": "大津市", "postcode": "5200824", "prefecture": "滋賀県", "id": 129 },
        { "address": "瀬田", "city": "大津市", "postcode": "5202134", "prefecture": "滋賀県", "id": 130 },
        { "address": "瀬田大江町", "city": "大津市", "postcode": "5202123", "prefecture": "滋賀県", "id": 131 },
        { "address": "瀬田神領町", "city": "大津市", "postcode": "5202124", "prefecture": "滋賀県", "id": 132 },
        { "address": "瀬田月輪町", "city": "大津市", "postcode": "5202121", "prefecture": "滋賀県", "id": 133 },
        { "address": "瀬田橋本町", "city": "大津市", "postcode": "5202125", "prefecture": "滋賀県", "id": 134 },
        { "address": "瀬田南大萱町", "city": "大津市", "postcode": "5202122", "prefecture": "滋賀県", "id": 135 },
        { "address": "千石台", "city": "大津市", "postcode": "5200028", "prefecture": "滋賀県", "id": 136 },
        { "address": "千町", "city": "大津市", "postcode": "5200863", "prefecture": "滋賀県", "id": 137 },
        { "address": "園山", "city": "大津市", "postcode": "5200842", "prefecture": "滋賀県", "id": 138 },
        { "address": "太子", "city": "大津市", "postcode": "5202278", "prefecture": "滋賀県", "id": 139 },
        { "address": "大物", "city": "大津市", "postcode": "5200512", "prefecture": "滋賀県", "id": 140 },
        { "address": "大門通", "city": "大津市", "postcode": "5200033", "prefecture": "滋賀県", "id": 141 },
        { "address": "高砂町", "city": "大津市", "postcode": "5200005", "prefecture": "滋賀県", "id": 142 },
        { "address": "竜が丘", "city": "大津市", "postcode": "5200803", "prefecture": "滋賀県", "id": 143 },
        { "address": "田辺町", "city": "大津市", "postcode": "5200852", "prefecture": "滋賀県", "id": 144 },
        { "address": "玉野浦", "city": "大津市", "postcode": "5202142", "prefecture": "滋賀県", "id": 145 },
        { "address": "大将軍", "city": "大津市", "postcode": "5202145", "prefecture": "滋賀県", "id": 146 },
        { "address": "千野", "city": "大津市", "postcode": "5200111", "prefecture": "滋賀県", "id": 147 },
        { "address": "茶が崎", "city": "大津市", "postcode": "5200023", "prefecture": "滋賀県", "id": 148 },
        { "address": "茶戸町", "city": "大津市", "postcode": "5200066", "prefecture": "滋賀県", "id": 149 },
        { "address": "中央", "city": "大津市", "postcode": "5200043", "prefecture": "滋賀県", "id": 150 },
        { "address": "月輪", "city": "大津市", "postcode": "5202152", "prefecture": "滋賀県", "id": 151 },
        { "address": "鶴の里", "city": "大津市", "postcode": "5200826", "prefecture": "滋賀県", "id": 152 },
        { "address": "堂", "city": "大津市", "postcode": "5202116", "prefecture": "滋賀県", "id": 153 },
        { "address": "鳥居川町", "city": "大津市", "postcode": "5200854", "prefecture": "滋賀県", "id": 154 },
        { "address": "中庄", "city": "大津市", "postcode": "5200837", "prefecture": "滋賀県", "id": 155 },
        { "address": "中野", "city": "大津市", "postcode": "5202114", "prefecture": "滋賀県", "id": 156 },
        { "address": "長等", "city": "大津市", "postcode": "5200046", "prefecture": "滋賀県", "id": 157 },
        { "address": "南郷", "city": "大津市", "postcode": "5200865", "prefecture": "滋賀県", "id": 158 },
        { "address": "南郷上山町", "city": "大津市", "postcode": "5200871", "prefecture": "滋賀県", "id": 159 },
        { "address": "におの浜", "city": "大津市", "postcode": "5200801", "prefecture": "滋賀県", "id": 160 },
        { "address": "錦織", "city": "大津市", "postcode": "5200027", "prefecture": "滋賀県", "id": 161 },
        { "address": "西の庄", "city": "大津市", "postcode": "5200818", "prefecture": "滋賀県", "id": 162 },
        { "address": "二本松", "city": "大津市", "postcode": "5200021", "prefecture": "滋賀県", "id": 163 },
        { "address": "苗鹿", "city": "大津市", "postcode": "5200102", "prefecture": "滋賀県", "id": 164 },
        { "address": "野郷原", "city": "大津市", "postcode": "5202133", "prefecture": "滋賀県", "id": 165 },
        { "address": "羽栗", "city": "大津市", "postcode": "5202273", "prefecture": "滋賀県", "id": 166 },
        { "address": "蓮池町", "city": "大津市", "postcode": "5200001", "prefecture": "滋賀県", "id": 167 },
        { "address": "八屋戸", "city": "大津市", "postcode": "5200515", "prefecture": "滋賀県", "id": 168 },
        { "address": "花園町", "city": "大津市", "postcode": "5200222", "prefecture": "滋賀県", "id": 169 },
        { "address": "浜大津", "city": "大津市", "postcode": "5200047", "prefecture": "滋賀県", "id": 170 },
        { "address": "浜町", "city": "大津市", "postcode": "5200041", "prefecture": "滋賀県", "id": 171 },
        { "address": "馬場", "city": "大津市", "postcode": "5200802", "prefecture": "滋賀県", "id": 172 },
        { "address": "比叡平", "city": "大津市", "postcode": "5200016", "prefecture": "滋賀県", "id": 173 },
        { "address": "比叡辻", "city": "大津市", "postcode": "5200104", "prefecture": "滋賀県", "id": 174 },
        { "address": "光が丘町", "city": "大津市", "postcode": "5200856", "prefecture": "滋賀県", "id": 175 },
        { "address": "日吉台", "city": "大津市", "postcode": "5200112", "prefecture": "滋賀県", "id": 176 },
        { "address": "平津", "city": "大津市", "postcode": "5200862", "prefecture": "滋賀県", "id": 177 },
        { "address": "平野", "city": "大津市", "postcode": "5202113", "prefecture": "滋賀県", "id": 178 },
        { "address": "藤尾奥町", "city": "大津市", "postcode": "5200067", "prefecture": "滋賀県", "id": 179 },
        { "address": "富士見台", "city": "大津市", "postcode": "5200846", "prefecture": "滋賀県", "id": 180 },
        { "address": "札の辻", "city": "大津市", "postcode": "5200045", "prefecture": "滋賀県", "id": 181 },
        { "address": "別保", "city": "大津市", "postcode": "5200835", "prefecture": "滋賀県", "id": 182 },
        { "address": "螢谷", "city": "大津市", "postcode": "5200853", "prefecture": "滋賀県", "id": 183 },
        { "address": "本堅田", "city": "大津市", "postcode": "5200242", "prefecture": "滋賀県", "id": 184 },
        { "address": "本丸町", "city": "大津市", "postcode": "5200814", "prefecture": "滋賀県", "id": 185 },
        { "address": "牧", "city": "大津市", "postcode": "5202112", "prefecture": "滋賀県", "id": 186 },
        { "address": "松が丘", "city": "大津市", "postcode": "5202102", "prefecture": "滋賀県", "id": 187 },
        { "address": "松原町", "city": "大津市", "postcode": "5200831", "prefecture": "滋賀県", "id": 188 },
        { "address": "松本", "city": "大津市", "postcode": "5200807", "prefecture": "滋賀県", "id": 189 },
        { "address": "松山町", "city": "大津市", "postcode": "5200024", "prefecture": "滋賀県", "id": 190 },
        { "address": "真野", "city": "大津市", "postcode": "5200232", "prefecture": "滋賀県", "id": 191 },
        { "address": "真野家田町", "city": "大津市", "postcode": "5200234", "prefecture": "滋賀県", "id": 192 },
        { "address": "真野大野", "city": "大津市", "postcode": "5200235", "prefecture": "滋賀県", "id": 193 },
        { "address": "真野佐川町", "city": "大津市", "postcode": "5200236", "prefecture": "滋賀県", "id": 194 },
        { "address": "真野谷口町", "city": "大津市", "postcode": "5200233", "prefecture": "滋賀県", "id": 195 },
        { "address": "真野普門", "city": "大津市", "postcode": "5200231", "prefecture": "滋賀県", "id": 196 },
        { "address": "丸の内町", "city": "大津市", "postcode": "5200813", "prefecture": "滋賀県", "id": 197 },
        { "address": "三井寺町", "city": "大津市", "postcode": "5200034", "prefecture": "滋賀県", "id": 198 },
        { "address": "美崎町", "city": "大津市", "postcode": "5200841", "prefecture": "滋賀県", "id": 199 },
        { "address": "見世", "city": "大津市", "postcode": "5200004", "prefecture": "滋賀県", "id": 200 },
        { "address": "美空町", "city": "大津市", "postcode": "5200223", "prefecture": "滋賀県", "id": 201 },
        { "address": "緑町", "city": "大津市", "postcode": "5200221", "prefecture": "滋賀県", "id": 202 },
        { "address": "南小松", "city": "大津市", "postcode": "5200502", "prefecture": "滋賀県", "id": 203 },
        { "address": "南志賀", "city": "大津市", "postcode": "5200011", "prefecture": "滋賀県", "id": 204 },
        { "address": "南滋賀町", "city": "大津市", "postcode": "5200018", "prefecture": "滋賀県", "id": 205 },
        { "address": "南比良", "city": "大津市", "postcode": "5200511", "prefecture": "滋賀県", "id": 206 },
        { "address": "南船路", "city": "大津市", "postcode": "5200516", "prefecture": "滋賀県", "id": 207 },
        { "address": "御幸町", "city": "大津市", "postcode": "5200057", "prefecture": "滋賀県", "id": 208 },
        { "address": "本宮", "city": "大津市", "postcode": "5200804", "prefecture": "滋賀県", "id": 209 },
        { "address": "森", "city": "大津市", "postcode": "5202274", "prefecture": "滋賀県", "id": 210 },
        { "address": "柳が崎", "city": "大津市", "postcode": "5200022", "prefecture": "滋賀県", "id": 211 },
        { "address": "柳川", "city": "大津市", "postcode": "5200014", "prefecture": "滋賀県", "id": 212 },
        { "address": "山上町", "city": "大津市", "postcode": "5200038", "prefecture": "滋賀県", "id": 213 },
        { "address": "山中町", "city": "大津市", "postcode": "5200017", "prefecture": "滋賀県", "id": 214 },
        { "address": "山百合の丘", "city": "大津市", "postcode": "5200357", "prefecture": "滋賀県", "id": 215 },
        { "address": "弥生町", "city": "大津市", "postcode": "5200115", "prefecture": "滋賀県", "id": 216 },
        { "address": "由美浜", "city": "大津市", "postcode": "5200811", "prefecture": "滋賀県", "id": 217 },
        { "address": "陽明町", "city": "大津市", "postcode": "5200226", "prefecture": "滋賀県", "id": 218 },
        { "address": "横木", "city": "大津市", "postcode": "5200063", "prefecture": "滋賀県", "id": 219 },
        { "address": "若葉台", "city": "大津市", "postcode": "5200845", "prefecture": "滋賀県", "id": 220 },
        { "address": "和邇今宿", "city": "大津市", "postcode": "5200524", "prefecture": "滋賀県", "id": 221 },
        { "address": "和邇春日", "city": "大津市", "postcode": "5200529", "prefecture": "滋賀県", "id": 222 },
        { "address": "和邇北浜", "city": "大津市", "postcode": "5200521", "prefecture": "滋賀県", "id": 223 },
        { "address": "和邇高城", "city": "大津市", "postcode": "5200528", "prefecture": "滋賀県", "id": 224 },
        { "address": "和邇中", "city": "大津市", "postcode": "5200526", "prefecture": "滋賀県", "id": 225 },
        { "address": "和邇中浜", "city": "大津市", "postcode": "5200522", "prefecture": "滋賀県", "id": 226 },
        { "address": "和邇南浜", "city": "大津市", "postcode": "5200523", "prefecture": "滋賀県", "id": 227 },
        { "city": "彦根市", "postcode": "5220000", "prefecture": "滋賀県", "id": 228 },
        { "address": "旭町", "city": "彦根市", "postcode": "5220073", "prefecture": "滋賀県", "id": 229 },
        { "address": "安食中町", "city": "彦根市", "postcode": "5291152", "prefecture": "滋賀県", "id": 230 },
        { "address": "池州町", "city": "彦根市", "postcode": "5220065", "prefecture": "滋賀県", "id": 231 },
        { "address": "石寺町", "city": "彦根市", "postcode": "5211101", "prefecture": "滋賀県", "id": 232 },
        { "address": "稲枝町", "city": "彦根市", "postcode": "5211125", "prefecture": "滋賀県", "id": 233 },
        { "address": "稲里町", "city": "彦根市", "postcode": "5211111", "prefecture": "滋賀県", "id": 234 },
        { "address": "稲部町", "city": "彦根市", "postcode": "5211113", "prefecture": "滋賀県", "id": 235 },
        { "address": "犬方町", "city": "彦根市", "postcode": "5220236", "prefecture": "滋賀県", "id": 236 },
        { "address": "宇尾町", "city": "彦根市", "postcode": "5220239", "prefecture": "滋賀県", "id": 237 },
        { "address": "宇尾町", "city": "彦根市", "postcode": "5220045", "prefecture": "滋賀県", "id": 238 },
        { "address": "駅東町", "city": "彦根市", "postcode": "5220010", "prefecture": "滋賀県", "id": 239 },
        { "address": "大橋町", "city": "彦根市", "postcode": "5220034", "prefecture": "滋賀県", "id": 240 },
        { "address": "大堀町", "city": "彦根市", "postcode": "5220026", "prefecture": "滋賀県", "id": 241 },
        { "address": "大藪町", "city": "彦根市", "postcode": "5220053", "prefecture": "滋賀県", "id": 242 },
        { "address": "男鬼町", "city": "彦根市", "postcode": "5220017", "prefecture": "滋賀県", "id": 243 },
        { "address": "岡町", "city": "彦根市", "postcode": "5220037", "prefecture": "滋賀県", "id": 244 },
        { "address": "尾末町", "city": "彦根市", "postcode": "5220001", "prefecture": "滋賀県", "id": 245 },
        { "address": "小野町", "city": "彦根市", "postcode": "5220005", "prefecture": "滋賀県", "id": 246 },
        { "address": "海瀬町", "city": "彦根市", "postcode": "5211121", "prefecture": "滋賀県", "id": 247 },
        { "address": "開出今町", "city": "彦根市", "postcode": "5220056", "prefecture": "滋賀県", "id": 248 },
        { "address": "賀田山町", "city": "彦根市", "postcode": "5291155", "prefecture": "滋賀県", "id": 249 },
        { "address": "金沢町", "city": "彦根市", "postcode": "5211112", "prefecture": "滋賀県", "id": 250 },
        { "address": "金田町", "city": "彦根市", "postcode": "5211115", "prefecture": "滋賀県", "id": 251 },
        { "address": "上稲葉町", "city": "彦根市", "postcode": "5211131", "prefecture": "滋賀県", "id": 252 },
        { "address": "上岡部町", "city": "彦根市", "postcode": "5211103", "prefecture": "滋賀県", "id": 253 },
        { "address": "上西川町", "city": "彦根市", "postcode": "5211143", "prefecture": "滋賀県", "id": 254 },
        { "address": "川瀬馬場町", "city": "彦根市", "postcode": "5220223", "prefecture": "滋賀県", "id": 255 },
        { "address": "河原", "city": "彦根市", "postcode": "5220083", "prefecture": "滋賀県", "id": 256 },
        { "address": "甘呂町", "city": "彦根市", "postcode": "5220046", "prefecture": "滋賀県", "id": 257 },
        { "address": "京町", "city": "彦根市", "postcode": "5220081", "prefecture": "滋賀県", "id": 258 },
        { "address": "清崎町", "city": "彦根市", "postcode": "5291156", "prefecture": "滋賀県", "id": 259 },
        { "address": "銀座町", "city": "彦根市", "postcode": "5220088", "prefecture": "滋賀県", "id": 260 },
        { "address": "小泉町", "city": "彦根市", "postcode": "5220043", "prefecture": "滋賀県", "id": 261 },
        { "address": "甲崎町", "city": "彦根市", "postcode": "5211141", "prefecture": "滋賀県", "id": 262 },
        { "address": "甲田町", "city": "彦根市", "postcode": "5220012", "prefecture": "滋賀県", "id": 263 },
        { "address": "広野町", "city": "彦根市", "postcode": "5220238", "prefecture": "滋賀県", "id": 264 },
        { "address": "極楽寺町", "city": "彦根市", "postcode": "5220231", "prefecture": "滋賀県", "id": 265 },
        { "address": "後三条町", "city": "彦根市", "postcode": "5220086", "prefecture": "滋賀県", "id": 266 },
        { "address": "金亀町", "city": "彦根市", "postcode": "5220061", "prefecture": "滋賀県", "id": 267 },
        { "address": "金剛寺町", "city": "彦根市", "postcode": "5220235", "prefecture": "滋賀県", "id": 268 },
        { "address": "幸町", "city": "彦根市", "postcode": "5220021", "prefecture": "滋賀県", "id": 269 },
        { "address": "栄町", "city": "彦根市", "postcode": "5220066", "prefecture": "滋賀県", "id": 270 },
        { "address": "笹尾町", "city": "彦根市", "postcode": "5220019", "prefecture": "滋賀県", "id": 271 },
        { "address": "薩摩町", "city": "彦根市", "postcode": "5211147", "prefecture": "滋賀県", "id": 272 },
        { "address": "里根町", "city": "彦根市", "postcode": "5220022", "prefecture": "滋賀県", "id": 273 },
        { "address": "佐和町", "city": "彦根市", "postcode": "5220075", "prefecture": "滋賀県", "id": 274 },
        { "address": "佐和山町", "city": "彦根市", "postcode": "5220006", "prefecture": "滋賀県", "id": 275 },
        { "address": "地蔵町", "city": "彦根市", "postcode": "5220029", "prefecture": "滋賀県", "id": 276 },
        { "address": "下稲葉町", "city": "彦根市", "postcode": "5211132", "prefecture": "滋賀県", "id": 277 },
        { "address": "下岡部町", "city": "彦根市", "postcode": "5211102", "prefecture": "滋賀県", "id": 278 },
        { "address": "下西川町", "city": "彦根市", "postcode": "5211142", "prefecture": "滋賀県", "id": 279 },
        { "address": "下矢倉町", "city": "彦根市", "postcode": "5220011", "prefecture": "滋賀県", "id": 280 },
        { "address": "荘厳寺町", "city": "彦根市", "postcode": "5220015", "prefecture": "滋賀県", "id": 281 },
        { "address": "正法寺町", "city": "彦根市", "postcode": "5220024", "prefecture": "滋賀県", "id": 282 },
        { "address": "城町", "city": "彦根市", "postcode": "5220068", "prefecture": "滋賀県", "id": 283 },
        { "address": "新海町", "city": "彦根市", "postcode": "5211135", "prefecture": "滋賀県", "id": 284 },
        { "address": "新海浜", "city": "彦根市", "postcode": "5211136", "prefecture": "滋賀県", "id": 285 },
        { "address": "新町", "city": "彦根市", "postcode": "5220085", "prefecture": "滋賀県", "id": 286 },
        { "address": "須越町", "city": "彦根市", "postcode": "5220058", "prefecture": "滋賀県", "id": 287 },
        { "address": "芹川町", "city": "彦根市", "postcode": "5220033", "prefecture": "滋賀県", "id": 288 },
        { "address": "芹中町", "city": "彦根市", "postcode": "5220031", "prefecture": "滋賀県", "id": 289 },
        { "address": "芹橋", "city": "彦根市", "postcode": "5220087", "prefecture": "滋賀県", "id": 290 },
        { "address": "芹町", "city": "彦根市", "postcode": "5220032", "prefecture": "滋賀県", "id": 291 },
        { "address": "善谷町", "city": "彦根市", "postcode": "5220014", "prefecture": "滋賀県", "id": 292 },
        { "address": "太堂町", "city": "彦根市", "postcode": "5291153", "prefecture": "滋賀県", "id": 293 },
        { "address": "大東町", "city": "彦根市", "postcode": "5220074", "prefecture": "滋賀県", "id": 294 },
        { "address": "高宮町", "city": "彦根市", "postcode": "5220201", "prefecture": "滋賀県", "id": 295 },
        { "address": "竹ケ鼻町", "city": "彦根市", "postcode": "5220044", "prefecture": "滋賀県", "id": 296 },
        { "address": "立花町", "city": "彦根市", "postcode": "5220062", "prefecture": "滋賀県", "id": 297 },
        { "address": "田附町", "city": "彦根市", "postcode": "5211134", "prefecture": "滋賀県", "id": 298 },
        { "address": "田原町", "city": "彦根市", "postcode": "5211105", "prefecture": "滋賀県", "id": 299 },
        { "address": "千尋町", "city": "彦根市", "postcode": "5291154", "prefecture": "滋賀県", "id": 300 },
        { "address": "中央町", "city": "彦根市", "postcode": "5220063", "prefecture": "滋賀県", "id": 301 },
        { "address": "辻堂町", "city": "彦根市", "postcode": "5220233", "prefecture": "滋賀県", "id": 302 },
        { "address": "葛籠町", "city": "彦根市", "postcode": "5220212", "prefecture": "滋賀県", "id": 303 },
        { "address": "出路町", "city": "彦根市", "postcode": "5211104", "prefecture": "滋賀県", "id": 304 },
        { "address": "出町", "city": "彦根市", "postcode": "5220214", "prefecture": "滋賀県", "id": 305 },
        { "address": "戸賀町", "city": "彦根市", "postcode": "5220042", "prefecture": "滋賀県", "id": 306 },
        { "address": "外町", "city": "彦根市", "postcode": "5220009", "prefecture": "滋賀県", "id": 307 },
        { "address": "鳥居本町", "city": "彦根市", "postcode": "5220004", "prefecture": "滋賀県", "id": 308 },
        { "address": "中藪", "city": "彦根市", "postcode": "5220051", "prefecture": "滋賀県", "id": 309 },
        { "address": "中山町", "city": "彦根市", "postcode": "5220013", "prefecture": "滋賀県", "id": 310 },
        { "address": "長曽根町", "city": "彦根市", "postcode": "5220067", "prefecture": "滋賀県", "id": 311 },
        { "address": "長曽根南町", "city": "彦根市", "postcode": "5220052", "prefecture": "滋賀県", "id": 312 },
        { "address": "西今町", "city": "彦根市", "postcode": "5220054", "prefecture": "滋賀県", "id": 313 },
        { "address": "錦町", "city": "彦根市", "postcode": "5220089", "prefecture": "滋賀県", "id": 314 },
        { "address": "西葛籠町", "city": "彦根市", "postcode": "5220213", "prefecture": "滋賀県", "id": 315 },
        { "address": "西沼波町", "city": "彦根市", "postcode": "5220038", "prefecture": "滋賀県", "id": 316 },
        { "address": "楡町", "city": "彦根市", "postcode": "5291151", "prefecture": "滋賀県", "id": 317 },
        { "address": "野口町", "city": "彦根市", "postcode": "5220221", "prefecture": "滋賀県", "id": 318 },
        { "address": "野瀬町", "city": "彦根市", "postcode": "5220055", "prefecture": "滋賀県", "id": 319 },
        { "address": "野田山町", "city": "彦根市", "postcode": "5220025", "prefecture": "滋賀県", "id": 320 },
        { "address": "沼波町", "city": "彦根市", "postcode": "5220036", "prefecture": "滋賀県", "id": 321 },
        { "address": "野良田町", "city": "彦根市", "postcode": "5211124", "prefecture": "滋賀県", "id": 322 },
        { "address": "橋向町", "city": "彦根市", "postcode": "5220084", "prefecture": "滋賀県", "id": 323 },
        { "address": "八坂町", "city": "彦根市", "postcode": "5220057", "prefecture": "滋賀県", "id": 324 },
        { "address": "服部町", "city": "彦根市", "postcode": "5211126", "prefecture": "滋賀県", "id": 325 },
        { "address": "原町", "city": "彦根市", "postcode": "5220023", "prefecture": "滋賀県", "id": 326 },
        { "address": "馬場", "city": "彦根市", "postcode": "5220069", "prefecture": "滋賀県", "id": 327 },
        { "address": "東沼波町", "city": "彦根市", "postcode": "5220027", "prefecture": "滋賀県", "id": 328 },
        { "address": "彦富町", "city": "彦根市", "postcode": "5211114", "prefecture": "滋賀県", "id": 329 },
        { "address": "肥田町", "city": "彦根市", "postcode": "5211123", "prefecture": "滋賀県", "id": 330 },
        { "address": "日夏町", "city": "彦根市", "postcode": "5220047", "prefecture": "滋賀県", "id": 331 },
        { "address": "平田町", "city": "彦根市", "postcode": "5220041", "prefecture": "滋賀県", "id": 332 },
        { "address": "普光寺町", "city": "彦根市", "postcode": "5211144", "prefecture": "滋賀県", "id": 333 },
        { "address": "仏生寺町", "city": "彦根市", "postcode": "5220018", "prefecture": "滋賀県", "id": 334 },
        { "address": "武奈町", "city": "彦根市", "postcode": "5220016", "prefecture": "滋賀県", "id": 335 },
        { "address": "船町", "city": "彦根市", "postcode": "5220072", "prefecture": "滋賀県", "id": 336 },
        { "address": "古沢町", "city": "彦根市", "postcode": "5220007", "prefecture": "滋賀県", "id": 337 },
        { "address": "法士町", "city": "彦根市", "postcode": "5220211", "prefecture": "滋賀県", "id": 338 },
        { "address": "堀町", "city": "彦根市", "postcode": "5220237", "prefecture": "滋賀県", "id": 339 },
        { "address": "本庄町", "city": "彦根市", "postcode": "5211133", "prefecture": "滋賀県", "id": 340 },
        { "address": "本町", "city": "彦根市", "postcode": "5220064", "prefecture": "滋賀県", "id": 341 },
        { "address": "松原", "city": "彦根市", "postcode": "5220002", "prefecture": "滋賀県", "id": 342 },
        { "address": "三津町", "city": "彦根市", "postcode": "5211122", "prefecture": "滋賀県", "id": 343 },
        { "address": "三津屋町", "city": "彦根市", "postcode": "5220059", "prefecture": "滋賀県", "id": 344 },
        { "address": "南川瀬町", "city": "彦根市", "postcode": "5220222", "prefecture": "滋賀県", "id": 345 },
        { "address": "南三ツ谷町", "city": "彦根市", "postcode": "5211145", "prefecture": "滋賀県", "id": 346 },
        { "address": "宮田町", "city": "彦根市", "postcode": "5220003", "prefecture": "滋賀県", "id": 347 },
        { "address": "元岡町", "city": "彦根市", "postcode": "5220035", "prefecture": "滋賀県", "id": 348 },
        { "address": "元町", "city": "彦根市", "postcode": "5220071", "prefecture": "滋賀県", "id": 349 },
        { "address": "森堂町", "city": "彦根市", "postcode": "5220234", "prefecture": "滋賀県", "id": 350 },
        { "address": "安清町", "city": "彦根市", "postcode": "5220082", "prefecture": "滋賀県", "id": 351 },
        { "address": "安清東町", "city": "彦根市", "postcode": "5220008", "prefecture": "滋賀県", "id": 352 },
        { "address": "柳川町", "city": "彦根市", "postcode": "5211146", "prefecture": "滋賀県", "id": 353 },
        { "address": "蓮台寺町", "city": "彦根市", "postcode": "5220232", "prefecture": "滋賀県", "id": 354 },
        { "address": "和田町", "city": "彦根市", "postcode": "5220039", "prefecture": "滋賀県", "id": 355 },
        { "city": "長浜市", "postcode": "5260000", "prefecture": "滋賀県", "id": 356 },
        { "address": "浅井高原", "city": "長浜市", "postcode": "5260222", "prefecture": "滋賀県", "id": 357 },
        { "address": "朝日町", "city": "長浜市", "postcode": "5260056", "prefecture": "滋賀県", "id": 358 },
        { "address": "安養寺町", "city": "長浜市", "postcode": "5260126", "prefecture": "滋賀県", "id": 359 },
        { "address": "池奥町", "city": "長浜市", "postcode": "5260274", "prefecture": "滋賀県", "id": 360 },
        { "address": "石田町", "city": "長浜市", "postcode": "5260814", "prefecture": "滋賀県", "id": 361 },
        { "address": "泉町", "city": "長浜市", "postcode": "5260003", "prefecture": "滋賀県", "id": 362 },
        { "address": "一の宮町", "city": "長浜市", "postcode": "5260051", "prefecture": "滋賀県", "id": 363 },
        { "address": "稲葉町", "city": "長浜市", "postcode": "5260133", "prefecture": "滋賀県", "id": 364 },
        { "address": "今川町", "city": "長浜市", "postcode": "5260816", "prefecture": "滋賀県", "id": 365 },
        { "address": "今荘町", "city": "長浜市", "postcode": "5260233", "prefecture": "滋賀県", "id": 366 },
        { "address": "今町", "city": "長浜市", "postcode": "5260806", "prefecture": "滋賀県", "id": 367 },
        { "address": "飯山町", "city": "長浜市", "postcode": "5260211", "prefecture": "滋賀県", "id": 368 },
        { "address": "内保町", "city": "長浜市", "postcode": "5260244", "prefecture": "滋賀県", "id": 369 },
        { "address": "瓜生町", "city": "長浜市", "postcode": "5260275", "prefecture": "滋賀県", "id": 370 },
        { "address": "上野町", "city": "長浜市", "postcode": "5260264", "prefecture": "滋賀県", "id": 371 },
        { "address": "永久寺町", "city": "長浜市", "postcode": "5260833", "prefecture": "滋賀県", "id": 372 },
        { "address": "榎木町", "city": "長浜市", "postcode": "5260805", "prefecture": "滋賀県", "id": 373 },
        { "address": "大井町", "city": "長浜市", "postcode": "5290113", "prefecture": "滋賀県", "id": 374 },
        { "address": "大戌亥町", "city": "長浜市", "postcode": "5260043", "prefecture": "滋賀県", "id": 375 },
        { "address": "大島町", "city": "長浜市", "postcode": "5260066", "prefecture": "滋賀県", "id": 376 },
        { "address": "太田町", "city": "長浜市", "postcode": "5260207", "prefecture": "滋賀県", "id": 377 },
        { "address": "大辰巳町", "city": "長浜市", "postcode": "5260834", "prefecture": "滋賀県", "id": 378 },
        { "address": "大浜町", "city": "長浜市", "postcode": "5260115", "prefecture": "滋賀県", "id": 379 },
        { "address": "大東町", "city": "長浜市", "postcode": "5260832", "prefecture": "滋賀県", "id": 380 },
        { "address": "大宮町", "city": "長浜市", "postcode": "5260054", "prefecture": "滋賀県", "id": 381 },
        { "address": "大依町", "city": "長浜市", "postcode": "5260251", "prefecture": "滋賀県", "id": 382 },
        { "address": "岡谷町", "city": "長浜市", "postcode": "5260205", "prefecture": "滋賀県", "id": 383 },
        { "address": "小谷上山田町", "city": "長浜市", "postcode": "5290301", "prefecture": "滋賀県", "id": 384 },
        { "address": "小谷郡上町", "city": "長浜市", "postcode": "5290312", "prefecture": "滋賀県", "id": 385 },
        { "address": "小谷美濃山町", "city": "長浜市", "postcode": "5290311", "prefecture": "滋賀県", "id": 386 },
        { "address": "小谷丁野町", "city": "長浜市", "postcode": "5290304", "prefecture": "滋賀県", "id": 387 },
        { "address": "落合町", "city": "長浜市", "postcode": "5260102", "prefecture": "滋賀県", "id": 388 },
        { "address": "大路町", "city": "長浜市", "postcode": "5260243", "prefecture": "滋賀県", "id": 389 },
        { "address": "小野寺町", "city": "長浜市", "postcode": "5260221", "prefecture": "滋賀県", "id": 390 },
        { "address": "垣籠町", "city": "長浜市", "postcode": "5260811", "prefecture": "滋賀県", "id": 391 },
        { "address": "柿ノ木", "city": "長浜市", "postcode": "5290131", "prefecture": "滋賀県", "id": 392 },
        { "address": "鍛冶屋町", "city": "長浜市", "postcode": "5260204", "prefecture": "滋賀県", "id": 393 },
        { "address": "加田今町", "city": "長浜市", "postcode": "5260827", "prefecture": "滋賀県", "id": 394 },
        { "address": "加田町", "city": "長浜市", "postcode": "5260828", "prefecture": "滋賀県", "id": 395 },
        { "address": "勝町", "city": "長浜市", "postcode": "5260042", "prefecture": "滋賀県", "id": 396 },
        { "address": "鐘紡町", "city": "長浜市", "postcode": "5260068", "prefecture": "滋賀県", "id": 397 },
        { "address": "加納町", "city": "長浜市", "postcode": "5260804", "prefecture": "滋賀県", "id": 398 },
        { "address": "神照町", "city": "長浜市", "postcode": "5260015", "prefecture": "滋賀県", "id": 399 },
        { "address": "上八木町", "city": "長浜市", "postcode": "5260122", "prefecture": "滋賀県", "id": 400 },
        { "address": "唐国町", "city": "長浜市", "postcode": "5290101", "prefecture": "滋賀県", "id": 401 },
        { "address": "川崎町", "city": "長浜市", "postcode": "5260846", "prefecture": "滋賀県", "id": 402 },
        { "address": "川道町", "city": "長浜市", "postcode": "5260111", "prefecture": "滋賀県", "id": 403 },
        { "address": "木尾町", "city": "長浜市", "postcode": "5260265", "prefecture": "滋賀県", "id": 404 },
        { "address": "祇園町", "city": "長浜市", "postcode": "5260061", "prefecture": "滋賀県", "id": 405 },
        { "address": "北池町", "city": "長浜市", "postcode": "5260231", "prefecture": "滋賀県", "id": 406 },
        { "address": "北ノ郷町", "city": "長浜市", "postcode": "5260214", "prefecture": "滋賀県", "id": 407 },
        { "address": "北野町", "city": "長浜市", "postcode": "5260272", "prefecture": "滋賀県", "id": 408 },
        { "address": "北船町", "city": "長浜市", "postcode": "5260057", "prefecture": "滋賀県", "id": 409 },
        { "address": "木之本町赤尾", "city": "長浜市", "postcode": "5290435", "prefecture": "滋賀県", "id": 410 },
        { "address": "木之本町アットリ", "city": "長浜市", "postcode": "5290421", "prefecture": "滋賀県", "id": 411 },
        { "address": "木之本町石道", "city": "長浜市", "postcode": "5290412", "prefecture": "滋賀県", "id": 412 },
        { "address": "木之本町大音", "city": "長浜市", "postcode": "5290431", "prefecture": "滋賀県", "id": 413 },
        { "address": "木之本町大見", "city": "長浜市", "postcode": "5290415", "prefecture": "滋賀県", "id": 414 },
        { "address": "木之本町音羽", "city": "長浜市", "postcode": "5290403", "prefecture": "滋賀県", "id": 415 },
        { "address": "木之本町金居原", "city": "長浜市", "postcode": "5290401", "prefecture": "滋賀県", "id": 416 },
        { "address": "木之本町川合", "city": "長浜市", "postcode": "5290414", "prefecture": "滋賀県", "id": 417 },
        { "address": "木之本町北布施", "city": "長浜市", "postcode": "5290434", "prefecture": "滋賀県", "id": 418 },
        { "address": "木之本町木之本", "city": "長浜市", "postcode": "5290425", "prefecture": "滋賀県", "id": 419 },
        { "address": "木之本町黒田", "city": "長浜市", "postcode": "5290426", "prefecture": "滋賀県", "id": 420 },
        { "address": "木之本町小山", "city": "長浜市", "postcode": "5290413", "prefecture": "滋賀県", "id": 421 },
        { "address": "木之本町杉野", "city": "長浜市", "postcode": "5290402", "prefecture": "滋賀県", "id": 422 },
        { "address": "木之本町杉本", "city": "長浜市", "postcode": "5290404", "prefecture": "滋賀県", "id": 423 },
        { "address": "木之本町千田", "city": "長浜市", "postcode": "5290423", "prefecture": "滋賀県", "id": 424 },
        { "address": "木之本町田居", "city": "長浜市", "postcode": "5290432", "prefecture": "滋賀県", "id": 425 },
        { "address": "木之本町田部", "city": "長浜市", "postcode": "5290422", "prefecture": "滋賀県", "id": 426 },
        { "address": "木之本町西山", "city": "長浜市", "postcode": "5290433", "prefecture": "滋賀県", "id": 427 },
        { "address": "木之本町飯浦", "city": "長浜市", "postcode": "5290541", "prefecture": "滋賀県", "id": 428 },
        { "address": "木之本町飯浦", "city": "長浜市", "postcode": "5290437", "prefecture": "滋賀県", "id": 429 },
        { "address": "木之本町廣瀬", "city": "長浜市", "postcode": "5290424", "prefecture": "滋賀県", "id": 430 },
        { "address": "木之本町古橋", "city": "長浜市", "postcode": "5290411", "prefecture": "滋賀県", "id": 431 },
        { "address": "木之本町山梨子", "city": "長浜市", "postcode": "5290436", "prefecture": "滋賀県", "id": 432 },
        { "address": "草野町", "city": "長浜市", "postcode": "5260202", "prefecture": "滋賀県", "id": 433 },
        { "address": "国友町", "city": "長浜市", "postcode": "5260001", "prefecture": "滋賀県", "id": 434 },
        { "address": "口分田町", "city": "長浜市", "postcode": "5260014", "prefecture": "滋賀県", "id": 435 },
        { "address": "黒部町", "city": "長浜市", "postcode": "5260262", "prefecture": "滋賀県", "id": 436 },
        { "address": "小一条町", "city": "長浜市", "postcode": "5260826", "prefecture": "滋賀県", "id": 437 },
        { "address": "公園町", "city": "長浜市", "postcode": "5260065", "prefecture": "滋賀県", "id": 438 },
        { "address": "香花寺町", "city": "長浜市", "postcode": "5260132", "prefecture": "滋賀県", "id": 439 },
        { "address": "郷野町", "city": "長浜市", "postcode": "5260206", "prefecture": "滋賀県", "id": 440 },
        { "address": "小観音寺町", "city": "長浜市", "postcode": "5260134", "prefecture": "滋賀県", "id": 441 },
        { "address": "小沢町", "city": "長浜市", "postcode": "5260004", "prefecture": "滋賀県", "id": 442 },
        { "address": "湖北今町", "city": "長浜市", "postcode": "5290333", "prefecture": "滋賀県", "id": 443 },
        { "address": "湖北高田町", "city": "長浜市", "postcode": "5290342", "prefecture": "滋賀県", "id": 444 },
        { "address": "湖北町青名", "city": "長浜市", "postcode": "5290332", "prefecture": "滋賀県", "id": 445 },
        { "address": "湖北町石川", "city": "長浜市", "postcode": "5290361", "prefecture": "滋賀県", "id": 446 },
        { "address": "湖北町伊部", "city": "長浜市", "postcode": "5290313", "prefecture": "滋賀県", "id": 447 },
        { "address": "湖北町今西", "city": "長浜市", "postcode": "5290365", "prefecture": "滋賀県", "id": 448 },
        { "address": "湖北町海老江", "city": "長浜市", "postcode": "5290367", "prefecture": "滋賀県", "id": 449 },
        { "address": "湖北町延勝寺", "city": "長浜市", "postcode": "5290366", "prefecture": "滋賀県", "id": 450 },
        { "address": "湖北町小倉", "city": "長浜市", "postcode": "5290343", "prefecture": "滋賀県", "id": 451 },
        { "address": "湖北町尾上", "city": "長浜市", "postcode": "5290364", "prefecture": "滋賀県", "id": 452 },
        { "address": "湖北町賀", "city": "長浜市", "postcode": "5290321", "prefecture": "滋賀県", "id": 453 },
        { "address": "湖北町河毛", "city": "長浜市", "postcode": "5290316", "prefecture": "滋賀県", "id": 454 },
        { "address": "湖北町小今", "city": "長浜市", "postcode": "5290322", "prefecture": "滋賀県", "id": 455 },
        { "address": "湖北町五坪", "city": "長浜市", "postcode": "5290352", "prefecture": "滋賀県", "id": 456 },
        { "address": "湖北町沢", "city": "長浜市", "postcode": "5290334", "prefecture": "滋賀県", "id": 457 },
        { "address": "湖北町大安寺", "city": "長浜市", "postcode": "5290345", "prefecture": "滋賀県", "id": 458 },
        { "address": "湖北町田中", "city": "長浜市", "postcode": "5290353", "prefecture": "滋賀県", "id": 459 },
        { "address": "湖北町津里", "city": "長浜市", "postcode": "5290362", "prefecture": "滋賀県", "id": 460 },
        { "address": "湖北町留目", "city": "長浜市", "postcode": "5290314", "prefecture": "滋賀県", "id": 461 },
        { "address": "湖北町猫口", "city": "長浜市", "postcode": "5290335", "prefecture": "滋賀県", "id": 462 },
        { "address": "湖北町速水", "city": "長浜市", "postcode": "5290341", "prefecture": "滋賀県", "id": 463 },
        { "address": "湖北町二俣", "city": "長浜市", "postcode": "5290303", "prefecture": "滋賀県", "id": 464 },
        { "address": "湖北町別所", "city": "長浜市", "postcode": "5290315", "prefecture": "滋賀県", "id": 465 },
        { "address": "湖北町南速水", "city": "長浜市", "postcode": "5290346", "prefecture": "滋賀県", "id": 466 },
        { "address": "湖北町馬渡", "city": "長浜市", "postcode": "5290344", "prefecture": "滋賀県", "id": 467 },
        { "address": "湖北町山本", "city": "長浜市", "postcode": "5290354", "prefecture": "滋賀県", "id": 468 },
        { "address": "湖北町山脇", "city": "長浜市", "postcode": "5290317", "prefecture": "滋賀県", "id": 469 },
        { "address": "湖北町八日市", "city": "長浜市", "postcode": "5290331", "prefecture": "滋賀県", "id": 470 },
        { "address": "湖北東尾上町", "city": "長浜市", "postcode": "5290363", "prefecture": "滋賀県", "id": 471 },
        { "address": "小堀町", "city": "長浜市", "postcode": "5260845", "prefecture": "滋賀県", "id": 472 },
        { "address": "五村", "city": "長浜市", "postcode": "5290141", "prefecture": "滋賀県", "id": 473 },
        { "address": "小室町", "city": "長浜市", "postcode": "5260263", "prefecture": "滋賀県", "id": 474 },
        { "address": "桜町", "city": "長浜市", "postcode": "5290121", "prefecture": "滋賀県", "id": 475 },
        { "address": "佐野町", "city": "長浜市", "postcode": "5260235", "prefecture": "滋賀県", "id": 476 },
        { "address": "三和町", "city": "長浜市", "postcode": "5260055", "prefecture": "滋賀県", "id": 477 },
        { "address": "七条町", "city": "長浜市", "postcode": "5260817", "prefecture": "滋賀県", "id": 478 },
        { "address": "地福寺町", "city": "長浜市", "postcode": "5260036", "prefecture": "滋賀県", "id": 479 },
        { "address": "下坂中町", "city": "長浜市", "postcode": "5260044", "prefecture": "滋賀県", "id": 480 },
        { "address": "下坂浜町", "city": "長浜市", "postcode": "5260047", "prefecture": "滋賀県", "id": 481 },
        { "address": "下之郷町", "city": "長浜市", "postcode": "5260005", "prefecture": "滋賀県", "id": 482 },
        { "address": "下八木町", "city": "長浜市", "postcode": "5260123", "prefecture": "滋賀県", "id": 483 },
        { "address": "下山田", "city": "長浜市", "postcode": "5290302", "prefecture": "滋賀県", "id": 484 },
        { "address": "十里町", "city": "長浜市", "postcode": "5260016", "prefecture": "滋賀県", "id": 485 },
        { "address": "十九町", "city": "長浜市", "postcode": "5260121", "prefecture": "滋賀県", "id": 486 },
        { "address": "常喜町", "city": "長浜市", "postcode": "5260823", "prefecture": "滋賀県", "id": 487 },
        { "address": "新旭町", "city": "長浜市", "postcode": "5290133", "prefecture": "滋賀県", "id": 488 },
        { "address": "新庄寺町", "city": "長浜市", "postcode": "5260013", "prefecture": "滋賀県", "id": 489 },
        { "address": "新庄中町", "city": "長浜市", "postcode": "5260012", "prefecture": "滋賀県", "id": 490 },
        { "address": "新庄馬場町", "city": "長浜市", "postcode": "5260011", "prefecture": "滋賀県", "id": 491 },
        { "address": "神前町", "city": "長浜市", "postcode": "5260052", "prefecture": "滋賀県", "id": 492 },
        { "address": "新三田", "city": "長浜市", "postcode": "5260241", "prefecture": "滋賀県", "id": 493 },
        { "address": "酢", "city": "長浜市", "postcode": "5290122", "prefecture": "滋賀県", "id": 494 },
        { "address": "末広町", "city": "長浜市", "postcode": "5260063", "prefecture": "滋賀県", "id": 495 },
        { "address": "須賀谷町", "city": "長浜市", "postcode": "5260277", "prefecture": "滋賀県", "id": 496 },
        { "address": "相撲町", "city": "長浜市", "postcode": "5260017", "prefecture": "滋賀県", "id": 497 },
        { "address": "相撲庭町", "city": "長浜市", "postcode": "5260234", "prefecture": "滋賀県", "id": 498 },
        { "address": "曽根町", "city": "長浜市", "postcode": "5260103", "prefecture": "滋賀県", "id": 499 },
        { "address": "尊勝寺町", "city": "長浜市", "postcode": "5260256", "prefecture": "滋賀県", "id": 500 },
        { "address": "尊野町", "city": "長浜市", "postcode": "5260254", "prefecture": "滋賀県", "id": 501 },
        { "address": "大光寺町", "city": "長浜市", "postcode": "5290351", "prefecture": "滋賀県", "id": 502 },
        { "address": "醍醐町", "city": "長浜市", "postcode": "5260213", "prefecture": "滋賀県", "id": 503 },
        { "address": "大寺町", "city": "長浜市", "postcode": "5290144", "prefecture": "滋賀県", "id": 504 },
        { "address": "大門町", "city": "長浜市", "postcode": "5260216", "prefecture": "滋賀県", "id": 505 },
        { "address": "高田町", "city": "長浜市", "postcode": "5260037", "prefecture": "滋賀県", "id": 506 },
        { "address": "高月町雨森", "city": "長浜市", "postcode": "5290222", "prefecture": "滋賀県", "id": 507 },
        { "address": "高月町磯野", "city": "長浜市", "postcode": "5290203", "prefecture": "滋賀県", "id": 508 },
        { "address": "高月町井口", "city": "長浜市", "postcode": "5290212", "prefecture": "滋賀県", "id": 509 },
        { "address": "高月町宇根", "city": "長浜市", "postcode": "5290251", "prefecture": "滋賀県", "id": 510 },
        { "address": "高月町落川", "city": "長浜市", "postcode": "5290232", "prefecture": "滋賀県", "id": 511 },
        { "address": "高月町尾山", "city": "長浜市", "postcode": "5290215", "prefecture": "滋賀県", "id": 512 },
        { "address": "高月町柏原", "city": "長浜市", "postcode": "5290234", "prefecture": "滋賀県", "id": 513 },
        { "address": "高月町片山", "city": "長浜市", "postcode": "5290272", "prefecture": "滋賀県", "id": 514 },
        { "address": "高月町唐川", "city": "長浜市", "postcode": "5290205", "prefecture": "滋賀県", "id": 515 },
        { "address": "高月町熊野", "city": "長浜市", "postcode": "5290271", "prefecture": "滋賀県", "id": 516 },
        { "address": "高月町重則", "city": "長浜市", "postcode": "5290275", "prefecture": "滋賀県", "id": 517 },
        { "address": "高月町高月", "city": "長浜市", "postcode": "5290241", "prefecture": "滋賀県", "id": 518 },
        { "address": "高月町高野", "city": "長浜市", "postcode": "5290221", "prefecture": "滋賀県", "id": 519 },
        { "address": "高月町渡岸寺", "city": "長浜市", "postcode": "5290233", "prefecture": "滋賀県", "id": 520 },
        { "address": "高月町西阿閉", "city": "長浜市", "postcode": "5290253", "prefecture": "滋賀県", "id": 521 },
        { "address": "高月町西野", "city": "長浜市", "postcode": "5290273", "prefecture": "滋賀県", "id": 522 },
        { "address": "高月町西物部", "city": "長浜市", "postcode": "5290262", "prefecture": "滋賀県", "id": 523 },
        { "address": "高月町西柳野", "city": "長浜市", "postcode": "5290265", "prefecture": "滋賀県", "id": 524 },
        { "address": "高月町東阿閉", "city": "長浜市", "postcode": "5290252", "prefecture": "滋賀県", "id": 525 },
        { "address": "高月町東高田", "city": "長浜市", "postcode": "5290202", "prefecture": "滋賀県", "id": 526 },
        { "address": "高月町東物部", "city": "長浜市", "postcode": "5290261", "prefecture": "滋賀県", "id": 527 },
        { "address": "高月町東柳野", "city": "長浜市", "postcode": "5290263", "prefecture": "滋賀県", "id": 528 },
        { "address": "高月町布施", "city": "長浜市", "postcode": "5290204", "prefecture": "滋賀県", "id": 529 },
        { "address": "高月町保延寺", "city": "長浜市", "postcode": "5290211", "prefecture": "滋賀県", "id": 530 },
        { "address": "高月町洞戸", "city": "長浜市", "postcode": "5290214", "prefecture": "滋賀県", "id": 531 },
        { "address": "高月町馬上", "city": "長浜市", "postcode": "5290223", "prefecture": "滋賀県", "id": 532 },
        { "address": "高月町松尾", "city": "長浜市", "postcode": "5290274", "prefecture": "滋賀県", "id": 533 },
        { "address": "高月町持寺", "city": "長浜市", "postcode": "5290213", "prefecture": "滋賀県", "id": 534 },
        { "address": "高月町森本", "city": "長浜市", "postcode": "5290231", "prefecture": "滋賀県", "id": 535 },
        { "address": "高月町柳野中", "city": "長浜市", "postcode": "5290264", "prefecture": "滋賀県", "id": 536 },
        { "address": "高月町横山", "city": "長浜市", "postcode": "5290201", "prefecture": "滋賀県", "id": 537 },
        { "address": "高橋町", "city": "長浜市", "postcode": "5260046", "prefecture": "滋賀県", "id": 538 },
        { "address": "高畑町", "city": "長浜市", "postcode": "5260273", "prefecture": "滋賀県", "id": 539 },
        { "address": "高山町", "city": "長浜市", "postcode": "5260201", "prefecture": "滋賀県", "id": 540 },
        { "address": "田川町", "city": "長浜市", "postcode": "5260276", "prefecture": "滋賀県", "id": 541 },
        { "address": "田町", "city": "長浜市", "postcode": "5290142", "prefecture": "滋賀県", "id": 542 },
        { "address": "谷口町", "city": "長浜市", "postcode": "5260271", "prefecture": "滋賀県", "id": 543 },
        { "address": "田村町", "city": "長浜市", "postcode": "5260829", "prefecture": "滋賀県", "id": 544 },
        { "address": "千草町", "city": "長浜市", "postcode": "5260801", "prefecture": "滋賀県", "id": 545 },
        { "address": "月ヶ瀬町", "city": "長浜市", "postcode": "5290102", "prefecture": "滋賀県", "id": 546 },
        { "address": "鶴が島", "city": "長浜市", "postcode": "5260112", "prefecture": "滋賀県", "id": 547 },
        { "address": "寺師町", "city": "長浜市", "postcode": "5260209", "prefecture": "滋賀県", "id": 548 },
        { "address": "寺田町", "city": "長浜市", "postcode": "5260045", "prefecture": "滋賀県", "id": 549 },
        { "address": "当目町", "city": "長浜市", "postcode": "5260215", "prefecture": "滋賀県", "id": 550 },
        { "address": "徳山町", "city": "長浜市", "postcode": "5260212", "prefecture": "滋賀県", "id": 551 },
        { "address": "殿町", "city": "長浜市", "postcode": "5260064", "prefecture": "滋賀県", "id": 552 },
        { "address": "鳥羽上町", "city": "長浜市", "postcode": "5260822", "prefecture": "滋賀県", "id": 553 },
        { "address": "富田町", "city": "長浜市", "postcode": "5260131", "prefecture": "滋賀県", "id": 554 },
        { "address": "長田町", "city": "長浜市", "postcode": "5290132", "prefecture": "滋賀県", "id": 555 },
        { "address": "中野町", "city": "長浜市", "postcode": "5290103", "prefecture": "滋賀県", "id": 556 },
        { "address": "中浜", "city": "長浜市", "postcode": "5260114", "prefecture": "滋賀県", "id": 557 },
        { "address": "中山町", "city": "長浜市", "postcode": "5260022", "prefecture": "滋賀県", "id": 558 },
        { "address": "名越町", "city": "長浜市", "postcode": "5260824", "prefecture": "滋賀県", "id": 559 },
        { "address": "南郷町", "city": "長浜市", "postcode": "5260225", "prefecture": "滋賀県", "id": 560 },
        { "address": "難波町", "city": "長浜市", "postcode": "5260108", "prefecture": "滋賀県", "id": 561 },
        { "address": "新栄町", "city": "長浜市", "postcode": "5260841", "prefecture": "滋賀県", "id": 562 },
        { "address": "西浅井町大浦", "city": "長浜市", "postcode": "5290721", "prefecture": "滋賀県", "id": 563 },
        { "address": "西浅井町小山", "city": "長浜市", "postcode": "5290714", "prefecture": "滋賀県", "id": 564 },
        { "address": "西浅井町沓掛", "city": "長浜市", "postcode": "5290708", "prefecture": "滋賀県", "id": 565 },
        { "address": "西浅井町黒山", "city": "長浜市", "postcode": "5290725", "prefecture": "滋賀県", "id": 566 },
        { "address": "西浅井町塩津中", "city": "長浜市", "postcode": "5290704", "prefecture": "滋賀県", "id": 567 },
        { "address": "西浅井町塩津浜", "city": "長浜市", "postcode": "5290701", "prefecture": "滋賀県", "id": 568 },
        { "address": "西浅井町集福寺", "city": "長浜市", "postcode": "5290707", "prefecture": "滋賀県", "id": 569 },
        { "address": "西浅井町庄", "city": "長浜市", "postcode": "5290722", "prefecture": "滋賀県", "id": 570 },
        { "address": "西浅井町菅浦", "city": "長浜市", "postcode": "5290726", "prefecture": "滋賀県", "id": 571 },
        { "address": "西浅井町月出", "city": "長浜市", "postcode": "5290712", "prefecture": "滋賀県", "id": 572 },
        { "address": "西浅井町中", "city": "長浜市", "postcode": "5290723", "prefecture": "滋賀県", "id": 573 },
        { "address": "西浅井町野坂", "city": "長浜市", "postcode": "5290703", "prefecture": "滋賀県", "id": 574 },
        { "address": "西浅井町八田部", "city": "長浜市", "postcode": "5290713", "prefecture": "滋賀県", "id": 575 },
        { "address": "西浅井町祝山", "city": "長浜市", "postcode": "5290702", "prefecture": "滋賀県", "id": 576 },
        { "address": "西浅井町岩熊", "city": "長浜市", "postcode": "5290711", "prefecture": "滋賀県", "id": 577 },
        { "address": "西浅井町山門", "city": "長浜市", "postcode": "5290724", "prefecture": "滋賀県", "id": 578 },
        { "address": "西浅井町山田", "city": "長浜市", "postcode": "5290715", "prefecture": "滋賀県", "id": 579 },
        { "address": "西浅井町余", "city": "長浜市", "postcode": "5290706", "prefecture": "滋賀県", "id": 580 },
        { "address": "西浅井町横波", "city": "長浜市", "postcode": "5290705", "prefecture": "滋賀県", "id": 581 },
        { "address": "西大井町", "city": "長浜市", "postcode": "5290123", "prefecture": "滋賀県", "id": 582 },
        { "address": "西主計町", "city": "長浜市", "postcode": "5260227", "prefecture": "滋賀県", "id": 583 },
        { "address": "西上坂町", "city": "長浜市", "postcode": "5260803", "prefecture": "滋賀県", "id": 584 },
        { "address": "錦織町", "city": "長浜市", "postcode": "5260101", "prefecture": "滋賀県", "id": 585 },
        { "address": "西新三田", "city": "長浜市", "postcode": "5260246", "prefecture": "滋賀県", "id": 586 },
        { "address": "西野町", "city": "長浜市", "postcode": "5260255", "prefecture": "滋賀県", "id": 587 },
        { "address": "西村町", "city": "長浜市", "postcode": "5260208", "prefecture": "滋賀県", "id": 588 },
        { "address": "新居町", "city": "長浜市", "postcode": "5260107", "prefecture": "滋賀県", "id": 589 },
        { "address": "乗倉町", "city": "長浜市", "postcode": "5260217", "prefecture": "滋賀県", "id": 590 },
        { "address": "野瀬町", "city": "長浜市", "postcode": "5260203", "prefecture": "滋賀県", "id": 591 },
        { "address": "野田町", "city": "長浜市", "postcode": "5260266", "prefecture": "滋賀県", "id": 592 },
        { "address": "野寺町", "city": "長浜市", "postcode": "5260106", "prefecture": "滋賀県", "id": 593 },
        { "address": "野村町", "city": "長浜市", "postcode": "5260236", "prefecture": "滋賀県", "id": 594 },
        { "address": "八条町", "city": "長浜市", "postcode": "5260815", "prefecture": "滋賀県", "id": 595 },
        { "address": "早崎町", "city": "長浜市", "postcode": "5260124", "prefecture": "滋賀県", "id": 596 },
        { "address": "春近町", "city": "長浜市", "postcode": "5260842", "prefecture": "滋賀県", "id": 597 },
        { "address": "東主計町", "city": "長浜市", "postcode": "5260226", "prefecture": "滋賀県", "id": 598 },
        { "address": "東上坂町", "city": "長浜市", "postcode": "5260802", "prefecture": "滋賀県", "id": 599 },
        { "address": "東野町", "city": "長浜市", "postcode": "5260224", "prefecture": "滋賀県", "id": 600 },
        { "address": "平方南町", "city": "長浜市", "postcode": "5260035", "prefecture": "滋賀県", "id": 601 },
        { "address": "平方町", "city": "長浜市", "postcode": "5260033", "prefecture": "滋賀県", "id": 602 },
        { "address": "平塚町", "city": "長浜市", "postcode": "5260253", "prefecture": "滋賀県", "id": 603 },
        { "address": "布勢町", "city": "長浜市", "postcode": "5260825", "prefecture": "滋賀県", "id": 604 },
        { "address": "分木町", "city": "長浜市", "postcode": "5260025", "prefecture": "滋賀県", "id": 605 },
        { "address": "保田町", "city": "長浜市", "postcode": "5260002", "prefecture": "滋賀県", "id": 606 },
        { "address": "法楽寺町", "city": "長浜市", "postcode": "5260223", "prefecture": "滋賀県", "id": 607 },
        { "address": "細江町", "city": "長浜市", "postcode": "5260105", "prefecture": "滋賀県", "id": 608 },
        { "address": "保多町", "city": "長浜市", "postcode": "5260812", "prefecture": "滋賀県", "id": 609 },
        { "address": "堀部町", "city": "長浜市", "postcode": "5260813", "prefecture": "滋賀県", "id": 610 },
        { "address": "本庄町", "city": "長浜市", "postcode": "5260821", "prefecture": "滋賀県", "id": 611 },
        { "address": "本町", "city": "長浜市", "postcode": "5290143", "prefecture": "滋賀県", "id": 612 },
        { "address": "益田町", "city": "長浜市", "postcode": "5260125", "prefecture": "滋賀県", "id": 613 },
        { "address": "三川町", "city": "長浜市", "postcode": "5290111", "prefecture": "滋賀県", "id": 614 },
        { "address": "御館", "city": "長浜市", "postcode": "5260104", "prefecture": "滋賀県", "id": 615 },
        { "address": "三田町", "city": "長浜市", "postcode": "5260242", "prefecture": "滋賀県", "id": 616 },
        { "address": "三ツ矢町", "city": "長浜市", "postcode": "5260023", "prefecture": "滋賀県", "id": 617 },
        { "address": "三ツ矢元町", "city": "長浜市", "postcode": "5260024", "prefecture": "滋賀県", "id": 618 },
        { "address": "港町", "city": "長浜市", "postcode": "5260067", "prefecture": "滋賀県", "id": 619 },
        { "address": "南池町", "city": "長浜市", "postcode": "5260232", "prefecture": "滋賀県", "id": 620 },
        { "address": "南小足町", "city": "長浜市", "postcode": "5260843", "prefecture": "滋賀県", "id": 621 },
        { "address": "南呉服町", "city": "長浜市", "postcode": "5260058", "prefecture": "滋賀県", "id": 622 },
        { "address": "南高田町", "city": "長浜市", "postcode": "5260032", "prefecture": "滋賀県", "id": 623 },
        { "address": "南田附町", "city": "長浜市", "postcode": "5260844", "prefecture": "滋賀県", "id": 624 },
        { "address": "南浜町", "city": "長浜市", "postcode": "5260113", "prefecture": "滋賀県", "id": 625 },
        { "address": "宮司町", "city": "長浜市", "postcode": "5260831", "prefecture": "滋賀県", "id": 626 },
        { "address": "宮部町", "city": "長浜市", "postcode": "5290112", "prefecture": "滋賀県", "id": 627 },
        { "address": "宮前町", "city": "長浜市", "postcode": "5260053", "prefecture": "滋賀県", "id": 628 },
        { "address": "室町", "city": "長浜市", "postcode": "5260835", "prefecture": "滋賀県", "id": 629 },
        { "address": "元浜町", "city": "長浜市", "postcode": "5260059", "prefecture": "滋賀県", "id": 630 },
        { "address": "森町", "city": "長浜市", "postcode": "5260018", "prefecture": "滋賀県", "id": 631 },
        { "address": "八木浜町", "city": "長浜市", "postcode": "5260116", "prefecture": "滋賀県", "id": 632 },
        { "address": "八島町", "city": "長浜市", "postcode": "5260252", "prefecture": "滋賀県", "id": 633 },
        { "address": "弥高町", "city": "長浜市", "postcode": "5260034", "prefecture": "滋賀県", "id": 634 },
        { "address": "山階町", "city": "長浜市", "postcode": "5260847", "prefecture": "滋賀県", "id": 635 },
        { "address": "山ノ前町", "city": "長浜市", "postcode": "5260257", "prefecture": "滋賀県", "id": 636 },
        { "address": "八幡中山町", "city": "長浜市", "postcode": "5260021", "prefecture": "滋賀県", "id": 637 },
        { "address": "八幡東町", "city": "長浜市", "postcode": "5260031", "prefecture": "滋賀県", "id": 638 },
        { "address": "弓削町", "city": "長浜市", "postcode": "5260135", "prefecture": "滋賀県", "id": 639 },
        { "address": "湯次町", "city": "長浜市", "postcode": "5260245", "prefecture": "滋賀県", "id": 640 },
        { "address": "余呉町池原", "city": "長浜市", "postcode": "5290536", "prefecture": "滋賀県", "id": 641 },
        { "address": "余呉町今市", "city": "長浜市", "postcode": "5290535", "prefecture": "滋賀県", "id": 642 },
        { "address": "余呉町小谷", "city": "長浜市", "postcode": "5290534", "prefecture": "滋賀県", "id": 643 },
        { "address": "余呉町奥川並", "city": "長浜市", "postcode": "5290503", "prefecture": "滋賀県", "id": 644 },
        { "address": "余呉町尾羽梨", "city": "長浜市", "postcode": "5290502", "prefecture": "滋賀県", "id": 645 },
        { "address": "余呉町小原", "city": "長浜市", "postcode": "5290505", "prefecture": "滋賀県", "id": 646 },
        { "address": "余呉町上丹生", "city": "長浜市", "postcode": "5290512", "prefecture": "滋賀県", "id": 647 },
        { "address": "余呉町川並", "city": "長浜市", "postcode": "5290523", "prefecture": "滋賀県", "id": 648 },
        { "address": "余呉町国安", "city": "長浜市", "postcode": "5290526", "prefecture": "滋賀県", "id": 649 },
        { "address": "余呉町坂口", "city": "長浜市", "postcode": "5290522", "prefecture": "滋賀県", "id": 650 },
        { "address": "余呉町下丹生", "city": "長浜市", "postcode": "5290514", "prefecture": "滋賀県", "id": 651 },
        { "address": "余呉町下余呉", "city": "長浜市", "postcode": "5290521", "prefecture": "滋賀県", "id": 652 },
        { "address": "余呉町新堂", "city": "長浜市", "postcode": "5290537", "prefecture": "滋賀県", "id": 653 },
        { "address": "余呉町菅並", "city": "長浜市", "postcode": "5290511", "prefecture": "滋賀県", "id": 654 },
        { "address": "余呉町摺墨", "city": "長浜市", "postcode": "5290513", "prefecture": "滋賀県", "id": 655 },
        { "address": "余呉町田戸", "city": "長浜市", "postcode": "5290504", "prefecture": "滋賀県", "id": 656 },
        { "address": "余呉町椿坂", "city": "長浜市", "postcode": "5290532", "prefecture": "滋賀県", "id": 657 },
        { "address": "余呉町中河内", "city": "長浜市", "postcode": "5290531", "prefecture": "滋賀県", "id": 658 },
        { "address": "余呉町中之郷", "city": "長浜市", "postcode": "5290515", "prefecture": "滋賀県", "id": 659 },
        { "address": "余呉町針川", "city": "長浜市", "postcode": "5290501", "prefecture": "滋賀県", "id": 660 },
        { "address": "余呉町東野", "city": "長浜市", "postcode": "5290527", "prefecture": "滋賀県", "id": 661 },
        { "address": "余呉町文室", "city": "長浜市", "postcode": "5290525", "prefecture": "滋賀県", "id": 662 },
        { "address": "余呉町八戸", "city": "長浜市", "postcode": "5290524", "prefecture": "滋賀県", "id": 663 },
        { "address": "余呉町柳ケ瀬", "city": "長浜市", "postcode": "5290533", "prefecture": "滋賀県", "id": 664 },
        { "address": "余呉町鷲見", "city": "長浜市", "postcode": "5290506", "prefecture": "滋賀県", "id": 665 },
        { "address": "四ツ塚町", "city": "長浜市", "postcode": "5260041", "prefecture": "滋賀県", "id": 666 },
        { "address": "力丸町", "city": "長浜市", "postcode": "5260267", "prefecture": "滋賀県", "id": 667 },
        { "address": "竜安寺町", "city": "長浜市", "postcode": "5260261", "prefecture": "滋賀県", "id": 668 },
        { "address": "列見町", "city": "長浜市", "postcode": "5260062", "prefecture": "滋賀県", "id": 669 },
        { "city": "近江八幡市", "postcode": "5230000", "prefecture": "滋賀県", "id": 670 },
        { "address": "間之町", "city": "近江八幡市", "postcode": "5230836", "prefecture": "滋賀県", "id": 671 },
        { "address": "赤尾町", "city": "近江八幡市", "postcode": "5230052", "prefecture": "滋賀県", "id": 672 },
        { "address": "浅小井町", "city": "近江八幡市", "postcode": "5230817", "prefecture": "滋賀県", "id": 673 },
        { "address": "安土町石寺", "city": "近江八幡市", "postcode": "5211331", "prefecture": "滋賀県", "id": 674 },
        { "address": "安土町内野", "city": "近江八幡市", "postcode": "5211333", "prefecture": "滋賀県", "id": 675 },
        { "address": "安土町上出", "city": "近江八幡市", "postcode": "5211342", "prefecture": "滋賀県", "id": 676 },
        { "address": "安土町上豊浦", "city": "近江八幡市", "postcode": "5211341", "prefecture": "滋賀県", "id": 677 },
        { "address": "安土町桑実寺", "city": "近江八幡市", "postcode": "5211321", "prefecture": "滋賀県", "id": 678 },
        { "address": "安土町小中", "city": "近江八幡市", "postcode": "5211343", "prefecture": "滋賀県", "id": 679 },
        { "address": "安土町香庄", "city": "近江八幡市", "postcode": "5211346", "prefecture": "滋賀県", "id": 680 },
        { "address": "安土町慈恩寺", "city": "近江八幡市", "postcode": "5211345", "prefecture": "滋賀県", "id": 681 },
        { "address": "安土町下豊浦", "city": "近江八幡市", "postcode": "5211311", "prefecture": "滋賀県", "id": 682 },
        { "address": "安土町常楽寺", "city": "近江八幡市", "postcode": "5211351", "prefecture": "滋賀県", "id": 683 },
        { "address": "安土町大中", "city": "近江八幡市", "postcode": "5211301", "prefecture": "滋賀県", "id": 684 },
        { "address": "安土町中屋", "city": "近江八幡市", "postcode": "5211344", "prefecture": "滋賀県", "id": 685 },
        { "address": "安土町西老蘇", "city": "近江八幡市", "postcode": "5211334", "prefecture": "滋賀県", "id": 686 },
        { "address": "安土町東老蘇", "city": "近江八幡市", "postcode": "5211332", "prefecture": "滋賀県", "id": 687 },
        { "address": "安土町宮津", "city": "近江八幡市", "postcode": "5211322", "prefecture": "滋賀県", "id": 688 },
        { "address": "安養寺町", "city": "近江八幡市", "postcode": "5230045", "prefecture": "滋賀県", "id": 689 },
        { "address": "生須町", "city": "近江八幡市", "postcode": "5230823", "prefecture": "滋賀県", "id": 690 },
        { "address": "池田本町", "city": "近江八幡市", "postcode": "5230043", "prefecture": "滋賀県", "id": 691 },
        { "address": "池田町", "city": "近江八幡市", "postcode": "5230877", "prefecture": "滋賀県", "id": 692 },
        { "address": "為心町上", "city": "近江八幡市", "postcode": "5230866", "prefecture": "滋賀県", "id": 693 },
        { "address": "為心町中", "city": "近江八幡市", "postcode": "5230865", "prefecture": "滋賀県", "id": 694 },
        { "address": "為心町元", "city": "近江八幡市", "postcode": "5230864", "prefecture": "滋賀県", "id": 695 },
        { "address": "板屋町", "city": "近江八幡市", "postcode": "5230885", "prefecture": "滋賀県", "id": 696 },
        { "address": "市井町", "city": "近江八幡市", "postcode": "5230851", "prefecture": "滋賀県", "id": 697 },
        { "address": "上田町", "city": "近江八幡市", "postcode": "5230015", "prefecture": "滋賀県", "id": 698 },
        { "address": "上野町", "city": "近江八幡市", "postcode": "5230046", "prefecture": "滋賀県", "id": 699 },
        { "address": "上畑町", "city": "近江八幡市", "postcode": "5230026", "prefecture": "滋賀県", "id": 700 },
        { "address": "宇津呂町", "city": "近江八幡市", "postcode": "5230895", "prefecture": "滋賀県", "id": 701 },
        { "address": "魚屋町上", "city": "近江八幡市", "postcode": "5230869", "prefecture": "滋賀県", "id": 702 },
        { "address": "魚屋町中", "city": "近江八幡市", "postcode": "5230868", "prefecture": "滋賀県", "id": 703 },
        { "address": "魚屋町元", "city": "近江八幡市", "postcode": "5230867", "prefecture": "滋賀県", "id": 704 },
        { "address": "江頭町", "city": "近江八幡市", "postcode": "5230061", "prefecture": "滋賀県", "id": 705 },
        { "address": "江南町", "city": "近江八幡市", "postcode": "5230832", "prefecture": "滋賀県", "id": 706 },
        { "address": "大杉町", "city": "近江八幡市", "postcode": "5230837", "prefecture": "滋賀県", "id": 707 },
        { "address": "大房町", "city": "近江八幡市", "postcode": "5230071", "prefecture": "滋賀県", "id": 708 },
        { "address": "大森町", "city": "近江八幡市", "postcode": "5230042", "prefecture": "滋賀県", "id": 709 },
        { "address": "沖島町", "city": "近江八幡市", "postcode": "5230801", "prefecture": "滋賀県", "id": 710 },
        { "address": "長田町", "city": "近江八幡市", "postcode": "5230811", "prefecture": "滋賀県", "id": 711 },
        { "address": "小田町", "city": "近江八幡市", "postcode": "5230064", "prefecture": "滋賀県", "id": 712 },
        { "address": "音羽町", "city": "近江八幡市", "postcode": "5230856", "prefecture": "滋賀県", "id": 713 },
        { "address": "小幡町上", "city": "近江八幡市", "postcode": "5230875", "prefecture": "滋賀県", "id": 714 },
        { "address": "小幡町中", "city": "近江八幡市", "postcode": "5230874", "prefecture": "滋賀県", "id": 715 },
        { "address": "鍵之手町", "city": "近江八幡市", "postcode": "5230852", "prefecture": "滋賀県", "id": 716 },
        { "address": "鍛治屋町", "city": "近江八幡市", "postcode": "5230833", "prefecture": "滋賀県", "id": 717 },
        { "address": "加茂町", "city": "近江八幡市", "postcode": "5230058", "prefecture": "滋賀県", "id": 718 },
        { "address": "川原町", "city": "近江八幡市", "postcode": "5230047", "prefecture": "滋賀県", "id": 719 },
        { "address": "北末町", "city": "近江八幡市", "postcode": "5230884", "prefecture": "滋賀県", "id": 720 },
        { "address": "北津田町", "city": "近江八幡市", "postcode": "5230087", "prefecture": "滋賀県", "id": 721 },
        { "address": "北之庄町", "city": "近江八幡市", "postcode": "5230806", "prefecture": "滋賀県", "id": 722 },
        { "address": "北元町", "city": "近江八幡市", "postcode": "5230883", "prefecture": "滋賀県", "id": 723 },
        { "address": "倉橋部町", "city": "近江八幡市", "postcode": "5230023", "prefecture": "滋賀県", "id": 724 },
        { "address": "御所内町", "city": "近江八幡市", "postcode": "5230003", "prefecture": "滋賀県", "id": 725 },
        { "address": "小船木町", "city": "近江八幡市", "postcode": "5230083", "prefecture": "滋賀県", "id": 726 },
        { "address": "金剛寺町", "city": "近江八幡市", "postcode": "5230001", "prefecture": "滋賀県", "id": 727 },
        { "address": "佐久間町", "city": "近江八幡市", "postcode": "5230881", "prefecture": "滋賀県", "id": 728 },
        { "address": "桜宮町", "city": "近江八幡市", "postcode": "5230893", "prefecture": "滋賀県", "id": 729 },
        { "address": "佐波江町", "city": "近江八幡市", "postcode": "5230076", "prefecture": "滋賀県", "id": 730 },
        { "address": "慈恩寺町上", "city": "近江八幡市", "postcode": "5230843", "prefecture": "滋賀県", "id": 731 },
        { "address": "慈恩寺町中", "city": "近江八幡市", "postcode": "5230842", "prefecture": "滋賀県", "id": 732 },
        { "address": "慈恩寺町元", "city": "近江八幡市", "postcode": "5230841", "prefecture": "滋賀県", "id": 733 },
        { "address": "篠原町", "city": "近江八幡市", "postcode": "5230044", "prefecture": "滋賀県", "id": 734 },
        { "address": "島町", "city": "近江八幡市", "postcode": "5230804", "prefecture": "滋賀県", "id": 735 },
        { "address": "十王町", "city": "近江八幡市", "postcode": "5230063", "prefecture": "滋賀県", "id": 736 },
        { "address": "正神町", "city": "近江八幡市", "postcode": "5230873", "prefecture": "滋賀県", "id": 737 },
        { "address": "浄土寺町", "city": "近江八幡市", "postcode": "5230024", "prefecture": "滋賀県", "id": 738 },
        { "address": "白王町", "city": "近江八幡市", "postcode": "5230803", "prefecture": "滋賀県", "id": 739 },
        { "address": "白鳥町", "city": "近江八幡市", "postcode": "5230032", "prefecture": "滋賀県", "id": 740 },
        { "address": "新左衛門町", "city": "近江八幡市", "postcode": "5230825", "prefecture": "滋賀県", "id": 741 },
        { "address": "新栄町", "city": "近江八幡市", "postcode": "5230081", "prefecture": "滋賀県", "id": 742 },
        { "address": "新巻町", "city": "近江八幡市", "postcode": "5230025", "prefecture": "滋賀県", "id": 743 },
        { "address": "新町", "city": "近江八幡市", "postcode": "5230871", "prefecture": "滋賀県", "id": 744 },
        { "address": "水茎町", "city": "近江八幡市", "postcode": "5230074", "prefecture": "滋賀県", "id": 745 },
        { "address": "末広町", "city": "近江八幡市", "postcode": "5230005", "prefecture": "滋賀県", "id": 746 },
        { "address": "杉森町", "city": "近江八幡市", "postcode": "5230812", "prefecture": "滋賀県", "id": 747 },
        { "address": "仲屋町上", "city": "近江八幡市", "postcode": "5230863", "prefecture": "滋賀県", "id": 748 },
        { "address": "仲屋町中", "city": "近江八幡市", "postcode": "5230862", "prefecture": "滋賀県", "id": 749 },
        { "address": "仲屋町元", "city": "近江八幡市", "postcode": "5230861", "prefecture": "滋賀県", "id": 750 },
        { "address": "千僧供町", "city": "近江八幡市", "postcode": "5230016", "prefecture": "滋賀県", "id": 751 },
        { "address": "大工町", "city": "近江八幡市", "postcode": "5230824", "prefecture": "滋賀県", "id": 752 },
        { "address": "大中町", "city": "近江八幡市", "postcode": "5230802", "prefecture": "滋賀県", "id": 753 },
        { "address": "鷹飼町", "city": "近江八幡市", "postcode": "5230891", "prefecture": "滋賀県", "id": 754 },
        { "address": "鷹飼町北", "city": "近江八幡市", "postcode": "5230896", "prefecture": "滋賀県", "id": 755 },
        { "address": "鷹飼町東", "city": "近江八幡市", "postcode": "5230897", "prefecture": "滋賀県", "id": 756 },
        { "address": "鷹飼町南", "city": "近江八幡市", "postcode": "5230898", "prefecture": "滋賀県", "id": 757 },
        { "address": "多賀町", "city": "近江八幡市", "postcode": "5230821", "prefecture": "滋賀県", "id": 758 },
        { "address": "竹町", "city": "近江八幡市", "postcode": "5230036", "prefecture": "滋賀県", "id": 759 },
        { "address": "田中江町", "city": "近江八幡市", "postcode": "5230057", "prefecture": "滋賀県", "id": 760 },
        { "address": "玉木町", "city": "近江八幡市", "postcode": "5230872", "prefecture": "滋賀県", "id": 761 },
        { "address": "玉屋町", "city": "近江八幡市", "postcode": "5230831", "prefecture": "滋賀県", "id": 762 },
        { "address": "長光寺町", "city": "近江八幡市", "postcode": "5230013", "prefecture": "滋賀県", "id": 763 },
        { "address": "長福寺町", "city": "近江八幡市", "postcode": "5230021", "prefecture": "滋賀県", "id": 764 },
        { "address": "長命寺町", "city": "近江八幡市", "postcode": "5230808", "prefecture": "滋賀県", "id": 765 },
        { "address": "津田町", "city": "近江八幡市", "postcode": "5230086", "prefecture": "滋賀県", "id": 766 },
        { "address": "土田町", "city": "近江八幡市", "postcode": "5230082", "prefecture": "滋賀県", "id": 767 },
        { "address": "鉄炮町", "city": "近江八幡市", "postcode": "5230827", "prefecture": "滋賀県", "id": 768 },
        { "address": "出町", "city": "近江八幡市", "postcode": "5230892", "prefecture": "滋賀県", "id": 769 },
        { "address": "友定町", "city": "近江八幡市", "postcode": "5230011", "prefecture": "滋賀県", "id": 770 },
        { "address": "中小森町", "city": "近江八幡市", "postcode": "5230041", "prefecture": "滋賀県", "id": 771 },
        { "address": "中之庄町", "city": "近江八幡市", "postcode": "5230807", "prefecture": "滋賀県", "id": 772 },
        { "address": "永原町上", "city": "近江八幡市", "postcode": "5230849", "prefecture": "滋賀県", "id": 773 },
        { "address": "永原町中", "city": "近江八幡市", "postcode": "5230848", "prefecture": "滋賀県", "id": 774 },
        { "address": "永原町元", "city": "近江八幡市", "postcode": "5230847", "prefecture": "滋賀県", "id": 775 },
        { "address": "中村町", "city": "近江八幡市", "postcode": "5230894", "prefecture": "滋賀県", "id": 776 },
        { "address": "縄手町末", "city": "近江八幡市", "postcode": "5230855", "prefecture": "滋賀県", "id": 777 },
        { "address": "縄手町中", "city": "近江八幡市", "postcode": "5230854", "prefecture": "滋賀県", "id": 778 },
        { "address": "縄手町元", "city": "近江八幡市", "postcode": "5230853", "prefecture": "滋賀県", "id": 779 },
        { "address": "西宿町", "city": "近江八幡市", "postcode": "5230014", "prefecture": "滋賀県", "id": 780 },
        { "address": "西末町", "city": "近江八幡市", "postcode": "5230886", "prefecture": "滋賀県", "id": 781 },
        { "address": "西畳屋町", "city": "近江八幡市", "postcode": "5230835", "prefecture": "滋賀県", "id": 782 },
        { "address": "西庄町", "city": "近江八幡市", "postcode": "5230816", "prefecture": "滋賀県", "id": 783 },
        { "address": "西本郷町", "city": "近江八幡市", "postcode": "5230813", "prefecture": "滋賀県", "id": 784 },
        { "address": "西本郷町西", "city": "近江八幡市", "postcode": "5230819", "prefecture": "滋賀県", "id": 785 },
        { "address": "西本郷町東", "city": "近江八幡市", "postcode": "5230818", "prefecture": "滋賀県", "id": 786 },
        { "address": "西元町", "city": "近江八幡市", "postcode": "5230887", "prefecture": "滋賀県", "id": 787 },
        { "address": "西生来町", "city": "近江八幡市", "postcode": "5230004", "prefecture": "滋賀県", "id": 788 },
        { "address": "野田町", "city": "近江八幡市", "postcode": "5230002", "prefecture": "滋賀県", "id": 789 },
        { "address": "野村町", "city": "近江八幡市", "postcode": "5230075", "prefecture": "滋賀県", "id": 790 },
        { "address": "博労町上", "city": "近江八幡市", "postcode": "5230846", "prefecture": "滋賀県", "id": 791 },
        { "address": "博労町中", "city": "近江八幡市", "postcode": "5230845", "prefecture": "滋賀県", "id": 792 },
        { "address": "博労町元", "city": "近江八幡市", "postcode": "5230844", "prefecture": "滋賀県", "id": 793 },
        { "address": "八幡町", "city": "近江八幡市", "postcode": "5230857", "prefecture": "滋賀県", "id": 794 },
        { "address": "東川町", "city": "近江八幡市", "postcode": "5230027", "prefecture": "滋賀県", "id": 795 },
        { "address": "東畳屋町", "city": "近江八幡市", "postcode": "5230834", "prefecture": "滋賀県", "id": 796 },
        { "address": "東町", "city": "近江八幡市", "postcode": "5230037", "prefecture": "滋賀県", "id": 797 },
        { "address": "東横関町", "city": "近江八幡市", "postcode": "5230035", "prefecture": "滋賀県", "id": 798 },
        { "address": "日杉町", "city": "近江八幡市", "postcode": "5230889", "prefecture": "滋賀県", "id": 799 },
        { "address": "日吉野町", "city": "近江八幡市", "postcode": "5230033", "prefecture": "滋賀県", "id": 800 },
        { "address": "船木町", "city": "近江八幡市", "postcode": "5230084", "prefecture": "滋賀県", "id": 801 },
        { "address": "船町", "city": "近江八幡市", "postcode": "5230822", "prefecture": "滋賀県", "id": 802 },
        { "address": "古川町", "city": "近江八幡市", "postcode": "5230056", "prefecture": "滋賀県", "id": 803 },
        { "address": "堀上町", "city": "近江八幡市", "postcode": "5230031", "prefecture": "滋賀県", "id": 804 },
        { "address": "本町", "city": "近江八幡市", "postcode": "5230876", "prefecture": "滋賀県", "id": 805 },
        { "address": "牧町", "city": "近江八幡市", "postcode": "5230072", "prefecture": "滋賀県", "id": 806 },
        { "address": "孫平治町", "city": "近江八幡市", "postcode": "5230888", "prefecture": "滋賀県", "id": 807 },
        { "address": "益田町", "city": "近江八幡市", "postcode": "5230053", "prefecture": "滋賀県", "id": 808 },
        { "address": "馬淵町", "city": "近江八幡市", "postcode": "5230022", "prefecture": "滋賀県", "id": 809 },
        { "address": "丸の内町", "city": "近江八幡市", "postcode": "5230062", "prefecture": "滋賀県", "id": 810 },
        { "address": "円山町", "city": "近江八幡市", "postcode": "5230805", "prefecture": "滋賀県", "id": 811 },
        { "address": "緑町", "city": "近江八幡市", "postcode": "5230048", "prefecture": "滋賀県", "id": 812 },
        { "address": "南津田町", "city": "近江八幡市", "postcode": "5230085", "prefecture": "滋賀県", "id": 813 },
        { "address": "南本郷町", "city": "近江八幡市", "postcode": "5230814", "prefecture": "滋賀県", "id": 814 },
        { "address": "宮内町", "city": "近江八幡市", "postcode": "5230828", "prefecture": "滋賀県", "id": 815 },
        { "address": "武佐町", "city": "近江八幡市", "postcode": "5230012", "prefecture": "滋賀県", "id": 816 },
        { "address": "元水茎町", "city": "近江八幡市", "postcode": "5230073", "prefecture": "滋賀県", "id": 817 },
        { "address": "元玉屋町", "city": "近江八幡市", "postcode": "5230882", "prefecture": "滋賀県", "id": 818 },
        { "address": "森尻町", "city": "近江八幡市", "postcode": "5230054", "prefecture": "滋賀県", "id": 819 },
        { "address": "八木町", "city": "近江八幡市", "postcode": "5230051", "prefecture": "滋賀県", "id": 820 },
        { "address": "薬師町", "city": "近江八幡市", "postcode": "5230826", "prefecture": "滋賀県", "id": 821 },
        { "address": "柳町", "city": "近江八幡市", "postcode": "5230055", "prefecture": "滋賀県", "id": 822 },
        { "address": "若葉町", "city": "近江八幡市", "postcode": "5230815", "prefecture": "滋賀県", "id": 823 },
        { "address": "若宮町", "city": "近江八幡市", "postcode": "5230034", "prefecture": "滋賀県", "id": 824 },
        { "city": "草津市", "postcode": "5250000", "prefecture": "滋賀県", "id": 825 },
        { "address": "青地町", "city": "草津市", "postcode": "5250041", "prefecture": "滋賀県", "id": 826 },
        { "address": "芦浦町", "city": "草津市", "postcode": "5250002", "prefecture": "滋賀県", "id": 827 },
        { "address": "集町", "city": "草津市", "postcode": "5250015", "prefecture": "滋賀県", "id": 828 },
        { "address": "穴村町", "city": "草津市", "postcode": "5250012", "prefecture": "滋賀県", "id": 829 },
        { "address": "追分", "city": "草津市", "postcode": "5250047", "prefecture": "滋賀県", "id": 830 },
        { "address": "追分南", "city": "草津市", "postcode": "5250048", "prefecture": "滋賀県", "id": 831 },
        { "address": "大路", "city": "草津市", "postcode": "5250032", "prefecture": "滋賀県", "id": 832 },
        { "address": "岡本町", "city": "草津市", "postcode": "5250044", "prefecture": "滋賀県", "id": 833 },
        { "address": "下物町", "city": "草津市", "postcode": "5250001", "prefecture": "滋賀県", "id": 834 },
        { "address": "笠山", "city": "草津市", "postcode": "5250072", "prefecture": "滋賀県", "id": 835 },
        { "address": "片岡町", "city": "草津市", "postcode": "5250011", "prefecture": "滋賀県", "id": 836 },
        { "address": "上笠", "city": "草津市", "postcode": "5250028", "prefecture": "滋賀県", "id": 837 },
        { "address": "上寺町", "city": "草津市", "postcode": "5250004", "prefecture": "滋賀県", "id": 838 },
        { "address": "川原", "city": "草津市", "postcode": "5250021", "prefecture": "滋賀県", "id": 839 },
        { "address": "川原町", "city": "草津市", "postcode": "5250022", "prefecture": "滋賀県", "id": 840 },
        { "address": "北大萱町", "city": "草津市", "postcode": "5250016", "prefecture": "滋賀県", "id": 841 },
        { "address": "北山田町", "city": "草津市", "postcode": "5250061", "prefecture": "滋賀県", "id": 842 },
        { "address": "木川町", "city": "草津市", "postcode": "5250051", "prefecture": "滋賀県", "id": 843 },
        { "address": "草津", "city": "草津市", "postcode": "5250034", "prefecture": "滋賀県", "id": 844 },
        { "address": "草津町", "city": "草津市", "postcode": "5250036", "prefecture": "滋賀県", "id": 845 },
        { "address": "駒井沢町", "city": "草津市", "postcode": "5250014", "prefecture": "滋賀県", "id": 846 },
        { "address": "桜ケ丘", "city": "草津市", "postcode": "5250057", "prefecture": "滋賀県", "id": 847 },
        { "address": "志那町", "city": "草津市", "postcode": "5250005", "prefecture": "滋賀県", "id": 848 },
        { "address": "志那中町", "city": "草津市", "postcode": "5250006", "prefecture": "滋賀県", "id": 849 },
        { "address": "渋川", "city": "草津市", "postcode": "5250026", "prefecture": "滋賀県", "id": 850 },
        { "address": "下笠町", "city": "草津市", "postcode": "5250029", "prefecture": "滋賀県", "id": 851 },
        { "address": "下寺町", "city": "草津市", "postcode": "5250007", "prefecture": "滋賀県", "id": 852 },
        { "address": "新堂町", "city": "草津市", "postcode": "5250013", "prefecture": "滋賀県", "id": 853 },
        { "address": "新浜町", "city": "草津市", "postcode": "5250067", "prefecture": "滋賀県", "id": 854 },
        { "address": "長束町", "city": "草津市", "postcode": "5250003", "prefecture": "滋賀県", "id": 855 },
        { "address": "西大路町", "city": "草津市", "postcode": "5250037", "prefecture": "滋賀県", "id": 856 },
        { "address": "西草津", "city": "草津市", "postcode": "5250035", "prefecture": "滋賀県", "id": 857 },
        { "address": "西渋川", "city": "草津市", "postcode": "5250025", "prefecture": "滋賀県", "id": 858 },
        { "address": "西矢倉", "city": "草津市", "postcode": "5250052", "prefecture": "滋賀県", "id": 859 },
        { "address": "野路", "city": "草津市", "postcode": "5250059", "prefecture": "滋賀県", "id": 860 },
        { "address": "野路町", "city": "草津市", "postcode": "5250055", "prefecture": "滋賀県", "id": 861 },
        { "address": "野路東", "city": "草津市", "postcode": "5250058", "prefecture": "滋賀県", "id": 862 },
        { "address": "野村", "city": "草津市", "postcode": "5250027", "prefecture": "滋賀県", "id": 863 },
        { "address": "橋岡町", "city": "草津市", "postcode": "5250065", "prefecture": "滋賀県", "id": 864 },
        { "address": "馬場町", "city": "草津市", "postcode": "5250043", "prefecture": "滋賀県", "id": 865 },
        { "address": "東草津", "city": "草津市", "postcode": "5250033", "prefecture": "滋賀県", "id": 866 },
        { "address": "東矢倉", "city": "草津市", "postcode": "5250054", "prefecture": "滋賀県", "id": 867 },
        { "address": "平井", "city": "草津市", "postcode": "5250023", "prefecture": "滋賀県", "id": 868 },
        { "address": "平井町", "city": "草津市", "postcode": "5250024", "prefecture": "滋賀県", "id": 869 },
        { "address": "御倉町", "city": "草津市", "postcode": "5250064", "prefecture": "滋賀県", "id": 870 },
        { "address": "南笠町", "city": "草津市", "postcode": "5250056", "prefecture": "滋賀県", "id": 871 },
        { "address": "南笠東", "city": "草津市", "postcode": "5250071", "prefecture": "滋賀県", "id": 872 },
        { "address": "南草津", "city": "草津市", "postcode": "5250050", "prefecture": "滋賀県", "id": 873 },
        { "address": "南草津プリムタウン", "city": "草津市", "postcode": "5250068", "prefecture": "滋賀県", "id": 874 },
        { "address": "南山田町", "city": "草津市", "postcode": "5250063", "prefecture": "滋賀県", "id": 875 },
        { "address": "矢倉", "city": "草津市", "postcode": "5250053", "prefecture": "滋賀県", "id": 876 },
        { "address": "矢橋町", "city": "草津市", "postcode": "5250066", "prefecture": "滋賀県", "id": 877 },
        { "address": "山田町", "city": "草津市", "postcode": "5250062", "prefecture": "滋賀県", "id": 878 },
        { "address": "山寺町", "city": "草津市", "postcode": "5250042", "prefecture": "滋賀県", "id": 879 },
        { "address": "若草", "city": "草津市", "postcode": "5250045", "prefecture": "滋賀県", "id": 880 },
        { "address": "若竹町", "city": "草津市", "postcode": "5250031", "prefecture": "滋賀県", "id": 881 },
        { "city": "守山市", "postcode": "5240000", "prefecture": "滋賀県", "id": 882 },
        { "address": "赤野井町", "city": "守山市", "postcode": "5240061", "prefecture": "滋賀県", "id": 883 },
        { "address": "阿村町", "city": "守山市", "postcode": "5240035", "prefecture": "滋賀県", "id": 884 },
        { "address": "荒見町", "city": "守山市", "postcode": "5240016", "prefecture": "滋賀県", "id": 885 },
        { "address": "石田町", "city": "守山市", "postcode": "5240014", "prefecture": "滋賀県", "id": 886 },
        { "address": "伊勢町", "city": "守山市", "postcode": "5240036", "prefecture": "滋賀県", "id": 887 },
        { "address": "今市町", "city": "守山市", "postcode": "5240011", "prefecture": "滋賀県", "id": 888 },
        { "address": "今宿", "city": "守山市", "postcode": "5240046", "prefecture": "滋賀県", "id": 889 },
        { "address": "今浜町", "city": "守山市", "postcode": "5240101", "prefecture": "滋賀県", "id": 890 },
        { "address": "梅田町", "city": "守山市", "postcode": "5240037", "prefecture": "滋賀県", "id": 891 },
        { "address": "焔魔堂町", "city": "守山市", "postcode": "5240042", "prefecture": "滋賀県", "id": 892 },
        { "address": "大林町", "city": "守山市", "postcode": "5240054", "prefecture": "滋賀県", "id": 893 },
        { "address": "岡町", "city": "守山市", "postcode": "5240032", "prefecture": "滋賀県", "id": 894 },
        { "address": "笠原町", "city": "守山市", "postcode": "5240004", "prefecture": "滋賀県", "id": 895 },
        { "address": "勝部", "city": "守山市", "postcode": "5240041", "prefecture": "滋賀県", "id": 896 },
        { "address": "金森町", "city": "守山市", "postcode": "5240045", "prefecture": "滋賀県", "id": 897 },
        { "address": "川田町", "city": "守山市", "postcode": "5240001", "prefecture": "滋賀県", "id": 898 },
        {
            "address": "環境学習都市宣言記念公園",
            "city": "守山市",
            "postcode": "5240216",
            "prefecture": "滋賀県",
            "id": 899
        },
        { "address": "小島町", "city": "守山市", "postcode": "5240002", "prefecture": "滋賀県", "id": 900 },
        { "address": "木浜町", "city": "守山市", "postcode": "5240104", "prefecture": "滋賀県", "id": 901 },
        { "address": "小浜町", "city": "守山市", "postcode": "5240211", "prefecture": "滋賀県", "id": 902 },
        { "address": "幸津川町", "city": "守山市", "postcode": "5240215", "prefecture": "滋賀県", "id": 903 },
        { "address": "下之郷", "city": "守山市", "postcode": "5240013", "prefecture": "滋賀県", "id": 904 },
        { "address": "十二里町", "city": "守山市", "postcode": "5240055", "prefecture": "滋賀県", "id": 905 },
        { "address": "新庄町", "city": "守山市", "postcode": "5240213", "prefecture": "滋賀県", "id": 906 },
        { "address": "杉江町", "city": "守山市", "postcode": "5240062", "prefecture": "滋賀県", "id": 907 },
        { "address": "洲本町", "city": "守山市", "postcode": "5240103", "prefecture": "滋賀県", "id": 908 },
        { "address": "大門町", "city": "守山市", "postcode": "5240052", "prefecture": "滋賀県", "id": 909 },
        { "address": "立田町", "city": "守山市", "postcode": "5240214", "prefecture": "滋賀県", "id": 910 },
        { "address": "立入町", "city": "守山市", "postcode": "5240031", "prefecture": "滋賀県", "id": 911 },
        { "address": "千代町", "city": "守山市", "postcode": "5240034", "prefecture": "滋賀県", "id": 912 },
        { "address": "中町", "city": "守山市", "postcode": "5240003", "prefecture": "滋賀県", "id": 913 },
        { "address": "服部町", "city": "守山市", "postcode": "5240212", "prefecture": "滋賀県", "id": 914 },
        { "address": "播磨田町", "city": "守山市", "postcode": "5240012", "prefecture": "滋賀県", "id": 915 },
        { "address": "浮気町", "city": "守山市", "postcode": "5240033", "prefecture": "滋賀県", "id": 916 },
        { "address": "二町町", "city": "守山市", "postcode": "5240043", "prefecture": "滋賀県", "id": 917 },
        { "address": "古高町", "city": "守山市", "postcode": "5240044", "prefecture": "滋賀県", "id": 918 },
        { "address": "欲賀町", "city": "守山市", "postcode": "5240063", "prefecture": "滋賀県", "id": 919 },
        { "address": "水保町", "city": "守山市", "postcode": "5240102", "prefecture": "滋賀県", "id": 920 },
        { "address": "三宅町", "city": "守山市", "postcode": "5240051", "prefecture": "滋賀県", "id": 921 },
        { "address": "森川原町", "city": "守山市", "postcode": "5240064", "prefecture": "滋賀県", "id": 922 },
        { "address": "守山", "city": "守山市", "postcode": "5240022", "prefecture": "滋賀県", "id": 923 },
        { "address": "矢島町", "city": "守山市", "postcode": "5240015", "prefecture": "滋賀県", "id": 924 },
        { "address": "山賀町", "city": "守山市", "postcode": "5240065", "prefecture": "滋賀県", "id": 925 },
        { "address": "横江町", "city": "守山市", "postcode": "5240053", "prefecture": "滋賀県", "id": 926 },
        { "address": "吉身", "city": "守山市", "postcode": "5240021", "prefecture": "滋賀県", "id": 927 },
        { "city": "栗東市", "postcode": "5203000", "prefecture": "滋賀県", "id": 928 },
        { "address": "荒張", "city": "栗東市", "postcode": "5203003", "prefecture": "滋賀県", "id": 929 },
        { "address": "安養寺", "city": "栗東市", "postcode": "5203015", "prefecture": "滋賀県", "id": 930 },
        { "address": "伊勢落", "city": "栗東市", "postcode": "5203044", "prefecture": "滋賀県", "id": 931 },
        { "address": "井上", "city": "栗東市", "postcode": "5203006", "prefecture": "滋賀県", "id": 932 },
        { "address": "大橋", "city": "栗東市", "postcode": "5203046", "prefecture": "滋賀県", "id": 933 },
        { "address": "岡", "city": "栗東市", "postcode": "5203012", "prefecture": "滋賀県", "id": 934 },
        { "address": "小柿", "city": "栗東市", "postcode": "5203024", "prefecture": "滋賀県", "id": 935 },
        { "address": "小野", "city": "栗東市", "postcode": "5203016", "prefecture": "滋賀県", "id": 936 },
        { "address": "笠川", "city": "栗東市", "postcode": "5203033", "prefecture": "滋賀県", "id": 937 },
        { "address": "上砥山", "city": "栗東市", "postcode": "5203004", "prefecture": "滋賀県", "id": 938 },
        { "address": "上鈎", "city": "栗東市", "postcode": "5203022", "prefecture": "滋賀県", "id": 939 },
        { "address": "苅原", "city": "栗東市", "postcode": "5203032", "prefecture": "滋賀県", "id": 940 },
        { "address": "川辺", "city": "栗東市", "postcode": "5203014", "prefecture": "滋賀県", "id": 941 },
        { "address": "観音寺", "city": "栗東市", "postcode": "5203002", "prefecture": "滋賀県", "id": 942 },
        { "address": "北中小路", "city": "栗東市", "postcode": "5203037", "prefecture": "滋賀県", "id": 943 },
        { "address": "小平井", "city": "栗東市", "postcode": "5203034", "prefecture": "滋賀県", "id": 944 },
        { "address": "下戸山", "city": "栗東市", "postcode": "5203011", "prefecture": "滋賀県", "id": 945 },
        { "address": "下鈎", "city": "栗東市", "postcode": "5203026", "prefecture": "滋賀県", "id": 946 },
        { "address": "十里", "city": "栗東市", "postcode": "5203036", "prefecture": "滋賀県", "id": 947 },
        { "address": "高野", "city": "栗東市", "postcode": "5203045", "prefecture": "滋賀県", "id": 948 },
        { "address": "辻", "city": "栗東市", "postcode": "5203042", "prefecture": "滋賀県", "id": 949 },
        { "address": "出庭", "city": "栗東市", "postcode": "5203041", "prefecture": "滋賀県", "id": 950 },
        { "address": "手原", "city": "栗東市", "postcode": "5203047", "prefecture": "滋賀県", "id": 951 },
        { "address": "中沢", "city": "栗東市", "postcode": "5203025", "prefecture": "滋賀県", "id": 952 },
        { "address": "野尻", "city": "栗東市", "postcode": "5203027", "prefecture": "滋賀県", "id": 953 },
        { "address": "蜂屋", "city": "栗東市", "postcode": "5203021", "prefecture": "滋賀県", "id": 954 },
        { "address": "林", "city": "栗東市", "postcode": "5203043", "prefecture": "滋賀県", "id": 955 },
        { "address": "東坂", "city": "栗東市", "postcode": "5203001", "prefecture": "滋賀県", "id": 956 },
        { "address": "綣", "city": "栗東市", "postcode": "5203031", "prefecture": "滋賀県", "id": 957 },
        { "address": "坊袋", "city": "栗東市", "postcode": "5203023", "prefecture": "滋賀県", "id": 958 },
        { "address": "御園", "city": "栗東市", "postcode": "5203005", "prefecture": "滋賀県", "id": 959 },
        { "address": "目川", "city": "栗東市", "postcode": "5203013", "prefecture": "滋賀県", "id": 960 },
        { "address": "霊仙寺", "city": "栗東市", "postcode": "5203035", "prefecture": "滋賀県", "id": 961 },
        { "address": "六地蔵", "city": "栗東市", "postcode": "5203017", "prefecture": "滋賀県", "id": 962 },
        { "city": "甲賀市", "postcode": "5280000", "prefecture": "滋賀県", "id": 963 },
        { "address": "甲賀町油日", "city": "甲賀市", "postcode": "5203413", "prefecture": "滋賀県", "id": 964 },
        { "address": "甲賀町櫟野", "city": "甲賀市", "postcode": "5203412", "prefecture": "滋賀県", "id": 965 },
        { "address": "甲賀町岩室", "city": "甲賀市", "postcode": "5203401", "prefecture": "滋賀県", "id": 966 },
        { "address": "甲賀町上野", "city": "甲賀市", "postcode": "5203421", "prefecture": "滋賀県", "id": 967 },
        { "address": "甲賀町大久保", "city": "甲賀市", "postcode": "5203414", "prefecture": "滋賀県", "id": 968 },
        { "address": "甲賀町大原市場", "city": "甲賀市", "postcode": "5203433", "prefecture": "滋賀県", "id": 969 },
        { "address": "甲賀町大原上田", "city": "甲賀市", "postcode": "5203415", "prefecture": "滋賀県", "id": 970 },
        { "address": "甲賀町大原中", "city": "甲賀市", "postcode": "5203431", "prefecture": "滋賀県", "id": 971 },
        { "address": "甲賀町隠岐", "city": "甲賀市", "postcode": "5203405", "prefecture": "滋賀県", "id": 972 },
        { "address": "甲賀町鹿深台", "city": "甲賀市", "postcode": "5203427", "prefecture": "滋賀県", "id": 973 },
        { "address": "甲賀町神", "city": "甲賀市", "postcode": "5203411", "prefecture": "滋賀県", "id": 974 },
        { "address": "甲賀町小佐治", "city": "甲賀市", "postcode": "5203402", "prefecture": "滋賀県", "id": 975 },
        { "address": "甲賀町五反田", "city": "甲賀市", "postcode": "5203423", "prefecture": "滋賀県", "id": 976 },
        { "address": "甲賀町相模", "city": "甲賀市", "postcode": "5203435", "prefecture": "滋賀県", "id": 977 },
        { "address": "甲賀町神保", "city": "甲賀市", "postcode": "5203404", "prefecture": "滋賀県", "id": 978 },
        { "address": "甲賀町高野", "city": "甲賀市", "postcode": "5203434", "prefecture": "滋賀県", "id": 979 },
        { "address": "甲賀町高嶺", "city": "甲賀市", "postcode": "5203424", "prefecture": "滋賀県", "id": 980 },
        { "address": "甲賀町滝", "city": "甲賀市", "postcode": "5203432", "prefecture": "滋賀県", "id": 981 },
        { "address": "甲賀町田堵野", "city": "甲賀市", "postcode": "5203426", "prefecture": "滋賀県", "id": 982 },
        { "address": "甲賀町鳥居野", "city": "甲賀市", "postcode": "5203403", "prefecture": "滋賀県", "id": 983 },
        { "address": "甲賀町拝坂", "city": "甲賀市", "postcode": "5203436", "prefecture": "滋賀県", "id": 984 },
        { "address": "甲賀町毛枚", "city": "甲賀市", "postcode": "5203425", "prefecture": "滋賀県", "id": 985 },
        { "address": "甲賀町和田", "city": "甲賀市", "postcode": "5203422", "prefecture": "滋賀県", "id": 986 },
        { "address": "甲南町池田", "city": "甲賀市", "postcode": "5203302", "prefecture": "滋賀県", "id": 987 },
        { "address": "甲南町磯尾", "city": "甲賀市", "postcode": "5203312", "prefecture": "滋賀県", "id": 988 },
        { "address": "甲南町市原", "city": "甲賀市", "postcode": "5203316", "prefecture": "滋賀県", "id": 989 },
        { "address": "甲南町葛木", "city": "甲賀市", "postcode": "5203321", "prefecture": "滋賀県", "id": 990 },
        { "address": "甲南町上馬杉", "city": "甲賀市", "postcode": "5203303", "prefecture": "滋賀県", "id": 991 },
        { "address": "甲南町希望ケ丘", "city": "甲賀市", "postcode": "5203333", "prefecture": "滋賀県", "id": 992 },
        { "address": "甲南町希望ケ丘本町", "city": "甲賀市", "postcode": "5203332", "prefecture": "滋賀県", "id": 993 },
        { "address": "甲南町耕心", "city": "甲賀市", "postcode": "5203326", "prefecture": "滋賀県", "id": 994 },
        { "address": "甲南町柑子", "city": "甲賀市", "postcode": "5203306", "prefecture": "滋賀県", "id": 995 },
        { "address": "甲南町塩野", "city": "甲賀市", "postcode": "5203315", "prefecture": "滋賀県", "id": 996 },
        { "address": "甲南町下馬杉", "city": "甲賀市", "postcode": "5203304", "prefecture": "滋賀県", "id": 997 },
        { "address": "甲南町新治", "city": "甲賀市", "postcode": "5203313", "prefecture": "滋賀県", "id": 998 },
        { "address": "甲南町杉谷", "city": "甲賀市", "postcode": "5203314", "prefecture": "滋賀県", "id": 999 },
        { "address": "甲南町寺庄", "city": "甲賀市", "postcode": "5203301", "prefecture": "滋賀県", "id": 1000 },
        { "address": "甲南町野川", "city": "甲賀市", "postcode": "5203305", "prefecture": "滋賀県", "id": 1001 },
        { "address": "甲南町野尻", "city": "甲賀市", "postcode": "5203307", "prefecture": "滋賀県", "id": 1002 },
        { "address": "甲南町野田", "city": "甲賀市", "postcode": "5203308", "prefecture": "滋賀県", "id": 1003 },
        { "address": "甲南町稗谷", "city": "甲賀市", "postcode": "5203331", "prefecture": "滋賀県", "id": 1004 },
        { "address": "甲南町深川", "city": "甲賀市", "postcode": "5203322", "prefecture": "滋賀県", "id": 1005 },
        { "address": "甲南町深川市場", "city": "甲賀市", "postcode": "5203323", "prefecture": "滋賀県", "id": 1006 },
        { "address": "甲南町宝木", "city": "甲賀市", "postcode": "5203325", "prefecture": "滋賀県", "id": 1007 },
        { "address": "甲南町森尻", "city": "甲賀市", "postcode": "5203324", "prefecture": "滋賀県", "id": 1008 },
        { "address": "甲南町竜法師", "city": "甲賀市", "postcode": "5203311", "prefecture": "滋賀県", "id": 1009 },
        { "address": "信楽町江田", "city": "甲賀市", "postcode": "5291811", "prefecture": "滋賀県", "id": 1010 },
        { "address": "信楽町小川", "city": "甲賀市", "postcode": "5291833", "prefecture": "滋賀県", "id": 1011 },
        { "address": "信楽町小川出", "city": "甲賀市", "postcode": "5291832", "prefecture": "滋賀県", "id": 1012 },
        { "address": "信楽町上朝宮", "city": "甲賀市", "postcode": "5291841", "prefecture": "滋賀県", "id": 1013 },
        { "address": "信楽町黄瀬", "city": "甲賀市", "postcode": "5291802", "prefecture": "滋賀県", "id": 1014 },
        { "address": "信楽町神山", "city": "甲賀市", "postcode": "5291812", "prefecture": "滋賀県", "id": 1015 },
        { "address": "信楽町下朝宮", "city": "甲賀市", "postcode": "5291842", "prefecture": "滋賀県", "id": 1016 },
        { "address": "信楽町杉山", "city": "甲賀市", "postcode": "5291834", "prefecture": "滋賀県", "id": 1017 },
        { "address": "信楽町田代", "city": "甲賀市", "postcode": "5291814", "prefecture": "滋賀県", "id": 1018 },
        { "address": "信楽町多羅尾", "city": "甲賀市", "postcode": "5291821", "prefecture": "滋賀県", "id": 1019 },
        { "address": "信楽町勅旨", "city": "甲賀市", "postcode": "5291804", "prefecture": "滋賀県", "id": 1020 },
        { "address": "信楽町中野", "city": "甲賀市", "postcode": "5291835", "prefecture": "滋賀県", "id": 1021 },
        { "address": "信楽町長野", "city": "甲賀市", "postcode": "5291851", "prefecture": "滋賀県", "id": 1022 },
        { "address": "信楽町西", "city": "甲賀市", "postcode": "5291831", "prefecture": "滋賀県", "id": 1023 },
        { "address": "信楽町畑", "city": "甲賀市", "postcode": "5291813", "prefecture": "滋賀県", "id": 1024 },
        { "address": "信楽町柞原", "city": "甲賀市", "postcode": "5291836", "prefecture": "滋賀県", "id": 1025 },
        { "address": "信楽町牧", "city": "甲賀市", "postcode": "5291803", "prefecture": "滋賀県", "id": 1026 },
        { "address": "信楽町宮尻", "city": "甲賀市", "postcode": "5291843", "prefecture": "滋賀県", "id": 1027 },
        { "address": "信楽町宮町", "city": "甲賀市", "postcode": "5291801", "prefecture": "滋賀県", "id": 1028 },
        { "address": "土山町山女原", "city": "甲賀市", "postcode": "5280204", "prefecture": "滋賀県", "id": 1029 },
        { "address": "土山町鮎河", "city": "甲賀市", "postcode": "5280202", "prefecture": "滋賀県", "id": 1030 },
        { "address": "土山町市場", "city": "甲賀市", "postcode": "5280233", "prefecture": "滋賀県", "id": 1031 },
        { "address": "土山町猪鼻", "city": "甲賀市", "postcode": "5280207", "prefecture": "滋賀県", "id": 1032 },
        { "address": "土山町大河原", "city": "甲賀市", "postcode": "5280201", "prefecture": "滋賀県", "id": 1033 },
        { "address": "土山町大澤", "city": "甲賀市", "postcode": "5280213", "prefecture": "滋賀県", "id": 1034 },
        { "address": "土山町青土", "city": "甲賀市", "postcode": "5280221", "prefecture": "滋賀県", "id": 1035 },
        { "address": "土山町大野", "city": "甲賀市", "postcode": "5280235", "prefecture": "滋賀県", "id": 1036 },
        { "address": "土山町北土山", "city": "甲賀市", "postcode": "5280211", "prefecture": "滋賀県", "id": 1037 },
        { "address": "土山町黒川", "city": "甲賀市", "postcode": "5280208", "prefecture": "滋賀県", "id": 1038 },
        { "address": "土山町黒滝", "city": "甲賀市", "postcode": "5280203", "prefecture": "滋賀県", "id": 1039 },
        { "address": "土山町瀬ノ音", "city": "甲賀市", "postcode": "5280223", "prefecture": "滋賀県", "id": 1040 },
        { "address": "土山町笹路", "city": "甲賀市", "postcode": "5280205", "prefecture": "滋賀県", "id": 1041 },
        { "address": "土山町徳原", "city": "甲賀市", "postcode": "5280234", "prefecture": "滋賀県", "id": 1042 },
        { "address": "土山町頓宮", "city": "甲賀市", "postcode": "5280231", "prefecture": "滋賀県", "id": 1043 },
        { "address": "土山町野上野", "city": "甲賀市", "postcode": "5280224", "prefecture": "滋賀県", "id": 1044 },
        { "address": "土山町平子", "city": "甲賀市", "postcode": "5280222", "prefecture": "滋賀県", "id": 1045 },
        { "address": "土山町前野", "city": "甲賀市", "postcode": "5280232", "prefecture": "滋賀県", "id": 1046 },
        { "address": "土山町南土山", "city": "甲賀市", "postcode": "5280212", "prefecture": "滋賀県", "id": 1047 },
        { "address": "土山町山中", "city": "甲賀市", "postcode": "5280206", "prefecture": "滋賀県", "id": 1048 },
        { "address": "水口町暁", "city": "甲賀市", "postcode": "5280012", "prefecture": "滋賀県", "id": 1049 },
        { "address": "水口町秋葉", "city": "甲賀市", "postcode": "5280071", "prefecture": "滋賀県", "id": 1050 },
        { "address": "水口町朝日が丘", "city": "甲賀市", "postcode": "5280072", "prefecture": "滋賀県", "id": 1051 },
        { "address": "水口町綾野", "city": "甲賀市", "postcode": "5280033", "prefecture": "滋賀県", "id": 1052 },
        { "address": "水口町泉", "city": "甲賀市", "postcode": "5280056", "prefecture": "滋賀県", "id": 1053 },
        { "address": "水口町今郷", "city": "甲賀市", "postcode": "5280002", "prefecture": "滋賀県", "id": 1054 },
        { "address": "水口町岩坂", "city": "甲賀市", "postcode": "5280047", "prefecture": "滋賀県", "id": 1055 },
        { "address": "水口町植", "city": "甲賀市", "postcode": "5280055", "prefecture": "滋賀県", "id": 1056 },
        { "address": "水口町宇川", "city": "甲賀市", "postcode": "5280052", "prefecture": "滋賀県", "id": 1057 },
        { "address": "水口町牛飼", "city": "甲賀市", "postcode": "5280045", "prefecture": "滋賀県", "id": 1058 },
        { "address": "水口町宇田", "city": "甲賀市", "postcode": "5280053", "prefecture": "滋賀県", "id": 1059 },
        { "address": "水口町梅が丘", "city": "甲賀市", "postcode": "5280022", "prefecture": "滋賀県", "id": 1060 },
        { "address": "水口町春日", "city": "甲賀市", "postcode": "5280065", "prefecture": "滋賀県", "id": 1061 },
        { "address": "水口町嶬峨", "city": "甲賀市", "postcode": "5280004", "prefecture": "滋賀県", "id": 1062 },
        { "address": "水口町北泉", "city": "甲賀市", "postcode": "5280058", "prefecture": "滋賀県", "id": 1063 },
        { "address": "水口町北内貴", "city": "甲賀市", "postcode": "5280051", "prefecture": "滋賀県", "id": 1064 },
        { "address": "水口町北脇", "city": "甲賀市", "postcode": "5280057", "prefecture": "滋賀県", "id": 1065 },
        { "address": "水口町貴生川", "city": "甲賀市", "postcode": "5280049", "prefecture": "滋賀県", "id": 1066 },
        { "address": "水口町京町", "city": "甲賀市", "postcode": "5280017", "prefecture": "滋賀県", "id": 1067 },
        { "address": "水口町古城が丘", "city": "甲賀市", "postcode": "5280073", "prefecture": "滋賀県", "id": 1068 },
        { "address": "水口町酒人", "city": "甲賀市", "postcode": "5280054", "prefecture": "滋賀県", "id": 1069 },
        { "address": "水口町笹が丘", "city": "甲賀市", "postcode": "5280061", "prefecture": "滋賀県", "id": 1070 },
        { "address": "水口町さつきが丘", "city": "甲賀市", "postcode": "5280062", "prefecture": "滋賀県", "id": 1071 },
        { "address": "水口町三大寺", "city": "甲賀市", "postcode": "5280046", "prefecture": "滋賀県", "id": 1072 },
        { "address": "水口町三本柳", "city": "甲賀市", "postcode": "5280040", "prefecture": "滋賀県", "id": 1073 },
        { "address": "水口町下山", "city": "甲賀市", "postcode": "5280063", "prefecture": "滋賀県", "id": 1074 },
        { "address": "水口町松栄", "city": "甲賀市", "postcode": "5280015", "prefecture": "滋賀県", "id": 1075 },
        { "address": "水口町城東", "city": "甲賀市", "postcode": "5280028", "prefecture": "滋賀県", "id": 1076 },
        { "address": "水口町城内", "city": "甲賀市", "postcode": "5280027", "prefecture": "滋賀県", "id": 1077 },
        { "address": "水口町新城", "city": "甲賀市", "postcode": "5280007", "prefecture": "滋賀県", "id": 1078 },
        { "address": "水口町新町", "city": "甲賀市", "postcode": "5280038", "prefecture": "滋賀県", "id": 1079 },
        { "address": "水口町神明", "city": "甲賀市", "postcode": "5280016", "prefecture": "滋賀県", "id": 1080 },
        { "address": "水口町杣中", "city": "甲賀市", "postcode": "5280043", "prefecture": "滋賀県", "id": 1081 },
        { "address": "水口町高塚", "city": "甲賀市", "postcode": "5280011", "prefecture": "滋賀県", "id": 1082 },
        { "address": "水口町高山", "city": "甲賀市", "postcode": "5280048", "prefecture": "滋賀県", "id": 1083 },
        { "address": "水口町中畑", "city": "甲賀市", "postcode": "5280001", "prefecture": "滋賀県", "id": 1084 },
        { "address": "水口町中邸", "city": "甲賀市", "postcode": "5280024", "prefecture": "滋賀県", "id": 1085 },
        { "address": "水口町名坂", "city": "甲賀市", "postcode": "5280035", "prefecture": "滋賀県", "id": 1086 },
        { "address": "水口町西林口", "city": "甲賀市", "postcode": "5280025", "prefecture": "滋賀県", "id": 1087 },
        { "address": "水口町日電", "city": "甲賀市", "postcode": "5280034", "prefecture": "滋賀県", "id": 1088 },
        { "address": "水口町八光", "city": "甲賀市", "postcode": "5280021", "prefecture": "滋賀県", "id": 1089 },
        { "address": "水口町八田", "city": "甲賀市", "postcode": "5280066", "prefecture": "滋賀県", "id": 1090 },
        { "address": "水口町伴中山", "city": "甲賀市", "postcode": "5280064", "prefecture": "滋賀県", "id": 1091 },
        { "address": "水口町東名坂", "city": "甲賀市", "postcode": "5280036", "prefecture": "滋賀県", "id": 1092 },
        { "address": "水口町東林口", "city": "甲賀市", "postcode": "5280026", "prefecture": "滋賀県", "id": 1093 },
        { "address": "水口町ひのきが丘", "city": "甲賀市", "postcode": "5280068", "prefecture": "滋賀県", "id": 1094 },
        { "address": "水口町本町", "city": "甲賀市", "postcode": "5280031", "prefecture": "滋賀県", "id": 1095 },
        { "address": "水口町本丸", "city": "甲賀市", "postcode": "5280023", "prefecture": "滋賀県", "id": 1096 },
        { "address": "水口町松尾", "city": "甲賀市", "postcode": "5280074", "prefecture": "滋賀県", "id": 1097 },
        { "address": "水口町的場", "city": "甲賀市", "postcode": "5280020", "prefecture": "滋賀県", "id": 1098 },
        { "address": "水口町水口", "city": "甲賀市", "postcode": "5280005", "prefecture": "滋賀県", "id": 1099 },
        { "address": "水口町南林口", "city": "甲賀市", "postcode": "5280029", "prefecture": "滋賀県", "id": 1100 },
        { "address": "水口町宮の前", "city": "甲賀市", "postcode": "5280013", "prefecture": "滋賀県", "id": 1101 },
        { "address": "水口町虫生野", "city": "甲賀市", "postcode": "5280041", "prefecture": "滋賀県", "id": 1102 },
        { "address": "水口町虫生野中央", "city": "甲賀市", "postcode": "5280042", "prefecture": "滋賀県", "id": 1103 },
        {
            "address": "水口町虫生野虹の町",
            "city": "甲賀市",
            "postcode": "5280069",
            "prefecture": "滋賀県",
            "id": 1104
        },
        { "address": "水口町本綾野", "city": "甲賀市", "postcode": "5280037", "prefecture": "滋賀県", "id": 1105 },
        { "address": "水口町元町", "city": "甲賀市", "postcode": "5280006", "prefecture": "滋賀県", "id": 1106 },
        { "address": "水口町八坂", "city": "甲賀市", "postcode": "5280032", "prefecture": "滋賀県", "id": 1107 },
        { "address": "水口町山", "city": "甲賀市", "postcode": "5280067", "prefecture": "滋賀県", "id": 1108 },
        { "address": "水口町山上", "city": "甲賀市", "postcode": "5280044", "prefecture": "滋賀県", "id": 1109 },
        { "address": "水口町鹿深", "city": "甲賀市", "postcode": "5280014", "prefecture": "滋賀県", "id": 1110 },
        { "address": "水口町和野", "city": "甲賀市", "postcode": "5280003", "prefecture": "滋賀県", "id": 1111 },
        { "city": "野洲市", "postcode": "5202300", "prefecture": "滋賀県", "id": 1112 },
        { "address": "菖蒲", "city": "野洲市", "postcode": "5202402", "prefecture": "滋賀県", "id": 1113 },
        { "address": "安治", "city": "野洲市", "postcode": "5202411", "prefecture": "滋賀県", "id": 1114 },
        { "address": "市三宅", "city": "野洲市", "postcode": "5202362", "prefecture": "滋賀県", "id": 1115 },
        { "address": "井口", "city": "野洲市", "postcode": "5202414", "prefecture": "滋賀県", "id": 1116 },
        { "address": "入町", "city": "野洲市", "postcode": "5202312", "prefecture": "滋賀県", "id": 1117 },
        { "address": "近江富士", "city": "野洲市", "postcode": "5202324", "prefecture": "滋賀県", "id": 1118 },
        { "address": "大篠原", "city": "野洲市", "postcode": "5202313", "prefecture": "滋賀県", "id": 1119 },
        { "address": "大畑", "city": "野洲市", "postcode": "5202343", "prefecture": "滋賀県", "id": 1120 },
        { "address": "乙窪", "city": "野洲市", "postcode": "5202435", "prefecture": "滋賀県", "id": 1121 },
        { "address": "上屋", "city": "野洲市", "postcode": "5202316", "prefecture": "滋賀県", "id": 1122 },
        { "address": "喜合", "city": "野洲市", "postcode": "5202403", "prefecture": "滋賀県", "id": 1123 },
        { "address": "北", "city": "野洲市", "postcode": "5202305", "prefecture": "滋賀県", "id": 1124 },
        { "address": "北桜", "city": "野洲市", "postcode": "5202321", "prefecture": "滋賀県", "id": 1125 },
        { "address": "北野", "city": "野洲市", "postcode": "5202361", "prefecture": "滋賀県", "id": 1126 },
        { "address": "北比江", "city": "野洲市", "postcode": "5202436", "prefecture": "滋賀県", "id": 1127 },
        { "address": "木部", "city": "野洲市", "postcode": "5202431", "prefecture": "滋賀県", "id": 1128 },
        { "address": "久野部", "city": "野洲市", "postcode": "5202353", "prefecture": "滋賀県", "id": 1129 },
        { "address": "小篠原", "city": "野洲市", "postcode": "5202331", "prefecture": "滋賀県", "id": 1130 },
        { "address": "五条", "city": "野洲市", "postcode": "5202424", "prefecture": "滋賀県", "id": 1131 },
        { "address": "小堤", "city": "野洲市", "postcode": "5202314", "prefecture": "滋賀県", "id": 1132 },
        { "address": "五之里", "city": "野洲市", "postcode": "5202364", "prefecture": "滋賀県", "id": 1133 },
        { "address": "小比江", "city": "野洲市", "postcode": "5202437", "prefecture": "滋賀県", "id": 1134 },
        { "address": "小南", "city": "野洲市", "postcode": "5202301", "prefecture": "滋賀県", "id": 1135 },
        { "address": "栄", "city": "野洲市", "postcode": "5202333", "prefecture": "滋賀県", "id": 1136 },
        { "address": "下堤", "city": "野洲市", "postcode": "5202417", "prefecture": "滋賀県", "id": 1137 },
        { "address": "須原", "city": "野洲市", "postcode": "5202415", "prefecture": "滋賀県", "id": 1138 },
        { "address": "高木", "city": "野洲市", "postcode": "5202302", "prefecture": "滋賀県", "id": 1139 },
        { "address": "竹ヶ丘", "city": "野洲市", "postcode": "5202365", "prefecture": "滋賀県", "id": 1140 },
        { "address": "竹生", "city": "野洲市", "postcode": "5202363", "prefecture": "滋賀県", "id": 1141 },
        { "address": "辻町", "city": "野洲市", "postcode": "5202315", "prefecture": "滋賀県", "id": 1142 },
        { "address": "堤", "city": "野洲市", "postcode": "5202416", "prefecture": "滋賀県", "id": 1143 },
        { "address": "冨波甲", "city": "野洲市", "postcode": "5202351", "prefecture": "滋賀県", "id": 1144 },
        { "address": "冨波乙", "city": "野洲市", "postcode": "5202352", "prefecture": "滋賀県", "id": 1145 },
        { "address": "中北", "city": "野洲市", "postcode": "5202303", "prefecture": "滋賀県", "id": 1146 },
        { "address": "長島", "city": "野洲市", "postcode": "5202311", "prefecture": "滋賀県", "id": 1147 },
        { "address": "永原", "city": "野洲市", "postcode": "5202304", "prefecture": "滋賀県", "id": 1148 },
        { "address": "西河原", "city": "野洲市", "postcode": "5202423", "prefecture": "滋賀県", "id": 1149 },
        { "address": "野田", "city": "野洲市", "postcode": "5202421", "prefecture": "滋賀県", "id": 1150 },
        { "address": "比江", "city": "野洲市", "postcode": "5202434", "prefecture": "滋賀県", "id": 1151 },
        { "address": "比留田", "city": "野洲市", "postcode": "5202422", "prefecture": "滋賀県", "id": 1152 },
        { "address": "三上", "city": "野洲市", "postcode": "5202323", "prefecture": "滋賀県", "id": 1153 },
        { "address": "南桜", "city": "野洲市", "postcode": "5202322", "prefecture": "滋賀県", "id": 1154 },
        { "address": "妙光寺", "city": "野洲市", "postcode": "5202332", "prefecture": "滋賀県", "id": 1155 },
        { "address": "虫生", "city": "野洲市", "postcode": "5202432", "prefecture": "滋賀県", "id": 1156 },
        { "address": "野洲", "city": "野洲市", "postcode": "5202342", "prefecture": "滋賀県", "id": 1157 },
        { "address": "八夫", "city": "野洲市", "postcode": "5202433", "prefecture": "滋賀県", "id": 1158 },
        { "address": "行畑", "city": "野洲市", "postcode": "5202341", "prefecture": "滋賀県", "id": 1159 },
        { "address": "吉川", "city": "野洲市", "postcode": "5202401", "prefecture": "滋賀県", "id": 1160 },
        { "address": "吉地", "city": "野洲市", "postcode": "5202413", "prefecture": "滋賀県", "id": 1161 },
        { "address": "六条", "city": "野洲市", "postcode": "5202412", "prefecture": "滋賀県", "id": 1162 },
        { "city": "湖南市", "postcode": "5203200", "prefecture": "滋賀県", "id": 1163 },
        { "address": "朝国", "city": "湖南市", "postcode": "5203251", "prefecture": "滋賀県", "id": 1164 },
        { "address": "雨山", "city": "湖南市", "postcode": "5203116", "prefecture": "滋賀県", "id": 1165 },
        { "address": "石部", "city": "湖南市", "postcode": "5203101", "prefecture": "滋賀県", "id": 1166 },
        { "address": "石部が丘", "city": "湖南市", "postcode": "5203109", "prefecture": "滋賀県", "id": 1167 },
        { "address": "石部北", "city": "湖南市", "postcode": "5203113", "prefecture": "滋賀県", "id": 1168 },
        { "address": "石部口", "city": "湖南市", "postcode": "5203114", "prefecture": "滋賀県", "id": 1169 },
        { "address": "石部中央", "city": "湖南市", "postcode": "5203106", "prefecture": "滋賀県", "id": 1170 },
        { "address": "石部西", "city": "湖南市", "postcode": "5203105", "prefecture": "滋賀県", "id": 1171 },
        { "address": "石部東", "city": "湖南市", "postcode": "5203107", "prefecture": "滋賀県", "id": 1172 },
        { "address": "石部緑台", "city": "湖南市", "postcode": "5203115", "prefecture": "滋賀県", "id": 1173 },
        { "address": "石部南", "city": "湖南市", "postcode": "5203108", "prefecture": "滋賀県", "id": 1174 },
        { "address": "岩根", "city": "湖南市", "postcode": "5203252", "prefecture": "滋賀県", "id": 1175 },
        { "address": "岩根中央", "city": "湖南市", "postcode": "5203254", "prefecture": "滋賀県", "id": 1176 },
        { "address": "梅影町", "city": "湖南市", "postcode": "5203214", "prefecture": "滋賀県", "id": 1177 },
        { "address": "近江台", "city": "湖南市", "postcode": "5203245", "prefecture": "滋賀県", "id": 1178 },
        { "address": "大池町", "city": "湖南市", "postcode": "5203213", "prefecture": "滋賀県", "id": 1179 },
        { "address": "岡出", "city": "湖南市", "postcode": "5203104", "prefecture": "滋賀県", "id": 1180 },
        { "address": "北山台", "city": "湖南市", "postcode": "5203241", "prefecture": "滋賀県", "id": 1181 },
        { "address": "柑子袋", "city": "湖南市", "postcode": "5203233", "prefecture": "滋賀県", "id": 1182 },
        { "address": "柑子袋西", "city": "湖南市", "postcode": "5203237", "prefecture": "滋賀県", "id": 1183 },
        { "address": "柑子袋東", "city": "湖南市", "postcode": "5203236", "prefecture": "滋賀県", "id": 1184 },
        { "address": "小砂町", "city": "湖南市", "postcode": "5203212", "prefecture": "滋賀県", "id": 1185 },
        { "address": "サイドタウン", "city": "湖南市", "postcode": "5203244", "prefecture": "滋賀県", "id": 1186 },
        { "address": "下田", "city": "湖南市", "postcode": "5203201", "prefecture": "滋賀県", "id": 1187 },
        { "address": "正福寺", "city": "湖南市", "postcode": "5203253", "prefecture": "滋賀県", "id": 1188 },
        { "address": "高松町", "city": "湖南市", "postcode": "5203211", "prefecture": "滋賀県", "id": 1189 },
        { "address": "中央", "city": "湖南市", "postcode": "5203234", "prefecture": "滋賀県", "id": 1190 },
        { "address": "夏見", "city": "湖南市", "postcode": "5203223", "prefecture": "滋賀県", "id": 1191 },
        { "address": "西寺", "city": "湖南市", "postcode": "5203121", "prefecture": "滋賀県", "id": 1192 },
        { "address": "西峰町", "city": "湖南市", "postcode": "5203202", "prefecture": "滋賀県", "id": 1193 },
        { "address": "針", "city": "湖南市", "postcode": "5203231", "prefecture": "滋賀県", "id": 1194 },
        { "address": "日枝あおい", "city": "湖南市", "postcode": "5203256", "prefecture": "滋賀県", "id": 1195 },
        { "address": "日枝町", "city": "湖南市", "postcode": "5203203", "prefecture": "滋賀県", "id": 1196 },
        { "address": "日枝山手台", "city": "湖南市", "postcode": "5203255", "prefecture": "滋賀県", "id": 1197 },
        { "address": "東寺", "city": "湖南市", "postcode": "5203111", "prefecture": "滋賀県", "id": 1198 },
        { "address": "平松", "city": "湖南市", "postcode": "5203232", "prefecture": "滋賀県", "id": 1199 },
        { "address": "平松北", "city": "湖南市", "postcode": "5203235", "prefecture": "滋賀県", "id": 1200 },
        { "address": "宝来坂", "city": "湖南市", "postcode": "5203103", "prefecture": "滋賀県", "id": 1201 },
        { "address": "菩提寺", "city": "湖南市", "postcode": "5203242", "prefecture": "滋賀県", "id": 1202 },
        { "address": "菩提寺北", "city": "湖南市", "postcode": "5203246", "prefecture": "滋賀県", "id": 1203 },
        { "address": "菩提寺西", "city": "湖南市", "postcode": "5203248", "prefecture": "滋賀県", "id": 1204 },
        { "address": "菩提寺東", "city": "湖南市", "postcode": "5203247", "prefecture": "滋賀県", "id": 1205 },
        { "address": "丸山", "city": "湖南市", "postcode": "5203112", "prefecture": "滋賀県", "id": 1206 },
        { "address": "三雲", "city": "湖南市", "postcode": "5203221", "prefecture": "滋賀県", "id": 1207 },
        { "address": "水戸町", "city": "湖南市", "postcode": "5203215", "prefecture": "滋賀県", "id": 1208 },
        { "address": "宮の森", "city": "湖南市", "postcode": "5203102", "prefecture": "滋賀県", "id": 1209 },
        { "address": "吉永", "city": "湖南市", "postcode": "5203222", "prefecture": "滋賀県", "id": 1210 },
        { "address": "若竹町", "city": "湖南市", "postcode": "5203216", "prefecture": "滋賀県", "id": 1211 },
        { "city": "高島市", "postcode": "5201100", "prefecture": "滋賀県", "id": 1212 },
        { "address": "安曇川町青柳", "city": "高島市", "postcode": "5201221", "prefecture": "滋賀県", "id": 1213 },
        { "address": "安曇川町上小川", "city": "高島市", "postcode": "5201224", "prefecture": "滋賀県", "id": 1214 },
        { "address": "安曇川町上古賀", "city": "高島市", "postcode": "5201201", "prefecture": "滋賀県", "id": 1215 },
        { "address": "安曇川町川島", "city": "高島市", "postcode": "5201231", "prefecture": "滋賀県", "id": 1216 },
        { "address": "安曇川町北船木", "city": "高島市", "postcode": "5201232", "prefecture": "滋賀県", "id": 1217 },
        { "address": "安曇川町五番領", "city": "高島市", "postcode": "5201213", "prefecture": "滋賀県", "id": 1218 },
        { "address": "安曇川町下小川", "city": "高島市", "postcode": "5201223", "prefecture": "滋賀県", "id": 1219 },
        { "address": "安曇川町下古賀", "city": "高島市", "postcode": "5201202", "prefecture": "滋賀県", "id": 1220 },
        { "address": "安曇川町末広", "city": "高島市", "postcode": "5201214", "prefecture": "滋賀県", "id": 1221 },
        { "address": "安曇川町田中", "city": "高島市", "postcode": "5201217", "prefecture": "滋賀県", "id": 1222 },
        { "address": "安曇川町中央", "city": "高島市", "postcode": "5201216", "prefecture": "滋賀県", "id": 1223 },
        { "address": "安曇川町常磐木", "city": "高島市", "postcode": "5201211", "prefecture": "滋賀県", "id": 1224 },
        { "address": "安曇川町長尾", "city": "高島市", "postcode": "5201205", "prefecture": "滋賀県", "id": 1225 },
        { "address": "安曇川町中野", "city": "高島市", "postcode": "5201204", "prefecture": "滋賀県", "id": 1226 },
        { "address": "安曇川町西万木", "city": "高島市", "postcode": "5201212", "prefecture": "滋賀県", "id": 1227 },
        { "address": "安曇川町三尾里", "city": "高島市", "postcode": "5201215", "prefecture": "滋賀県", "id": 1228 },
        { "address": "安曇川町南古賀", "city": "高島市", "postcode": "5201203", "prefecture": "滋賀県", "id": 1229 },
        { "address": "安曇川町南船木", "city": "高島市", "postcode": "5201233", "prefecture": "滋賀県", "id": 1230 },
        { "address": "安曇川町横江", "city": "高島市", "postcode": "5201222", "prefecture": "滋賀県", "id": 1231 },
        { "address": "安曇川町横江浜", "city": "高島市", "postcode": "5201235", "prefecture": "滋賀県", "id": 1232 },
        { "address": "安曇川町四津川", "city": "高島市", "postcode": "5201234", "prefecture": "滋賀県", "id": 1233 },
        { "address": "今津町天増川", "city": "高島市", "postcode": "5201647", "prefecture": "滋賀県", "id": 1234 },
        { "address": "今津町今津", "city": "高島市", "postcode": "5201621", "prefecture": "滋賀県", "id": 1235 },
        { "address": "今津町梅原", "city": "高島市", "postcode": "5201654", "prefecture": "滋賀県", "id": 1236 },
        { "address": "今津町大供", "city": "高島市", "postcode": "5201635", "prefecture": "滋賀県", "id": 1237 },
        { "address": "今津町大供大門", "city": "高島市", "postcode": "5201634", "prefecture": "滋賀県", "id": 1238 },
        { "address": "今津町桂", "city": "高島市", "postcode": "5201602", "prefecture": "滋賀県", "id": 1239 },
        { "address": "今津町上弘部", "city": "高島市", "postcode": "5201613", "prefecture": "滋賀県", "id": 1240 },
        { "address": "今津町岸脇", "city": "高島市", "postcode": "5201653", "prefecture": "滋賀県", "id": 1241 },
        { "address": "今津町北生見", "city": "高島市", "postcode": "5201642", "prefecture": "滋賀県", "id": 1242 },
        { "address": "今津町北仰", "city": "高島市", "postcode": "5201603", "prefecture": "滋賀県", "id": 1243 },
        { "address": "今津町桜町", "city": "高島市", "postcode": "5201632", "prefecture": "滋賀県", "id": 1244 },
        { "address": "今津町酒波", "city": "高島市", "postcode": "5201651", "prefecture": "滋賀県", "id": 1245 },
        { "address": "今津町下弘部", "city": "高島市", "postcode": "5201612", "prefecture": "滋賀県", "id": 1246 },
        { "address": "今津町松陽台", "city": "高島市", "postcode": "5201633", "prefecture": "滋賀県", "id": 1247 },
        { "address": "今津町杉山", "city": "高島市", "postcode": "5201646", "prefecture": "滋賀県", "id": 1248 },
        { "address": "今津町住吉", "city": "高島市", "postcode": "5201623", "prefecture": "滋賀県", "id": 1249 },
        { "address": "今津町角川", "city": "高島市", "postcode": "5201648", "prefecture": "滋賀県", "id": 1250 },
        { "address": "今津町途中谷", "city": "高島市", "postcode": "5201644", "prefecture": "滋賀県", "id": 1251 },
        { "address": "今津町中沼", "city": "高島市", "postcode": "5201622", "prefecture": "滋賀県", "id": 1252 },
        { "address": "今津町名小路", "city": "高島市", "postcode": "5201631", "prefecture": "滋賀県", "id": 1253 },
        { "address": "今津町浜分", "city": "高島市", "postcode": "5201604", "prefecture": "滋賀県", "id": 1254 },
        { "address": "今津町日置前", "city": "高島市", "postcode": "5201655", "prefecture": "滋賀県", "id": 1255 },
        { "address": "今津町弘川", "city": "高島市", "postcode": "5201611", "prefecture": "滋賀県", "id": 1256 },
        { "address": "今津町深清水", "city": "高島市", "postcode": "5201601", "prefecture": "滋賀県", "id": 1257 },
        { "address": "今津町福岡", "city": "高島市", "postcode": "5201652", "prefecture": "滋賀県", "id": 1258 },
        { "address": "今津町舟橋", "city": "高島市", "postcode": "5201636", "prefecture": "滋賀県", "id": 1259 },
        { "address": "今津町保坂", "city": "高島市", "postcode": "5201643", "prefecture": "滋賀県", "id": 1260 },
        { "address": "今津町南生見", "city": "高島市", "postcode": "5201641", "prefecture": "滋賀県", "id": 1261 },
        { "address": "今津町南新保", "city": "高島市", "postcode": "5201605", "prefecture": "滋賀県", "id": 1262 },
        { "address": "今津町椋川", "city": "高島市", "postcode": "5201645", "prefecture": "滋賀県", "id": 1263 },
        { "address": "今津町藺生", "city": "高島市", "postcode": "5201614", "prefecture": "滋賀県", "id": 1264 },
        { "address": "鵜川", "city": "高島市", "postcode": "5201122", "prefecture": "滋賀県", "id": 1265 },
        { "address": "音羽", "city": "高島市", "postcode": "5201131", "prefecture": "滋賀県", "id": 1266 },
        { "address": "勝野", "city": "高島市", "postcode": "5201121", "prefecture": "滋賀県", "id": 1267 },
        { "address": "鴨", "city": "高島市", "postcode": "5201111", "prefecture": "滋賀県", "id": 1268 },
        { "address": "鴨川平", "city": "高島市", "postcode": "5201133", "prefecture": "滋賀県", "id": 1269 },
        { "address": "朽木麻生", "city": "高島市", "postcode": "5201451", "prefecture": "滋賀県", "id": 1270 },
        { "address": "朽木荒川", "city": "高島市", "postcode": "5201411", "prefecture": "滋賀県", "id": 1271 },
        { "address": "朽木市場", "city": "高島市", "postcode": "5201401", "prefecture": "滋賀県", "id": 1272 },
        { "address": "朽木岩瀬", "city": "高島市", "postcode": "5201421", "prefecture": "滋賀県", "id": 1273 },
        { "address": "朽木上野", "city": "高島市", "postcode": "5201413", "prefecture": "滋賀県", "id": 1274 },
        { "address": "朽木雲洞谷", "city": "高島市", "postcode": "5201453", "prefecture": "滋賀県", "id": 1275 },
        { "address": "朽木生杉", "city": "高島市", "postcode": "5201442", "prefecture": "滋賀県", "id": 1276 },
        { "address": "朽木大野", "city": "高島市", "postcode": "5201423", "prefecture": "滋賀県", "id": 1277 },
        { "address": "朽木小入谷", "city": "高島市", "postcode": "5201443", "prefecture": "滋賀県", "id": 1278 },
        { "address": "朽木柏", "city": "高島市", "postcode": "5201415", "prefecture": "滋賀県", "id": 1279 },
        { "address": "朽木木地山", "city": "高島市", "postcode": "5201455", "prefecture": "滋賀県", "id": 1280 },
        { "address": "朽木桑原", "city": "高島市", "postcode": "5201433", "prefecture": "滋賀県", "id": 1281 },
        { "address": "朽木小川", "city": "高島市", "postcode": "5201431", "prefecture": "滋賀県", "id": 1282 },
        { "address": "朽木地子原", "city": "高島市", "postcode": "5201452", "prefecture": "滋賀県", "id": 1283 },
        { "address": "朽木栃生", "city": "高島市", "postcode": "5201425", "prefecture": "滋賀県", "id": 1284 },
        { "address": "朽木中牧", "city": "高島市", "postcode": "5201444", "prefecture": "滋賀県", "id": 1285 },
        { "address": "朽木能家", "city": "高島市", "postcode": "5201454", "prefecture": "滋賀県", "id": 1286 },
        { "address": "朽木野尻", "city": "高島市", "postcode": "5201412", "prefecture": "滋賀県", "id": 1287 },
        { "address": "朽木古川", "city": "高島市", "postcode": "5201422", "prefecture": "滋賀県", "id": 1288 },
        { "address": "朽木古屋", "city": "高島市", "postcode": "5201441", "prefecture": "滋賀県", "id": 1289 },
        { "address": "朽木平良", "city": "高島市", "postcode": "5201432", "prefecture": "滋賀県", "id": 1290 },
        { "address": "朽木宮前坊", "city": "高島市", "postcode": "5201414", "prefecture": "滋賀県", "id": 1291 },
        { "address": "朽木村井", "city": "高島市", "postcode": "5201424", "prefecture": "滋賀県", "id": 1292 },
        { "address": "黒谷", "city": "高島市", "postcode": "5201143", "prefecture": "滋賀県", "id": 1293 },
        { "address": "鹿ケ瀬", "city": "高島市", "postcode": "5201142", "prefecture": "滋賀県", "id": 1294 },
        { "address": "城山台", "city": "高島市", "postcode": "5201123", "prefecture": "滋賀県", "id": 1295 },
        { "address": "新旭町饗庭", "city": "高島市", "postcode": "5201531", "prefecture": "滋賀県", "id": 1296 },
        { "address": "新旭町旭", "city": "高島市", "postcode": "5201501", "prefecture": "滋賀県", "id": 1297 },
        { "address": "新旭町太田", "city": "高島市", "postcode": "5201512", "prefecture": "滋賀県", "id": 1298 },
        { "address": "新旭町北畑", "city": "高島市", "postcode": "5201521", "prefecture": "滋賀県", "id": 1299 },
        { "address": "新旭町熊野本", "city": "高島市", "postcode": "5201532", "prefecture": "滋賀県", "id": 1300 },
        { "address": "新旭町新庄", "city": "高島市", "postcode": "5201522", "prefecture": "滋賀県", "id": 1301 },
        { "address": "新旭町針江", "city": "高島市", "postcode": "5201502", "prefecture": "滋賀県", "id": 1302 },
        { "address": "新旭町深溝", "city": "高島市", "postcode": "5201503", "prefecture": "滋賀県", "id": 1303 },
        { "address": "新旭町安井川", "city": "高島市", "postcode": "5201533", "prefecture": "滋賀県", "id": 1304 },
        { "address": "新旭町藁園", "city": "高島市", "postcode": "5201511", "prefecture": "滋賀県", "id": 1305 },
        { "address": "高島", "city": "高島市", "postcode": "5201141", "prefecture": "滋賀県", "id": 1306 },
        { "address": "永田", "city": "高島市", "postcode": "5201112", "prefecture": "滋賀県", "id": 1307 },
        { "address": "野田", "city": "高島市", "postcode": "5201102", "prefecture": "滋賀県", "id": 1308 },
        { "address": "拝戸", "city": "高島市", "postcode": "5201132", "prefecture": "滋賀県", "id": 1309 },
        { "address": "畑", "city": "高島市", "postcode": "5201144", "prefecture": "滋賀県", "id": 1310 },
        { "address": "マキノ町在原", "city": "高島市", "postcode": "5201801", "prefecture": "滋賀県", "id": 1311 },
        { "address": "マキノ町石庭", "city": "高島市", "postcode": "5201835", "prefecture": "滋賀県", "id": 1312 },
        { "address": "マキノ町浦", "city": "高島市", "postcode": "5201804", "prefecture": "滋賀県", "id": 1313 },
        { "address": "マキノ町大沼", "city": "高島市", "postcode": "5201824", "prefecture": "滋賀県", "id": 1314 },
        { "address": "マキノ町海津", "city": "高島市", "postcode": "5201811", "prefecture": "滋賀県", "id": 1315 },
        { "address": "マキノ町上開田", "city": "高島市", "postcode": "5201831", "prefecture": "滋賀県", "id": 1316 },
        { "address": "マキノ町小荒路", "city": "高島市", "postcode": "5201803", "prefecture": "滋賀県", "id": 1317 },
        { "address": "マキノ町沢", "city": "高島市", "postcode": "5201821", "prefecture": "滋賀県", "id": 1318 },
        { "address": "マキノ町下", "city": "高島市", "postcode": "5201805", "prefecture": "滋賀県", "id": 1319 },
        { "address": "マキノ町下開田", "city": "高島市", "postcode": "5201832", "prefecture": "滋賀県", "id": 1320 },
        { "address": "マキノ町白谷", "city": "高島市", "postcode": "5201837", "prefecture": "滋賀県", "id": 1321 },
        { "address": "マキノ町新保", "city": "高島市", "postcode": "5201822", "prefecture": "滋賀県", "id": 1322 },
        { "address": "マキノ町高木浜", "city": "高島市", "postcode": "5201813", "prefecture": "滋賀県", "id": 1323 },
        { "address": "マキノ町知内", "city": "高島市", "postcode": "5201814", "prefecture": "滋賀県", "id": 1324 },
        { "address": "マキノ町辻", "city": "高島市", "postcode": "5201826", "prefecture": "滋賀県", "id": 1325 },
        { "address": "マキノ町寺久保", "city": "高島市", "postcode": "5201834", "prefecture": "滋賀県", "id": 1326 },
        { "address": "マキノ町中庄", "city": "高島市", "postcode": "5201823", "prefecture": "滋賀県", "id": 1327 },
        { "address": "マキノ町西浜", "city": "高島市", "postcode": "5201812", "prefecture": "滋賀県", "id": 1328 },
        { "address": "マキノ町野口", "city": "高島市", "postcode": "5201802", "prefecture": "滋賀県", "id": 1329 },
        { "address": "マキノ町蛭口", "city": "高島市", "postcode": "5201833", "prefecture": "滋賀県", "id": 1330 },
        { "address": "マキノ町牧野", "city": "高島市", "postcode": "5201836", "prefecture": "滋賀県", "id": 1331 },
        { "address": "マキノ町森西", "city": "高島市", "postcode": "5201825", "prefecture": "滋賀県", "id": 1332 },
        { "address": "マキノ町山中", "city": "高島市", "postcode": "5201806", "prefecture": "滋賀県", "id": 1333 },
        { "address": "宮野", "city": "高島市", "postcode": "5201103", "prefecture": "滋賀県", "id": 1334 },
        { "address": "武曽横山", "city": "高島市", "postcode": "5201101", "prefecture": "滋賀県", "id": 1335 },
        { "city": "東近江市", "postcode": "5270000", "prefecture": "滋賀県", "id": 1336 },
        { "address": "愛東外町", "city": "東近江市", "postcode": "5270166", "prefecture": "滋賀県", "id": 1337 },
        { "address": "青野町", "city": "東近江市", "postcode": "5270232", "prefecture": "滋賀県", "id": 1338 },
        { "address": "青葉町", "city": "東近江市", "postcode": "5270039", "prefecture": "滋賀県", "id": 1339 },
        { "address": "青山町", "city": "東近江市", "postcode": "5270164", "prefecture": "滋賀県", "id": 1340 },
        { "address": "阿弥陀堂町", "city": "東近江市", "postcode": "5211202", "prefecture": "滋賀県", "id": 1341 },
        { "address": "池庄町", "city": "東近江市", "postcode": "5270113", "prefecture": "滋賀県", "id": 1342 },
        { "address": "池田町", "city": "東近江市", "postcode": "5270054", "prefecture": "滋賀県", "id": 1343 },
        { "address": "池之尻町", "city": "東近江市", "postcode": "5270171", "prefecture": "滋賀県", "id": 1344 },
        { "address": "池之脇町", "city": "東近江市", "postcode": "5270222", "prefecture": "滋賀県", "id": 1345 },
        { "address": "石谷町", "city": "東近江市", "postcode": "5270227", "prefecture": "滋賀県", "id": 1346 },
        { "address": "石塔町", "city": "東近江市", "postcode": "5291501", "prefecture": "滋賀県", "id": 1347 },
        { "address": "市ケ原町", "city": "東近江市", "postcode": "5270151", "prefecture": "滋賀県", "id": 1348 },
        { "address": "市子沖町", "city": "東近江市", "postcode": "5291533", "prefecture": "滋賀県", "id": 1349 },
        { "address": "市子川原町", "city": "東近江市", "postcode": "5291531", "prefecture": "滋賀県", "id": 1350 },
        { "address": "市子殿町", "city": "東近江市", "postcode": "5291537", "prefecture": "滋賀県", "id": 1351 },
        { "address": "市子松井町", "city": "東近江市", "postcode": "5291532", "prefecture": "滋賀県", "id": 1352 },
        { "address": "市辺町", "city": "東近江市", "postcode": "5270074", "prefecture": "滋賀県", "id": 1353 },
        { "address": "市原野町", "city": "東近江市", "postcode": "5270224", "prefecture": "滋賀県", "id": 1354 },
        { "address": "一式町", "city": "東近江市", "postcode": "5270226", "prefecture": "滋賀県", "id": 1355 },
        { "address": "稲垂町", "city": "東近江市", "postcode": "5291561", "prefecture": "滋賀県", "id": 1356 },
        { "address": "猪子町", "city": "東近江市", "postcode": "5211223", "prefecture": "滋賀県", "id": 1357 },
        { "address": "伊庭町", "city": "東近江市", "postcode": "5211235", "prefecture": "滋賀県", "id": 1358 },
        { "address": "茨川町", "city": "東近江市", "postcode": "5270216", "prefecture": "滋賀県", "id": 1359 },
        { "address": "今在家町", "city": "東近江市", "postcode": "5270107", "prefecture": "滋賀県", "id": 1360 },
        { "address": "今崎町", "city": "東近江市", "postcode": "5270016", "prefecture": "滋賀県", "id": 1361 },
        { "address": "今代町", "city": "東近江市", "postcode": "5270053", "prefecture": "滋賀県", "id": 1362 },
        { "address": "今町", "city": "東近江市", "postcode": "5211211", "prefecture": "滋賀県", "id": 1363 },
        { "address": "今堀町", "city": "東近江市", "postcode": "5270071", "prefecture": "滋賀県", "id": 1364 },
        { "address": "妹町", "city": "東近江市", "postcode": "5270162", "prefecture": "滋賀県", "id": 1365 },
        { "address": "鋳物師町", "city": "東近江市", "postcode": "5291522", "prefecture": "滋賀県", "id": 1366 },
        { "address": "上中野町", "city": "東近江市", "postcode": "5270156", "prefecture": "滋賀県", "id": 1367 },
        { "address": "梅林町", "city": "東近江市", "postcode": "5270175", "prefecture": "滋賀県", "id": 1368 },
        { "address": "瓜生津町", "city": "東近江市", "postcode": "5270055", "prefecture": "滋賀県", "id": 1369 },
        { "address": "永源寺相谷町", "city": "東近江市", "postcode": "5270211", "prefecture": "滋賀県", "id": 1370 },
        { "address": "永源寺高野町", "city": "東近江市", "postcode": "5270212", "prefecture": "滋賀県", "id": 1371 },
        { "address": "大沢町", "city": "東近江市", "postcode": "5270114", "prefecture": "滋賀県", "id": 1372 },
        { "address": "大清水町", "city": "東近江市", "postcode": "5270126", "prefecture": "滋賀県", "id": 1373 },
        { "address": "大塚町", "city": "東近江市", "postcode": "5291512", "prefecture": "滋賀県", "id": 1374 },
        { "address": "大萩町", "city": "東近江市", "postcode": "5270174", "prefecture": "滋賀県", "id": 1375 },
        { "address": "大林町", "city": "東近江市", "postcode": "5270155", "prefecture": "滋賀県", "id": 1376 },
        { "address": "大森町", "city": "東近江市", "postcode": "5270063", "prefecture": "滋賀県", "id": 1377 },
        { "address": "岡田町", "city": "東近江市", "postcode": "5270057", "prefecture": "滋賀県", "id": 1378 },
        { "address": "小川町", "city": "東近江市", "postcode": "5211204", "prefecture": "滋賀県", "id": 1379 },
        { "address": "沖野", "city": "東近江市", "postcode": "5270034", "prefecture": "滋賀県", "id": 1380 },
        { "address": "小倉町", "city": "東近江市", "postcode": "5270165", "prefecture": "滋賀県", "id": 1381 },
        { "address": "長町", "city": "東近江市", "postcode": "5270122", "prefecture": "滋賀県", "id": 1382 },
        { "address": "乙女浜町", "city": "東近江市", "postcode": "5211241", "prefecture": "滋賀県", "id": 1383 },
        { "address": "小脇町", "city": "東近江市", "postcode": "5270091", "prefecture": "滋賀県", "id": 1384 },
        { "address": "垣見町", "city": "東近江市", "postcode": "5211221", "prefecture": "滋賀県", "id": 1385 },
        { "address": "柏木町", "city": "東近江市", "postcode": "5270083", "prefecture": "滋賀県", "id": 1386 },
        { "address": "春日町", "city": "東近江市", "postcode": "5270032", "prefecture": "滋賀県", "id": 1387 },
        { "address": "葛巻町", "city": "東近江市", "postcode": "5291566", "prefecture": "滋賀県", "id": 1388 },
        { "address": "綺田町", "city": "東近江市", "postcode": "5291503", "prefecture": "滋賀県", "id": 1389 },
        { "address": "上麻生町", "city": "東近江市", "postcode": "5291523", "prefecture": "滋賀県", "id": 1390 },
        { "address": "上大森町", "city": "東近江市", "postcode": "5270062", "prefecture": "滋賀県", "id": 1391 },
        { "address": "上岸本町", "city": "東近江市", "postcode": "5270173", "prefecture": "滋賀県", "id": 1392 },
        { "address": "上南町", "city": "東近江市", "postcode": "5291535", "prefecture": "滋賀県", "id": 1393 },
        { "address": "上羽田町", "city": "東近江市", "postcode": "5270082", "prefecture": "滋賀県", "id": 1394 },
        { "address": "上平木町", "city": "東近江市", "postcode": "5270086", "prefecture": "滋賀県", "id": 1395 },
        { "address": "上二俣町", "city": "東近江市", "postcode": "5270221", "prefecture": "滋賀県", "id": 1396 },
        { "address": "上山町", "city": "東近江市", "postcode": "5270142", "prefecture": "滋賀県", "id": 1397 },
        { "address": "蒲生大森町", "city": "東近江市", "postcode": "5291514", "prefecture": "滋賀県", "id": 1398 },
        { "address": "蒲生岡本町", "city": "東近江市", "postcode": "5291521", "prefecture": "滋賀県", "id": 1399 },
        { "address": "蒲生寺町", "city": "東近江市", "postcode": "5291504", "prefecture": "滋賀県", "id": 1400 },
        { "address": "蒲生堂町", "city": "東近江市", "postcode": "5291541", "prefecture": "滋賀県", "id": 1401 },
        { "address": "萱尾町", "city": "東近江市", "postcode": "5270208", "prefecture": "滋賀県", "id": 1402 },
        { "address": "川合町", "city": "東近江市", "postcode": "5291571", "prefecture": "滋賀県", "id": 1403 },
        { "address": "川合寺町", "city": "東近江市", "postcode": "5270041", "prefecture": "滋賀県", "id": 1404 },
        { "address": "川南町", "city": "東近江市", "postcode": "5211203", "prefecture": "滋賀県", "id": 1405 },
        { "address": "祇園町", "city": "東近江市", "postcode": "5270101", "prefecture": "滋賀県", "id": 1406 },
        { "address": "北坂町", "city": "東近江市", "postcode": "5270145", "prefecture": "滋賀県", "id": 1407 },
        { "address": "北清水町", "city": "東近江市", "postcode": "5270129", "prefecture": "滋賀県", "id": 1408 },
        { "address": "北須田町", "city": "東近江市", "postcode": "5211232", "prefecture": "滋賀県", "id": 1409 },
        { "address": "北花沢町", "city": "東近江市", "postcode": "5270111", "prefecture": "滋賀県", "id": 1410 },
        { "address": "北菩提寺町", "city": "東近江市", "postcode": "5270138", "prefecture": "滋賀県", "id": 1411 },
        { "address": "きぬがさ町", "city": "東近江市", "postcode": "5211234", "prefecture": "滋賀県", "id": 1412 },
        { "address": "君ケ畑町", "city": "東近江市", "postcode": "5270202", "prefecture": "滋賀県", "id": 1413 },
        { "address": "木村町", "city": "東近江市", "postcode": "5291562", "prefecture": "滋賀県", "id": 1414 },
        { "address": "黄和田町", "city": "東近江市", "postcode": "5270205", "prefecture": "滋賀県", "id": 1415 },
        { "address": "九居瀬町", "city": "東近江市", "postcode": "5270215", "prefecture": "滋賀県", "id": 1416 },
        { "address": "栗見新田町", "city": "東近江市", "postcode": "5211243", "prefecture": "滋賀県", "id": 1417 },
        { "address": "栗見出在家町", "city": "東近江市", "postcode": "5211245", "prefecture": "滋賀県", "id": 1418 },
        { "address": "小池町", "city": "東近江市", "postcode": "5270121", "prefecture": "滋賀県", "id": 1419 },
        { "address": "小今町", "city": "東近江市", "postcode": "5270092", "prefecture": "滋賀県", "id": 1420 },
        { "address": "甲津畑町", "city": "東近江市", "postcode": "5270214", "prefecture": "滋賀県", "id": 1421 },
        { "address": "合戸町", "city": "東近江市", "postcode": "5291536", "prefecture": "滋賀県", "id": 1422 },
        { "address": "五個荘石川町", "city": "東近江市", "postcode": "5291425", "prefecture": "滋賀県", "id": 1423 },
        { "address": "五個荘石塚町", "city": "東近江市", "postcode": "5291444", "prefecture": "滋賀県", "id": 1424 },
        { "address": "五個荘石馬寺町", "city": "東近江市", "postcode": "5291401", "prefecture": "滋賀県", "id": 1425 },
        { "address": "五個荘伊野部町", "city": "東近江市", "postcode": "5291435", "prefecture": "滋賀県", "id": 1426 },
        { "address": "五個荘奥町", "city": "東近江市", "postcode": "5291423", "prefecture": "滋賀県", "id": 1427 },
        { "address": "五個荘小幡町", "city": "東近江市", "postcode": "5291422", "prefecture": "滋賀県", "id": 1428 },
        { "address": "五個荘河曲町", "city": "東近江市", "postcode": "5291411", "prefecture": "滋賀県", "id": 1429 },
        { "address": "五個荘川並町", "city": "東近江市", "postcode": "5291441", "prefecture": "滋賀県", "id": 1430 },
        { "address": "五個荘北町屋町", "city": "東近江市", "postcode": "5291443", "prefecture": "滋賀県", "id": 1431 },
        { "address": "五個荘木流町", "city": "東近江市", "postcode": "5291433", "prefecture": "滋賀県", "id": 1432 },
        { "address": "五個荘五位田町", "city": "東近江市", "postcode": "5291415", "prefecture": "滋賀県", "id": 1433 },
        { "address": "五個荘金堂町", "city": "東近江市", "postcode": "5291405", "prefecture": "滋賀県", "id": 1434 },
        { "address": "五個荘七里町", "city": "東近江市", "postcode": "5291402", "prefecture": "滋賀県", "id": 1435 },
        { "address": "五個荘清水鼻町", "city": "東近江市", "postcode": "5291445", "prefecture": "滋賀県", "id": 1436 },
        { "address": "五個荘新堂町", "city": "東近江市", "postcode": "5291432", "prefecture": "滋賀県", "id": 1437 },
        { "address": "五個荘竜田町", "city": "東近江市", "postcode": "5291421", "prefecture": "滋賀県", "id": 1438 },
        { "address": "五個荘塚本町", "city": "東近江市", "postcode": "5291442", "prefecture": "滋賀県", "id": 1439 },
        { "address": "五個荘中町", "city": "東近江市", "postcode": "5291414", "prefecture": "滋賀県", "id": 1440 },
        { "address": "五個荘日吉町", "city": "東近江市", "postcode": "5291403", "prefecture": "滋賀県", "id": 1441 },
        { "address": "五個荘平阪町", "city": "東近江市", "postcode": "5291434", "prefecture": "滋賀県", "id": 1442 },
        { "address": "五個荘三俣町", "city": "東近江市", "postcode": "5291424", "prefecture": "滋賀県", "id": 1443 },
        { "address": "五個荘簗瀬町", "city": "東近江市", "postcode": "5291413", "prefecture": "滋賀県", "id": 1444 },
        { "address": "五個荘山本町", "city": "東近江市", "postcode": "5291431", "prefecture": "滋賀県", "id": 1445 },
        { "address": "五個荘和田町", "city": "東近江市", "postcode": "5291412", "prefecture": "滋賀県", "id": 1446 },
        { "address": "小田苅町", "city": "東近江市", "postcode": "5270125", "prefecture": "滋賀県", "id": 1447 },
        { "address": "五智町", "city": "東近江市", "postcode": "5270044", "prefecture": "滋賀県", "id": 1448 },
        { "address": "小八木町", "city": "東近江市", "postcode": "5270108", "prefecture": "滋賀県", "id": 1449 },
        { "address": "幸町", "city": "東近江市", "postcode": "5270031", "prefecture": "滋賀県", "id": 1450 },
        { "address": "栄町", "city": "東近江市", "postcode": "5270027", "prefecture": "滋賀県", "id": 1451 },
        { "address": "桜川西町", "city": "東近江市", "postcode": "5291572", "prefecture": "滋賀県", "id": 1452 },
        { "address": "桜川東町", "city": "東近江市", "postcode": "5291511", "prefecture": "滋賀県", "id": 1453 },
        { "address": "佐生町", "city": "東近江市", "postcode": "5211215", "prefecture": "滋賀県", "id": 1454 },
        { "address": "佐野町", "city": "東近江市", "postcode": "5211222", "prefecture": "滋賀県", "id": 1455 },
        { "address": "佐目町", "city": "東近江市", "postcode": "5270209", "prefecture": "滋賀県", "id": 1456 },
        { "address": "尻無町", "city": "東近江市", "postcode": "5270064", "prefecture": "滋賀県", "id": 1457 },
        { "address": "芝原町", "city": "東近江市", "postcode": "5270067", "prefecture": "滋賀県", "id": 1458 },
        { "address": "柴原南町", "city": "東近江市", "postcode": "5270066", "prefecture": "滋賀県", "id": 1459 },
        { "address": "下麻生町", "city": "東近江市", "postcode": "5291524", "prefecture": "滋賀県", "id": 1460 },
        { "address": "下一色町", "city": "東近江市", "postcode": "5270132", "prefecture": "滋賀県", "id": 1461 },
        { "address": "下岸本町", "city": "東近江市", "postcode": "5270124", "prefecture": "滋賀県", "id": 1462 },
        { "address": "下里町", "city": "東近江市", "postcode": "5270115", "prefecture": "滋賀県", "id": 1463 },
        { "address": "下中野町", "city": "東近江市", "postcode": "5270157", "prefecture": "滋賀県", "id": 1464 },
        { "address": "下羽田町", "city": "東近江市", "postcode": "5270085", "prefecture": "滋賀県", "id": 1465 },
        { "address": "下二俣町", "city": "東近江市", "postcode": "5270065", "prefecture": "滋賀県", "id": 1466 },
        { "address": "清水中町", "city": "東近江市", "postcode": "5270128", "prefecture": "滋賀県", "id": 1467 },
        { "address": "勝堂町", "city": "東近江市", "postcode": "5270131", "prefecture": "滋賀県", "id": 1468 },
        { "address": "昭和町", "city": "東近江市", "postcode": "5270017", "prefecture": "滋賀県", "id": 1469 },
        { "address": "新宮町", "city": "東近江市", "postcode": "5211201", "prefecture": "滋賀県", "id": 1470 },
        { "address": "神郷町", "city": "東近江市", "postcode": "5211213", "prefecture": "滋賀県", "id": 1471 },
        { "address": "新出町", "city": "東近江市", "postcode": "5270225", "prefecture": "滋賀県", "id": 1472 },
        { "address": "神田町", "city": "東近江市", "postcode": "5270043", "prefecture": "滋賀県", "id": 1473 },
        { "address": "鈴町", "city": "東近江市", "postcode": "5291534", "prefecture": "滋賀県", "id": 1474 },
        { "address": "聖徳町", "city": "東近江市", "postcode": "5270038", "prefecture": "滋賀県", "id": 1475 },
        { "address": "聖和町", "city": "東近江市", "postcode": "5270036", "prefecture": "滋賀県", "id": 1476 },
        { "address": "僧坊町", "city": "東近江市", "postcode": "5270106", "prefecture": "滋賀県", "id": 1477 },
        { "address": "曽根町", "city": "東近江市", "postcode": "5270163", "prefecture": "滋賀県", "id": 1478 },
        { "address": "園町", "city": "東近江市", "postcode": "5270154", "prefecture": "滋賀県", "id": 1479 },
        { "address": "大覚寺町", "city": "東近江市", "postcode": "5270152", "prefecture": "滋賀県", "id": 1480 },
        { "address": "躰光寺町", "city": "東近江市", "postcode": "5211205", "prefecture": "滋賀県", "id": 1481 },
        { "address": "田井町", "city": "東近江市", "postcode": "5291513", "prefecture": "滋賀県", "id": 1482 },
        { "address": "大中町", "city": "東近江市", "postcode": "5211244", "prefecture": "滋賀県", "id": 1483 },
        { "address": "高木町", "city": "東近江市", "postcode": "5270223", "prefecture": "滋賀県", "id": 1484 },
        { "address": "蓼畑町", "city": "東近江市", "postcode": "5270207", "prefecture": "滋賀県", "id": 1485 },
        { "address": "建部上中町", "city": "東近江市", "postcode": "5270002", "prefecture": "滋賀県", "id": 1486 },
        { "address": "建部瓦屋寺町", "city": "東近江市", "postcode": "5270007", "prefecture": "滋賀県", "id": 1487 },
        { "address": "建部北町", "city": "東近江市", "postcode": "5270003", "prefecture": "滋賀県", "id": 1488 },
        { "address": "建部堺町", "city": "東近江市", "postcode": "5270004", "prefecture": "滋賀県", "id": 1489 },
        { "address": "建部下野町", "city": "東近江市", "postcode": "5270001", "prefecture": "滋賀県", "id": 1490 },
        { "address": "建部日吉町", "city": "東近江市", "postcode": "5270006", "prefecture": "滋賀県", "id": 1491 },
        { "address": "建部南町", "city": "東近江市", "postcode": "5270005", "prefecture": "滋賀県", "id": 1492 },
        { "address": "種町", "city": "東近江市", "postcode": "5211212", "prefecture": "滋賀県", "id": 1493 },
        { "address": "長勝寺町", "city": "東近江市", "postcode": "5211214", "prefecture": "滋賀県", "id": 1494 },
        { "address": "寺町", "city": "東近江市", "postcode": "5270052", "prefecture": "滋賀県", "id": 1495 },
        { "address": "土器町", "city": "東近江市", "postcode": "5270061", "prefecture": "滋賀県", "id": 1496 },
        { "address": "外町", "city": "東近江市", "postcode": "5270042", "prefecture": "滋賀県", "id": 1497 },
        { "address": "外原町", "city": "東近江市", "postcode": "5291565", "prefecture": "滋賀県", "id": 1498 },
        { "address": "中一色町", "city": "東近江市", "postcode": "5270133", "prefecture": "滋賀県", "id": 1499 },
        { "address": "中岸本町", "city": "東近江市", "postcode": "5270123", "prefecture": "滋賀県", "id": 1500 },
        { "address": "中里町", "city": "東近江市", "postcode": "5270105", "prefecture": "滋賀県", "id": 1501 },
        { "address": "中戸町", "city": "東近江市", "postcode": "5270161", "prefecture": "滋賀県", "id": 1502 },
        { "address": "中野町", "city": "東近江市", "postcode": "5270015", "prefecture": "滋賀県", "id": 1503 },
        { "address": "中羽田町", "city": "東近江市", "postcode": "5270084", "prefecture": "滋賀県", "id": 1504 },
        { "address": "中小路町", "city": "東近江市", "postcode": "5270045", "prefecture": "滋賀県", "id": 1505 },
        { "address": "鯰江町", "city": "東近江市", "postcode": "5270172", "prefecture": "滋賀県", "id": 1506 },
        { "address": "西中野町", "city": "東近江市", "postcode": "5270014", "prefecture": "滋賀県", "id": 1507 },
        { "address": "西菩提寺町", "city": "東近江市", "postcode": "5270137", "prefecture": "滋賀県", "id": 1508 },
        { "address": "如来町", "city": "東近江市", "postcode": "5270228", "prefecture": "滋賀県", "id": 1509 },
        { "address": "糠塚町", "city": "東近江市", "postcode": "5270093", "prefecture": "滋賀県", "id": 1510 },
        { "address": "布引台", "city": "東近江市", "postcode": "5270072", "prefecture": "滋賀県", "id": 1511 },
        { "address": "野口町", "city": "東近江市", "postcode": "5270076", "prefecture": "滋賀県", "id": 1512 },
        { "address": "能登川町", "city": "東近江市", "postcode": "5211231", "prefecture": "滋賀県", "id": 1513 },
        { "address": "野村町", "city": "東近江市", "postcode": "5270047", "prefecture": "滋賀県", "id": 1514 },
        { "address": "林田町", "city": "東近江市", "postcode": "5270051", "prefecture": "滋賀県", "id": 1515 },
        { "address": "林町", "city": "東近江市", "postcode": "5211224", "prefecture": "滋賀県", "id": 1516 },
        { "address": "東今崎町", "city": "東近江市", "postcode": "5270037", "prefecture": "滋賀県", "id": 1517 },
        { "address": "東沖野", "city": "東近江市", "postcode": "5270033", "prefecture": "滋賀県", "id": 1518 },
        { "address": "東中野町", "city": "東近江市", "postcode": "5270013", "prefecture": "滋賀県", "id": 1519 },
        { "address": "ひばり丘町", "city": "東近江市", "postcode": "5270035", "prefecture": "滋賀県", "id": 1520 },
        { "address": "百済寺甲町", "city": "東近江市", "postcode": "5270141", "prefecture": "滋賀県", "id": 1521 },
        { "address": "百済寺町", "city": "東近江市", "postcode": "5270144", "prefecture": "滋賀県", "id": 1522 },
        { "address": "百済寺本町", "city": "東近江市", "postcode": "5270143", "prefecture": "滋賀県", "id": 1523 },
        { "address": "平尾町", "city": "東近江市", "postcode": "5270153", "prefecture": "滋賀県", "id": 1524 },
        { "address": "平田町", "city": "東近江市", "postcode": "5270087", "prefecture": "滋賀県", "id": 1525 },
        { "address": "平林町", "city": "東近江市", "postcode": "5291502", "prefecture": "滋賀県", "id": 1526 },
        { "address": "平松町", "city": "東近江市", "postcode": "5270134", "prefecture": "滋賀県", "id": 1527 },
        { "address": "平柳町", "city": "東近江市", "postcode": "5270102", "prefecture": "滋賀県", "id": 1528 },
        { "address": "蛭谷町", "city": "東近江市", "postcode": "5270201", "prefecture": "滋賀県", "id": 1529 },
        { "address": "福堂町", "city": "東近江市", "postcode": "5211242", "prefecture": "滋賀県", "id": 1530 },
        { "address": "布施町", "city": "東近江市", "postcode": "5270081", "prefecture": "滋賀県", "id": 1531 },
        { "address": "札の辻", "city": "東近江市", "postcode": "5270024", "prefecture": "滋賀県", "id": 1532 },
        { "address": "蛇溝町", "city": "東近江市", "postcode": "5270073", "prefecture": "滋賀県", "id": 1533 },
        { "address": "政所町", "city": "東近江市", "postcode": "5270204", "prefecture": "滋賀県", "id": 1534 },
        { "address": "御園町", "city": "東近江市", "postcode": "5270056", "prefecture": "滋賀県", "id": 1535 },
        { "address": "三津屋町", "city": "東近江市", "postcode": "5270075", "prefecture": "滋賀県", "id": 1536 },
        { "address": "南清水町", "city": "東近江市", "postcode": "5270127", "prefecture": "滋賀県", "id": 1537 },
        { "address": "南須田町", "city": "東近江市", "postcode": "5211233", "prefecture": "滋賀県", "id": 1538 },
        { "address": "南花沢町", "city": "東近江市", "postcode": "5270112", "prefecture": "滋賀県", "id": 1539 },
        { "address": "南菩提寺町", "city": "東近江市", "postcode": "5270136", "prefecture": "滋賀県", "id": 1540 },
        { "address": "箕川町", "city": "東近江市", "postcode": "5270203", "prefecture": "滋賀県", "id": 1541 },
        { "address": "宮井町", "city": "東近江市", "postcode": "5291564", "prefecture": "滋賀県", "id": 1542 },
        { "address": "宮川町", "city": "東近江市", "postcode": "5291551", "prefecture": "滋賀県", "id": 1543 },
        { "address": "宮荘町", "city": "東近江市", "postcode": "5291404", "prefecture": "滋賀県", "id": 1544 },
        { "address": "妙法寺町", "city": "東近江市", "postcode": "5270046", "prefecture": "滋賀県", "id": 1545 },
        { "address": "山上町", "city": "東近江市", "postcode": "5270231", "prefecture": "滋賀県", "id": 1546 },
        { "address": "山路町", "city": "東近江市", "postcode": "5211225", "prefecture": "滋賀県", "id": 1547 },
        { "address": "杠葉尾町", "city": "東近江市", "postcode": "5270206", "prefecture": "滋賀県", "id": 1548 },
        { "address": "湯屋町", "city": "東近江市", "postcode": "5270103", "prefecture": "滋賀県", "id": 1549 },
        { "address": "八日市金屋", "city": "東近江市", "postcode": "5270028", "prefecture": "滋賀県", "id": 1550 },
        { "address": "八日市上之町", "city": "東近江市", "postcode": "5270022", "prefecture": "滋賀県", "id": 1551 },
        { "address": "八日市清水", "city": "東近江市", "postcode": "5270018", "prefecture": "滋賀県", "id": 1552 },
        { "address": "八日市野々宮町", "city": "東近江市", "postcode": "5270026", "prefecture": "滋賀県", "id": 1553 },
        { "address": "八日市浜野町", "city": "東近江市", "postcode": "5270011", "prefecture": "滋賀県", "id": 1554 },
        { "address": "八日市東浜町", "city": "東近江市", "postcode": "5270021", "prefecture": "滋賀県", "id": 1555 },
        { "address": "八日市東本町", "city": "東近江市", "postcode": "5270025", "prefecture": "滋賀県", "id": 1556 },
        { "address": "八日市本町", "city": "東近江市", "postcode": "5270012", "prefecture": "滋賀県", "id": 1557 },
        { "address": "八日市松尾町", "city": "東近江市", "postcode": "5270019", "prefecture": "滋賀県", "id": 1558 },
        { "address": "八日市緑町", "city": "東近江市", "postcode": "5270023", "prefecture": "滋賀県", "id": 1559 },
        { "address": "八日市町", "city": "東近江市", "postcode": "5270029", "prefecture": "滋賀県", "id": 1560 },
        { "address": "横溝町", "city": "東近江市", "postcode": "5270135", "prefecture": "滋賀県", "id": 1561 },
        { "address": "横山町", "city": "東近江市", "postcode": "5291563", "prefecture": "滋賀県", "id": 1562 },
        { "address": "読合堂町", "city": "東近江市", "postcode": "5270104", "prefecture": "滋賀県", "id": 1563 },
        { "address": "和南町", "city": "東近江市", "postcode": "5270213", "prefecture": "滋賀県", "id": 1564 },
        { "city": "米原市", "postcode": "5210000", "prefecture": "滋賀県", "id": 1565 },
        { "address": "朝妻筑摩", "city": "米原市", "postcode": "5210001", "prefecture": "滋賀県", "id": 1566 },
        { "address": "朝日", "city": "米原市", "postcode": "5210226", "prefecture": "滋賀県", "id": 1567 },
        { "address": "梓河内", "city": "米原市", "postcode": "5210211", "prefecture": "滋賀県", "id": 1568 },
        { "address": "飯", "city": "米原市", "postcode": "5210063", "prefecture": "滋賀県", "id": 1569 },
        { "address": "岩脇", "city": "米原市", "postcode": "5210091", "prefecture": "滋賀県", "id": 1570 },
        { "address": "池下", "city": "米原市", "postcode": "5210221", "prefecture": "滋賀県", "id": 1571 },
        { "address": "磯", "city": "米原市", "postcode": "5210004", "prefecture": "滋賀県", "id": 1572 },
        { "address": "市場", "city": "米原市", "postcode": "5210225", "prefecture": "滋賀県", "id": 1573 },
        { "address": "一色", "city": "米原市", "postcode": "5210031", "prefecture": "滋賀県", "id": 1574 },
        { "address": "井之口", "city": "米原市", "postcode": "5210234", "prefecture": "滋賀県", "id": 1575 },
        { "address": "伊吹", "city": "米原市", "postcode": "5210311", "prefecture": "滋賀県", "id": 1576 },
        { "address": "入江", "city": "米原市", "postcode": "5210003", "prefecture": "滋賀県", "id": 1577 },
        { "address": "上野", "city": "米原市", "postcode": "5210312", "prefecture": "滋賀県", "id": 1578 },
        { "address": "宇賀野", "city": "米原市", "postcode": "5210062", "prefecture": "滋賀県", "id": 1579 },
        { "address": "梅ケ原", "city": "米原市", "postcode": "5210013", "prefecture": "滋賀県", "id": 1580 },
        { "address": "梅ケ原栄", "city": "米原市", "postcode": "5210014", "prefecture": "滋賀県", "id": 1581 },
        { "address": "大久保", "city": "米原市", "postcode": "5210307", "prefecture": "滋賀県", "id": 1582 },
        { "address": "大鹿", "city": "米原市", "postcode": "5210214", "prefecture": "滋賀県", "id": 1583 },
        { "address": "大清水", "city": "米原市", "postcode": "5210324", "prefecture": "滋賀県", "id": 1584 },
        { "address": "大野木", "city": "米原市", "postcode": "5210244", "prefecture": "滋賀県", "id": 1585 },
        { "address": "柏原", "city": "米原市", "postcode": "5210202", "prefecture": "滋賀県", "id": 1586 },
        { "address": "加勢野", "city": "米原市", "postcode": "5210219", "prefecture": "滋賀県", "id": 1587 },
        { "address": "上板並", "city": "米原市", "postcode": "5210305", "prefecture": "滋賀県", "id": 1588 },
        { "address": "上多良", "city": "米原市", "postcode": "5210002", "prefecture": "滋賀県", "id": 1589 },
        { "address": "上丹生", "city": "米原市", "postcode": "5210033", "prefecture": "滋賀県", "id": 1590 },
        { "address": "烏脇", "city": "米原市", "postcode": "5210227", "prefecture": "滋賀県", "id": 1591 },
        { "address": "河南", "city": "米原市", "postcode": "5210021", "prefecture": "滋賀県", "id": 1592 },
        { "address": "北方", "city": "米原市", "postcode": "5210217", "prefecture": "滋賀県", "id": 1593 },
        { "address": "清滝", "city": "米原市", "postcode": "5210203", "prefecture": "滋賀県", "id": 1594 },
        { "address": "小泉", "city": "米原市", "postcode": "5210308", "prefecture": "滋賀県", "id": 1595 },
        { "address": "甲賀", "city": "米原市", "postcode": "5210303", "prefecture": "滋賀県", "id": 1596 },
        { "address": "甲津原", "city": "米原市", "postcode": "5210301", "prefecture": "滋賀県", "id": 1597 },
        { "address": "顔戸", "city": "米原市", "postcode": "5210072", "prefecture": "滋賀県", "id": 1598 },
        { "address": "西円寺", "city": "米原市", "postcode": "5210092", "prefecture": "滋賀県", "id": 1599 },
        { "address": "坂口", "city": "米原市", "postcode": "5210232", "prefecture": "滋賀県", "id": 1600 },
        { "address": "醒井", "city": "米原市", "postcode": "5210035", "prefecture": "滋賀県", "id": 1601 },
        { "address": "枝折", "city": "米原市", "postcode": "5210032", "prefecture": "滋賀県", "id": 1602 },
        { "address": "志賀谷", "city": "米原市", "postcode": "5210218", "prefecture": "滋賀県", "id": 1603 },
        { "address": "下板並", "city": "米原市", "postcode": "5210306", "prefecture": "滋賀県", "id": 1604 },
        { "address": "下多良", "city": "米原市", "postcode": "5210016", "prefecture": "滋賀県", "id": 1605 },
        { "address": "下丹生", "city": "米原市", "postcode": "5210034", "prefecture": "滋賀県", "id": 1606 },
        { "address": "上平寺", "city": "米原市", "postcode": "5210327", "prefecture": "滋賀県", "id": 1607 },
        { "address": "新庄", "city": "米原市", "postcode": "5210083", "prefecture": "滋賀県", "id": 1608 },
        { "address": "春照", "city": "米原市", "postcode": "5210314", "prefecture": "滋賀県", "id": 1609 },
        { "address": "菅江", "city": "米原市", "postcode": "5210216", "prefecture": "滋賀県", "id": 1610 },
        { "address": "須川", "city": "米原市", "postcode": "5210245", "prefecture": "滋賀県", "id": 1611 },
        { "address": "杉沢", "city": "米原市", "postcode": "5210322", "prefecture": "滋賀県", "id": 1612 },
        { "address": "高番", "city": "米原市", "postcode": "5210321", "prefecture": "滋賀県", "id": 1613 },
        { "address": "高溝", "city": "米原市", "postcode": "5210074", "prefecture": "滋賀県", "id": 1614 },
        { "address": "多和田", "city": "米原市", "postcode": "5210081", "prefecture": "滋賀県", "id": 1615 },
        { "address": "長久寺", "city": "米原市", "postcode": "5210201", "prefecture": "滋賀県", "id": 1616 },
        { "address": "寺倉", "city": "米原市", "postcode": "5210093", "prefecture": "滋賀県", "id": 1617 },
        { "address": "寺林", "city": "米原市", "postcode": "5210326", "prefecture": "滋賀県", "id": 1618 },
        { "address": "天満", "city": "米原市", "postcode": "5210222", "prefecture": "滋賀県", "id": 1619 },
        { "address": "堂谷", "city": "米原市", "postcode": "5210213", "prefecture": "滋賀県", "id": 1620 },
        { "address": "長岡", "city": "米原市", "postcode": "5210242", "prefecture": "滋賀県", "id": 1621 },
        { "address": "長沢", "city": "米原市", "postcode": "5210061", "prefecture": "滋賀県", "id": 1622 },
        { "address": "中多良", "city": "米原市", "postcode": "5210011", "prefecture": "滋賀県", "id": 1623 },
        { "address": "西坂", "city": "米原市", "postcode": "5210024", "prefecture": "滋賀県", "id": 1624 },
        { "address": "西山", "city": "米原市", "postcode": "5210241", "prefecture": "滋賀県", "id": 1625 },
        { "address": "日光寺", "city": "米原市", "postcode": "5210084", "prefecture": "滋賀県", "id": 1626 },
        { "address": "野一色", "city": "米原市", "postcode": "5210233", "prefecture": "滋賀県", "id": 1627 },
        { "address": "能登瀬", "city": "米原市", "postcode": "5210082", "prefecture": "滋賀県", "id": 1628 },
        { "address": "間田", "city": "米原市", "postcode": "5210236", "prefecture": "滋賀県", "id": 1629 },
        { "address": "番場", "city": "米原市", "postcode": "5210025", "prefecture": "滋賀県", "id": 1630 },
        { "address": "樋口", "city": "米原市", "postcode": "5210022", "prefecture": "滋賀県", "id": 1631 },
        { "address": "藤川", "city": "米原市", "postcode": "5210325", "prefecture": "滋賀県", "id": 1632 },
        { "address": "舟崎", "city": "米原市", "postcode": "5210071", "prefecture": "滋賀県", "id": 1633 },
        { "address": "夫馬", "city": "米原市", "postcode": "5210224", "prefecture": "滋賀県", "id": 1634 },
        { "address": "本郷", "city": "米原市", "postcode": "5210212", "prefecture": "滋賀県", "id": 1635 },
        { "address": "米原", "city": "米原市", "postcode": "5210012", "prefecture": "滋賀県", "id": 1636 },
        { "address": "米原西", "city": "米原市", "postcode": "5210015", "prefecture": "滋賀県", "id": 1637 },
        { "address": "曲谷", "city": "米原市", "postcode": "5210302", "prefecture": "滋賀県", "id": 1638 },
        { "address": "万願寺", "city": "米原市", "postcode": "5210243", "prefecture": "滋賀県", "id": 1639 },
        { "address": "箕浦", "city": "米原市", "postcode": "5210073", "prefecture": "滋賀県", "id": 1640 },
        { "address": "三吉", "city": "米原市", "postcode": "5210023", "prefecture": "滋賀県", "id": 1641 },
        { "address": "村居田", "city": "米原市", "postcode": "5210231", "prefecture": "滋賀県", "id": 1642 },
        { "address": "村木", "city": "米原市", "postcode": "5210323", "prefecture": "滋賀県", "id": 1643 },
        { "address": "本市場", "city": "米原市", "postcode": "5210223", "prefecture": "滋賀県", "id": 1644 },
        { "address": "弥高", "city": "米原市", "postcode": "5210313", "prefecture": "滋賀県", "id": 1645 },
        { "address": "小田", "city": "米原市", "postcode": "5210235", "prefecture": "滋賀県", "id": 1646 },
        { "address": "山室", "city": "米原市", "postcode": "5210215", "prefecture": "滋賀県", "id": 1647 },
        { "address": "吉槻", "city": "米原市", "postcode": "5210304", "prefecture": "滋賀県", "id": 1648 },
        { "address": "世継", "city": "米原市", "postcode": "5210064", "prefecture": "滋賀県", "id": 1649 },
        { "city": "蒲生郡日野町", "postcode": "5291600", "prefecture": "滋賀県", "id": 1650 },
        { "address": "安部居", "city": "蒲生郡日野町", "postcode": "5291661", "prefecture": "滋賀県", "id": 1651 },
        { "address": "石原", "city": "蒲生郡日野町", "postcode": "5291655", "prefecture": "滋賀県", "id": 1652 },
        { "address": "いせの", "city": "蒲生郡日野町", "postcode": "5291648", "prefecture": "滋賀県", "id": 1653 },
        { "address": "内池", "city": "蒲生郡日野町", "postcode": "5291644", "prefecture": "滋賀県", "id": 1654 },
        { "address": "小井口", "city": "蒲生郡日野町", "postcode": "5291605", "prefecture": "滋賀県", "id": 1655 },
        { "address": "大窪", "city": "蒲生郡日野町", "postcode": "5291603", "prefecture": "滋賀県", "id": 1656 },
        { "address": "大谷", "city": "蒲生郡日野町", "postcode": "5291608", "prefecture": "滋賀県", "id": 1657 },
        { "address": "奥師", "city": "蒲生郡日野町", "postcode": "5291616", "prefecture": "滋賀県", "id": 1658 },
        { "address": "奥之池", "city": "蒲生郡日野町", "postcode": "5291610", "prefecture": "滋賀県", "id": 1659 },
        { "address": "音羽", "city": "蒲生郡日野町", "postcode": "5291626", "prefecture": "滋賀県", "id": 1660 },
        { "address": "鎌掛", "city": "蒲生郡日野町", "postcode": "5291631", "prefecture": "滋賀県", "id": 1661 },
        { "address": "上駒月", "city": "蒲生郡日野町", "postcode": "5291632", "prefecture": "滋賀県", "id": 1662 },
        { "address": "川原", "city": "蒲生郡日野町", "postcode": "5291613", "prefecture": "滋賀県", "id": 1663 },
        { "address": "河原", "city": "蒲生郡日野町", "postcode": "5291602", "prefecture": "滋賀県", "id": 1664 },
        { "address": "北畑", "city": "蒲生郡日野町", "postcode": "5291622", "prefecture": "滋賀県", "id": 1665 },
        { "address": "北脇", "city": "蒲生郡日野町", "postcode": "5291663", "prefecture": "滋賀県", "id": 1666 },
        { "address": "木津", "city": "蒲生郡日野町", "postcode": "5291607", "prefecture": "滋賀県", "id": 1667 },
        { "address": "清田", "city": "蒲生郡日野町", "postcode": "5291636", "prefecture": "滋賀県", "id": 1668 },
        { "address": "熊野", "city": "蒲生郡日野町", "postcode": "5291623", "prefecture": "滋賀県", "id": 1669 },
        { "address": "上野田", "city": "蒲生郡日野町", "postcode": "5291642", "prefecture": "滋賀県", "id": 1670 },
        { "address": "小谷", "city": "蒲生郡日野町", "postcode": "5291654", "prefecture": "滋賀県", "id": 1671 },
        { "address": "小野", "city": "蒲生郡日野町", "postcode": "5291615", "prefecture": "滋賀県", "id": 1672 },
        { "address": "小御門", "city": "蒲生郡日野町", "postcode": "5291652", "prefecture": "滋賀県", "id": 1673 },
        { "address": "西明寺", "city": "蒲生郡日野町", "postcode": "5291621", "prefecture": "滋賀県", "id": 1674 },
        { "address": "蔵王", "city": "蒲生郡日野町", "postcode": "5291625", "prefecture": "滋賀県", "id": 1675 },
        { "address": "佐久良", "city": "蒲生郡日野町", "postcode": "5291619", "prefecture": "滋賀県", "id": 1676 },
        { "address": "里口", "city": "蒲生郡日野町", "postcode": "5291643", "prefecture": "滋賀県", "id": 1677 },
        { "address": "下駒月", "city": "蒲生郡日野町", "postcode": "5291633", "prefecture": "滋賀県", "id": 1678 },
        { "address": "十禅師", "city": "蒲生郡日野町", "postcode": "5291645", "prefecture": "滋賀県", "id": 1679 },
        { "address": "杉", "city": "蒲生郡日野町", "postcode": "5291612", "prefecture": "滋賀県", "id": 1680 },
        { "address": "杣", "city": "蒲生郡日野町", "postcode": "5291611", "prefecture": "滋賀県", "id": 1681 },
        { "address": "寺尻", "city": "蒲生郡日野町", "postcode": "5291606", "prefecture": "滋賀県", "id": 1682 },
        { "address": "豊田", "city": "蒲生郡日野町", "postcode": "5291657", "prefecture": "滋賀県", "id": 1683 },
        { "address": "鳥居平", "city": "蒲生郡日野町", "postcode": "5291618", "prefecture": "滋賀県", "id": 1684 },
        { "address": "中在寺", "city": "蒲生郡日野町", "postcode": "5291662", "prefecture": "滋賀県", "id": 1685 },
        { "address": "中之郷", "city": "蒲生郡日野町", "postcode": "5291617", "prefecture": "滋賀県", "id": 1686 },
        { "address": "中道", "city": "蒲生郡日野町", "postcode": "5291609", "prefecture": "滋賀県", "id": 1687 },
        { "address": "中山", "city": "蒲生郡日野町", "postcode": "5291658", "prefecture": "滋賀県", "id": 1688 },
        { "address": "西大路", "city": "蒲生郡日野町", "postcode": "5291628", "prefecture": "滋賀県", "id": 1689 },
        { "address": "仁本木", "city": "蒲生郡日野町", "postcode": "5291627", "prefecture": "滋賀県", "id": 1690 },
        { "address": "猫田", "city": "蒲生郡日野町", "postcode": "5291646", "prefecture": "滋賀県", "id": 1691 },
        { "address": "野出", "city": "蒲生郡日野町", "postcode": "5291665", "prefecture": "滋賀県", "id": 1692 },
        { "address": "迫", "city": "蒲生郡日野町", "postcode": "5291635", "prefecture": "滋賀県", "id": 1693 },
        { "address": "原", "city": "蒲生郡日野町", "postcode": "5291614", "prefecture": "滋賀県", "id": 1694 },
        { "address": "日田", "city": "蒲生郡日野町", "postcode": "5291641", "prefecture": "滋賀県", "id": 1695 },
        { "address": "平子", "city": "蒲生郡日野町", "postcode": "5291624", "prefecture": "滋賀県", "id": 1696 },
        { "address": "別所", "city": "蒲生郡日野町", "postcode": "5291647", "prefecture": "滋賀県", "id": 1697 },
        { "address": "増田", "city": "蒲生郡日野町", "postcode": "5291656", "prefecture": "滋賀県", "id": 1698 },
        { "address": "松尾", "city": "蒲生郡日野町", "postcode": "5291601", "prefecture": "滋賀県", "id": 1699 },
        { "address": "三十坪", "city": "蒲生郡日野町", "postcode": "5291653", "prefecture": "滋賀県", "id": 1700 },
        { "address": "深山口", "city": "蒲生郡日野町", "postcode": "5291634", "prefecture": "滋賀県", "id": 1701 },
        { "address": "村井", "city": "蒲生郡日野町", "postcode": "5291604", "prefecture": "滋賀県", "id": 1702 },
        { "address": "山本", "city": "蒲生郡日野町", "postcode": "5291651", "prefecture": "滋賀県", "id": 1703 },
        { "address": "蓮花寺", "city": "蒲生郡日野町", "postcode": "5291664", "prefecture": "滋賀県", "id": 1704 },
        { "city": "蒲生郡竜王町", "postcode": "5202500", "prefecture": "滋賀県", "id": 1705 },
        { "address": "綾戸", "city": "蒲生郡竜王町", "postcode": "5202524", "prefecture": "滋賀県", "id": 1706 },
        { "address": "岩井", "city": "蒲生郡竜王町", "postcode": "5202522", "prefecture": "滋賀県", "id": 1707 },
        { "address": "鵜川", "city": "蒲生郡竜王町", "postcode": "5202562", "prefecture": "滋賀県", "id": 1708 },
        { "address": "岡屋", "city": "蒲生郡竜王町", "postcode": "5202541", "prefecture": "滋賀県", "id": 1709 },
        { "address": "小口", "city": "蒲生郡竜王町", "postcode": "5202552", "prefecture": "滋賀県", "id": 1710 },
        { "address": "鏡", "city": "蒲生郡竜王町", "postcode": "5202573", "prefecture": "滋賀県", "id": 1711 },
        { "address": "駕輿丁", "city": "蒲生郡竜王町", "postcode": "5202512", "prefecture": "滋賀県", "id": 1712 },
        { "address": "川上", "city": "蒲生郡竜王町", "postcode": "5202504", "prefecture": "滋賀県", "id": 1713 },
        { "address": "川守", "city": "蒲生郡竜王町", "postcode": "5202521", "prefecture": "滋賀県", "id": 1714 },
        { "address": "薬師", "city": "蒲生郡竜王町", "postcode": "5202551", "prefecture": "滋賀県", "id": 1715 },
        { "address": "七里", "city": "蒲生郡竜王町", "postcode": "5202563", "prefecture": "滋賀県", "id": 1716 },
        { "address": "信濃", "city": "蒲生郡竜王町", "postcode": "5202503", "prefecture": "滋賀県", "id": 1717 },
        { "address": "島", "city": "蒲生郡竜王町", "postcode": "5202513", "prefecture": "滋賀県", "id": 1718 },
        { "address": "庄", "city": "蒲生郡竜王町", "postcode": "5202502", "prefecture": "滋賀県", "id": 1719 },
        { "address": "須恵", "city": "蒲生郡竜王町", "postcode": "5202561", "prefecture": "滋賀県", "id": 1720 },
        { "address": "田中", "city": "蒲生郡竜王町", "postcode": "5202523", "prefecture": "滋賀県", "id": 1721 },
        { "address": "西川", "city": "蒲生郡竜王町", "postcode": "5202572", "prefecture": "滋賀県", "id": 1722 },
        { "address": "西横関", "city": "蒲生郡竜王町", "postcode": "5202571", "prefecture": "滋賀県", "id": 1723 },
        { "address": "橋本", "city": "蒲生郡竜王町", "postcode": "5202514", "prefecture": "滋賀県", "id": 1724 },
        { "address": "林", "city": "蒲生郡竜王町", "postcode": "5202511", "prefecture": "滋賀県", "id": 1725 },
        { "address": "山面", "city": "蒲生郡竜王町", "postcode": "5202564", "prefecture": "滋賀県", "id": 1726 },
        { "address": "山中", "city": "蒲生郡竜王町", "postcode": "5202542", "prefecture": "滋賀県", "id": 1727 },
        { "address": "山之上", "city": "蒲生郡竜王町", "postcode": "5202531", "prefecture": "滋賀県", "id": 1728 },
        { "address": "弓削", "city": "蒲生郡竜王町", "postcode": "5202501", "prefecture": "滋賀県", "id": 1729 },
        { "city": "愛知郡愛荘町", "postcode": "5291300", "prefecture": "滋賀県", "id": 1730 },
        { "address": "安孫子", "city": "愛知郡愛荘町", "postcode": "5291234", "prefecture": "滋賀県", "id": 1731 },
        { "address": "石橋", "city": "愛知郡愛荘町", "postcode": "5291311", "prefecture": "滋賀県", "id": 1732 },
        { "address": "市", "city": "愛知郡愛荘町", "postcode": "5291313", "prefecture": "滋賀県", "id": 1733 },
        { "address": "岩倉", "city": "愛知郡愛荘町", "postcode": "5291207", "prefecture": "滋賀県", "id": 1734 },
        { "address": "愛知川", "city": "愛知郡愛荘町", "postcode": "5291331", "prefecture": "滋賀県", "id": 1735 },
        { "address": "円城寺", "city": "愛知郡愛荘町", "postcode": "5291231", "prefecture": "滋賀県", "id": 1736 },
        { "address": "沖", "city": "愛知郡愛荘町", "postcode": "5291213", "prefecture": "滋賀県", "id": 1737 },
        { "address": "蚊野", "city": "愛知郡愛荘町", "postcode": "5291206", "prefecture": "滋賀県", "id": 1738 },
        { "address": "蚊野外", "city": "愛知郡愛荘町", "postcode": "5291204", "prefecture": "滋賀県", "id": 1739 },
        { "address": "上蚊野", "city": "愛知郡愛荘町", "postcode": "5291203", "prefecture": "滋賀県", "id": 1740 },
        { "address": "苅間", "city": "愛知郡愛荘町", "postcode": "5291324", "prefecture": "滋賀県", "id": 1741 },
        { "address": "軽野", "city": "愛知郡愛荘町", "postcode": "5291205", "prefecture": "滋賀県", "id": 1742 },
        { "address": "川久保", "city": "愛知郡愛荘町", "postcode": "5291312", "prefecture": "滋賀県", "id": 1743 },
        { "address": "川原", "city": "愛知郡愛荘町", "postcode": "5291302", "prefecture": "滋賀県", "id": 1744 },
        { "address": "北八木", "city": "愛知郡愛荘町", "postcode": "5291222", "prefecture": "滋賀県", "id": 1745 },
        { "address": "沓掛", "city": "愛知郡愛荘町", "postcode": "5291315", "prefecture": "滋賀県", "id": 1746 },
        { "address": "栗田", "city": "愛知郡愛荘町", "postcode": "5291225", "prefecture": "滋賀県", "id": 1747 },
        { "address": "香之庄", "city": "愛知郡愛荘町", "postcode": "5291211", "prefecture": "滋賀県", "id": 1748 },
        { "address": "島川", "city": "愛知郡愛荘町", "postcode": "5291223", "prefecture": "滋賀県", "id": 1749 },
        { "address": "下八木", "city": "愛知郡愛荘町", "postcode": "5291221", "prefecture": "滋賀県", "id": 1750 },
        { "address": "常安寺", "city": "愛知郡愛荘町", "postcode": "5291232", "prefecture": "滋賀県", "id": 1751 },
        { "address": "竹原", "city": "愛知郡愛荘町", "postcode": "5291208", "prefecture": "滋賀県", "id": 1752 },
        { "address": "東円堂", "city": "愛知郡愛荘町", "postcode": "5291325", "prefecture": "滋賀県", "id": 1753 },
        { "address": "豊満", "city": "愛知郡愛荘町", "postcode": "5291321", "prefecture": "滋賀県", "id": 1754 },
        { "address": "中宿", "city": "愛知郡愛荘町", "postcode": "5291314", "prefecture": "滋賀県", "id": 1755 },
        { "address": "長塚", "city": "愛知郡愛荘町", "postcode": "5291224", "prefecture": "滋賀県", "id": 1756 },
        { "address": "長野", "city": "愛知郡愛荘町", "postcode": "5291303", "prefecture": "滋賀県", "id": 1757 },
        { "address": "西出", "city": "愛知郡愛荘町", "postcode": "5291237", "prefecture": "滋賀県", "id": 1758 },
        { "address": "野々目", "city": "愛知郡愛荘町", "postcode": "5291227", "prefecture": "滋賀県", "id": 1759 },
        { "address": "畑田", "city": "愛知郡愛荘町", "postcode": "5291323", "prefecture": "滋賀県", "id": 1760 },
        { "address": "東出", "city": "愛知郡愛荘町", "postcode": "5291233", "prefecture": "滋賀県", "id": 1761 },
        { "address": "平居", "city": "愛知郡愛荘町", "postcode": "5291322", "prefecture": "滋賀県", "id": 1762 },
        { "address": "深草", "city": "愛知郡愛荘町", "postcode": "5291236", "prefecture": "滋賀県", "id": 1763 },
        { "address": "松尾寺", "city": "愛知郡愛荘町", "postcode": "5291202", "prefecture": "滋賀県", "id": 1764 },
        { "address": "南野々目", "city": "愛知郡愛荘町", "postcode": "5291226", "prefecture": "滋賀県", "id": 1765 },
        { "address": "宮後", "city": "愛知郡愛荘町", "postcode": "5291214", "prefecture": "滋賀県", "id": 1766 },
        { "address": "目加田", "city": "愛知郡愛荘町", "postcode": "5291235", "prefecture": "滋賀県", "id": 1767 },
        { "address": "元持", "city": "愛知郡愛荘町", "postcode": "5291212", "prefecture": "滋賀県", "id": 1768 },
        { "address": "山川原", "city": "愛知郡愛荘町", "postcode": "5291301", "prefecture": "滋賀県", "id": 1769 },
        { "address": "矢守", "city": "愛知郡愛荘町", "postcode": "5291228", "prefecture": "滋賀県", "id": 1770 },
        { "address": "斧磨", "city": "愛知郡愛荘町", "postcode": "5291201", "prefecture": "滋賀県", "id": 1771 },
        { "city": "犬上郡豊郷町", "postcode": "5291100", "prefecture": "滋賀県", "id": 1772 },
        { "address": "雨降野", "city": "犬上郡豊郷町", "postcode": "5291163", "prefecture": "滋賀県", "id": 1773 },
        { "address": "安食西", "city": "犬上郡豊郷町", "postcode": "5291171", "prefecture": "滋賀県", "id": 1774 },
        { "address": "安食南", "city": "犬上郡豊郷町", "postcode": "5291172", "prefecture": "滋賀県", "id": 1775 },
        { "address": "石畑", "city": "犬上郡豊郷町", "postcode": "5291169", "prefecture": "滋賀県", "id": 1776 },
        { "address": "大町", "city": "犬上郡豊郷町", "postcode": "5291176", "prefecture": "滋賀県", "id": 1777 },
        { "address": "上枝", "city": "犬上郡豊郷町", "postcode": "5291166", "prefecture": "滋賀県", "id": 1778 },
        { "address": "沢", "city": "犬上郡豊郷町", "postcode": "5291175", "prefecture": "滋賀県", "id": 1779 },
        { "address": "四十九院", "city": "犬上郡豊郷町", "postcode": "5291161", "prefecture": "滋賀県", "id": 1780 },
        { "address": "下枝", "city": "犬上郡豊郷町", "postcode": "5291174", "prefecture": "滋賀県", "id": 1781 },
        { "address": "杉", "city": "犬上郡豊郷町", "postcode": "5291167", "prefecture": "滋賀県", "id": 1782 },
        { "address": "高野瀬", "city": "犬上郡豊郷町", "postcode": "5291173", "prefecture": "滋賀県", "id": 1783 },
        { "address": "八目", "city": "犬上郡豊郷町", "postcode": "5291168", "prefecture": "滋賀県", "id": 1784 },
        { "address": "八町", "city": "犬上郡豊郷町", "postcode": "5291162", "prefecture": "滋賀県", "id": 1785 },
        { "address": "日栄", "city": "犬上郡豊郷町", "postcode": "5291164", "prefecture": "滋賀県", "id": 1786 },
        { "address": "三ツ池", "city": "犬上郡豊郷町", "postcode": "5291177", "prefecture": "滋賀県", "id": 1787 },
        { "address": "吉田", "city": "犬上郡豊郷町", "postcode": "5291165", "prefecture": "滋賀県", "id": 1788 },
        { "city": "犬上郡甲良町", "postcode": "5220200", "prefecture": "滋賀県", "id": 1789 },
        { "address": "尼子", "city": "犬上郡甲良町", "postcode": "5220242", "prefecture": "滋賀県", "id": 1790 },
        { "address": "池寺", "city": "犬上郡甲良町", "postcode": "5220254", "prefecture": "滋賀県", "id": 1791 },
        { "address": "長寺", "city": "犬上郡甲良町", "postcode": "5220261", "prefecture": "滋賀県", "id": 1792 },
        { "address": "金屋", "city": "犬上郡甲良町", "postcode": "5220252", "prefecture": "滋賀県", "id": 1793 },
        { "address": "北落", "city": "犬上郡甲良町", "postcode": "5220251", "prefecture": "滋賀県", "id": 1794 },
        { "address": "呉竹", "city": "犬上郡甲良町", "postcode": "5220241", "prefecture": "滋賀県", "id": 1795 },
        { "address": "小川原", "city": "犬上郡甲良町", "postcode": "5220243", "prefecture": "滋賀県", "id": 1796 },
        { "address": "在士", "city": "犬上郡甲良町", "postcode": "5220244", "prefecture": "滋賀県", "id": 1797 },
        { "address": "下之郷", "city": "犬上郡甲良町", "postcode": "5220271", "prefecture": "滋賀県", "id": 1798 },
        { "address": "正楽寺", "city": "犬上郡甲良町", "postcode": "5220253", "prefecture": "滋賀県", "id": 1799 },
        { "address": "法養寺", "city": "犬上郡甲良町", "postcode": "5220263", "prefecture": "滋賀県", "id": 1800 },
        { "address": "横関", "city": "犬上郡甲良町", "postcode": "5220262", "prefecture": "滋賀県", "id": 1801 },
        { "city": "犬上郡多賀町", "postcode": "5220300", "prefecture": "滋賀県", "id": 1802 },
        { "address": "一円", "city": "犬上郡多賀町", "postcode": "5220317", "prefecture": "滋賀県", "id": 1803 },
        { "address": "一ノ瀬", "city": "犬上郡多賀町", "postcode": "5220323", "prefecture": "滋賀県", "id": 1804 },
        { "address": "後谷", "city": "犬上郡多賀町", "postcode": "5220304", "prefecture": "滋賀県", "id": 1805 },
        { "address": "大岡", "city": "犬上郡多賀町", "postcode": "5220315", "prefecture": "滋賀県", "id": 1806 },
        { "address": "大杉", "city": "犬上郡多賀町", "postcode": "5220331", "prefecture": "滋賀県", "id": 1807 },
        { "address": "大君ケ畑", "city": "犬上郡多賀町", "postcode": "5220321", "prefecture": "滋賀県", "id": 1808 },
        { "address": "萱原", "city": "犬上郡多賀町", "postcode": "5220333", "prefecture": "滋賀県", "id": 1809 },
        { "address": "河内", "city": "犬上郡多賀町", "postcode": "5220301", "prefecture": "滋賀県", "id": 1810 },
        { "address": "川相", "city": "犬上郡多賀町", "postcode": "5220324", "prefecture": "滋賀県", "id": 1811 },
        { "address": "木曽", "city": "犬上郡多賀町", "postcode": "5220356", "prefecture": "滋賀県", "id": 1812 },
        { "address": "久徳", "city": "犬上郡多賀町", "postcode": "5220352", "prefecture": "滋賀県", "id": 1813 },
        { "address": "栗栖", "city": "犬上郡多賀町", "postcode": "5220316", "prefecture": "滋賀県", "id": 1814 },
        { "address": "甲頭倉", "city": "犬上郡多賀町", "postcode": "5220305", "prefecture": "滋賀県", "id": 1815 },
        { "address": "五僧", "city": "犬上郡多賀町", "postcode": "5220311", "prefecture": "滋賀県", "id": 1816 },
        { "address": "小原", "city": "犬上郡多賀町", "postcode": "5220325", "prefecture": "滋賀県", "id": 1817 },
        { "address": "佐目", "city": "犬上郡多賀町", "postcode": "5220322", "prefecture": "滋賀県", "id": 1818 },
        { "address": "猿木", "city": "犬上郡多賀町", "postcode": "5220343", "prefecture": "滋賀県", "id": 1819 },
        { "address": "四手", "city": "犬上郡多賀町", "postcode": "5220314", "prefecture": "滋賀県", "id": 1820 },
        { "address": "霜ケ原", "city": "犬上郡多賀町", "postcode": "5220326", "prefecture": "滋賀県", "id": 1821 },
        { "address": "水谷", "city": "犬上郡多賀町", "postcode": "5220318", "prefecture": "滋賀県", "id": 1822 },
        { "address": "杉", "city": "犬上郡多賀町", "postcode": "5220313", "prefecture": "滋賀県", "id": 1823 },
        { "address": "多賀", "city": "犬上郡多賀町", "postcode": "5220341", "prefecture": "滋賀県", "id": 1824 },
        { "address": "月之木", "city": "犬上郡多賀町", "postcode": "5220353", "prefecture": "滋賀県", "id": 1825 },
        { "address": "土田", "city": "犬上郡多賀町", "postcode": "5220354", "prefecture": "滋賀県", "id": 1826 },
        { "address": "壺", "city": "犬上郡多賀町", "postcode": "5220338", "prefecture": "滋賀県", "id": 1827 },
        { "address": "富之尾", "city": "犬上郡多賀町", "postcode": "5220337", "prefecture": "滋賀県", "id": 1828 },
        { "address": "中川原", "city": "犬上郡多賀町", "postcode": "5220355", "prefecture": "滋賀県", "id": 1829 },
        { "address": "楢崎", "city": "犬上郡多賀町", "postcode": "5220336", "prefecture": "滋賀県", "id": 1830 },
        { "address": "樋田", "city": "犬上郡多賀町", "postcode": "5220332", "prefecture": "滋賀県", "id": 1831 },
        { "address": "屏風", "city": "犬上郡多賀町", "postcode": "5220303", "prefecture": "滋賀県", "id": 1832 },
        { "address": "敏満寺", "city": "犬上郡多賀町", "postcode": "5220342", "prefecture": "滋賀県", "id": 1833 },
        { "address": "藤瀬", "city": "犬上郡多賀町", "postcode": "5220335", "prefecture": "滋賀県", "id": 1834 },
        { "address": "保月", "city": "犬上郡多賀町", "postcode": "5220312", "prefecture": "滋賀県", "id": 1835 },
        { "address": "仏ケ後", "city": "犬上郡多賀町", "postcode": "5220334", "prefecture": "滋賀県", "id": 1836 },
        { "address": "南後谷", "city": "犬上郡多賀町", "postcode": "5220327", "prefecture": "滋賀県", "id": 1837 },
        { "address": "向之倉", "city": "犬上郡多賀町", "postcode": "5220302", "prefecture": "滋賀県", "id": 1838 },
        { "address": "桃原", "city": "犬上郡多賀町", "postcode": "5220319", "prefecture": "滋賀県", "id": 1839 },
        { "address": "八重練", "city": "犬上郡多賀町", "postcode": "5220351", "prefecture": "滋賀県", "id": 1840 },
        { "address": "霊仙", "city": "犬上郡多賀町", "postcode": "5220306", "prefecture": "滋賀県", "id": 1841 }
    ]
}
