{
    "postcodes": [
        { "city": "熊本市中央区", "postcode": "8610000", "prefecture": "熊本県", "id": 0 },
        { "address": "安政町", "city": "熊本市中央区", "postcode": "8600801", "prefecture": "熊本県", "id": 1 },
        { "address": "井川淵町", "city": "熊本市中央区", "postcode": "8600841", "prefecture": "熊本県", "id": 2 },
        { "address": "出水", "city": "熊本市中央区", "postcode": "8620941", "prefecture": "熊本県", "id": 3 },
        { "address": "板屋町", "city": "熊本市中央区", "postcode": "8600043", "prefecture": "熊本県", "id": 4 },
        { "address": "魚屋町", "city": "熊本市中央区", "postcode": "8600031", "prefecture": "熊本県", "id": 5 },
        { "address": "内坪井町", "city": "熊本市中央区", "postcode": "8600077", "prefecture": "熊本県", "id": 6 },
        { "address": "江津", "city": "熊本市中央区", "postcode": "8620942", "prefecture": "熊本県", "id": 7 },
        { "address": "大江", "city": "熊本市中央区", "postcode": "8620971", "prefecture": "熊本県", "id": 8 },
        { "address": "大江本町", "city": "熊本市中央区", "postcode": "8620973", "prefecture": "熊本県", "id": 9 },
        { "address": "岡田町", "city": "熊本市中央区", "postcode": "8620958", "prefecture": "熊本県", "id": 10 },
        { "address": "帯山", "city": "熊本市中央区", "postcode": "8620924", "prefecture": "熊本県", "id": 11 },
        { "address": "鍛冶屋町", "city": "熊本市中央区", "postcode": "8600026", "prefecture": "熊本県", "id": 12 },
        { "address": "上鍛冶屋町", "city": "熊本市中央区", "postcode": "8600021", "prefecture": "熊本県", "id": 13 },
        { "address": "上京塚町", "city": "熊本市中央区", "postcode": "8620953", "prefecture": "熊本県", "id": 14 },
        { "address": "上水前寺", "city": "熊本市中央区", "postcode": "8620951", "prefecture": "熊本県", "id": 15 },
        { "address": "上通町", "city": "熊本市中央区", "postcode": "8600845", "prefecture": "熊本県", "id": 16 },
        { "address": "上林町", "city": "熊本市中央区", "postcode": "8600847", "prefecture": "熊本県", "id": 17 },
        { "address": "辛島町", "city": "熊本市中央区", "postcode": "8600804", "prefecture": "熊本県", "id": 18 },
        { "address": "川端町", "city": "熊本市中央区", "postcode": "8600039", "prefecture": "熊本県", "id": 19 },
        { "address": "河原町", "city": "熊本市中央区", "postcode": "8600023", "prefecture": "熊本県", "id": 20 },
        { "address": "北千反畑町", "city": "熊本市中央区", "postcode": "8600855", "prefecture": "熊本県", "id": 21 },
        { "address": "京町", "city": "熊本市中央区", "postcode": "8600078", "prefecture": "熊本県", "id": 22 },
        { "address": "京町本丁", "city": "熊本市中央区", "postcode": "8600081", "prefecture": "熊本県", "id": 23 },
        { "address": "草葉町", "city": "熊本市中央区", "postcode": "8600843", "prefecture": "熊本県", "id": 24 },
        { "address": "九品寺", "city": "熊本市中央区", "postcode": "8620976", "prefecture": "熊本県", "id": 25 },
        { "address": "黒髪", "city": "熊本市中央区", "postcode": "8600862", "prefecture": "熊本県", "id": 26 },
        { "address": "神水", "city": "熊本市中央区", "postcode": "8620954", "prefecture": "熊本県", "id": 27 },
        { "address": "神水本町", "city": "熊本市中央区", "postcode": "8620955", "prefecture": "熊本県", "id": 28 },
        { "address": "慶徳堀町", "city": "熊本市中央区", "postcode": "8600014", "prefecture": "熊本県", "id": 29 },
        {
            "address": "紺屋阿弥陀寺町",
            "city": "熊本市中央区",
            "postcode": "8600033",
            "prefecture": "熊本県",
            "id": 30
        },
        { "address": "紺屋今町", "city": "熊本市中央区", "postcode": "8600012", "prefecture": "熊本県", "id": 31 },
        { "address": "紺屋町", "city": "熊本市中央区", "postcode": "8600025", "prefecture": "熊本県", "id": 32 },
        { "address": "子飼本町", "city": "熊本市中央区", "postcode": "8600851", "prefecture": "熊本県", "id": 33 },
        { "address": "国府", "city": "熊本市中央区", "postcode": "8620949", "prefecture": "熊本県", "id": 34 },
        { "address": "国府本町", "city": "熊本市中央区", "postcode": "8620948", "prefecture": "熊本県", "id": 35 },
        { "address": "小沢町", "city": "熊本市中央区", "postcode": "8600042", "prefecture": "熊本県", "id": 36 },
        { "address": "古城町", "city": "熊本市中央区", "postcode": "8600003", "prefecture": "熊本県", "id": 37 },
        { "address": "壺川", "city": "熊本市中央区", "postcode": "8600076", "prefecture": "熊本県", "id": 38 },
        { "address": "湖東", "city": "熊本市中央区", "postcode": "8620909", "prefecture": "熊本県", "id": 39 },
        { "address": "琴平", "city": "熊本市中央区", "postcode": "8600813", "prefecture": "熊本県", "id": 40 },
        { "address": "琴平本町", "city": "熊本市中央区", "postcode": "8600814", "prefecture": "熊本県", "id": 41 },
        { "address": "呉服町", "city": "熊本市中央区", "postcode": "8600035", "prefecture": "熊本県", "id": 42 },
        { "address": "米屋町", "city": "熊本市中央区", "postcode": "8600029", "prefecture": "熊本県", "id": 43 },
        { "address": "細工町", "city": "熊本市中央区", "postcode": "8600041", "prefecture": "熊本県", "id": 44 },
        { "address": "桜町", "city": "熊本市中央区", "postcode": "8600805", "prefecture": "熊本県", "id": 45 },
        { "address": "三郎", "city": "熊本市中央区", "postcode": "8620922", "prefecture": "熊本県", "id": 46 },
        { "address": "島崎", "city": "熊本市中央区", "postcode": "8600073", "prefecture": "熊本県", "id": 47 },
        { "address": "下通", "city": "熊本市中央区", "postcode": "8600807", "prefecture": "熊本県", "id": 48 },
        { "address": "十禅寺", "city": "熊本市中央区", "postcode": "8600824", "prefecture": "熊本県", "id": 49 },
        { "address": "城東町", "city": "熊本市中央区", "postcode": "8600846", "prefecture": "熊本県", "id": 50 },
        { "address": "新大江", "city": "熊本市中央区", "postcode": "8620972", "prefecture": "熊本県", "id": 51 },
        { "address": "新鍛冶屋町", "city": "熊本市中央区", "postcode": "8600011", "prefecture": "熊本県", "id": 52 },
        { "address": "新市街", "city": "熊本市中央区", "postcode": "8600803", "prefecture": "熊本県", "id": 53 },
        { "address": "新町", "city": "熊本市中央区", "postcode": "8600004", "prefecture": "熊本県", "id": 54 },
        { "address": "新屋敷", "city": "熊本市中央区", "postcode": "8620975", "prefecture": "熊本県", "id": 55 },
        { "address": "水前寺", "city": "熊本市中央区", "postcode": "8620950", "prefecture": "熊本県", "id": 56 },
        { "address": "水前寺公園", "city": "熊本市中央区", "postcode": "8620956", "prefecture": "熊本県", "id": 57 },
        { "address": "水道町", "city": "熊本市中央区", "postcode": "8600844", "prefecture": "熊本県", "id": 58 },
        { "address": "菅原町", "city": "熊本市中央区", "postcode": "8620957", "prefecture": "熊本県", "id": 59 },
        { "address": "船場町", "city": "熊本市中央区", "postcode": "8600019", "prefecture": "熊本県", "id": 60 },
        { "address": "船場町下", "city": "熊本市中央区", "postcode": "8600018", "prefecture": "熊本県", "id": 61 },
        { "address": "段山本町", "city": "熊本市中央区", "postcode": "8600006", "prefecture": "熊本県", "id": 62 },
        { "address": "千葉城町", "city": "熊本市中央区", "postcode": "8600001", "prefecture": "熊本県", "id": 63 },
        { "address": "中央街", "city": "熊本市中央区", "postcode": "8600802", "prefecture": "熊本県", "id": 64 },
        { "address": "坪井", "city": "熊本市中央区", "postcode": "8600863", "prefecture": "熊本県", "id": 65 },
        { "address": "手取本町", "city": "熊本市中央区", "postcode": "8600808", "prefecture": "熊本県", "id": 66 },
        { "address": "通町", "city": "熊本市中央区", "postcode": "8600013", "prefecture": "熊本県", "id": 67 },
        { "address": "渡鹿", "city": "熊本市中央区", "postcode": "8620970", "prefecture": "熊本県", "id": 68 },
        { "address": "中唐人町", "city": "熊本市中央区", "postcode": "8600028", "prefecture": "熊本県", "id": 69 },
        { "address": "西阿弥陀寺町", "city": "熊本市中央区", "postcode": "8600037", "prefecture": "熊本県", "id": 70 },
        { "address": "西子飼町", "city": "熊本市中央区", "postcode": "8600853", "prefecture": "熊本県", "id": 71 },
        { "address": "西唐人町", "city": "熊本市中央区", "postcode": "8600027", "prefecture": "熊本県", "id": 72 },
        { "address": "二の丸", "city": "熊本市中央区", "postcode": "8600008", "prefecture": "熊本県", "id": 73 },
        { "address": "萩原町", "city": "熊本市中央区", "postcode": "8600832", "prefecture": "熊本県", "id": 74 },
        { "address": "白山", "city": "熊本市中央区", "postcode": "8620959", "prefecture": "熊本県", "id": 75 },
        { "address": "八王寺町", "city": "熊本市中央区", "postcode": "8600831", "prefecture": "熊本県", "id": 76 },
        { "address": "花畑町", "city": "熊本市中央区", "postcode": "8600806", "prefecture": "熊本県", "id": 77 },
        { "address": "春竹町", "city": "熊本市中央区", "postcode": "8600815", "prefecture": "熊本県", "id": 78 },
        { "address": "東阿弥陀寺町", "city": "熊本市中央区", "postcode": "8600034", "prefecture": "熊本県", "id": 79 },
        { "address": "東京塚町", "city": "熊本市中央区", "postcode": "8620923", "prefecture": "熊本県", "id": 80 },
        { "address": "東子飼町", "city": "熊本市中央区", "postcode": "8600854", "prefecture": "熊本県", "id": 81 },
        { "address": "古桶屋町", "city": "熊本市中央区", "postcode": "8600038", "prefecture": "熊本県", "id": 82 },
        { "address": "古川町", "city": "熊本市中央区", "postcode": "8600015", "prefecture": "熊本県", "id": 83 },
        { "address": "古京町", "city": "熊本市中央区", "postcode": "8600007", "prefecture": "熊本県", "id": 84 },
        { "address": "古大工町", "city": "熊本市中央区", "postcode": "8600036", "prefecture": "熊本県", "id": 85 },
        { "address": "平成", "city": "熊本市中央区", "postcode": "8600833", "prefecture": "熊本県", "id": 86 },
        { "address": "保田窪", "city": "熊本市中央区", "postcode": "8620926", "prefecture": "熊本県", "id": 87 },
        { "address": "本荘", "city": "熊本市中央区", "postcode": "8600811", "prefecture": "熊本県", "id": 88 },
        { "address": "本荘町", "city": "熊本市中央区", "postcode": "8600816", "prefecture": "熊本県", "id": 89 },
        { "address": "本丸", "city": "熊本市中央区", "postcode": "8600002", "prefecture": "熊本県", "id": 90 },
        { "address": "松原町", "city": "熊本市中央区", "postcode": "8600024", "prefecture": "熊本県", "id": 91 },
        { "address": "南熊本", "city": "熊本市中央区", "postcode": "8600812", "prefecture": "熊本県", "id": 92 },
        { "address": "南千反畑町", "city": "熊本市中央区", "postcode": "8600842", "prefecture": "熊本県", "id": 93 },
        { "address": "南坪井町", "city": "熊本市中央区", "postcode": "8600848", "prefecture": "熊本県", "id": 94 },
        { "address": "宮内", "city": "熊本市中央区", "postcode": "8600005", "prefecture": "熊本県", "id": 95 },
        { "address": "妙体寺町", "city": "熊本市中央区", "postcode": "8600856", "prefecture": "熊本県", "id": 96 },
        { "address": "迎町", "city": "熊本市中央区", "postcode": "8600817", "prefecture": "熊本県", "id": 97 },
        { "address": "室園町", "city": "熊本市中央区", "postcode": "8618072", "prefecture": "熊本県", "id": 98 },
        { "address": "本山", "city": "熊本市中央区", "postcode": "8600821", "prefecture": "熊本県", "id": 99 },
        { "address": "本山町", "city": "熊本市中央区", "postcode": "8600822", "prefecture": "熊本県", "id": 100 },
        { "address": "薬園町", "city": "熊本市中央区", "postcode": "8600852", "prefecture": "熊本県", "id": 101 },
        { "address": "山崎町", "city": "熊本市中央区", "postcode": "8600016", "prefecture": "熊本県", "id": 102 },
        { "address": "弥生町", "city": "熊本市中央区", "postcode": "8600818", "prefecture": "熊本県", "id": 103 },
        { "address": "横紺屋町", "city": "熊本市中央区", "postcode": "8600022", "prefecture": "熊本県", "id": 104 },
        { "address": "横手", "city": "熊本市中央区", "postcode": "8600046", "prefecture": "熊本県", "id": 105 },
        { "address": "世安", "city": "熊本市中央区", "postcode": "8600827", "prefecture": "熊本県", "id": 106 },
        { "address": "世安町", "city": "熊本市中央区", "postcode": "8600823", "prefecture": "熊本県", "id": 107 },
        { "address": "万町", "city": "熊本市中央区", "postcode": "8600032", "prefecture": "熊本県", "id": 108 },
        { "address": "練兵町", "city": "熊本市中央区", "postcode": "8600017", "prefecture": "熊本県", "id": 109 },
        { "address": "秋津", "city": "熊本市東区", "postcode": "8612104", "prefecture": "熊本県", "id": 110 },
        { "address": "秋津新町", "city": "熊本市東区", "postcode": "8612107", "prefecture": "熊本県", "id": 111 },
        { "address": "秋津町秋田", "city": "熊本市東区", "postcode": "8612105", "prefecture": "熊本県", "id": 112 },
        { "address": "石原", "city": "熊本市東区", "postcode": "8618046", "prefecture": "熊本県", "id": 113 },
        { "address": "石原町", "city": "熊本市東区", "postcode": "8618014", "prefecture": "熊本県", "id": 114 },
        { "address": "画図東", "city": "熊本市東区", "postcode": "8620961", "prefecture": "熊本県", "id": 115 },
        { "address": "画図町上無田", "city": "熊本市東区", "postcode": "8620944", "prefecture": "熊本県", "id": 116 },
        { "address": "画図町重富", "city": "熊本市東区", "postcode": "8620947", "prefecture": "熊本県", "id": 117 },
        { "address": "画図町下江津", "city": "熊本市東区", "postcode": "8620943", "prefecture": "熊本県", "id": 118 },
        { "address": "画図町下無田", "city": "熊本市東区", "postcode": "8620945", "prefecture": "熊本県", "id": 119 },
        { "address": "画図町所島", "city": "熊本市東区", "postcode": "8620946", "prefecture": "熊本県", "id": 120 },
        { "address": "榎町", "city": "熊本市東区", "postcode": "8620917", "prefecture": "熊本県", "id": 121 },
        { "address": "尾ノ上", "city": "熊本市東区", "postcode": "8620913", "prefecture": "熊本県", "id": 122 },
        { "address": "小峯", "city": "熊本市東区", "postcode": "8620933", "prefecture": "熊本県", "id": 123 },
        { "address": "小山", "city": "熊本市東区", "postcode": "8618045", "prefecture": "熊本県", "id": 124 },
        { "address": "小山町", "city": "熊本市東区", "postcode": "8618030", "prefecture": "熊本県", "id": 125 },
        { "address": "鹿帰瀬町", "city": "熊本市東区", "postcode": "8618011", "prefecture": "熊本県", "id": 126 },
        { "address": "上南部", "city": "熊本市東区", "postcode": "8618010", "prefecture": "熊本県", "id": 127 },
        { "address": "上南部町", "city": "熊本市東区", "postcode": "8618017", "prefecture": "熊本県", "id": 128 },
        { "address": "京塚本町", "city": "熊本市東区", "postcode": "8620952", "prefecture": "熊本県", "id": 129 },
        { "address": "健軍", "city": "熊本市東区", "postcode": "8620911", "prefecture": "熊本県", "id": 130 },
        { "address": "健軍本町", "city": "熊本市東区", "postcode": "8620910", "prefecture": "熊本県", "id": 131 },
        { "address": "神園", "city": "熊本市東区", "postcode": "8618044", "prefecture": "熊本県", "id": 132 },
        { "address": "御領", "city": "熊本市東区", "postcode": "8618035", "prefecture": "熊本県", "id": 133 },
        { "address": "栄町", "city": "熊本市東区", "postcode": "8620904", "prefecture": "熊本県", "id": 134 },
        { "address": "桜木", "city": "熊本市東区", "postcode": "8612101", "prefecture": "熊本県", "id": 135 },
        { "address": "佐土原", "city": "熊本市東区", "postcode": "8620916", "prefecture": "熊本県", "id": 136 },
        { "address": "下江津", "city": "熊本市東区", "postcode": "8620960", "prefecture": "熊本県", "id": 137 },
        { "address": "下南部", "city": "熊本市東区", "postcode": "8618019", "prefecture": "熊本県", "id": 138 },
        { "address": "昭和町", "city": "熊本市東区", "postcode": "8612108", "prefecture": "熊本県", "id": 139 },
        { "address": "新生", "city": "熊本市東区", "postcode": "8620908", "prefecture": "熊本県", "id": 140 },
        { "address": "新南部", "city": "熊本市東区", "postcode": "8618028", "prefecture": "熊本県", "id": 141 },
        { "address": "新外", "city": "熊本市東区", "postcode": "8620921", "prefecture": "熊本県", "id": 142 },
        { "address": "水源", "city": "熊本市東区", "postcode": "8620907", "prefecture": "熊本県", "id": 143 },
        { "address": "月出", "city": "熊本市東区", "postcode": "8620920", "prefecture": "熊本県", "id": 144 },
        { "address": "戸島", "city": "熊本市東区", "postcode": "8618041", "prefecture": "熊本県", "id": 145 },
        { "address": "戸島西", "city": "熊本市東区", "postcode": "8618043", "prefecture": "熊本県", "id": 146 },
        { "address": "戸島本町", "city": "熊本市東区", "postcode": "8618042", "prefecture": "熊本県", "id": 147 },
        { "address": "戸島町", "city": "熊本市東区", "postcode": "8618031", "prefecture": "熊本県", "id": 148 },
        { "address": "中江町", "city": "熊本市東区", "postcode": "8618015", "prefecture": "熊本県", "id": 149 },
        { "address": "長嶺西", "city": "熊本市東区", "postcode": "8618037", "prefecture": "熊本県", "id": 150 },
        { "address": "長嶺東", "city": "熊本市東区", "postcode": "8618038", "prefecture": "熊本県", "id": 151 },
        { "address": "長嶺南", "city": "熊本市東区", "postcode": "8618039", "prefecture": "熊本県", "id": 152 },
        { "address": "錦ケ丘", "city": "熊本市東区", "postcode": "8620912", "prefecture": "熊本県", "id": 153 },
        { "address": "西原", "city": "熊本市東区", "postcode": "8618029", "prefecture": "熊本県", "id": 154 },
        { "address": "沼山津", "city": "熊本市東区", "postcode": "8612102", "prefecture": "熊本県", "id": 155 },
        { "address": "八反田", "city": "熊本市東区", "postcode": "8618034", "prefecture": "熊本県", "id": 156 },
        { "address": "花立", "city": "熊本市東区", "postcode": "8612118", "prefecture": "熊本県", "id": 157 },
        { "address": "花立", "city": "熊本市東区", "postcode": "8620918", "prefecture": "熊本県", "id": 158 },
        { "address": "東野", "city": "熊本市東区", "postcode": "8612106", "prefecture": "熊本県", "id": 159 },
        { "address": "東本町", "city": "熊本市東区", "postcode": "8620902", "prefecture": "熊本県", "id": 160 },
        { "address": "東町", "city": "熊本市東区", "postcode": "8620901", "prefecture": "熊本県", "id": 161 },
        { "address": "平山町", "city": "熊本市東区", "postcode": "8618012", "prefecture": "熊本県", "id": 162 },
        { "address": "広木町", "city": "熊本市東区", "postcode": "8620906", "prefecture": "熊本県", "id": 163 },
        { "address": "保田窪本町", "city": "熊本市東区", "postcode": "8620925", "prefecture": "熊本県", "id": 164 },
        { "address": "南町", "city": "熊本市東区", "postcode": "8620905", "prefecture": "熊本県", "id": 165 },
        { "address": "山ノ内", "city": "熊本市東区", "postcode": "8620914", "prefecture": "熊本県", "id": 166 },
        { "address": "山ノ神", "city": "熊本市東区", "postcode": "8620915", "prefecture": "熊本県", "id": 167 },
        { "address": "弓削町", "city": "熊本市東区", "postcode": "8618013", "prefecture": "熊本県", "id": 168 },
        { "address": "吉原町", "city": "熊本市東区", "postcode": "8618016", "prefecture": "熊本県", "id": 169 },
        { "address": "若葉", "city": "熊本市東区", "postcode": "8620903", "prefecture": "熊本県", "id": 170 },
        { "address": "若葉", "city": "熊本市東区", "postcode": "8612103", "prefecture": "熊本県", "id": 171 },
        { "address": "池亀町", "city": "熊本市西区", "postcode": "8600071", "prefecture": "熊本県", "id": 172 },
        { "address": "池田", "city": "熊本市西区", "postcode": "8600082", "prefecture": "熊本県", "id": 173 },
        { "address": "池上町", "city": "熊本市西区", "postcode": "8600048", "prefecture": "熊本県", "id": 174 },
        { "address": "沖新町", "city": "熊本市西区", "postcode": "8615273", "prefecture": "熊本県", "id": 175 },
        { "address": "小島", "city": "熊本市西区", "postcode": "8615287", "prefecture": "熊本県", "id": 176 },
        { "address": "小島上町", "city": "熊本市西区", "postcode": "8615285", "prefecture": "熊本県", "id": 177 },
        { "address": "小島下町", "city": "熊本市西区", "postcode": "8615284", "prefecture": "熊本県", "id": 178 },
        { "address": "春日", "city": "熊本市西区", "postcode": "8600047", "prefecture": "熊本県", "id": 179 },
        { "address": "上熊本", "city": "熊本市西区", "postcode": "8600079", "prefecture": "熊本県", "id": 180 },
        { "address": "上代", "city": "熊本市西区", "postcode": "8600068", "prefecture": "熊本県", "id": 181 },
        { "address": "上高橋", "city": "熊本市西区", "postcode": "8600061", "prefecture": "熊本県", "id": 182 },
        { "address": "上松尾町", "city": "熊本市西区", "postcode": "8615289", "prefecture": "熊本県", "id": 183 },
        { "address": "河内町大多尾", "city": "熊本市西区", "postcode": "8615341", "prefecture": "熊本県", "id": 184 },
        { "address": "河内町面木", "city": "熊本市西区", "postcode": "8615345", "prefecture": "熊本県", "id": 185 },
        { "address": "河内町河内", "city": "熊本市西区", "postcode": "8615346", "prefecture": "熊本県", "id": 186 },
        { "address": "河内町白浜", "city": "熊本市西区", "postcode": "8615348", "prefecture": "熊本県", "id": 187 },
        { "address": "河内町岳", "city": "熊本市西区", "postcode": "8615344", "prefecture": "熊本県", "id": 188 },
        { "address": "河内町東門寺", "city": "熊本市西区", "postcode": "8615342", "prefecture": "熊本県", "id": 189 },
        { "address": "河内町野出", "city": "熊本市西区", "postcode": "8615343", "prefecture": "熊本県", "id": 190 },
        { "address": "河内町船津", "city": "熊本市西区", "postcode": "8615347", "prefecture": "熊本県", "id": 191 },
        { "address": "城山大塘", "city": "熊本市西区", "postcode": "8600067", "prefecture": "熊本県", "id": 192 },
        { "address": "城山上代町", "city": "熊本市西区", "postcode": "8600063", "prefecture": "熊本県", "id": 193 },
        { "address": "城山下代", "city": "熊本市西区", "postcode": "8600066", "prefecture": "熊本県", "id": 194 },
        { "address": "城山半田", "city": "熊本市西区", "postcode": "8600064", "prefecture": "熊本県", "id": 195 },
        { "address": "城山薬師", "city": "熊本市西区", "postcode": "8600065", "prefecture": "熊本県", "id": 196 },
        { "address": "新土河原", "city": "熊本市西区", "postcode": "8600056", "prefecture": "熊本県", "id": 197 },
        { "address": "新港", "city": "熊本市西区", "postcode": "8615274", "prefecture": "熊本県", "id": 198 },
        { "address": "高橋町", "city": "熊本市西区", "postcode": "8600062", "prefecture": "熊本県", "id": 199 },
        { "address": "田崎", "city": "熊本市西区", "postcode": "8600053", "prefecture": "熊本県", "id": 200 },
        { "address": "田崎本町", "city": "熊本市西区", "postcode": "8600052", "prefecture": "熊本県", "id": 201 },
        { "address": "田崎町", "city": "熊本市西区", "postcode": "8600058", "prefecture": "熊本県", "id": 202 },
        { "address": "谷尾崎町", "city": "熊本市西区", "postcode": "8600044", "prefecture": "熊本県", "id": 203 },
        { "address": "津浦町", "city": "熊本市西区", "postcode": "8600088", "prefecture": "熊本県", "id": 204 },
        { "address": "出町", "city": "熊本市西区", "postcode": "8600074", "prefecture": "熊本県", "id": 205 },
        { "address": "戸坂町", "city": "熊本市西区", "postcode": "8600045", "prefecture": "熊本県", "id": 206 },
        { "address": "中島町", "city": "熊本市西区", "postcode": "8615272", "prefecture": "熊本県", "id": 207 },
        { "address": "中原町", "city": "熊本市西区", "postcode": "8615271", "prefecture": "熊本県", "id": 208 },
        { "address": "中松尾町", "city": "熊本市西区", "postcode": "8615286", "prefecture": "熊本県", "id": 209 },
        { "address": "西松尾町", "city": "熊本市西区", "postcode": "8615288", "prefecture": "熊本県", "id": 210 },
        { "address": "二本木", "city": "熊本市西区", "postcode": "8600051", "prefecture": "熊本県", "id": 211 },
        { "address": "野中", "city": "熊本市西区", "postcode": "8600059", "prefecture": "熊本県", "id": 212 },
        { "address": "花園", "city": "熊本市西区", "postcode": "8600072", "prefecture": "熊本県", "id": 213 },
        { "address": "稗田町", "city": "熊本市西区", "postcode": "8600075", "prefecture": "熊本県", "id": 214 },
        { "address": "松尾", "city": "熊本市西区", "postcode": "8615280", "prefecture": "熊本県", "id": 215 },
        { "address": "松尾町近津", "city": "熊本市西区", "postcode": "8615281", "prefecture": "熊本県", "id": 216 },
        { "address": "松尾町平山", "city": "熊本市西区", "postcode": "8615282", "prefecture": "熊本県", "id": 217 },
        { "address": "八島", "city": "熊本市西区", "postcode": "8600054", "prefecture": "熊本県", "id": 218 },
        { "address": "八島町", "city": "熊本市西区", "postcode": "8600057", "prefecture": "熊本県", "id": 219 },
        { "address": "蓮台寺", "city": "熊本市西区", "postcode": "8600055", "prefecture": "熊本県", "id": 220 },
        { "address": "会富町", "city": "熊本市南区", "postcode": "8614121", "prefecture": "熊本県", "id": 221 },
        { "address": "荒尾", "city": "熊本市南区", "postcode": "8614136", "prefecture": "熊本県", "id": 222 },
        { "address": "出仲間", "city": "熊本市南区", "postcode": "8620963", "prefecture": "熊本県", "id": 223 },
        { "address": "今町", "city": "熊本市南区", "postcode": "8615251", "prefecture": "熊本県", "id": 224 },
        { "address": "海路口町", "city": "熊本市南区", "postcode": "8614124", "prefecture": "熊本県", "id": 225 },
        { "address": "薄場", "city": "熊本市南区", "postcode": "8614131", "prefecture": "熊本県", "id": 226 },
        { "address": "内田町", "city": "熊本市南区", "postcode": "8614127", "prefecture": "熊本県", "id": 227 },
        { "address": "江越", "city": "熊本市南区", "postcode": "8600834", "prefecture": "熊本県", "id": 228 },
        { "address": "奥古閑町", "city": "熊本市南区", "postcode": "8614125", "prefecture": "熊本県", "id": 229 },
        { "address": "上ノ郷", "city": "熊本市南区", "postcode": "8614132", "prefecture": "熊本県", "id": 230 },
        { "address": "刈草", "city": "熊本市南区", "postcode": "8614134", "prefecture": "熊本県", "id": 231 },
        { "address": "川口町", "city": "熊本市南区", "postcode": "8614123", "prefecture": "熊本県", "id": 232 },
        { "address": "川尻", "city": "熊本市南区", "postcode": "8614115", "prefecture": "熊本県", "id": 233 },
        { "address": "合志", "city": "熊本市南区", "postcode": "8614111", "prefecture": "熊本県", "id": 234 },
        { "address": "幸田", "city": "熊本市南区", "postcode": "8614108", "prefecture": "熊本県", "id": 235 },
        { "address": "護藤町", "city": "熊本市南区", "postcode": "8614117", "prefecture": "熊本県", "id": 236 },
        { "address": "島町", "city": "熊本市南区", "postcode": "8614133", "prefecture": "熊本県", "id": 237 },
        { "address": "城南町赤見", "city": "熊本市南区", "postcode": "8614231", "prefecture": "熊本県", "id": 238 },
        { "address": "城南町阿高", "city": "熊本市南区", "postcode": "8614224", "prefecture": "熊本県", "id": 239 },
        { "address": "城南町碇", "city": "熊本市南区", "postcode": "8614205", "prefecture": "熊本県", "id": 240 },
        { "address": "城南町出水", "city": "熊本市南区", "postcode": "8614213", "prefecture": "熊本県", "id": 241 },
        { "address": "城南町今吉野", "city": "熊本市南区", "postcode": "8614211", "prefecture": "熊本県", "id": 242 },
        { "address": "城南町隈庄", "city": "熊本市南区", "postcode": "8614203", "prefecture": "熊本県", "id": 243 },
        { "address": "城南町坂野", "city": "熊本市南区", "postcode": "8614201", "prefecture": "熊本県", "id": 244 },
        { "address": "城南町さんさん", "city": "熊本市南区", "postcode": "8614206", "prefecture": "熊本県", "id": 245 },
        { "address": "城南町沈目", "city": "熊本市南区", "postcode": "8614215", "prefecture": "熊本県", "id": 246 },
        { "address": "城南町島田", "city": "熊本市南区", "postcode": "8614236", "prefecture": "熊本県", "id": 247 },
        { "address": "城南町下宮地", "city": "熊本市南区", "postcode": "8614204", "prefecture": "熊本県", "id": 248 },
        { "address": "城南町陳内", "city": "熊本市南区", "postcode": "8614221", "prefecture": "熊本県", "id": 249 },
        { "address": "城南町高", "city": "熊本市南区", "postcode": "8614232", "prefecture": "熊本県", "id": 250 },
        { "address": "城南町千町", "city": "熊本市南区", "postcode": "8614235", "prefecture": "熊本県", "id": 251 },
        { "address": "城南町築地", "city": "熊本市南区", "postcode": "8614212", "prefecture": "熊本県", "id": 252 },
        { "address": "城南町塚原", "city": "熊本市南区", "postcode": "8614226", "prefecture": "熊本県", "id": 253 },
        { "address": "城南町永", "city": "熊本市南区", "postcode": "8614234", "prefecture": "熊本県", "id": 254 },
        { "address": "城南町丹生宮", "city": "熊本市南区", "postcode": "8614233", "prefecture": "熊本県", "id": 255 },
        { "address": "城南町東阿高", "city": "熊本市南区", "postcode": "8614225", "prefecture": "熊本県", "id": 256 },
        { "address": "城南町藤山", "city": "熊本市南区", "postcode": "8614223", "prefecture": "熊本県", "id": 257 },
        { "address": "城南町舞原", "city": "熊本市南区", "postcode": "8614214", "prefecture": "熊本県", "id": 258 },
        { "address": "城南町宮地", "city": "熊本市南区", "postcode": "8614202", "prefecture": "熊本県", "id": 259 },
        { "address": "城南町六田", "city": "熊本市南区", "postcode": "8614237", "prefecture": "熊本県", "id": 260 },
        { "address": "城南町鰐瀬", "city": "熊本市南区", "postcode": "8614222", "prefecture": "熊本県", "id": 261 },
        { "address": "白藤", "city": "熊本市南区", "postcode": "8614112", "prefecture": "熊本県", "id": 262 },
        { "address": "白石町", "city": "熊本市南区", "postcode": "8615264", "prefecture": "熊本県", "id": 263 },
        { "address": "砂原町", "city": "熊本市南区", "postcode": "8615255", "prefecture": "熊本県", "id": 264 },
        { "address": "銭塘町", "city": "熊本市南区", "postcode": "8614126", "prefecture": "熊本県", "id": 265 },
        { "address": "田井島", "city": "熊本市南区", "postcode": "8620965", "prefecture": "熊本県", "id": 266 },
        { "address": "田迎", "city": "熊本市南区", "postcode": "8620962", "prefecture": "熊本県", "id": 267 },
        { "address": "田迎町良町", "city": "熊本市南区", "postcode": "8620966", "prefecture": "熊本県", "id": 268 },
        { "address": "近見", "city": "熊本市南区", "postcode": "8614101", "prefecture": "熊本県", "id": 269 },
        { "address": "土河原町", "city": "熊本市南区", "postcode": "8615252", "prefecture": "熊本県", "id": 270 },
        { "address": "鳶町", "city": "熊本市南区", "postcode": "8614135", "prefecture": "熊本県", "id": 271 },
        { "address": "富合町榎津", "city": "熊本市南区", "postcode": "8614146", "prefecture": "熊本県", "id": 272 },
        { "address": "富合町大町", "city": "熊本市南区", "postcode": "8614145", "prefecture": "熊本県", "id": 273 },
        { "address": "富合町御船手", "city": "熊本市南区", "postcode": "8614141", "prefecture": "熊本県", "id": 274 },
        { "address": "富合町硴江", "city": "熊本市南区", "postcode": "8614165", "prefecture": "熊本県", "id": 275 },
        { "address": "富合町上杉", "city": "熊本市南区", "postcode": "8614143", "prefecture": "熊本県", "id": 276 },
        { "address": "富合町清藤", "city": "熊本市南区", "postcode": "8614151", "prefecture": "熊本県", "id": 277 },
        { "address": "富合町木原", "city": "熊本市南区", "postcode": "8614153", "prefecture": "熊本県", "id": 278 },
        { "address": "富合町小岩瀬", "city": "熊本市南区", "postcode": "8614161", "prefecture": "熊本県", "id": 279 },
        { "address": "富合町莎崎", "city": "熊本市南区", "postcode": "8614166", "prefecture": "熊本県", "id": 280 },
        { "address": "富合町古閑", "city": "熊本市南区", "postcode": "8614157", "prefecture": "熊本県", "id": 281 },
        { "address": "富合町国町", "city": "熊本市南区", "postcode": "8614162", "prefecture": "熊本県", "id": 282 },
        { "address": "富合町菰江", "city": "熊本市南区", "postcode": "8614167", "prefecture": "熊本県", "id": 283 },
        { "address": "富合町志々水", "city": "熊本市南区", "postcode": "8614163", "prefecture": "熊本県", "id": 284 },
        { "address": "富合町釈迦堂", "city": "熊本市南区", "postcode": "8614144", "prefecture": "熊本県", "id": 285 },
        { "address": "富合町新", "city": "熊本市南区", "postcode": "8614152", "prefecture": "熊本県", "id": 286 },
        { "address": "富合町杉島", "city": "熊本市南区", "postcode": "8614142", "prefecture": "熊本県", "id": 287 },
        { "address": "富合町田尻", "city": "熊本市南区", "postcode": "8614156", "prefecture": "熊本県", "id": 288 },
        { "address": "富合町西田尻", "city": "熊本市南区", "postcode": "8614164", "prefecture": "熊本県", "id": 289 },
        { "address": "富合町平原", "city": "熊本市南区", "postcode": "8614154", "prefecture": "熊本県", "id": 290 },
        { "address": "富合町廻江", "city": "熊本市南区", "postcode": "8614147", "prefecture": "熊本県", "id": 291 },
        { "address": "富合町南田尻", "city": "熊本市南区", "postcode": "8614155", "prefecture": "熊本県", "id": 292 },
        { "address": "中無田町", "city": "熊本市南区", "postcode": "8614116", "prefecture": "熊本県", "id": 293 },
        { "address": "並建町", "city": "熊本市南区", "postcode": "8615263", "prefecture": "熊本県", "id": 294 },
        { "address": "野口", "city": "熊本市南区", "postcode": "8614137", "prefecture": "熊本県", "id": 295 },
        { "address": "野田", "city": "熊本市南区", "postcode": "8614114", "prefecture": "熊本県", "id": 296 },
        { "address": "畠口町", "city": "熊本市南区", "postcode": "8615265", "prefecture": "熊本県", "id": 297 },
        { "address": "八分字町", "city": "熊本市南区", "postcode": "8615253", "prefecture": "熊本県", "id": 298 },
        { "address": "浜口町", "city": "熊本市南区", "postcode": "8615262", "prefecture": "熊本県", "id": 299 },
        { "address": "日吉", "city": "熊本市南区", "postcode": "8614109", "prefecture": "熊本県", "id": 300 },
        { "address": "平田", "city": "熊本市南区", "postcode": "8600826", "prefecture": "熊本県", "id": 301 },
        { "address": "孫代町", "city": "熊本市南区", "postcode": "8615254", "prefecture": "熊本県", "id": 302 },
        { "address": "馬渡", "city": "熊本市南区", "postcode": "8620968", "prefecture": "熊本県", "id": 303 },
        { "address": "美登里町", "city": "熊本市南区", "postcode": "8614122", "prefecture": "熊本県", "id": 304 },
        { "address": "南高江", "city": "熊本市南区", "postcode": "8614106", "prefecture": "熊本県", "id": 305 },
        { "address": "御幸木部町", "city": "熊本市南区", "postcode": "8614104", "prefecture": "熊本県", "id": 306 },
        { "address": "御幸西無田町", "city": "熊本市南区", "postcode": "8614102", "prefecture": "熊本県", "id": 307 },
        { "address": "御幸笛田町", "city": "熊本市南区", "postcode": "8614103", "prefecture": "熊本県", "id": 308 },
        { "address": "御幸木部", "city": "熊本市南区", "postcode": "8614173", "prefecture": "熊本県", "id": 309 },
        { "address": "御幸西", "city": "熊本市南区", "postcode": "8614171", "prefecture": "熊本県", "id": 310 },
        { "address": "御幸笛田", "city": "熊本市南区", "postcode": "8614172", "prefecture": "熊本県", "id": 311 },
        { "address": "無田口町", "city": "熊本市南区", "postcode": "8615261", "prefecture": "熊本県", "id": 312 },
        { "address": "元三町", "city": "熊本市南区", "postcode": "8614105", "prefecture": "熊本県", "id": 313 },
        { "address": "八幡", "city": "熊本市南区", "postcode": "8614113", "prefecture": "熊本県", "id": 314 },
        { "address": "良町", "city": "熊本市南区", "postcode": "8620969", "prefecture": "熊本県", "id": 315 },
        { "address": "流通団地", "city": "熊本市南区", "postcode": "8620967", "prefecture": "熊本県", "id": 316 },
        { "address": "麻生田", "city": "熊本市北区", "postcode": "8618081", "prefecture": "熊本県", "id": 317 },
        { "address": "改寄町", "city": "熊本市北区", "postcode": "8615501", "prefecture": "熊本県", "id": 318 },
        { "address": "和泉町", "city": "熊本市北区", "postcode": "8615533", "prefecture": "熊本県", "id": 319 },
        { "address": "植木町鐙田", "city": "熊本市北区", "postcode": "8610142", "prefecture": "熊本県", "id": 320 },
        { "address": "植木町有泉", "city": "熊本市北区", "postcode": "8610123", "prefecture": "熊本県", "id": 321 },
        { "address": "植木町石川", "city": "熊本市北区", "postcode": "8610124", "prefecture": "熊本県", "id": 322 },
        { "address": "植木町伊知坊", "city": "熊本市北区", "postcode": "8610113", "prefecture": "熊本県", "id": 323 },
        { "address": "植木町今藤", "city": "熊本市北区", "postcode": "8610104", "prefecture": "熊本県", "id": 324 },
        { "address": "植木町岩野", "city": "熊本市北区", "postcode": "8610136", "prefecture": "熊本県", "id": 325 },
        { "address": "植木町植木", "city": "熊本市北区", "postcode": "8610132", "prefecture": "熊本県", "id": 326 },
        { "address": "植木町上古閑", "city": "熊本市北区", "postcode": "8610152", "prefecture": "熊本県", "id": 327 },
        { "address": "植木町後古閑", "city": "熊本市北区", "postcode": "8610156", "prefecture": "熊本県", "id": 328 },
        { "address": "植木町内", "city": "熊本市北区", "postcode": "8610102", "prefecture": "熊本県", "id": 329 },
        { "address": "植木町円台寺", "city": "熊本市北区", "postcode": "8610153", "prefecture": "熊本県", "id": 330 },
        { "address": "植木町大井", "city": "熊本市北区", "postcode": "8610126", "prefecture": "熊本県", "id": 331 },
        { "address": "植木町荻迫", "city": "熊本市北区", "postcode": "8610145", "prefecture": "熊本県", "id": 332 },
        { "address": "植木町小野", "city": "熊本市北区", "postcode": "8610125", "prefecture": "熊本県", "id": 333 },
        { "address": "植木町亀甲", "city": "熊本市北区", "postcode": "8610127", "prefecture": "熊本県", "id": 334 },
        { "address": "植木町木留", "city": "熊本市北区", "postcode": "8610151", "prefecture": "熊本県", "id": 335 },
        { "address": "植木町清水", "city": "熊本市北区", "postcode": "8610103", "prefecture": "熊本県", "id": 336 },
        { "address": "植木町鞍掛", "city": "熊本市北区", "postcode": "8610161", "prefecture": "熊本県", "id": 337 },
        { "address": "植木町古閑", "city": "熊本市北区", "postcode": "8610122", "prefecture": "熊本県", "id": 338 },
        { "address": "植木町色出", "city": "熊本市北区", "postcode": "8610116", "prefecture": "熊本県", "id": 339 },
        { "address": "植木町正清", "city": "熊本市北区", "postcode": "8610117", "prefecture": "熊本県", "id": 340 },
        { "address": "植木町鈴麦", "city": "熊本市北区", "postcode": "8610164", "prefecture": "熊本県", "id": 341 },
        { "address": "植木町大和", "city": "熊本市北区", "postcode": "8610143", "prefecture": "熊本県", "id": 342 },
        { "address": "植木町田底", "city": "熊本市北区", "postcode": "8610112", "prefecture": "熊本県", "id": 343 },
        { "address": "植木町滴水", "city": "熊本市北区", "postcode": "8610133", "prefecture": "熊本県", "id": 344 },
        { "address": "植木町轟", "city": "熊本市北区", "postcode": "8610155", "prefecture": "熊本県", "id": 345 },
        { "address": "植木町富応", "city": "熊本市北区", "postcode": "8610162", "prefecture": "熊本県", "id": 346 },
        { "address": "植木町豊岡", "city": "熊本市北区", "postcode": "8610163", "prefecture": "熊本県", "id": 347 },
        { "address": "植木町豊田", "city": "熊本市北区", "postcode": "8610106", "prefecture": "熊本県", "id": 348 },
        { "address": "植木町投刀塚", "city": "熊本市北区", "postcode": "8610141", "prefecture": "熊本県", "id": 349 },
        { "address": "植木町那知", "city": "熊本市北区", "postcode": "8610154", "prefecture": "熊本県", "id": 350 },
        { "address": "植木町一木", "city": "熊本市北区", "postcode": "8610135", "prefecture": "熊本県", "id": 351 },
        { "address": "植木町平井", "city": "熊本市北区", "postcode": "8610121", "prefecture": "熊本県", "id": 352 },
        { "address": "植木町平野", "city": "熊本市北区", "postcode": "8610144", "prefecture": "熊本県", "id": 353 },
        { "address": "植木町平原", "city": "熊本市北区", "postcode": "8610165", "prefecture": "熊本県", "id": 354 },
        { "address": "植木町広住", "city": "熊本市北区", "postcode": "8610131", "prefecture": "熊本県", "id": 355 },
        { "address": "植木町舟島", "city": "熊本市北区", "postcode": "8610114", "prefecture": "熊本県", "id": 356 },
        { "address": "植木町辺田野", "city": "熊本市北区", "postcode": "8610146", "prefecture": "熊本県", "id": 357 },
        { "address": "植木町味取", "city": "熊本市北区", "postcode": "8610105", "prefecture": "熊本県", "id": 358 },
        { "address": "植木町宮原", "city": "熊本市北区", "postcode": "8610111", "prefecture": "熊本県", "id": 359 },
        { "address": "植木町舞尾", "city": "熊本市北区", "postcode": "8610134", "prefecture": "熊本県", "id": 360 },
        { "address": "植木町山本", "city": "熊本市北区", "postcode": "8610101", "prefecture": "熊本県", "id": 361 },
        { "address": "植木町米塚", "city": "熊本市北区", "postcode": "8610115", "prefecture": "熊本県", "id": 362 },
        { "address": "兎谷", "city": "熊本市北区", "postcode": "8618082", "prefecture": "熊本県", "id": 363 },
        { "address": "打越町", "city": "熊本市北区", "postcode": "8600086", "prefecture": "熊本県", "id": 364 },
        { "address": "大窪", "city": "熊本市北区", "postcode": "8600083", "prefecture": "熊本県", "id": 365 },
        { "address": "大鳥居町", "city": "熊本市北区", "postcode": "8615502", "prefecture": "熊本県", "id": 366 },
        { "address": "梶尾町", "city": "熊本市北区", "postcode": "8615512", "prefecture": "熊本県", "id": 367 },
        { "address": "鹿子木町", "city": "熊本市北区", "postcode": "8615521", "prefecture": "熊本県", "id": 368 },
        { "address": "釜尾町", "city": "熊本市北区", "postcode": "8615534", "prefecture": "熊本県", "id": 369 },
        { "address": "北迫町", "city": "熊本市北区", "postcode": "8615531", "prefecture": "熊本県", "id": 370 },
        { "address": "楠", "city": "熊本市北区", "postcode": "8618003", "prefecture": "熊本県", "id": 371 },
        { "address": "楠野町", "city": "熊本市北区", "postcode": "8615511", "prefecture": "熊本県", "id": 372 },
        { "address": "黒髪町坪井", "city": "熊本市北区", "postcode": "8600861", "prefecture": "熊本県", "id": 373 },
        { "address": "小糸山町", "city": "熊本市北区", "postcode": "8615504", "prefecture": "熊本県", "id": 374 },
        { "address": "清水岩倉", "city": "熊本市北区", "postcode": "8618084", "prefecture": "熊本県", "id": 375 },
        { "address": "清水亀井町", "city": "熊本市北区", "postcode": "8618066", "prefecture": "熊本県", "id": 376 },
        { "address": "清水新地", "city": "熊本市北区", "postcode": "8618075", "prefecture": "熊本県", "id": 377 },
        { "address": "清水東町", "city": "熊本市北区", "postcode": "8618065", "prefecture": "熊本県", "id": 378 },
        { "address": "清水本町", "city": "熊本市北区", "postcode": "8618074", "prefecture": "熊本県", "id": 379 },
        { "address": "清水万石", "city": "熊本市北区", "postcode": "8618068", "prefecture": "熊本県", "id": 380 },
        { "address": "清水町打越", "city": "熊本市北区", "postcode": "8600087", "prefecture": "熊本県", "id": 381 },
        { "address": "清水町松崎", "city": "熊本市北区", "postcode": "8618073", "prefecture": "熊本県", "id": 382 },
        { "address": "清水町室園", "city": "熊本市北区", "postcode": "8618071", "prefecture": "熊本県", "id": 383 },
        { "address": "下硯川", "city": "熊本市北区", "postcode": "8615526", "prefecture": "熊本県", "id": 384 },
        { "address": "下硯川町", "city": "熊本市北区", "postcode": "8615522", "prefecture": "熊本県", "id": 385 },
        { "address": "硯川町", "city": "熊本市北区", "postcode": "8615524", "prefecture": "熊本県", "id": 386 },
        { "address": "高平", "city": "熊本市北区", "postcode": "8600085", "prefecture": "熊本県", "id": 387 },
        { "address": "龍田", "city": "熊本市北区", "postcode": "8618006", "prefecture": "熊本県", "id": 388 },
        { "address": "龍田陳内", "city": "熊本市北区", "postcode": "8618005", "prefecture": "熊本県", "id": 389 },
        { "address": "龍田弓削", "city": "熊本市北区", "postcode": "8618007", "prefecture": "熊本県", "id": 390 },
        { "address": "太郎迫町", "city": "熊本市北区", "postcode": "8615532", "prefecture": "熊本県", "id": 391 },
        { "address": "鶴羽田", "city": "熊本市北区", "postcode": "8615517", "prefecture": "熊本県", "id": 392 },
        { "address": "鶴羽田町", "city": "熊本市北区", "postcode": "8615513", "prefecture": "熊本県", "id": 393 },
        { "address": "徳王", "city": "熊本市北区", "postcode": "8615525", "prefecture": "熊本県", "id": 394 },
        { "address": "徳王町", "city": "熊本市北区", "postcode": "8615523", "prefecture": "熊本県", "id": 395 },
        { "address": "西梶尾町", "city": "熊本市北区", "postcode": "8615516", "prefecture": "熊本県", "id": 396 },
        { "address": "楡木", "city": "熊本市北区", "postcode": "8618083", "prefecture": "熊本県", "id": 397 },
        { "address": "八景水谷", "city": "熊本市北区", "postcode": "8618064", "prefecture": "熊本県", "id": 398 },
        { "address": "飛田", "city": "熊本市北区", "postcode": "8615514", "prefecture": "熊本県", "id": 399 },
        { "address": "万楽寺町", "city": "熊本市北区", "postcode": "8615537", "prefecture": "熊本県", "id": 400 },
        { "address": "貢町", "city": "熊本市北区", "postcode": "8615535", "prefecture": "熊本県", "id": 401 },
        { "address": "武蔵ケ丘", "city": "熊本市北区", "postcode": "8618001", "prefecture": "熊本県", "id": 402 },
        { "address": "明徳町", "city": "熊本市北区", "postcode": "8615503", "prefecture": "熊本県", "id": 403 },
        { "address": "山室", "city": "熊本市北区", "postcode": "8600084", "prefecture": "熊本県", "id": 404 },
        { "address": "弓削", "city": "熊本市北区", "postcode": "8618002", "prefecture": "熊本県", "id": 405 },
        { "address": "四方寄町", "city": "熊本市北区", "postcode": "8615515", "prefecture": "熊本県", "id": 406 },
        { "address": "立福寺町", "city": "熊本市北区", "postcode": "8615536", "prefecture": "熊本県", "id": 407 },
        { "city": "八代市", "postcode": "8660000", "prefecture": "熊本県", "id": 408 },
        { "address": "揚町", "city": "八代市", "postcode": "8695152", "prefecture": "熊本県", "id": 409 },
        { "address": "旭中央通", "city": "八代市", "postcode": "8660844", "prefecture": "熊本県", "id": 410 },
        { "address": "海士江町", "city": "八代市", "postcode": "8660893", "prefecture": "熊本県", "id": 411 },
        { "address": "井揚町", "city": "八代市", "postcode": "8660011", "prefecture": "熊本県", "id": 412 },
        { "address": "泉町柿迫", "city": "八代市", "postcode": "8694501", "prefecture": "熊本県", "id": 413 },
        { "address": "泉町柿迫", "city": "八代市", "postcode": "8694401", "prefecture": "熊本県", "id": 414 },
        { "address": "泉町栗木", "city": "八代市", "postcode": "8694402", "prefecture": "熊本県", "id": 415 },
        { "address": "泉町久連子", "city": "八代市", "postcode": "8694513", "prefecture": "熊本県", "id": 416 },
        { "address": "泉町椎原", "city": "八代市", "postcode": "8694514", "prefecture": "熊本県", "id": 417 },
        { "address": "泉町下岳", "city": "八代市", "postcode": "8694403", "prefecture": "熊本県", "id": 418 },
        { "address": "泉町仁田尾", "city": "八代市", "postcode": "8694515", "prefecture": "熊本県", "id": 419 },
        { "address": "泉町葉木", "city": "八代市", "postcode": "8694511", "prefecture": "熊本県", "id": 420 },
        { "address": "泉町樅木", "city": "八代市", "postcode": "8694512", "prefecture": "熊本県", "id": 421 },
        { "address": "井上町", "city": "八代市", "postcode": "8660825", "prefecture": "熊本県", "id": 422 },
        { "address": "植柳上町", "city": "八代市", "postcode": "8660081", "prefecture": "熊本県", "id": 423 },
        { "address": "植柳下町", "city": "八代市", "postcode": "8660083", "prefecture": "熊本県", "id": 424 },
        { "address": "植柳新町", "city": "八代市", "postcode": "8660084", "prefecture": "熊本県", "id": 425 },
        { "address": "植柳元町", "city": "八代市", "postcode": "8660085", "prefecture": "熊本県", "id": 426 },
        { "address": "大島町", "city": "八代市", "postcode": "8660035", "prefecture": "熊本県", "id": 427 },
        { "address": "大手町", "city": "八代市", "postcode": "8660852", "prefecture": "熊本県", "id": 428 },
        { "address": "大村町", "city": "八代市", "postcode": "8660895", "prefecture": "熊本県", "id": 429 },
        { "address": "岡町小路", "city": "八代市", "postcode": "8694611", "prefecture": "熊本県", "id": 430 },
        { "address": "岡町谷川", "city": "八代市", "postcode": "8694613", "prefecture": "熊本県", "id": 431 },
        { "address": "岡町中", "city": "八代市", "postcode": "8694612", "prefecture": "熊本県", "id": 432 },
        { "address": "沖町", "city": "八代市", "postcode": "8660013", "prefecture": "熊本県", "id": 433 },
        { "address": "鏡町有佐", "city": "八代市", "postcode": "8694213", "prefecture": "熊本県", "id": 434 },
        { "address": "鏡町内田", "city": "八代市", "postcode": "8694202", "prefecture": "熊本県", "id": 435 },
        { "address": "鏡町貝洲", "city": "八代市", "postcode": "8694223", "prefecture": "熊本県", "id": 436 },
        { "address": "鏡町鏡", "city": "八代市", "postcode": "8694203", "prefecture": "熊本県", "id": 437 },
        { "address": "鏡町鏡村", "city": "八代市", "postcode": "8694201", "prefecture": "熊本県", "id": 438 },
        { "address": "鏡町上鏡", "city": "八代市", "postcode": "8694211", "prefecture": "熊本県", "id": 439 },
        { "address": "鏡町北新地", "city": "八代市", "postcode": "8694225", "prefecture": "熊本県", "id": 440 },
        { "address": "鏡町塩浜", "city": "八代市", "postcode": "8694224", "prefecture": "熊本県", "id": 441 },
        { "address": "鏡町芝口", "city": "八代市", "postcode": "8694204", "prefecture": "熊本県", "id": 442 },
        { "address": "鏡町下有佐", "city": "八代市", "postcode": "8694212", "prefecture": "熊本県", "id": 443 },
        { "address": "鏡町下村", "city": "八代市", "postcode": "8694215", "prefecture": "熊本県", "id": 444 },
        { "address": "鏡町中島", "city": "八代市", "postcode": "8694214", "prefecture": "熊本県", "id": 445 },
        { "address": "鏡町野崎", "city": "八代市", "postcode": "8694205", "prefecture": "熊本県", "id": 446 },
        { "address": "鏡町宝出", "city": "八代市", "postcode": "8694221", "prefecture": "熊本県", "id": 447 },
        { "address": "鏡町両出", "city": "八代市", "postcode": "8694222", "prefecture": "熊本県", "id": 448 },
        { "address": "上片町", "city": "八代市", "postcode": "8660813", "prefecture": "熊本県", "id": 449 },
        { "address": "上日置町", "city": "八代市", "postcode": "8660824", "prefecture": "熊本県", "id": 450 },
        { "address": "川田町東", "city": "八代市", "postcode": "8694615", "prefecture": "熊本県", "id": 451 },
        { "address": "川田町西", "city": "八代市", "postcode": "8694616", "prefecture": "熊本県", "id": 452 },
        { "address": "北の丸町", "city": "八代市", "postcode": "8660865", "prefecture": "熊本県", "id": 453 },
        { "address": "北原町", "city": "八代市", "postcode": "8695162", "prefecture": "熊本県", "id": 454 },
        { "address": "北平和町", "city": "八代市", "postcode": "8695166", "prefecture": "熊本県", "id": 455 },
        { "address": "郡築一番町", "city": "八代市", "postcode": "8660024", "prefecture": "熊本県", "id": 456 },
        { "address": "郡築二番町", "city": "八代市", "postcode": "8660023", "prefecture": "熊本県", "id": 457 },
        { "address": "郡築三番町", "city": "八代市", "postcode": "8660022", "prefecture": "熊本県", "id": 458 },
        { "address": "郡築四番町", "city": "八代市", "postcode": "8660021", "prefecture": "熊本県", "id": 459 },
        { "address": "郡築五番町", "city": "八代市", "postcode": "8660008", "prefecture": "熊本県", "id": 460 },
        { "address": "郡築六番町", "city": "八代市", "postcode": "8660007", "prefecture": "熊本県", "id": 461 },
        { "address": "郡築七番町", "city": "八代市", "postcode": "8660006", "prefecture": "熊本県", "id": 462 },
        { "address": "郡築八番町", "city": "八代市", "postcode": "8660005", "prefecture": "熊本県", "id": 463 },
        { "address": "郡築九番町", "city": "八代市", "postcode": "8660004", "prefecture": "熊本県", "id": 464 },
        { "address": "郡築十番町", "city": "八代市", "postcode": "8660003", "prefecture": "熊本県", "id": 465 },
        { "address": "郡築十一番町", "city": "八代市", "postcode": "8660002", "prefecture": "熊本県", "id": 466 },
        { "address": "郡築十二番町", "city": "八代市", "postcode": "8660001", "prefecture": "熊本県", "id": 467 },
        { "address": "高下東町", "city": "八代市", "postcode": "8660071", "prefecture": "熊本県", "id": 468 },
        { "address": "高下西町", "city": "八代市", "postcode": "8660072", "prefecture": "熊本県", "id": 469 },
        { "address": "興国町", "city": "八代市", "postcode": "8660881", "prefecture": "熊本県", "id": 470 },
        { "address": "高小原町", "city": "八代市", "postcode": "8660012", "prefecture": "熊本県", "id": 471 },
        { "address": "上野町", "city": "八代市", "postcode": "8660894", "prefecture": "熊本県", "id": 472 },
        { "address": "興善寺町", "city": "八代市", "postcode": "8694614", "prefecture": "熊本県", "id": 473 },
        { "address": "古閑上町", "city": "八代市", "postcode": "8660897", "prefecture": "熊本県", "id": 474 },
        { "address": "古閑中町", "city": "八代市", "postcode": "8660898", "prefecture": "熊本県", "id": 475 },
        { "address": "古閑下町", "city": "八代市", "postcode": "8660892", "prefecture": "熊本県", "id": 476 },
        { "address": "古閑浜町", "city": "八代市", "postcode": "8660891", "prefecture": "熊本県", "id": 477 },
        { "address": "黄金町", "city": "八代市", "postcode": "8660845", "prefecture": "熊本県", "id": 478 },
        { "address": "坂本町鮎帰", "city": "八代市", "postcode": "8696104", "prefecture": "熊本県", "id": 479 },
        { "address": "坂本町荒瀬", "city": "八代市", "postcode": "8696115", "prefecture": "熊本県", "id": 480 },
        { "address": "坂本町市ノ俣", "city": "八代市", "postcode": "8696114", "prefecture": "熊本県", "id": 481 },
        { "address": "坂本町鎌瀬", "city": "八代市", "postcode": "8696112", "prefecture": "熊本県", "id": 482 },
        { "address": "坂本町川嶽", "city": "八代市", "postcode": "8695221", "prefecture": "熊本県", "id": 483 },
        { "address": "坂本町百済来上", "city": "八代市", "postcode": "8695225", "prefecture": "熊本県", "id": 484 },
        { "address": "坂本町百済来下", "city": "八代市", "postcode": "8695224", "prefecture": "熊本県", "id": 485 },
        { "address": "坂本町西部", "city": "八代市", "postcode": "8696101", "prefecture": "熊本県", "id": 486 },
        { "address": "坂本町坂本", "city": "八代市", "postcode": "8696105", "prefecture": "熊本県", "id": 487 },
        { "address": "坂本町田上", "city": "八代市", "postcode": "8695223", "prefecture": "熊本県", "id": 488 },
        { "address": "坂本町鶴喰", "city": "八代市", "postcode": "8695222", "prefecture": "熊本県", "id": 489 },
        { "address": "坂本町中谷", "city": "八代市", "postcode": "8696103", "prefecture": "熊本県", "id": 490 },
        { "address": "坂本町中津道", "city": "八代市", "postcode": "8696113", "prefecture": "熊本県", "id": 491 },
        { "address": "坂本町葉木", "city": "八代市", "postcode": "8696111", "prefecture": "熊本県", "id": 492 },
        { "address": "坂本町深水", "city": "八代市", "postcode": "8696102", "prefecture": "熊本県", "id": 493 },
        { "address": "三楽町", "city": "八代市", "postcode": "8660017", "prefecture": "熊本県", "id": 494 },
        { "address": "塩屋町", "city": "八代市", "postcode": "8660864", "prefecture": "熊本県", "id": 495 },
        { "address": "敷川内町", "city": "八代市", "postcode": "8695151", "prefecture": "熊本県", "id": 496 },
        { "address": "島田町", "city": "八代市", "postcode": "8660827", "prefecture": "熊本県", "id": 497 },
        { "address": "清水町", "city": "八代市", "postcode": "8660853", "prefecture": "熊本県", "id": 498 },
        { "address": "蛇籠町", "city": "八代市", "postcode": "8660042", "prefecture": "熊本県", "id": 499 },
        { "address": "十条町", "city": "八代市", "postcode": "8660823", "prefecture": "熊本県", "id": 500 },
        { "address": "昭和同仁町", "city": "八代市", "postcode": "8694723", "prefecture": "熊本県", "id": 501 },
        { "address": "昭和日進町", "city": "八代市", "postcode": "8694721", "prefecture": "熊本県", "id": 502 },
        { "address": "昭和明徴町", "city": "八代市", "postcode": "8694722", "prefecture": "熊本県", "id": 503 },
        { "address": "新開町", "city": "八代市", "postcode": "8660032", "prefecture": "熊本県", "id": 504 },
        { "address": "新地町", "city": "八代市", "postcode": "8660016", "prefecture": "熊本県", "id": 505 },
        { "address": "新浜町", "city": "八代市", "postcode": "8660031", "prefecture": "熊本県", "id": 506 },
        { "address": "新町", "city": "八代市", "postcode": "8660854", "prefecture": "熊本県", "id": 507 },
        { "address": "新港町", "city": "八代市", "postcode": "8660034", "prefecture": "熊本県", "id": 508 },
        { "address": "末広町", "city": "八代市", "postcode": "8660832", "prefecture": "熊本県", "id": 509 },
        { "address": "千反町", "city": "八代市", "postcode": "8660053", "prefecture": "熊本県", "id": 510 },
        { "address": "栴檀町", "city": "八代市", "postcode": "8660054", "prefecture": "熊本県", "id": 511 },
        { "address": "千丁町太牟田", "city": "八代市", "postcode": "8694701", "prefecture": "熊本県", "id": 512 },
        { "address": "千丁町古閑出", "city": "八代市", "postcode": "8694704", "prefecture": "熊本県", "id": 513 },
        { "address": "千丁町新牟田", "city": "八代市", "postcode": "8694703", "prefecture": "熊本県", "id": 514 },
        { "address": "千丁町吉王丸", "city": "八代市", "postcode": "8694702", "prefecture": "熊本県", "id": 515 },
        { "address": "鼠蔵町", "city": "八代市", "postcode": "8695164", "prefecture": "熊本県", "id": 516 },
        { "address": "大福寺町", "city": "八代市", "postcode": "8660082", "prefecture": "熊本県", "id": 517 },
        { "address": "高植本町", "city": "八代市", "postcode": "8695154", "prefecture": "熊本県", "id": 518 },
        { "address": "高島町", "city": "八代市", "postcode": "8660014", "prefecture": "熊本県", "id": 519 },
        { "address": "鷹辻町", "city": "八代市", "postcode": "8660866", "prefecture": "熊本県", "id": 520 },
        { "address": "竹原町", "city": "八代市", "postcode": "8660826", "prefecture": "熊本県", "id": 521 },
        { "address": "建馬町", "city": "八代市", "postcode": "8660045", "prefecture": "熊本県", "id": 522 },
        { "address": "田中東町", "city": "八代市", "postcode": "8660871", "prefecture": "熊本県", "id": 523 },
        { "address": "田中西町", "city": "八代市", "postcode": "8660876", "prefecture": "熊本県", "id": 524 },
        { "address": "田中北町", "city": "八代市", "postcode": "8660877", "prefecture": "熊本県", "id": 525 },
        { "address": "田中町", "city": "八代市", "postcode": "8660872", "prefecture": "熊本県", "id": 526 },
        { "address": "築添町", "city": "八代市", "postcode": "8660015", "prefecture": "熊本県", "id": 527 },
        { "address": "出町", "city": "八代市", "postcode": "8660857", "prefecture": "熊本県", "id": 528 },
        { "address": "東陽町河俣", "city": "八代市", "postcode": "8694303", "prefecture": "熊本県", "id": 529 },
        { "address": "東陽町北", "city": "八代市", "postcode": "8694302", "prefecture": "熊本県", "id": 530 },
        { "address": "東陽町小浦", "city": "八代市", "postcode": "8694304", "prefecture": "熊本県", "id": 531 },
        { "address": "東陽町南", "city": "八代市", "postcode": "8694301", "prefecture": "熊本県", "id": 532 },
        { "address": "通町", "city": "八代市", "postcode": "8660856", "prefecture": "熊本県", "id": 533 },
        { "address": "中片町", "city": "八代市", "postcode": "8660812", "prefecture": "熊本県", "id": 534 },
        { "address": "中北町", "city": "八代市", "postcode": "8660044", "prefecture": "熊本県", "id": 535 },
        { "address": "永碇町", "city": "八代市", "postcode": "8660885", "prefecture": "熊本県", "id": 536 },
        { "address": "長田町", "city": "八代市", "postcode": "8660815", "prefecture": "熊本県", "id": 537 },
        { "address": "奈良木町", "city": "八代市", "postcode": "8660064", "prefecture": "熊本県", "id": 538 },
        { "address": "西片町", "city": "八代市", "postcode": "8660811", "prefecture": "熊本県", "id": 539 },
        { "address": "錦町", "city": "八代市", "postcode": "8660834", "prefecture": "熊本県", "id": 540 },
        { "address": "西松江城町", "city": "八代市", "postcode": "8660863", "prefecture": "熊本県", "id": 541 },
        { "address": "西宮町", "city": "八代市", "postcode": "8660804", "prefecture": "熊本県", "id": 542 },
        { "address": "萩原町", "city": "八代市", "postcode": "8660831", "prefecture": "熊本県", "id": 543 },
        { "address": "八幡町", "city": "八代市", "postcode": "8660041", "prefecture": "熊本県", "id": 544 },
        { "address": "花園町", "city": "八代市", "postcode": "8660843", "prefecture": "熊本県", "id": 545 },
        { "address": "日置町", "city": "八代市", "postcode": "8660896", "prefecture": "熊本県", "id": 546 },
        { "address": "東片町", "city": "八代市", "postcode": "8660814", "prefecture": "熊本県", "id": 547 },
        { "address": "東町", "city": "八代市", "postcode": "8660801", "prefecture": "熊本県", "id": 548 },
        { "address": "毘舎丸町", "city": "八代市", "postcode": "8660851", "prefecture": "熊本県", "id": 549 },
        { "address": "日奈久大坪町", "city": "八代市", "postcode": "8695146", "prefecture": "熊本県", "id": 550 },
        { "address": "日奈久上西町", "city": "八代市", "postcode": "8695134", "prefecture": "熊本県", "id": 551 },
        { "address": "日奈久中西町", "city": "八代市", "postcode": "8695133", "prefecture": "熊本県", "id": 552 },
        { "address": "日奈久下西町", "city": "八代市", "postcode": "8695132", "prefecture": "熊本県", "id": 553 },
        { "address": "日奈久栄町", "city": "八代市", "postcode": "8695148", "prefecture": "熊本県", "id": 554 },
        { "address": "日奈久塩南町", "city": "八代市", "postcode": "8695141", "prefecture": "熊本県", "id": 555 },
        { "address": "日奈久塩北町", "city": "八代市", "postcode": "8695142", "prefecture": "熊本県", "id": 556 },
        { "address": "日奈久新開町", "city": "八代市", "postcode": "8695147", "prefecture": "熊本県", "id": 557 },
        { "address": "日奈久新田町", "city": "八代市", "postcode": "8695145", "prefecture": "熊本県", "id": 558 },
        { "address": "日奈久竹之内町", "city": "八代市", "postcode": "8695143", "prefecture": "熊本県", "id": 559 },
        { "address": "日奈久中町", "city": "八代市", "postcode": "8695135", "prefecture": "熊本県", "id": 560 },
        { "address": "日奈久浜町", "city": "八代市", "postcode": "8695137", "prefecture": "熊本県", "id": 561 },
        { "address": "日奈久東町", "city": "八代市", "postcode": "8695136", "prefecture": "熊本県", "id": 562 },
        { "address": "日奈久平成町", "city": "八代市", "postcode": "8695138", "prefecture": "熊本県", "id": 563 },
        { "address": "日奈久馬越町", "city": "八代市", "postcode": "8695131", "prefecture": "熊本県", "id": 564 },
        { "address": "日奈久山下町", "city": "八代市", "postcode": "8695144", "prefecture": "熊本県", "id": 565 },
        { "address": "平山新町", "city": "八代市", "postcode": "8660074", "prefecture": "熊本県", "id": 566 },
        { "address": "豊原上町", "city": "八代市", "postcode": "8660063", "prefecture": "熊本県", "id": 567 },
        { "address": "豊原中町", "city": "八代市", "postcode": "8660062", "prefecture": "熊本県", "id": 568 },
        { "address": "豊原下町", "city": "八代市", "postcode": "8660065", "prefecture": "熊本県", "id": 569 },
        { "address": "福正町", "city": "八代市", "postcode": "8660821", "prefecture": "熊本県", "id": 570 },
        { "address": "福正元町", "city": "八代市", "postcode": "8660822", "prefecture": "熊本県", "id": 571 },
        { "address": "袋町", "city": "八代市", "postcode": "8660855", "prefecture": "熊本県", "id": 572 },
        { "address": "二見赤松町", "city": "八代市", "postcode": "8695173", "prefecture": "熊本県", "id": 573 },
        { "address": "二見下大野町", "city": "八代市", "postcode": "8695174", "prefecture": "熊本県", "id": 574 },
        { "address": "二見洲口町", "city": "八代市", "postcode": "8695171", "prefecture": "熊本県", "id": 575 },
        { "address": "二見野田崎町", "city": "八代市", "postcode": "8695175", "prefecture": "熊本県", "id": 576 },
        { "address": "二見本町", "city": "八代市", "postcode": "8695172", "prefecture": "熊本県", "id": 577 },
        { "address": "古城町", "city": "八代市", "postcode": "8660043", "prefecture": "熊本県", "id": 578 },
        { "address": "古麓町", "city": "八代市", "postcode": "8660803", "prefecture": "熊本県", "id": 579 },
        { "address": "本野町", "city": "八代市", "postcode": "8660073", "prefecture": "熊本県", "id": 580 },
        { "address": "本町", "city": "八代市", "postcode": "8660861", "prefecture": "熊本県", "id": 581 },
        { "address": "松江城町", "city": "八代市", "postcode": "8660862", "prefecture": "熊本県", "id": 582 },
        { "address": "松江本町", "city": "八代市", "postcode": "8660882", "prefecture": "熊本県", "id": 583 },
        { "address": "松江町", "city": "八代市", "postcode": "8660883", "prefecture": "熊本県", "id": 584 },
        { "address": "松崎町", "city": "八代市", "postcode": "8660884", "prefecture": "熊本県", "id": 585 },
        { "address": "水島町", "city": "八代市", "postcode": "8695155", "prefecture": "熊本県", "id": 586 },
        { "address": "三江湖町", "city": "八代市", "postcode": "8695163", "prefecture": "熊本県", "id": 587 },
        { "address": "緑町", "city": "八代市", "postcode": "8660841", "prefecture": "熊本県", "id": 588 },
        { "address": "港町", "city": "八代市", "postcode": "8660033", "prefecture": "熊本県", "id": 589 },
        { "address": "南平和町", "city": "八代市", "postcode": "8695165", "prefecture": "熊本県", "id": 590 },
        { "address": "宮地町", "city": "八代市", "postcode": "8660805", "prefecture": "熊本県", "id": 591 },
        { "address": "妙見町", "city": "八代市", "postcode": "8660802", "prefecture": "熊本県", "id": 592 },
        { "address": "迎町", "city": "八代市", "postcode": "8660055", "prefecture": "熊本県", "id": 593 },
        { "address": "麦島東町", "city": "八代市", "postcode": "8660051", "prefecture": "熊本県", "id": 594 },
        { "address": "麦島西町", "city": "八代市", "postcode": "8660052", "prefecture": "熊本県", "id": 595 },
        { "address": "催合町", "city": "八代市", "postcode": "8695153", "prefecture": "熊本県", "id": 596 },
        { "address": "弥生町", "city": "八代市", "postcode": "8660846", "prefecture": "熊本県", "id": 597 },
        { "address": "夕葉町", "city": "八代市", "postcode": "8660833", "prefecture": "熊本県", "id": 598 },
        { "address": "横手新町", "city": "八代市", "postcode": "8660875", "prefecture": "熊本県", "id": 599 },
        { "address": "横手本町", "city": "八代市", "postcode": "8660874", "prefecture": "熊本県", "id": 600 },
        { "address": "横手町", "city": "八代市", "postcode": "8660873", "prefecture": "熊本県", "id": 601 },
        { "address": "葭牟田町", "city": "八代市", "postcode": "8695161", "prefecture": "熊本県", "id": 602 },
        { "address": "若草町", "city": "八代市", "postcode": "8660842", "prefecture": "熊本県", "id": 603 },
        { "address": "渡町", "city": "八代市", "postcode": "8660061", "prefecture": "熊本県", "id": 604 },
        { "city": "人吉市", "postcode": "8680000", "prefecture": "熊本県", "id": 605 },
        { "address": "赤池原町", "city": "人吉市", "postcode": "8680825", "prefecture": "熊本県", "id": 606 },
        { "address": "赤池水無町", "city": "人吉市", "postcode": "8680824", "prefecture": "熊本県", "id": 607 },
        { "address": "五日町", "city": "人吉市", "postcode": "8680035", "prefecture": "熊本県", "id": 608 },
        { "address": "井ノ口町", "city": "人吉市", "postcode": "8680027", "prefecture": "熊本県", "id": 609 },
        { "address": "上原町", "city": "人吉市", "postcode": "8680047", "prefecture": "熊本県", "id": 610 },
        { "address": "老神町", "city": "人吉市", "postcode": "8680053", "prefecture": "熊本県", "id": 611 },
        { "address": "大野町", "city": "人吉市", "postcode": "8680812", "prefecture": "熊本県", "id": 612 },
        { "address": "大畑麓町", "city": "人吉市", "postcode": "8680811", "prefecture": "熊本県", "id": 613 },
        { "address": "大畑町", "city": "人吉市", "postcode": "8680803", "prefecture": "熊本県", "id": 614 },
        { "address": "鬼木町", "city": "人吉市", "postcode": "8680021", "prefecture": "熊本県", "id": 615 },
        { "address": "温泉町", "city": "人吉市", "postcode": "8680084", "prefecture": "熊本県", "id": 616 },
        { "address": "鍛冶屋町", "city": "人吉市", "postcode": "8680001", "prefecture": "熊本県", "id": 617 },
        { "address": "鹿目町", "city": "人吉市", "postcode": "8680078", "prefecture": "熊本県", "id": 618 },
        { "address": "上青井町", "city": "人吉市", "postcode": "8680005", "prefecture": "熊本県", "id": 619 },
        { "address": "上漆田町", "city": "人吉市", "postcode": "8680821", "prefecture": "熊本県", "id": 620 },
        { "address": "上薩摩瀬町", "city": "人吉市", "postcode": "8680013", "prefecture": "熊本県", "id": 621 },
        { "address": "上新町", "city": "人吉市", "postcode": "8680032", "prefecture": "熊本県", "id": 622 },
        { "address": "上田代町", "city": "人吉市", "postcode": "8680801", "prefecture": "熊本県", "id": 623 },
        { "address": "上戸越町", "city": "人吉市", "postcode": "8680076", "prefecture": "熊本県", "id": 624 },
        { "address": "上永野町", "city": "人吉市", "postcode": "8680073", "prefecture": "熊本県", "id": 625 },
        { "address": "上林町", "city": "人吉市", "postcode": "8680081", "prefecture": "熊本県", "id": 626 },
        { "address": "上原田町", "city": "人吉市", "postcode": "8680087", "prefecture": "熊本県", "id": 627 },
        { "address": "瓦屋町", "city": "人吉市", "postcode": "8680025", "prefecture": "熊本県", "id": 628 },
        { "address": "願成寺町", "city": "人吉市", "postcode": "8680022", "prefecture": "熊本県", "id": 629 },
        { "address": "蟹作町", "city": "人吉市", "postcode": "8680042", "prefecture": "熊本県", "id": 630 },
        { "address": "木地屋町", "city": "人吉市", "postcode": "8680063", "prefecture": "熊本県", "id": 631 },
        { "address": "北泉田町", "city": "人吉市", "postcode": "8680023", "prefecture": "熊本県", "id": 632 },
        { "address": "合ノ原町", "city": "人吉市", "postcode": "8680026", "prefecture": "熊本県", "id": 633 },
        { "address": "紺屋町", "city": "人吉市", "postcode": "8680003", "prefecture": "熊本県", "id": 634 },
        { "address": "九日町", "city": "人吉市", "postcode": "8680004", "prefecture": "熊本県", "id": 635 },
        { "address": "古仏頂町", "city": "人吉市", "postcode": "8680062", "prefecture": "熊本県", "id": 636 },
        { "address": "駒井田町", "city": "人吉市", "postcode": "8680006", "prefecture": "熊本県", "id": 637 },
        { "address": "相良町", "city": "人吉市", "postcode": "8680012", "prefecture": "熊本県", "id": 638 },
        { "address": "七地町", "city": "人吉市", "postcode": "8680041", "prefecture": "熊本県", "id": 639 },
        { "address": "下青井町", "city": "人吉市", "postcode": "8680007", "prefecture": "熊本県", "id": 640 },
        { "address": "下漆田町", "city": "人吉市", "postcode": "8680822", "prefecture": "熊本県", "id": 641 },
        { "address": "下薩摩瀬町", "city": "人吉市", "postcode": "8680014", "prefecture": "熊本県", "id": 642 },
        { "address": "下城本町", "city": "人吉市", "postcode": "8680015", "prefecture": "熊本県", "id": 643 },
        { "address": "下新町", "city": "人吉市", "postcode": "8680033", "prefecture": "熊本県", "id": 644 },
        { "address": "下田代町", "city": "人吉市", "postcode": "8680802", "prefecture": "熊本県", "id": 645 },
        { "address": "下戸越町", "city": "人吉市", "postcode": "8680077", "prefecture": "熊本県", "id": 646 },
        { "address": "下永野町", "city": "人吉市", "postcode": "8680074", "prefecture": "熊本県", "id": 647 },
        { "address": "下原田町", "city": "人吉市", "postcode": "8680086", "prefecture": "熊本県", "id": 648 },
        { "address": "下林町", "city": "人吉市", "postcode": "8680083", "prefecture": "熊本県", "id": 649 },
        { "address": "城本町", "city": "人吉市", "postcode": "8680016", "prefecture": "熊本県", "id": 650 },
        { "address": "新町", "city": "人吉市", "postcode": "8680052", "prefecture": "熊本県", "id": 651 },
        { "address": "大工町", "city": "人吉市", "postcode": "8680002", "prefecture": "熊本県", "id": 652 },
        { "address": "田野町", "city": "人吉市", "postcode": "8680066", "prefecture": "熊本県", "id": 653 },
        { "address": "田町", "city": "人吉市", "postcode": "8680054", "prefecture": "熊本県", "id": 654 },
        { "address": "鶴田町", "city": "人吉市", "postcode": "8680024", "prefecture": "熊本県", "id": 655 },
        { "address": "寺町", "city": "人吉市", "postcode": "8680056", "prefecture": "熊本県", "id": 656 },
        { "address": "土手町", "city": "人吉市", "postcode": "8680057", "prefecture": "熊本県", "id": 657 },
        { "address": "富ケ尾町", "city": "人吉市", "postcode": "8680048", "prefecture": "熊本県", "id": 658 },
        { "address": "中青井町", "city": "人吉市", "postcode": "8680008", "prefecture": "熊本県", "id": 659 },
        { "address": "中神町", "city": "人吉市", "postcode": "8680085", "prefecture": "熊本県", "id": 660 },
        { "address": "中林町", "city": "人吉市", "postcode": "8680082", "prefecture": "熊本県", "id": 661 },
        { "address": "七日町", "city": "人吉市", "postcode": "8680034", "prefecture": "熊本県", "id": 662 },
        { "address": "浪床町", "city": "人吉市", "postcode": "8680045", "prefecture": "熊本県", "id": 663 },
        { "address": "西間上町", "city": "人吉市", "postcode": "8680071", "prefecture": "熊本県", "id": 664 },
        { "address": "西間下町", "city": "人吉市", "postcode": "8680072", "prefecture": "熊本県", "id": 665 },
        { "address": "西大塚町", "city": "人吉市", "postcode": "8680065", "prefecture": "熊本県", "id": 666 },
        { "address": "二日町", "city": "人吉市", "postcode": "8680036", "prefecture": "熊本県", "id": 667 },
        { "address": "灰久保町", "city": "人吉市", "postcode": "8680058", "prefecture": "熊本県", "id": 668 },
        { "address": "原城町", "city": "人吉市", "postcode": "8680046", "prefecture": "熊本県", "id": 669 },
        { "address": "東間上町", "city": "人吉市", "postcode": "8680043", "prefecture": "熊本県", "id": 670 },
        { "address": "東間下町", "city": "人吉市", "postcode": "8680044", "prefecture": "熊本県", "id": 671 },
        { "address": "東漆田町", "city": "人吉市", "postcode": "8680823", "prefecture": "熊本県", "id": 672 },
        { "address": "東大塚町", "city": "人吉市", "postcode": "8680064", "prefecture": "熊本県", "id": 673 },
        { "address": "麓町", "city": "人吉市", "postcode": "8680051", "prefecture": "熊本県", "id": 674 },
        { "address": "宝来町", "city": "人吉市", "postcode": "8680011", "prefecture": "熊本県", "id": 675 },
        { "address": "南泉田町", "city": "人吉市", "postcode": "8680037", "prefecture": "熊本県", "id": 676 },
        { "address": "南願成寺町", "city": "人吉市", "postcode": "8680031", "prefecture": "熊本県", "id": 677 },
        { "address": "南町", "city": "人吉市", "postcode": "8680055", "prefecture": "熊本県", "id": 678 },
        { "address": "蓑野町", "city": "人吉市", "postcode": "8680061", "prefecture": "熊本県", "id": 679 },
        { "address": "矢黒町", "city": "人吉市", "postcode": "8680075", "prefecture": "熊本県", "id": 680 },
        { "address": "矢岳町", "city": "人吉市", "postcode": "8680813", "prefecture": "熊本県", "id": 681 },
        { "city": "荒尾市", "postcode": "8640000", "prefecture": "熊本県", "id": 682 },
        { "address": "荒尾", "city": "荒尾市", "postcode": "8640041", "prefecture": "熊本県", "id": 683 },
        { "address": "一部", "city": "荒尾市", "postcode": "8640021", "prefecture": "熊本県", "id": 684 },
        { "address": "牛水", "city": "荒尾市", "postcode": "8640026", "prefecture": "熊本県", "id": 685 },
        { "address": "大島", "city": "荒尾市", "postcode": "8640057", "prefecture": "熊本県", "id": 686 },
        { "address": "大島町", "city": "荒尾市", "postcode": "8640051", "prefecture": "熊本県", "id": 687 },
        { "address": "大平町", "city": "荒尾市", "postcode": "8640005", "prefecture": "熊本県", "id": 688 },
        { "address": "金山", "city": "荒尾市", "postcode": "8640162", "prefecture": "熊本県", "id": 689 },
        { "address": "樺", "city": "荒尾市", "postcode": "8640165", "prefecture": "熊本県", "id": 690 },
        { "address": "上井手", "city": "荒尾市", "postcode": "8640013", "prefecture": "熊本県", "id": 691 },
        { "address": "上平山", "city": "荒尾市", "postcode": "8640014", "prefecture": "熊本県", "id": 692 },
        { "address": "川登", "city": "荒尾市", "postcode": "8640031", "prefecture": "熊本県", "id": 693 },
        { "address": "川登", "city": "荒尾市", "postcode": "8640131", "prefecture": "熊本県", "id": 694 },
        { "address": "宮内", "city": "荒尾市", "postcode": "8640004", "prefecture": "熊本県", "id": 695 },
        { "address": "宮内出目", "city": "荒尾市", "postcode": "8640003", "prefecture": "熊本県", "id": 696 },
        { "address": "蔵満", "city": "荒尾市", "postcode": "8640027", "prefecture": "熊本県", "id": 697 },
        { "address": "菰屋", "city": "荒尾市", "postcode": "8640161", "prefecture": "熊本県", "id": 698 },
        { "address": "桜山町", "city": "荒尾市", "postcode": "8640022", "prefecture": "熊本県", "id": 699 },
        { "address": "下井手", "city": "荒尾市", "postcode": "8640011", "prefecture": "熊本県", "id": 700 },
        { "address": "昭和町", "city": "荒尾市", "postcode": "8640056", "prefecture": "熊本県", "id": 701 },
        { "address": "住吉町", "city": "荒尾市", "postcode": "8640006", "prefecture": "熊本県", "id": 702 },
        { "address": "大正町", "city": "荒尾市", "postcode": "8640054", "prefecture": "熊本県", "id": 703 },
        { "address": "高浜", "city": "荒尾市", "postcode": "8640025", "prefecture": "熊本県", "id": 704 },
        { "address": "西原町", "city": "荒尾市", "postcode": "8640053", "prefecture": "熊本県", "id": 705 },
        { "address": "野原", "city": "荒尾市", "postcode": "8640163", "prefecture": "熊本県", "id": 706 },
        { "address": "八幡台", "city": "荒尾市", "postcode": "8640164", "prefecture": "熊本県", "id": 707 },
        { "address": "原万田", "city": "荒尾市", "postcode": "8640001", "prefecture": "熊本県", "id": 708 },
        { "address": "東屋形", "city": "荒尾市", "postcode": "8640042", "prefecture": "熊本県", "id": 709 },
        { "address": "日の出町", "city": "荒尾市", "postcode": "8640055", "prefecture": "熊本県", "id": 710 },
        { "address": "平山", "city": "荒尾市", "postcode": "8640015", "prefecture": "熊本県", "id": 711 },
        { "address": "府本", "city": "荒尾市", "postcode": "8640166", "prefecture": "熊本県", "id": 712 },
        { "address": "本井手", "city": "荒尾市", "postcode": "8640012", "prefecture": "熊本県", "id": 713 },
        { "address": "増永", "city": "荒尾市", "postcode": "8640032", "prefecture": "熊本県", "id": 714 },
        { "address": "万田", "city": "荒尾市", "postcode": "8640002", "prefecture": "熊本県", "id": 715 },
        { "address": "水野", "city": "荒尾市", "postcode": "8640023", "prefecture": "熊本県", "id": 716 },
        { "address": "緑ケ丘", "city": "荒尾市", "postcode": "8640033", "prefecture": "熊本県", "id": 717 },
        { "address": "四ツ山町", "city": "荒尾市", "postcode": "8640052", "prefecture": "熊本県", "id": 718 },
        { "city": "水俣市", "postcode": "8670000", "prefecture": "熊本県", "id": 719 },
        { "address": "旭町", "city": "水俣市", "postcode": "8670044", "prefecture": "熊本県", "id": 720 },
        { "address": "洗切町", "city": "水俣市", "postcode": "8670063", "prefecture": "熊本県", "id": 721 },
        { "address": "石坂川", "city": "水俣市", "postcode": "8670174", "prefecture": "熊本県", "id": 722 },
        { "address": "市渡瀬", "city": "水俣市", "postcode": "8670172", "prefecture": "熊本県", "id": 723 },
        { "address": "梅戸町", "city": "水俣市", "postcode": "8670056", "prefecture": "熊本県", "id": 724 },
        { "address": "浦上町", "city": "水俣市", "postcode": "8670036", "prefecture": "熊本県", "id": 725 },
        { "address": "江添", "city": "水俣市", "postcode": "8670032", "prefecture": "熊本県", "id": 726 },
        { "address": "江南町", "city": "水俣市", "postcode": "8670022", "prefecture": "熊本県", "id": 727 },
        { "address": "大川", "city": "水俣市", "postcode": "8670283", "prefecture": "熊本県", "id": 728 },
        { "address": "大迫", "city": "水俣市", "postcode": "8670009", "prefecture": "熊本県", "id": 729 },
        { "address": "大園町", "city": "水俣市", "postcode": "8670042", "prefecture": "熊本県", "id": 730 },
        { "address": "祇園町", "city": "水俣市", "postcode": "8670057", "prefecture": "熊本県", "id": 731 },
        { "address": "久木野", "city": "水俣市", "postcode": "8670281", "prefecture": "熊本県", "id": 732 },
        { "address": "葛渡", "city": "水俣市", "postcode": "8670173", "prefecture": "熊本県", "id": 733 },
        { "address": "古賀町", "city": "水俣市", "postcode": "8670066", "prefecture": "熊本県", "id": 734 },
        { "address": "越小場", "city": "水俣市", "postcode": "8670284", "prefecture": "熊本県", "id": 735 },
        { "address": "古城", "city": "水俣市", "postcode": "8670012", "prefecture": "熊本県", "id": 736 },
        { "address": "小津奈木", "city": "水俣市", "postcode": "8670001", "prefecture": "熊本県", "id": 737 },
        { "address": "幸町", "city": "水俣市", "postcode": "8670064", "prefecture": "熊本県", "id": 738 },
        { "address": "栄町", "city": "水俣市", "postcode": "8670059", "prefecture": "熊本県", "id": 739 },
        { "address": "桜井町", "city": "水俣市", "postcode": "8670045", "prefecture": "熊本県", "id": 740 },
        { "address": "桜ケ丘", "city": "水俣市", "postcode": "8670007", "prefecture": "熊本県", "id": 741 },
        { "address": "塩浜町", "city": "水俣市", "postcode": "8670067", "prefecture": "熊本県", "id": 742 },
        { "address": "汐見町", "city": "水俣市", "postcode": "8670054", "prefecture": "熊本県", "id": 743 },
        { "address": "昭和町", "city": "水俣市", "postcode": "8670051", "prefecture": "熊本県", "id": 744 },
        { "address": "白浜町", "city": "水俣市", "postcode": "8670006", "prefecture": "熊本県", "id": 745 },
        { "address": "陣内", "city": "水俣市", "postcode": "8670011", "prefecture": "熊本県", "id": 746 },
        { "address": "薄原", "city": "水俣市", "postcode": "8670016", "prefecture": "熊本県", "id": 747 },
        { "address": "薄原", "city": "水俣市", "postcode": "8670116", "prefecture": "熊本県", "id": 748 },
        { "address": "大黒町", "city": "水俣市", "postcode": "8670043", "prefecture": "熊本県", "id": 749 },
        { "address": "多々良町", "city": "水俣市", "postcode": "8670048", "prefecture": "熊本県", "id": 750 },
        { "address": "築地", "city": "水俣市", "postcode": "8670062", "prefecture": "熊本県", "id": 751 },
        { "address": "月浦", "city": "水俣市", "postcode": "8670035", "prefecture": "熊本県", "id": 752 },
        { "address": "天神町", "city": "水俣市", "postcode": "8670041", "prefecture": "熊本県", "id": 753 },
        { "address": "中鶴", "city": "水俣市", "postcode": "8670014", "prefecture": "熊本県", "id": 754 },
        { "address": "長崎", "city": "水俣市", "postcode": "8670033", "prefecture": "熊本県", "id": 755 },
        { "address": "長野", "city": "水俣市", "postcode": "8670024", "prefecture": "熊本県", "id": 756 },
        { "address": "長野町", "city": "水俣市", "postcode": "8670013", "prefecture": "熊本県", "id": 757 },
        { "address": "南福寺", "city": "水俣市", "postcode": "8670023", "prefecture": "熊本県", "id": 758 },
        { "address": "野口町", "city": "水俣市", "postcode": "8670053", "prefecture": "熊本県", "id": 759 },
        { "address": "八ノ窪町", "city": "水俣市", "postcode": "8670031", "prefecture": "熊本県", "id": 760 },
        { "address": "八幡町", "city": "水俣市", "postcode": "8670061", "prefecture": "熊本県", "id": 761 },
        { "address": "初野", "city": "水俣市", "postcode": "8670002", "prefecture": "熊本県", "id": 762 },
        { "address": "浜", "city": "水俣市", "postcode": "8670008", "prefecture": "熊本県", "id": 763 },
        { "address": "浜町", "city": "水俣市", "postcode": "8670065", "prefecture": "熊本県", "id": 764 },
        { "address": "浜松町", "city": "水俣市", "postcode": "8670068", "prefecture": "熊本県", "id": 765 },
        { "address": "ひばりケ丘", "city": "水俣市", "postcode": "8670003", "prefecture": "熊本県", "id": 766 },
        { "address": "百間町", "city": "水俣市", "postcode": "8670049", "prefecture": "熊本県", "id": 767 },
        { "address": "平町", "city": "水俣市", "postcode": "8670021", "prefecture": "熊本県", "id": 768 },
        { "address": "深川", "city": "水俣市", "postcode": "8670015", "prefecture": "熊本県", "id": 769 },
        { "address": "袋", "city": "水俣市", "postcode": "8670034", "prefecture": "熊本県", "id": 770 },
        { "address": "古里", "city": "水俣市", "postcode": "8670282", "prefecture": "熊本県", "id": 771 },
        { "address": "宝川内", "city": "水俣市", "postcode": "8670171", "prefecture": "熊本県", "id": 772 },
        { "address": "牧ノ内", "city": "水俣市", "postcode": "8670005", "prefecture": "熊本県", "id": 773 },
        { "address": "丸島町", "city": "水俣市", "postcode": "8670058", "prefecture": "熊本県", "id": 774 },
        { "address": "緑ケ丘", "city": "水俣市", "postcode": "8670047", "prefecture": "熊本県", "id": 775 },
        { "address": "港町", "city": "水俣市", "postcode": "8670052", "prefecture": "熊本県", "id": 776 },
        { "address": "明神町", "city": "水俣市", "postcode": "8670055", "prefecture": "熊本県", "id": 777 },
        { "address": "山手町", "city": "水俣市", "postcode": "8670046", "prefecture": "熊本県", "id": 778 },
        { "address": "湯出", "city": "水俣市", "postcode": "8670025", "prefecture": "熊本県", "id": 779 },
        { "address": "わらび野", "city": "水俣市", "postcode": "8670004", "prefecture": "熊本県", "id": 780 },
        { "city": "玉名市", "postcode": "8650000", "prefecture": "熊本県", "id": 781 },
        { "address": "青木", "city": "玉名市", "postcode": "8650004", "prefecture": "熊本県", "id": 782 },
        { "address": "青野", "city": "玉名市", "postcode": "8650035", "prefecture": "熊本県", "id": 783 },
        { "address": "秋丸", "city": "玉名市", "postcode": "8650026", "prefecture": "熊本県", "id": 784 },
        { "address": "安楽寺", "city": "玉名市", "postcode": "8650014", "prefecture": "熊本県", "id": 785 },
        { "address": "伊倉南方", "city": "玉名市", "postcode": "8650045", "prefecture": "熊本県", "id": 786 },
        { "address": "伊倉北方", "city": "玉名市", "postcode": "8650041", "prefecture": "熊本県", "id": 787 },
        { "address": "石貫", "city": "玉名市", "postcode": "8650008", "prefecture": "熊本県", "id": 788 },
        { "address": "岩崎", "city": "玉名市", "postcode": "8650016", "prefecture": "熊本県", "id": 789 },
        { "address": "永徳寺", "city": "玉名市", "postcode": "8650024", "prefecture": "熊本県", "id": 790 },
        { "address": "大倉", "city": "玉名市", "postcode": "8650023", "prefecture": "熊本県", "id": 791 },
        { "address": "大浜町", "city": "玉名市", "postcode": "8650055", "prefecture": "熊本県", "id": 792 },
        { "address": "小島", "city": "玉名市", "postcode": "8650054", "prefecture": "熊本県", "id": 793 },
        { "address": "小野尻", "city": "玉名市", "postcode": "8650048", "prefecture": "熊本県", "id": 794 },
        { "address": "片諏訪", "city": "玉名市", "postcode": "8650044", "prefecture": "熊本県", "id": 795 },
        { "address": "上小田", "city": "玉名市", "postcode": "8650011", "prefecture": "熊本県", "id": 796 },
        { "address": "亀甲", "city": "玉名市", "postcode": "8650015", "prefecture": "熊本県", "id": 797 },
        { "address": "河崎", "city": "玉名市", "postcode": "8650007", "prefecture": "熊本県", "id": 798 },
        { "address": "川島", "city": "玉名市", "postcode": "8650047", "prefecture": "熊本県", "id": 799 },
        { "address": "川部田", "city": "玉名市", "postcode": "8650017", "prefecture": "熊本県", "id": 800 },
        { "address": "北坂門田", "city": "玉名市", "postcode": "8650032", "prefecture": "熊本県", "id": 801 },
        { "address": "北牟田", "city": "玉名市", "postcode": "8650046", "prefecture": "熊本県", "id": 802 },
        { "address": "小浜", "city": "玉名市", "postcode": "8650057", "prefecture": "熊本県", "id": 803 },
        { "address": "下", "city": "玉名市", "postcode": "8650013", "prefecture": "熊本県", "id": 804 },
        { "address": "下小田", "city": "玉名市", "postcode": "8650018", "prefecture": "熊本県", "id": 805 },
        { "address": "千田川原", "city": "玉名市", "postcode": "8650053", "prefecture": "熊本県", "id": 806 },
        { "address": "岱明町扇崎", "city": "玉名市", "postcode": "8690213", "prefecture": "熊本県", "id": 807 },
        { "address": "岱明町大野下", "city": "玉名市", "postcode": "8690224", "prefecture": "熊本県", "id": 808 },
        { "address": "岱明町古閑", "city": "玉名市", "postcode": "8690235", "prefecture": "熊本県", "id": 809 },
        { "address": "岱明町古閑", "city": "玉名市", "postcode": "8690233", "prefecture": "熊本県", "id": 810 },
        { "address": "岱明町西照寺", "city": "玉名市", "postcode": "8690236", "prefecture": "熊本県", "id": 811 },
        { "address": "岱明町下沖洲", "city": "玉名市", "postcode": "8690212", "prefecture": "熊本県", "id": 812 },
        { "address": "岱明町下前原", "city": "玉名市", "postcode": "8690221", "prefecture": "熊本県", "id": 813 },
        { "address": "岱明町上", "city": "玉名市", "postcode": "8690232", "prefecture": "熊本県", "id": 814 },
        { "address": "岱明町庄山", "city": "玉名市", "postcode": "8690231", "prefecture": "熊本県", "id": 815 },
        { "address": "岱明町高道", "city": "玉名市", "postcode": "8690202", "prefecture": "熊本県", "id": 816 },
        { "address": "岱明町中土", "city": "玉名市", "postcode": "8690223", "prefecture": "熊本県", "id": 817 },
        { "address": "岱明町鍋", "city": "玉名市", "postcode": "8690211", "prefecture": "熊本県", "id": 818 },
        { "address": "岱明町野口", "city": "玉名市", "postcode": "8690222", "prefecture": "熊本県", "id": 819 },
        { "address": "岱明町浜田", "city": "玉名市", "postcode": "8690203", "prefecture": "熊本県", "id": 820 },
        { "address": "岱明町開田", "city": "玉名市", "postcode": "8690238", "prefecture": "熊本県", "id": 821 },
        { "address": "岱明町三崎", "city": "玉名市", "postcode": "8690234", "prefecture": "熊本県", "id": 822 },
        { "address": "岱明町山下", "city": "玉名市", "postcode": "8690201", "prefecture": "熊本県", "id": 823 },
        { "address": "高瀬", "city": "玉名市", "postcode": "8650025", "prefecture": "熊本県", "id": 824 },
        { "address": "田崎", "city": "玉名市", "postcode": "8650031", "prefecture": "熊本県", "id": 825 },
        { "address": "玉名", "city": "玉名市", "postcode": "8650005", "prefecture": "熊本県", "id": 826 },
        { "address": "築地", "city": "玉名市", "postcode": "8650065", "prefecture": "熊本県", "id": 827 },
        { "address": "月田", "city": "玉名市", "postcode": "8650001", "prefecture": "熊本県", "id": 828 },
        { "address": "津留", "city": "玉名市", "postcode": "8650021", "prefecture": "熊本県", "id": 829 },
        { "address": "寺田", "city": "玉名市", "postcode": "8650022", "prefecture": "熊本県", "id": 830 },
        { "address": "天水町小天", "city": "玉名市", "postcode": "8615401", "prefecture": "熊本県", "id": 831 },
        { "address": "天水町尾田", "city": "玉名市", "postcode": "8615406", "prefecture": "熊本県", "id": 832 },
        { "address": "天水町竹崎", "city": "玉名市", "postcode": "8615404", "prefecture": "熊本県", "id": 833 },
        { "address": "天水町立花", "city": "玉名市", "postcode": "8615402", "prefecture": "熊本県", "id": 834 },
        { "address": "天水町野部田", "city": "玉名市", "postcode": "8615405", "prefecture": "熊本県", "id": 835 },
        { "address": "天水町部田見", "city": "玉名市", "postcode": "8615403", "prefecture": "熊本県", "id": 836 },
        { "address": "富尾", "city": "玉名市", "postcode": "8650062", "prefecture": "熊本県", "id": 837 },
        { "address": "中", "city": "玉名市", "postcode": "8650064", "prefecture": "熊本県", "id": 838 },
        { "address": "中尾", "city": "玉名市", "postcode": "8650063", "prefecture": "熊本県", "id": 839 },
        { "address": "中坂門田", "city": "玉名市", "postcode": "8650033", "prefecture": "熊本県", "id": 840 },
        { "address": "滑石", "city": "玉名市", "postcode": "8650056", "prefecture": "熊本県", "id": 841 },
        { "address": "箱谷", "city": "玉名市", "postcode": "8650002", "prefecture": "熊本県", "id": 842 },
        { "address": "繁根木", "city": "玉名市", "postcode": "8650051", "prefecture": "熊本県", "id": 843 },
        { "address": "松木", "city": "玉名市", "postcode": "8650052", "prefecture": "熊本県", "id": 844 },
        { "address": "溝上", "city": "玉名市", "postcode": "8650003", "prefecture": "熊本県", "id": 845 },
        { "address": "三ツ川", "city": "玉名市", "postcode": "8650009", "prefecture": "熊本県", "id": 846 },
        { "address": "南坂門田", "city": "玉名市", "postcode": "8650034", "prefecture": "熊本県", "id": 847 },
        { "address": "宮原", "city": "玉名市", "postcode": "8650042", "prefecture": "熊本県", "id": 848 },
        { "address": "向津留", "city": "玉名市", "postcode": "8650027", "prefecture": "熊本県", "id": 849 },
        { "address": "山田", "city": "玉名市", "postcode": "8650066", "prefecture": "熊本県", "id": 850 },
        { "address": "山部田", "city": "玉名市", "postcode": "8650012", "prefecture": "熊本県", "id": 851 },
        { "address": "横島町大園", "city": "玉名市", "postcode": "8650071", "prefecture": "熊本県", "id": 852 },
        { "address": "横島町共栄", "city": "玉名市", "postcode": "8650073", "prefecture": "熊本県", "id": 853 },
        { "address": "横島町横島", "city": "玉名市", "postcode": "8650072", "prefecture": "熊本県", "id": 854 },
        { "address": "横田", "city": "玉名市", "postcode": "8650043", "prefecture": "熊本県", "id": 855 },
        { "address": "立願寺", "city": "玉名市", "postcode": "8650061", "prefecture": "熊本県", "id": 856 },
        { "address": "両迫間", "city": "玉名市", "postcode": "8650006", "prefecture": "熊本県", "id": 857 },
        { "address": "六田", "city": "玉名市", "postcode": "8650058", "prefecture": "熊本県", "id": 858 },
        { "city": "山鹿市", "postcode": "8610500", "prefecture": "熊本県", "id": 859 },
        { "address": "麻生野", "city": "山鹿市", "postcode": "8610547", "prefecture": "熊本県", "id": 860 },
        { "address": "石", "city": "山鹿市", "postcode": "8610553", "prefecture": "熊本県", "id": 861 },
        { "address": "泉町", "city": "山鹿市", "postcode": "8610512", "prefecture": "熊本県", "id": 862 },
        { "address": "大橋通", "city": "山鹿市", "postcode": "8610517", "prefecture": "熊本県", "id": 863 },
        { "address": "小坂", "city": "山鹿市", "postcode": "8610521", "prefecture": "熊本県", "id": 864 },
        { "address": "小原", "city": "山鹿市", "postcode": "8610543", "prefecture": "熊本県", "id": 865 },
        { "address": "小群", "city": "山鹿市", "postcode": "8610555", "prefecture": "熊本県", "id": 866 },
        { "address": "鹿央町合里", "city": "山鹿市", "postcode": "8610565", "prefecture": "熊本県", "id": 867 },
        { "address": "鹿央町岩原", "city": "山鹿市", "postcode": "8610561", "prefecture": "熊本県", "id": 868 },
        { "address": "鹿央町梅木谷", "city": "山鹿市", "postcode": "8610574", "prefecture": "熊本県", "id": 869 },
        { "address": "鹿央町大浦", "city": "山鹿市", "postcode": "8610576", "prefecture": "熊本県", "id": 870 },
        { "address": "鹿央町北谷", "city": "山鹿市", "postcode": "8610571", "prefecture": "熊本県", "id": 871 },
        { "address": "鹿央町霜野", "city": "山鹿市", "postcode": "8610573", "prefecture": "熊本県", "id": 872 },
        { "address": "鹿央町千田", "city": "山鹿市", "postcode": "8610563", "prefecture": "熊本県", "id": 873 },
        { "address": "鹿央町中浦", "city": "山鹿市", "postcode": "8610575", "prefecture": "熊本県", "id": 874 },
        { "address": "鹿央町仁王堂", "city": "山鹿市", "postcode": "8610572", "prefecture": "熊本県", "id": 875 },
        { "address": "鹿央町広", "city": "山鹿市", "postcode": "8610564", "prefecture": "熊本県", "id": 876 },
        { "address": "鹿央町持松", "city": "山鹿市", "postcode": "8610562", "prefecture": "熊本県", "id": 877 },
        { "address": "鹿校通", "city": "山鹿市", "postcode": "8610532", "prefecture": "熊本県", "id": 878 },
        { "address": "方保田", "city": "山鹿市", "postcode": "8610382", "prefecture": "熊本県", "id": 879 },
        { "address": "鹿北町芋生", "city": "山鹿市", "postcode": "8610602", "prefecture": "熊本県", "id": 880 },
        { "address": "鹿北町岩野", "city": "山鹿市", "postcode": "8610603", "prefecture": "熊本県", "id": 881 },
        { "address": "鹿北町椎持", "city": "山鹿市", "postcode": "8610604", "prefecture": "熊本県", "id": 882 },
        { "address": "鹿北町四丁", "city": "山鹿市", "postcode": "8610601", "prefecture": "熊本県", "id": 883 },
        { "address": "鹿北町多久", "city": "山鹿市", "postcode": "8610605", "prefecture": "熊本県", "id": 884 },
        { "address": "上吉田", "city": "山鹿市", "postcode": "8610524", "prefecture": "熊本県", "id": 885 },
        { "address": "蒲生", "city": "山鹿市", "postcode": "8610523", "prefecture": "熊本県", "id": 886 },
        { "address": "鹿本町石渕", "city": "山鹿市", "postcode": "8610311", "prefecture": "熊本県", "id": 887 },
        { "address": "鹿本町小嶋", "city": "山鹿市", "postcode": "8610315", "prefecture": "熊本県", "id": 888 },
        { "address": "鹿本町梶屋", "city": "山鹿市", "postcode": "8610312", "prefecture": "熊本県", "id": 889 },
        { "address": "鹿本町来民", "city": "山鹿市", "postcode": "8610331", "prefecture": "熊本県", "id": 890 },
        { "address": "鹿本町小柳", "city": "山鹿市", "postcode": "8610324", "prefecture": "熊本県", "id": 891 },
        { "address": "鹿本町下高橋", "city": "山鹿市", "postcode": "8610316", "prefecture": "熊本県", "id": 892 },
        { "address": "鹿本町下分田", "city": "山鹿市", "postcode": "8610323", "prefecture": "熊本県", "id": 893 },
        { "address": "鹿本町庄", "city": "山鹿市", "postcode": "8610301", "prefecture": "熊本県", "id": 894 },
        { "address": "鹿本町高橋", "city": "山鹿市", "postcode": "8610303", "prefecture": "熊本県", "id": 895 },
        { "address": "鹿本町津袋", "city": "山鹿市", "postcode": "8610302", "prefecture": "熊本県", "id": 896 },
        { "address": "鹿本町中川", "city": "山鹿市", "postcode": "8610314", "prefecture": "熊本県", "id": 897 },
        { "address": "鹿本町中富", "city": "山鹿市", "postcode": "8610313", "prefecture": "熊本県", "id": 898 },
        { "address": "鹿本町中分田", "city": "山鹿市", "postcode": "8610322", "prefecture": "熊本県", "id": 899 },
        { "address": "鹿本町分田", "city": "山鹿市", "postcode": "8610321", "prefecture": "熊本県", "id": 900 },
        { "address": "鹿本町御宇田", "city": "山鹿市", "postcode": "8610304", "prefecture": "熊本県", "id": 901 },
        { "address": "川端町", "city": "山鹿市", "postcode": "8610519", "prefecture": "熊本県", "id": 902 },
        { "address": "菊鹿町相良", "city": "山鹿市", "postcode": "8610412", "prefecture": "熊本県", "id": 903 },
        { "address": "菊鹿町阿佐古", "city": "山鹿市", "postcode": "8610421", "prefecture": "熊本県", "id": 904 },
        { "address": "菊鹿町池永", "city": "山鹿市", "postcode": "8610423", "prefecture": "熊本県", "id": 905 },
        { "address": "菊鹿町太田", "city": "山鹿市", "postcode": "8610402", "prefecture": "熊本県", "id": 906 },
        { "address": "菊鹿町上内田", "city": "山鹿市", "postcode": "8610414", "prefecture": "熊本県", "id": 907 },
        { "address": "菊鹿町上永野", "city": "山鹿市", "postcode": "8610404", "prefecture": "熊本県", "id": 908 },
        { "address": "菊鹿町木野", "city": "山鹿市", "postcode": "8610426", "prefecture": "熊本県", "id": 909 },
        { "address": "菊鹿町五郎丸", "city": "山鹿市", "postcode": "8610403", "prefecture": "熊本県", "id": 910 },
        { "address": "菊鹿町下内田", "city": "山鹿市", "postcode": "8610406", "prefecture": "熊本県", "id": 911 },
        { "address": "菊鹿町下永野", "city": "山鹿市", "postcode": "8610405", "prefecture": "熊本県", "id": 912 },
        { "address": "菊鹿町長", "city": "山鹿市", "postcode": "8610401", "prefecture": "熊本県", "id": 913 },
        { "address": "菊鹿町松尾", "city": "山鹿市", "postcode": "8610424", "prefecture": "熊本県", "id": 914 },
        { "address": "菊鹿町宮原", "city": "山鹿市", "postcode": "8610422", "prefecture": "熊本県", "id": 915 },
        { "address": "菊鹿町矢谷", "city": "山鹿市", "postcode": "8610413", "prefecture": "熊本県", "id": 916 },
        { "address": "菊鹿町山内", "city": "山鹿市", "postcode": "8610411", "prefecture": "熊本県", "id": 917 },
        { "address": "菊鹿町米原", "city": "山鹿市", "postcode": "8610425", "prefecture": "熊本県", "id": 918 },
        { "address": "久原", "city": "山鹿市", "postcode": "8610522", "prefecture": "熊本県", "id": 919 },
        { "address": "熊入町", "city": "山鹿市", "postcode": "8610511", "prefecture": "熊本県", "id": 920 },
        { "address": "古閑", "city": "山鹿市", "postcode": "8610533", "prefecture": "熊本県", "id": 921 },
        { "address": "坂田", "city": "山鹿市", "postcode": "8610546", "prefecture": "熊本県", "id": 922 },
        { "address": "志々岐", "city": "山鹿市", "postcode": "8610542", "prefecture": "熊本県", "id": 923 },
        { "address": "下吉田", "city": "山鹿市", "postcode": "8610526", "prefecture": "熊本県", "id": 924 },
        { "address": "城", "city": "山鹿市", "postcode": "8610554", "prefecture": "熊本県", "id": 925 },
        { "address": "昭和町", "city": "山鹿市", "postcode": "8610515", "prefecture": "熊本県", "id": 926 },
        { "address": "新町", "city": "山鹿市", "postcode": "8610514", "prefecture": "熊本県", "id": 927 },
        { "address": "杉", "city": "山鹿市", "postcode": "8610552", "prefecture": "熊本県", "id": 928 },
        { "address": "中央通", "city": "山鹿市", "postcode": "8610516", "prefecture": "熊本県", "id": 929 },
        { "address": "椿井", "city": "山鹿市", "postcode": "8610548", "prefecture": "熊本県", "id": 930 },
        { "address": "津留", "city": "山鹿市", "postcode": "8610551", "prefecture": "熊本県", "id": 931 },
        { "address": "寺島", "city": "山鹿市", "postcode": "8610527", "prefecture": "熊本県", "id": 932 },
        { "address": "中", "city": "山鹿市", "postcode": "8610531", "prefecture": "熊本県", "id": 933 },
        { "address": "長坂", "city": "山鹿市", "postcode": "8610534", "prefecture": "熊本県", "id": 934 },
        { "address": "名塚", "city": "山鹿市", "postcode": "8610525", "prefecture": "熊本県", "id": 935 },
        { "address": "鍋田", "city": "山鹿市", "postcode": "8610541", "prefecture": "熊本県", "id": 936 },
        { "address": "西牧", "city": "山鹿市", "postcode": "8610545", "prefecture": "熊本県", "id": 937 },
        { "address": "平山", "city": "山鹿市", "postcode": "8610556", "prefecture": "熊本県", "id": 938 },
        { "address": "藤井", "city": "山鹿市", "postcode": "8610381", "prefecture": "熊本県", "id": 939 },
        { "address": "保多田", "city": "山鹿市", "postcode": "8610544", "prefecture": "熊本県", "id": 940 },
        { "address": "南島", "city": "山鹿市", "postcode": "8610535", "prefecture": "熊本県", "id": 941 },
        { "address": "宗方", "city": "山鹿市", "postcode": "8610513", "prefecture": "熊本県", "id": 942 },
        { "address": "宗方通", "city": "山鹿市", "postcode": "8610518", "prefecture": "熊本県", "id": 943 },
        { "address": "山鹿", "city": "山鹿市", "postcode": "8610501", "prefecture": "熊本県", "id": 944 },
        { "city": "菊池市", "postcode": "8611300", "prefecture": "熊本県", "id": 945 },
        { "address": "赤星", "city": "菊池市", "postcode": "8611311", "prefecture": "熊本県", "id": 946 },
        { "address": "市野瀬", "city": "菊池市", "postcode": "8611686", "prefecture": "熊本県", "id": 947 },
        { "address": "出田", "city": "菊池市", "postcode": "8611313", "prefecture": "熊本県", "id": 948 },
        { "address": "今", "city": "菊池市", "postcode": "8611303", "prefecture": "熊本県", "id": 949 },
        { "address": "大平", "city": "菊池市", "postcode": "8611683", "prefecture": "熊本県", "id": 950 },
        { "address": "小木", "city": "菊池市", "postcode": "8611673", "prefecture": "熊本県", "id": 951 },
        { "address": "片角", "city": "菊池市", "postcode": "8611307", "prefecture": "熊本県", "id": 952 },
        { "address": "木柑子", "city": "菊池市", "postcode": "8611315", "prefecture": "熊本県", "id": 953 },
        { "address": "北宮", "city": "菊池市", "postcode": "8611305", "prefecture": "熊本県", "id": 954 },
        { "address": "木野", "city": "菊池市", "postcode": "8611326", "prefecture": "熊本県", "id": 955 },
        { "address": "旭志伊坂", "city": "菊池市", "postcode": "8691206", "prefecture": "熊本県", "id": 956 },
        { "address": "旭志伊萩", "city": "菊池市", "postcode": "8691208", "prefecture": "熊本県", "id": 957 },
        { "address": "旭志尾足", "city": "菊池市", "postcode": "8691203", "prefecture": "熊本県", "id": 958 },
        { "address": "旭志小原", "city": "菊池市", "postcode": "8691204", "prefecture": "熊本県", "id": 959 },
        { "address": "旭志川辺", "city": "菊池市", "postcode": "8691205", "prefecture": "熊本県", "id": 960 },
        { "address": "旭志新明", "city": "菊池市", "postcode": "8691207", "prefecture": "熊本県", "id": 961 },
        { "address": "旭志麓", "city": "菊池市", "postcode": "8691202", "prefecture": "熊本県", "id": 962 },
        { "address": "旭志弁利", "city": "菊池市", "postcode": "8691201", "prefecture": "熊本県", "id": 963 },
        { "address": "玉祥寺", "city": "菊池市", "postcode": "8611322", "prefecture": "熊本県", "id": 964 },
        { "address": "袈裟尾", "city": "菊池市", "postcode": "8611325", "prefecture": "熊本県", "id": 965 },
        { "address": "木庭", "city": "菊池市", "postcode": "8611301", "prefecture": "熊本県", "id": 966 },
        { "address": "重味", "city": "菊池市", "postcode": "8611682", "prefecture": "熊本県", "id": 967 },
        { "address": "泗水町亀尾", "city": "菊池市", "postcode": "8611211", "prefecture": "熊本県", "id": 968 },
        { "address": "泗水町住吉", "city": "菊池市", "postcode": "8611203", "prefecture": "熊本県", "id": 969 },
        { "address": "泗水町田島", "city": "菊池市", "postcode": "8611214", "prefecture": "熊本県", "id": 970 },
        { "address": "泗水町富納", "city": "菊池市", "postcode": "8611202", "prefecture": "熊本県", "id": 971 },
        { "address": "泗水町豊水", "city": "菊池市", "postcode": "8611212", "prefecture": "熊本県", "id": 972 },
        { "address": "泗水町永", "city": "菊池市", "postcode": "8611204", "prefecture": "熊本県", "id": 973 },
        { "address": "泗水町福本", "city": "菊池市", "postcode": "8611205", "prefecture": "熊本県", "id": 974 },
        { "address": "泗水町南田島", "city": "菊池市", "postcode": "8611213", "prefecture": "熊本県", "id": 975 },
        { "address": "泗水町吉富", "city": "菊池市", "postcode": "8611201", "prefecture": "熊本県", "id": 976 },
        { "address": "七城町荒牧", "city": "菊池市", "postcode": "8611363", "prefecture": "熊本県", "id": 977 },
        { "address": "七城町台", "city": "菊池市", "postcode": "8611365", "prefecture": "熊本県", "id": 978 },
        { "address": "七城町岡田", "city": "菊池市", "postcode": "8611368", "prefecture": "熊本県", "id": 979 },
        { "address": "七城町小野崎", "city": "菊池市", "postcode": "8611345", "prefecture": "熊本県", "id": 980 },
        { "address": "七城町加恵", "city": "菊池市", "postcode": "8611356", "prefecture": "熊本県", "id": 981 },
        { "address": "七城町亀尾", "city": "菊池市", "postcode": "8611342", "prefecture": "熊本県", "id": 982 },
        { "address": "七城町清水", "city": "菊池市", "postcode": "8611341", "prefecture": "熊本県", "id": 983 },
        { "address": "七城町甲佐町", "city": "菊池市", "postcode": "8611353", "prefecture": "熊本県", "id": 984 },
        { "address": "七城町菰入", "city": "菊池市", "postcode": "8611354", "prefecture": "熊本県", "id": 985 },
        { "address": "七城町新古閑", "city": "菊池市", "postcode": "8611352", "prefecture": "熊本県", "id": 986 },
        { "address": "七城町砂田", "city": "菊池市", "postcode": "8611351", "prefecture": "熊本県", "id": 987 },
        { "address": "七城町瀬戸口", "city": "菊池市", "postcode": "8611366", "prefecture": "熊本県", "id": 988 },
        { "address": "七城町蘇崎", "city": "菊池市", "postcode": "8611344", "prefecture": "熊本県", "id": 989 },
        { "address": "七城町高島", "city": "菊池市", "postcode": "8611355", "prefecture": "熊本県", "id": 990 },
        { "address": "七城町高田", "city": "菊池市", "postcode": "8611357", "prefecture": "熊本県", "id": 991 },
        { "address": "七城町流川", "city": "菊池市", "postcode": "8611367", "prefecture": "熊本県", "id": 992 },
        { "address": "七城町橋田", "city": "菊池市", "postcode": "8611346", "prefecture": "熊本県", "id": 993 },
        { "address": "七城町林原", "city": "菊池市", "postcode": "8611343", "prefecture": "熊本県", "id": 994 },
        { "address": "七城町辺田", "city": "菊池市", "postcode": "8611364", "prefecture": "熊本県", "id": 995 },
        { "address": "七城町水次", "city": "菊池市", "postcode": "8611361", "prefecture": "熊本県", "id": 996 },
        { "address": "七城町山崎", "city": "菊池市", "postcode": "8611362", "prefecture": "熊本県", "id": 997 },
        { "address": "四町分", "city": "菊池市", "postcode": "8611442", "prefecture": "熊本県", "id": 998 },
        { "address": "下河原", "city": "菊池市", "postcode": "8611302", "prefecture": "熊本県", "id": 999 },
        { "address": "大琳寺", "city": "菊池市", "postcode": "8611306", "prefecture": "熊本県", "id": 1000 },
        { "address": "豊間", "city": "菊池市", "postcode": "8611684", "prefecture": "熊本県", "id": 1001 },
        { "address": "長田", "city": "菊池市", "postcode": "8611316", "prefecture": "熊本県", "id": 1002 },
        { "address": "西寺", "city": "菊池市", "postcode": "8611323", "prefecture": "熊本県", "id": 1003 },
        { "address": "西迫間", "city": "菊池市", "postcode": "8611685", "prefecture": "熊本県", "id": 1004 },
        { "address": "野間口", "city": "菊池市", "postcode": "8611324", "prefecture": "熊本県", "id": 1005 },
        { "address": "原", "city": "菊池市", "postcode": "8611441", "prefecture": "熊本県", "id": 1006 },
        { "address": "班蛇口", "city": "菊池市", "postcode": "8611671", "prefecture": "熊本県", "id": 1007 },
        { "address": "稗方", "city": "菊池市", "postcode": "8611321", "prefecture": "熊本県", "id": 1008 },
        { "address": "広瀬", "city": "菊池市", "postcode": "8611314", "prefecture": "熊本県", "id": 1009 },
        { "address": "深川", "city": "菊池市", "postcode": "8611304", "prefecture": "熊本県", "id": 1010 },
        { "address": "藤田", "city": "菊池市", "postcode": "8611309", "prefecture": "熊本県", "id": 1011 },
        { "address": "村田", "city": "菊池市", "postcode": "8611317", "prefecture": "熊本県", "id": 1012 },
        { "address": "森北", "city": "菊池市", "postcode": "8611312", "prefecture": "熊本県", "id": 1013 },
        { "address": "雪野", "city": "菊池市", "postcode": "8611681", "prefecture": "熊本県", "id": 1014 },
        { "address": "龍門", "city": "菊池市", "postcode": "8611672", "prefecture": "熊本県", "id": 1015 },
        { "address": "隈府", "city": "菊池市", "postcode": "8611331", "prefecture": "熊本県", "id": 1016 },
        { "address": "亘", "city": "菊池市", "postcode": "8611308", "prefecture": "熊本県", "id": 1017 },
        { "city": "宇土市", "postcode": "8690400", "prefecture": "熊本県", "id": 1018 },
        { "address": "赤瀬町", "city": "宇土市", "postcode": "8693175", "prefecture": "熊本県", "id": 1019 },
        { "address": "旭町", "city": "宇土市", "postcode": "8690432", "prefecture": "熊本県", "id": 1020 },
        { "address": "網引町", "city": "宇土市", "postcode": "8690465", "prefecture": "熊本県", "id": 1021 },
        { "address": "網津町", "city": "宇土市", "postcode": "8690461", "prefecture": "熊本県", "id": 1022 },
        { "address": "石小路町", "city": "宇土市", "postcode": "8690441", "prefecture": "熊本県", "id": 1023 },
        { "address": "石橋町", "city": "宇土市", "postcode": "8690456", "prefecture": "熊本県", "id": 1024 },
        { "address": "一里木町", "city": "宇土市", "postcode": "8690435", "prefecture": "熊本県", "id": 1025 },
        { "address": "伊無田町", "city": "宇土市", "postcode": "8690423", "prefecture": "熊本県", "id": 1026 },
        { "address": "入地町", "city": "宇土市", "postcode": "8690422", "prefecture": "熊本県", "id": 1027 },
        { "address": "岩古曽町", "city": "宇土市", "postcode": "8690412", "prefecture": "熊本県", "id": 1028 },
        { "address": "馬之瀬町", "city": "宇土市", "postcode": "8690405", "prefecture": "熊本県", "id": 1029 },
        { "address": "浦田町", "city": "宇土市", "postcode": "8690445", "prefecture": "熊本県", "id": 1030 },
        { "address": "恵塚町", "city": "宇土市", "postcode": "8690464", "prefecture": "熊本県", "id": 1031 },
        { "address": "上網田町", "city": "宇土市", "postcode": "8693172", "prefecture": "熊本県", "id": 1032 },
        { "address": "北段原町", "city": "宇土市", "postcode": "8690451", "prefecture": "熊本県", "id": 1033 },
        { "address": "栗崎町", "city": "宇土市", "postcode": "8690425", "prefecture": "熊本県", "id": 1034 },
        { "address": "神合町", "city": "宇土市", "postcode": "8690426", "prefecture": "熊本県", "id": 1035 },
        { "address": "古保里町", "city": "宇土市", "postcode": "8690415", "prefecture": "熊本県", "id": 1036 },
        { "address": "古城町", "city": "宇土市", "postcode": "8690454", "prefecture": "熊本県", "id": 1037 },
        { "address": "境目町", "city": "宇土市", "postcode": "8690417", "prefecture": "熊本県", "id": 1038 },
        { "address": "栄町", "city": "宇土市", "postcode": "8690453", "prefecture": "熊本県", "id": 1039 },
        { "address": "笹原町", "city": "宇土市", "postcode": "8690402", "prefecture": "熊本県", "id": 1040 },
        { "address": "三拾町", "city": "宇土市", "postcode": "8690406", "prefecture": "熊本県", "id": 1041 },
        { "address": "下網田町", "city": "宇土市", "postcode": "8693173", "prefecture": "熊本県", "id": 1042 },
        { "address": "城塚町", "city": "宇土市", "postcode": "8690462", "prefecture": "熊本県", "id": 1043 },
        { "address": "城之浦町", "city": "宇土市", "postcode": "8690442", "prefecture": "熊本県", "id": 1044 },
        { "address": "定府町", "city": "宇土市", "postcode": "8690436", "prefecture": "熊本県", "id": 1045 },
        { "address": "新開町", "city": "宇土市", "postcode": "8690403", "prefecture": "熊本県", "id": 1046 },
        { "address": "新小路町", "city": "宇土市", "postcode": "8690433", "prefecture": "熊本県", "id": 1047 },
        { "address": "新町", "city": "宇土市", "postcode": "8690444", "prefecture": "熊本県", "id": 1048 },
        { "address": "新松原町", "city": "宇土市", "postcode": "8690419", "prefecture": "熊本県", "id": 1049 },
        { "address": "神馬町", "city": "宇土市", "postcode": "8690424", "prefecture": "熊本県", "id": 1050 },
        { "address": "住吉町", "city": "宇土市", "postcode": "8690401", "prefecture": "熊本県", "id": 1051 },
        { "address": "善道寺町", "city": "宇土市", "postcode": "8690418", "prefecture": "熊本県", "id": 1052 },
        { "address": "船場町", "city": "宇土市", "postcode": "8690443", "prefecture": "熊本県", "id": 1053 },
        { "address": "高柳町", "city": "宇土市", "postcode": "8690452", "prefecture": "熊本県", "id": 1054 },
        { "address": "立岡町", "city": "宇土市", "postcode": "8690414", "prefecture": "熊本県", "id": 1055 },
        { "address": "築籠町", "city": "宇土市", "postcode": "8690408", "prefecture": "熊本県", "id": 1056 },
        { "address": "椿原町", "city": "宇土市", "postcode": "8690455", "prefecture": "熊本県", "id": 1057 },
        { "address": "戸口町", "city": "宇土市", "postcode": "8693174", "prefecture": "熊本県", "id": 1058 },
        { "address": "長浜町", "city": "宇土市", "postcode": "8693171", "prefecture": "熊本県", "id": 1059 },
        { "address": "野鶴町", "city": "宇土市", "postcode": "8690463", "prefecture": "熊本県", "id": 1060 },
        { "address": "走潟町", "city": "宇土市", "postcode": "8690404", "prefecture": "熊本県", "id": 1061 },
        { "address": "花園台町", "city": "宇土市", "postcode": "8690410", "prefecture": "熊本県", "id": 1062 },
        { "address": "花園町", "city": "宇土市", "postcode": "8690413", "prefecture": "熊本県", "id": 1063 },
        { "address": "本町", "city": "宇土市", "postcode": "8690431", "prefecture": "熊本県", "id": 1064 },
        { "address": "松原町", "city": "宇土市", "postcode": "8690407", "prefecture": "熊本県", "id": 1065 },
        { "address": "松山町", "city": "宇土市", "postcode": "8690416", "prefecture": "熊本県", "id": 1066 },
        { "address": "水町", "city": "宇土市", "postcode": "8690411", "prefecture": "熊本県", "id": 1067 },
        { "address": "南段原町", "city": "宇土市", "postcode": "8690421", "prefecture": "熊本県", "id": 1068 },
        { "address": "宮庄町", "city": "宇土市", "postcode": "8690457", "prefecture": "熊本県", "id": 1069 },
        { "address": "門内町", "city": "宇土市", "postcode": "8690434", "prefecture": "熊本県", "id": 1070 },
        { "city": "上天草市", "postcode": "8693600", "prefecture": "熊本県", "id": 1071 },
        { "address": "大矢野町維和", "city": "上天草市", "postcode": "8693604", "prefecture": "熊本県", "id": 1072 },
        { "address": "大矢野町上", "city": "上天草市", "postcode": "8693602", "prefecture": "熊本県", "id": 1073 },
        { "address": "大矢野町中", "city": "上天草市", "postcode": "8693603", "prefecture": "熊本県", "id": 1074 },
        { "address": "大矢野町登立", "city": "上天草市", "postcode": "8693601", "prefecture": "熊本県", "id": 1075 },
        { "address": "大矢野町湯島", "city": "上天草市", "postcode": "8693711", "prefecture": "熊本県", "id": 1076 },
        { "address": "姫戸町姫浦", "city": "上天草市", "postcode": "8660101", "prefecture": "熊本県", "id": 1077 },
        { "address": "姫戸町二間戸", "city": "上天草市", "postcode": "8660102", "prefecture": "熊本県", "id": 1078 },
        { "address": "松島町合津", "city": "上天草市", "postcode": "8616102", "prefecture": "熊本県", "id": 1079 },
        { "address": "松島町阿村", "city": "上天草市", "postcode": "8616101", "prefecture": "熊本県", "id": 1080 },
        { "address": "松島町今泉", "city": "上天草市", "postcode": "8616103", "prefecture": "熊本県", "id": 1081 },
        { "address": "松島町内野河内", "city": "上天草市", "postcode": "8616104", "prefecture": "熊本県", "id": 1082 },
        { "address": "松島町教良木", "city": "上天草市", "postcode": "8616105", "prefecture": "熊本県", "id": 1083 },
        { "address": "龍ケ岳町大道", "city": "上天草市", "postcode": "8660201", "prefecture": "熊本県", "id": 1084 },
        { "address": "龍ケ岳町高戸", "city": "上天草市", "postcode": "8660202", "prefecture": "熊本県", "id": 1085 },
        { "address": "龍ケ岳町樋島", "city": "上天草市", "postcode": "8660203", "prefecture": "熊本県", "id": 1086 },
        { "city": "宇城市", "postcode": "8690500", "prefecture": "熊本県", "id": 1087 },
        { "address": "小川町江頭", "city": "宇城市", "postcode": "8690624", "prefecture": "熊本県", "id": 1088 },
        { "address": "小川町小川", "city": "宇城市", "postcode": "8690621", "prefecture": "熊本県", "id": 1089 },
        { "address": "小川町川尻", "city": "宇城市", "postcode": "8690623", "prefecture": "熊本県", "id": 1090 },
        { "address": "小川町北小野", "city": "宇城市", "postcode": "8690601", "prefecture": "熊本県", "id": 1091 },
        { "address": "小川町北海東", "city": "宇城市", "postcode": "8690616", "prefecture": "熊本県", "id": 1092 },
        { "address": "小川町北新田", "city": "宇城市", "postcode": "8690631", "prefecture": "熊本県", "id": 1093 },
        { "address": "小川町北部田", "city": "宇城市", "postcode": "8690604", "prefecture": "熊本県", "id": 1094 },
        { "address": "小川町河江", "city": "宇城市", "postcode": "8690606", "prefecture": "熊本県", "id": 1095 },
        { "address": "小川町不知火", "city": "宇城市", "postcode": "8690635", "prefecture": "熊本県", "id": 1096 },
        { "address": "小川町新田", "city": "宇城市", "postcode": "8690633", "prefecture": "熊本県", "id": 1097 },
        { "address": "小川町新田出", "city": "宇城市", "postcode": "8690636", "prefecture": "熊本県", "id": 1098 },
        { "address": "小川町住吉", "city": "宇城市", "postcode": "8690634", "prefecture": "熊本県", "id": 1099 },
        { "address": "小川町中小野", "city": "宇城市", "postcode": "8690602", "prefecture": "熊本県", "id": 1100 },
        { "address": "小川町西海東", "city": "宇城市", "postcode": "8690615", "prefecture": "熊本県", "id": 1101 },
        { "address": "小川町西北小川", "city": "宇城市", "postcode": "8690622", "prefecture": "熊本県", "id": 1102 },
        { "address": "小川町東小川", "city": "宇城市", "postcode": "8690613", "prefecture": "熊本県", "id": 1103 },
        { "address": "小川町東海東", "city": "宇城市", "postcode": "8690611", "prefecture": "熊本県", "id": 1104 },
        { "address": "小川町南小川", "city": "宇城市", "postcode": "8690614", "prefecture": "熊本県", "id": 1105 },
        { "address": "小川町南小野", "city": "宇城市", "postcode": "8690603", "prefecture": "熊本県", "id": 1106 },
        { "address": "小川町南海東", "city": "宇城市", "postcode": "8690612", "prefecture": "熊本県", "id": 1107 },
        { "address": "小川町南新田", "city": "宇城市", "postcode": "8690632", "prefecture": "熊本県", "id": 1108 },
        { "address": "小川町南部田", "city": "宇城市", "postcode": "8690605", "prefecture": "熊本県", "id": 1109 },
        { "address": "不知火町浦上", "city": "宇城市", "postcode": "8690563", "prefecture": "熊本県", "id": 1110 },
        { "address": "不知火町永尾", "city": "宇城市", "postcode": "8693471", "prefecture": "熊本県", "id": 1111 },
        { "address": "不知火町大見", "city": "宇城市", "postcode": "8693473", "prefecture": "熊本県", "id": 1112 },
        { "address": "不知火町柏原", "city": "宇城市", "postcode": "8690554", "prefecture": "熊本県", "id": 1113 },
        { "address": "不知火町亀松", "city": "宇城市", "postcode": "8690561", "prefecture": "熊本県", "id": 1114 },
        { "address": "不知火町高良", "city": "宇城市", "postcode": "8690552", "prefecture": "熊本県", "id": 1115 },
        { "address": "不知火町小曽部", "city": "宇城市", "postcode": "8690553", "prefecture": "熊本県", "id": 1116 },
        { "address": "不知火町御領", "city": "宇城市", "postcode": "8690551", "prefecture": "熊本県", "id": 1117 },
        { "address": "不知火町長崎", "city": "宇城市", "postcode": "8690562", "prefecture": "熊本県", "id": 1118 },
        { "address": "不知火町松合", "city": "宇城市", "postcode": "8693472", "prefecture": "熊本県", "id": 1119 },
        { "address": "豊野町糸石", "city": "宇城市", "postcode": "8614301", "prefecture": "熊本県", "id": 1120 },
        { "address": "豊野町上郷", "city": "宇城市", "postcode": "8614303", "prefecture": "熊本県", "id": 1121 },
        { "address": "豊野町下郷", "city": "宇城市", "postcode": "8614304", "prefecture": "熊本県", "id": 1122 },
        { "address": "豊野町巣林", "city": "宇城市", "postcode": "8614307", "prefecture": "熊本県", "id": 1123 },
        { "address": "豊野町中間", "city": "宇城市", "postcode": "8614302", "prefecture": "熊本県", "id": 1124 },
        { "address": "豊野町安見", "city": "宇城市", "postcode": "8614306", "prefecture": "熊本県", "id": 1125 },
        { "address": "豊野町山崎", "city": "宇城市", "postcode": "8614305", "prefecture": "熊本県", "id": 1126 },
        { "address": "松橋町浅川", "city": "宇城市", "postcode": "8690544", "prefecture": "熊本県", "id": 1127 },
        { "address": "松橋町内田", "city": "宇城市", "postcode": "8690522", "prefecture": "熊本県", "id": 1128 },
        { "address": "松橋町浦川内", "city": "宇城市", "postcode": "8690521", "prefecture": "熊本県", "id": 1129 },
        { "address": "松橋町大野", "city": "宇城市", "postcode": "8690531", "prefecture": "熊本県", "id": 1130 },
        { "address": "松橋町きらら", "city": "宇城市", "postcode": "8690503", "prefecture": "熊本県", "id": 1131 },
        { "address": "松橋町久具", "city": "宇城市", "postcode": "8690532", "prefecture": "熊本県", "id": 1132 },
        { "address": "松橋町古保山", "city": "宇城市", "postcode": "8690512", "prefecture": "熊本県", "id": 1133 },
        { "address": "松橋町砂川", "city": "宇城市", "postcode": "8690545", "prefecture": "熊本県", "id": 1134 },
        { "address": "松橋町竹崎", "city": "宇城市", "postcode": "8690523", "prefecture": "熊本県", "id": 1135 },
        { "address": "松橋町豊崎", "city": "宇城市", "postcode": "8690542", "prefecture": "熊本県", "id": 1136 },
        { "address": "松橋町豊福", "city": "宇城市", "postcode": "8690524", "prefecture": "熊本県", "id": 1137 },
        { "address": "松橋町西下郷", "city": "宇城市", "postcode": "8690534", "prefecture": "熊本県", "id": 1138 },
        { "address": "松橋町萩尾", "city": "宇城市", "postcode": "8690513", "prefecture": "熊本県", "id": 1139 },
        { "address": "松橋町東松崎", "city": "宇城市", "postcode": "8690541", "prefecture": "熊本県", "id": 1140 },
        { "address": "松橋町曲野", "city": "宇城市", "postcode": "8690511", "prefecture": "熊本県", "id": 1141 },
        { "address": "松橋町松橋", "city": "宇城市", "postcode": "8690502", "prefecture": "熊本県", "id": 1142 },
        { "address": "松橋町松山", "city": "宇城市", "postcode": "8690501", "prefecture": "熊本県", "id": 1143 },
        { "address": "松橋町南豊崎", "city": "宇城市", "postcode": "8690543", "prefecture": "熊本県", "id": 1144 },
        { "address": "松橋町御船", "city": "宇城市", "postcode": "8690546", "prefecture": "熊本県", "id": 1145 },
        { "address": "松橋町両仲間", "city": "宇城市", "postcode": "8690533", "prefecture": "熊本県", "id": 1146 },
        { "address": "三角町大口", "city": "宇城市", "postcode": "8693211", "prefecture": "熊本県", "id": 1147 },
        { "address": "三角町大田尾", "city": "宇城市", "postcode": "8693201", "prefecture": "熊本県", "id": 1148 },
        { "address": "三角町郡浦", "city": "宇城市", "postcode": "8693202", "prefecture": "熊本県", "id": 1149 },
        { "address": "三角町里浦", "city": "宇城市", "postcode": "8693213", "prefecture": "熊本県", "id": 1150 },
        { "address": "三角町手場", "city": "宇城市", "postcode": "8693212", "prefecture": "熊本県", "id": 1151 },
        { "address": "三角町戸馳", "city": "宇城市", "postcode": "8693203", "prefecture": "熊本県", "id": 1152 },
        { "address": "三角町中村", "city": "宇城市", "postcode": "8693204", "prefecture": "熊本県", "id": 1153 },
        { "address": "三角町波多", "city": "宇城市", "postcode": "8693205", "prefecture": "熊本県", "id": 1154 },
        { "address": "三角町前越", "city": "宇城市", "postcode": "8693206", "prefecture": "熊本県", "id": 1155 },
        { "address": "三角町三角浦", "city": "宇城市", "postcode": "8693207", "prefecture": "熊本県", "id": 1156 },
        { "city": "阿蘇市", "postcode": "8692600", "prefecture": "熊本県", "id": 1157 },
        { "address": "赤水", "city": "阿蘇市", "postcode": "8692232", "prefecture": "熊本県", "id": 1158 },
        { "address": "跡ケ瀬", "city": "阿蘇市", "postcode": "8692236", "prefecture": "熊本県", "id": 1159 },
        { "address": "一の宮町荻の草", "city": "阿蘇市", "postcode": "8692621", "prefecture": "熊本県", "id": 1160 },
        { "address": "一の宮町北坂梨", "city": "阿蘇市", "postcode": "8692603", "prefecture": "熊本県", "id": 1161 },
        { "address": "一の宮町坂梨", "city": "阿蘇市", "postcode": "8692611", "prefecture": "熊本県", "id": 1162 },
        { "address": "一の宮町三野", "city": "阿蘇市", "postcode": "8692602", "prefecture": "熊本県", "id": 1163 },
        { "address": "一の宮町手野", "city": "阿蘇市", "postcode": "8692601", "prefecture": "熊本県", "id": 1164 },
        { "address": "一の宮町中坂梨", "city": "阿蘇市", "postcode": "8692604", "prefecture": "熊本県", "id": 1165 },
        { "address": "一の宮町中通", "city": "阿蘇市", "postcode": "8692613", "prefecture": "熊本県", "id": 1166 },
        { "address": "一の宮町宮地", "city": "阿蘇市", "postcode": "8692612", "prefecture": "熊本県", "id": 1167 },
        { "address": "今町", "city": "阿蘇市", "postcode": "8692315", "prefecture": "熊本県", "id": 1168 },
        { "address": "内牧", "city": "阿蘇市", "postcode": "8692301", "prefecture": "熊本県", "id": 1169 },
        { "address": "小倉", "city": "阿蘇市", "postcode": "8692312", "prefecture": "熊本県", "id": 1170 },
        { "address": "小里", "city": "阿蘇市", "postcode": "8692307", "prefecture": "熊本県", "id": 1171 },
        { "address": "乙姫", "city": "阿蘇市", "postcode": "8692226", "prefecture": "熊本県", "id": 1172 },
        { "address": "小野田", "city": "阿蘇市", "postcode": "8692314", "prefecture": "熊本県", "id": 1173 },
        { "address": "狩尾", "city": "阿蘇市", "postcode": "8692235", "prefecture": "熊本県", "id": 1174 },
        { "address": "蔵原", "city": "阿蘇市", "postcode": "8692224", "prefecture": "熊本県", "id": 1175 },
        { "address": "車帰", "city": "阿蘇市", "postcode": "8692234", "prefecture": "熊本県", "id": 1176 },
        { "address": "黒川", "city": "阿蘇市", "postcode": "8692225", "prefecture": "熊本県", "id": 1177 },
        { "address": "黒流町", "city": "阿蘇市", "postcode": "8692316", "prefecture": "熊本県", "id": 1178 },
        { "address": "小池", "city": "阿蘇市", "postcode": "8692311", "prefecture": "熊本県", "id": 1179 },
        { "address": "竹原", "city": "阿蘇市", "postcode": "8692223", "prefecture": "熊本県", "id": 1180 },
        { "address": "永草", "city": "阿蘇市", "postcode": "8692231", "prefecture": "熊本県", "id": 1181 },
        { "address": "波野赤仁田", "city": "阿蘇市", "postcode": "8692803", "prefecture": "熊本県", "id": 1182 },
        { "address": "波野小園", "city": "阿蘇市", "postcode": "8692802", "prefecture": "熊本県", "id": 1183 },
        { "address": "波野小地野", "city": "阿蘇市", "postcode": "8692801", "prefecture": "熊本県", "id": 1184 },
        { "address": "波野新波野", "city": "阿蘇市", "postcode": "8692807", "prefecture": "熊本県", "id": 1185 },
        { "address": "波野滝水", "city": "阿蘇市", "postcode": "8692804", "prefecture": "熊本県", "id": 1186 },
        { "address": "波野中江", "city": "阿蘇市", "postcode": "8692805", "prefecture": "熊本県", "id": 1187 },
        { "address": "波野波野", "city": "阿蘇市", "postcode": "8692806", "prefecture": "熊本県", "id": 1188 },
        { "address": "西小園", "city": "阿蘇市", "postcode": "8692303", "prefecture": "熊本県", "id": 1189 },
        { "address": "西町", "city": "阿蘇市", "postcode": "8692222", "prefecture": "熊本県", "id": 1190 },
        { "address": "西湯浦", "city": "阿蘇市", "postcode": "8692304", "prefecture": "熊本県", "id": 1191 },
        { "address": "的石", "city": "阿蘇市", "postcode": "8692237", "prefecture": "熊本県", "id": 1192 },
        { "address": "三久保", "city": "阿蘇市", "postcode": "8692302", "prefecture": "熊本県", "id": 1193 },
        { "address": "南宮原", "city": "阿蘇市", "postcode": "8692306", "prefecture": "熊本県", "id": 1194 },
        { "address": "無田", "city": "阿蘇市", "postcode": "8692233", "prefecture": "熊本県", "id": 1195 },
        { "address": "役犬原", "city": "阿蘇市", "postcode": "8692221", "prefecture": "熊本県", "id": 1196 },
        { "address": "山田", "city": "阿蘇市", "postcode": "8692413", "prefecture": "熊本県", "id": 1197 },
        { "address": "山田", "city": "阿蘇市", "postcode": "8692313", "prefecture": "熊本県", "id": 1198 },
        { "address": "湯浦", "city": "阿蘇市", "postcode": "8692305", "prefecture": "熊本県", "id": 1199 },
        { "city": "天草市", "postcode": "8630000", "prefecture": "熊本県", "id": 1200 },
        { "address": "旭町", "city": "天草市", "postcode": "8632172", "prefecture": "熊本県", "id": 1201 },
        { "address": "天草町大江", "city": "天草市", "postcode": "8632801", "prefecture": "熊本県", "id": 1202 },
        { "address": "天草町大江向", "city": "天草市", "postcode": "8631401", "prefecture": "熊本県", "id": 1203 },
        { "address": "天草町下田北", "city": "天草市", "postcode": "8632803", "prefecture": "熊本県", "id": 1204 },
        { "address": "天草町下田南", "city": "天草市", "postcode": "8632802", "prefecture": "熊本県", "id": 1205 },
        { "address": "天草町高浜北", "city": "天草市", "postcode": "8631205", "prefecture": "熊本県", "id": 1206 },
        { "address": "天草町高浜北", "city": "天草市", "postcode": "8632805", "prefecture": "熊本県", "id": 1207 },
        { "address": "天草町高浜南", "city": "天草市", "postcode": "8632804", "prefecture": "熊本県", "id": 1208 },
        { "address": "天草町福連木", "city": "天草市", "postcode": "8632806", "prefecture": "熊本県", "id": 1209 },
        { "address": "有明町赤崎", "city": "天草市", "postcode": "8617201", "prefecture": "熊本県", "id": 1210 },
        { "address": "有明町大浦", "city": "天草市", "postcode": "8617203", "prefecture": "熊本県", "id": 1211 },
        { "address": "有明町大島子", "city": "天草市", "postcode": "8617314", "prefecture": "熊本県", "id": 1212 },
        { "address": "有明町楠甫", "city": "天草市", "postcode": "8617204", "prefecture": "熊本県", "id": 1213 },
        { "address": "有明町上津浦", "city": "天草市", "postcode": "8617311", "prefecture": "熊本県", "id": 1214 },
        { "address": "有明町小島子", "city": "天草市", "postcode": "8617313", "prefecture": "熊本県", "id": 1215 },
        { "address": "有明町下津浦", "city": "天草市", "postcode": "8617312", "prefecture": "熊本県", "id": 1216 },
        { "address": "有明町須子", "city": "天草市", "postcode": "8617202", "prefecture": "熊本県", "id": 1217 },
        { "address": "五和町鬼池", "city": "天草市", "postcode": "8632331", "prefecture": "熊本県", "id": 1218 },
        { "address": "五和町御領", "city": "天草市", "postcode": "8632201", "prefecture": "熊本県", "id": 1219 },
        { "address": "五和町城河原", "city": "天草市", "postcode": "8632114", "prefecture": "熊本県", "id": 1220 },
        { "address": "五和町手野", "city": "天草市", "postcode": "8632424", "prefecture": "熊本県", "id": 1221 },
        { "address": "五和町二江", "city": "天草市", "postcode": "8632421", "prefecture": "熊本県", "id": 1222 },
        { "address": "今釜新町", "city": "天草市", "postcode": "8630013", "prefecture": "熊本県", "id": 1223 },
        { "address": "今釜町", "city": "天草市", "postcode": "8630012", "prefecture": "熊本県", "id": 1224 },
        { "address": "牛深町", "city": "天草市", "postcode": "8631901", "prefecture": "熊本県", "id": 1225 },
        { "address": "太田町", "city": "天草市", "postcode": "8630032", "prefecture": "熊本県", "id": 1226 },
        { "address": "大浜町", "city": "天草市", "postcode": "8630015", "prefecture": "熊本県", "id": 1227 },
        { "address": "魚貫町", "city": "天草市", "postcode": "8631721", "prefecture": "熊本県", "id": 1228 },
        { "address": "亀場町亀川", "city": "天草市", "postcode": "8630043", "prefecture": "熊本県", "id": 1229 },
        { "address": "亀場町食場", "city": "天草市", "postcode": "8630046", "prefecture": "熊本県", "id": 1230 },
        { "address": "河浦町今田", "city": "天草市", "postcode": "8631201", "prefecture": "熊本県", "id": 1231 },
        { "address": "河浦町今富", "city": "天草市", "postcode": "8631403", "prefecture": "熊本県", "id": 1232 },
        { "address": "河浦町今富", "city": "天草市", "postcode": "8631203", "prefecture": "熊本県", "id": 1233 },
        { "address": "河浦町河浦", "city": "天草市", "postcode": "8631202", "prefecture": "熊本県", "id": 1234 },
        { "address": "河浦町崎津", "city": "天草市", "postcode": "8631404", "prefecture": "熊本県", "id": 1235 },
        { "address": "河浦町崎津", "city": "天草市", "postcode": "8631204", "prefecture": "熊本県", "id": 1236 },
        { "address": "河浦町白木河内", "city": "天草市", "postcode": "8631215", "prefecture": "熊本県", "id": 1237 },
        { "address": "河浦町新合", "city": "天草市", "postcode": "8631216", "prefecture": "熊本県", "id": 1238 },
        { "address": "河浦町立原", "city": "天草市", "postcode": "8631211", "prefecture": "熊本県", "id": 1239 },
        { "address": "河浦町久留", "city": "天草市", "postcode": "8631214", "prefecture": "熊本県", "id": 1240 },
        { "address": "河浦町宮野河内", "city": "天草市", "postcode": "8631212", "prefecture": "熊本県", "id": 1241 },
        { "address": "河浦町路木", "city": "天草市", "postcode": "8631213", "prefecture": "熊本県", "id": 1242 },
        { "address": "川原新町", "city": "天草市", "postcode": "8630036", "prefecture": "熊本県", "id": 1243 },
        { "address": "川原町", "city": "天草市", "postcode": "8630024", "prefecture": "熊本県", "id": 1244 },
        { "address": "北浜町", "city": "天草市", "postcode": "8630011", "prefecture": "熊本県", "id": 1245 },
        { "address": "北原町", "city": "天草市", "postcode": "8630049", "prefecture": "熊本県", "id": 1246 },
        { "address": "楠浦町", "city": "天草市", "postcode": "8630044", "prefecture": "熊本県", "id": 1247 },
        { "address": "久玉町", "city": "天草市", "postcode": "8631902", "prefecture": "熊本県", "id": 1248 },
        { "address": "倉岳町浦", "city": "天草市", "postcode": "8616401", "prefecture": "熊本県", "id": 1249 },
        { "address": "倉岳町棚底", "city": "天草市", "postcode": "8616402", "prefecture": "熊本県", "id": 1250 },
        { "address": "倉岳町宮田", "city": "天草市", "postcode": "8616403", "prefecture": "熊本県", "id": 1251 },
        { "address": "御所浦町御所浦", "city": "天草市", "postcode": "8660313", "prefecture": "熊本県", "id": 1252 },
        { "address": "御所浦町牧島", "city": "天草市", "postcode": "8660334", "prefecture": "熊本県", "id": 1253 },
        { "address": "御所浦町横浦", "city": "天草市", "postcode": "8660303", "prefecture": "熊本県", "id": 1254 },
        { "address": "小松原町", "city": "天草市", "postcode": "8630019", "prefecture": "熊本県", "id": 1255 },
        { "address": "佐伊津町", "city": "天草市", "postcode": "8632171", "prefecture": "熊本県", "id": 1256 },
        { "address": "栄町", "city": "天草市", "postcode": "8630022", "prefecture": "熊本県", "id": 1257 },
        { "address": "志柿町", "city": "天草市", "postcode": "8630041", "prefecture": "熊本県", "id": 1258 },
        { "address": "下浦町", "city": "天草市", "postcode": "8616551", "prefecture": "熊本県", "id": 1259 },
        { "address": "城下町", "city": "天草市", "postcode": "8630016", "prefecture": "熊本県", "id": 1260 },
        { "address": "浄南町", "city": "天草市", "postcode": "8630034", "prefecture": "熊本県", "id": 1261 },
        { "address": "新和町碇石", "city": "天草市", "postcode": "8631111", "prefecture": "熊本県", "id": 1262 },
        { "address": "新和町大多尾", "city": "天草市", "postcode": "8630102", "prefecture": "熊本県", "id": 1263 },
        { "address": "新和町大宮地", "city": "天草市", "postcode": "8630103", "prefecture": "熊本県", "id": 1264 },
        { "address": "新和町小宮地", "city": "天草市", "postcode": "8630101", "prefecture": "熊本県", "id": 1265 },
        { "address": "新和町中田", "city": "天草市", "postcode": "8631112", "prefecture": "熊本県", "id": 1266 },
        { "address": "栖本町打田", "city": "天草市", "postcode": "8616301", "prefecture": "熊本県", "id": 1267 },
        { "address": "栖本町河内", "city": "天草市", "postcode": "8616302", "prefecture": "熊本県", "id": 1268 },
        { "address": "栖本町馬場", "city": "天草市", "postcode": "8616303", "prefecture": "熊本県", "id": 1269 },
        { "address": "栖本町古江", "city": "天草市", "postcode": "8616304", "prefecture": "熊本県", "id": 1270 },
        { "address": "栖本町湯船原", "city": "天草市", "postcode": "8616305", "prefecture": "熊本県", "id": 1271 },
        { "address": "諏訪町", "city": "天草市", "postcode": "8630037", "prefecture": "熊本県", "id": 1272 },
        { "address": "瀬戸町", "city": "天草市", "postcode": "8630042", "prefecture": "熊本県", "id": 1273 },
        { "address": "中央新町", "city": "天草市", "postcode": "8630023", "prefecture": "熊本県", "id": 1274 },
        { "address": "中村町", "city": "天草市", "postcode": "8630048", "prefecture": "熊本県", "id": 1275 },
        { "address": "枦宇土町", "city": "天草市", "postcode": "8630045", "prefecture": "熊本県", "id": 1276 },
        { "address": "八幡町", "city": "天草市", "postcode": "8630047", "prefecture": "熊本県", "id": 1277 },
        { "address": "浜崎町", "city": "天草市", "postcode": "8630018", "prefecture": "熊本県", "id": 1278 },
        { "address": "東浜町", "city": "天草市", "postcode": "8630014", "prefecture": "熊本県", "id": 1279 },
        { "address": "東町", "city": "天草市", "postcode": "8630033", "prefecture": "熊本県", "id": 1280 },
        { "address": "深海町", "city": "天草市", "postcode": "8631511", "prefecture": "熊本県", "id": 1281 },
        { "address": "二浦町亀浦", "city": "天草市", "postcode": "8631432", "prefecture": "熊本県", "id": 1282 },
        { "address": "二浦町早浦", "city": "天草市", "postcode": "8631431", "prefecture": "熊本県", "id": 1283 },
        { "address": "船之尾町", "city": "天草市", "postcode": "8630017", "prefecture": "熊本県", "id": 1284 },
        { "address": "古川町", "city": "天草市", "postcode": "8630025", "prefecture": "熊本県", "id": 1285 },
        { "address": "本渡町広瀬", "city": "天草市", "postcode": "8630001", "prefecture": "熊本県", "id": 1286 },
        { "address": "本渡町本渡", "city": "天草市", "postcode": "8630003", "prefecture": "熊本県", "id": 1287 },
        { "address": "本渡町本戸馬場", "city": "天草市", "postcode": "8630002", "prefecture": "熊本県", "id": 1288 },
        { "address": "本渡町本泉", "city": "天草市", "postcode": "8630004", "prefecture": "熊本県", "id": 1289 },
        { "address": "本町下河内", "city": "天草市", "postcode": "8630006", "prefecture": "熊本県", "id": 1290 },
        { "address": "本町新休", "city": "天草市", "postcode": "8630005", "prefecture": "熊本県", "id": 1291 },
        { "address": "本町本", "city": "天草市", "postcode": "8630007", "prefecture": "熊本県", "id": 1292 },
        { "address": "丸尾町", "city": "天草市", "postcode": "8630050", "prefecture": "熊本県", "id": 1293 },
        { "address": "港町", "city": "天草市", "postcode": "8630021", "prefecture": "熊本県", "id": 1294 },
        { "address": "南新町", "city": "天草市", "postcode": "8630031", "prefecture": "熊本県", "id": 1295 },
        { "address": "南町", "city": "天草市", "postcode": "8630038", "prefecture": "熊本県", "id": 1296 },
        { "address": "宮地岳町", "city": "天草市", "postcode": "8631161", "prefecture": "熊本県", "id": 1297 },
        { "address": "山の手町", "city": "天草市", "postcode": "8630035", "prefecture": "熊本県", "id": 1298 },
        { "city": "合志市", "postcode": "8611100", "prefecture": "熊本県", "id": 1299 },
        { "address": "合生", "city": "合志市", "postcode": "8611101", "prefecture": "熊本県", "id": 1300 },
        { "address": "上庄", "city": "合志市", "postcode": "8611111", "prefecture": "熊本県", "id": 1301 },
        { "address": "幾久富", "city": "合志市", "postcode": "8611112", "prefecture": "熊本県", "id": 1302 },
        { "address": "栄", "city": "合志市", "postcode": "8611113", "prefecture": "熊本県", "id": 1303 },
        { "address": "須屋", "city": "合志市", "postcode": "8611102", "prefecture": "熊本県", "id": 1304 },
        { "address": "竹迫", "city": "合志市", "postcode": "8611114", "prefecture": "熊本県", "id": 1305 },
        { "address": "豊岡", "city": "合志市", "postcode": "8611115", "prefecture": "熊本県", "id": 1306 },
        { "address": "野々島", "city": "合志市", "postcode": "8611103", "prefecture": "熊本県", "id": 1307 },
        { "address": "福原", "city": "合志市", "postcode": "8611116", "prefecture": "熊本県", "id": 1308 },
        { "address": "御代志", "city": "合志市", "postcode": "8611104", "prefecture": "熊本県", "id": 1309 },
        { "address": "上生", "city": "合志市", "postcode": "8611105", "prefecture": "熊本県", "id": 1310 },
        { "city": "下益城郡美里町", "postcode": "8614700", "prefecture": "熊本県", "id": 1311 },
        { "address": "安部", "city": "下益城郡美里町", "postcode": "8614714", "prefecture": "熊本県", "id": 1312 },
        { "address": "石野", "city": "下益城郡美里町", "postcode": "8614716", "prefecture": "熊本県", "id": 1313 },
        { "address": "今", "city": "下益城郡美里町", "postcode": "8614734", "prefecture": "熊本県", "id": 1314 },
        { "address": "岩下", "city": "下益城郡美里町", "postcode": "8614404", "prefecture": "熊本県", "id": 1315 },
        { "address": "岩野", "city": "下益城郡美里町", "postcode": "8614413", "prefecture": "熊本県", "id": 1316 },
        { "address": "畝野", "city": "下益城郡美里町", "postcode": "8614703", "prefecture": "熊本県", "id": 1317 },
        { "address": "大井早", "city": "下益城郡美里町", "postcode": "8614701", "prefecture": "熊本県", "id": 1318 },
        { "address": "大窪", "city": "下益城郡美里町", "postcode": "8614726", "prefecture": "熊本県", "id": 1319 },
        { "address": "大沢水", "city": "下益城郡美里町", "postcode": "8614401", "prefecture": "熊本県", "id": 1320 },
        { "address": "柏川", "city": "下益城郡美里町", "postcode": "8614712", "prefecture": "熊本県", "id": 1321 },
        { "address": "堅志田", "city": "下益城郡美里町", "postcode": "8614402", "prefecture": "熊本県", "id": 1322 },
        { "address": "萱野", "city": "下益城郡美里町", "postcode": "8614405", "prefecture": "熊本県", "id": 1323 },
        { "address": "川越", "city": "下益城郡美里町", "postcode": "8614707", "prefecture": "熊本県", "id": 1324 },
        { "address": "木早川内", "city": "下益城郡美里町", "postcode": "8614425", "prefecture": "熊本県", "id": 1325 },
        { "address": "清水", "city": "下益城郡美里町", "postcode": "8614715", "prefecture": "熊本県", "id": 1326 },
        { "address": "栗崎", "city": "下益城郡美里町", "postcode": "8614731", "prefecture": "熊本県", "id": 1327 },
        { "address": "小市野", "city": "下益城郡美里町", "postcode": "8614424", "prefecture": "熊本県", "id": 1328 },
        { "address": "甲佐平", "city": "下益城郡美里町", "postcode": "8614706", "prefecture": "熊本県", "id": 1329 },
        { "address": "古閑", "city": "下益城郡美里町", "postcode": "8614737", "prefecture": "熊本県", "id": 1330 },
        { "address": "小筵", "city": "下益城郡美里町", "postcode": "8614411", "prefecture": "熊本県", "id": 1331 },
        { "address": "境", "city": "下益城郡美里町", "postcode": "8614723", "prefecture": "熊本県", "id": 1332 },
        { "address": "坂貫", "city": "下益城郡美里町", "postcode": "8614725", "prefecture": "熊本県", "id": 1333 },
        { "address": "坂本", "city": "下益城郡美里町", "postcode": "8614415", "prefecture": "熊本県", "id": 1334 },
        { "address": "佐俣", "city": "下益城郡美里町", "postcode": "8614412", "prefecture": "熊本県", "id": 1335 },
        { "address": "三加", "city": "下益城郡美里町", "postcode": "8614735", "prefecture": "熊本県", "id": 1336 },
        { "address": "白石野", "city": "下益城郡美里町", "postcode": "8614426", "prefecture": "熊本県", "id": 1337 },
        { "address": "土喰", "city": "下益城郡美里町", "postcode": "8614721", "prefecture": "熊本県", "id": 1338 },
        { "address": "椿", "city": "下益城郡美里町", "postcode": "8614414", "prefecture": "熊本県", "id": 1339 },
        { "address": "津留", "city": "下益城郡美里町", "postcode": "8614427", "prefecture": "熊本県", "id": 1340 },
        { "address": "遠野", "city": "下益城郡美里町", "postcode": "8614702", "prefecture": "熊本県", "id": 1341 },
        { "address": "豊富", "city": "下益城郡美里町", "postcode": "8614705", "prefecture": "熊本県", "id": 1342 },
        { "address": "中", "city": "下益城郡美里町", "postcode": "8614417", "prefecture": "熊本県", "id": 1343 },
        { "address": "長尾野", "city": "下益城郡美里町", "postcode": "8614422", "prefecture": "熊本県", "id": 1344 },
        { "address": "中郡", "city": "下益城郡美里町", "postcode": "8614403", "prefecture": "熊本県", "id": 1345 },
        { "address": "中小路", "city": "下益城郡美里町", "postcode": "8614407", "prefecture": "熊本県", "id": 1346 },
        { "address": "永富", "city": "下益城郡美里町", "postcode": "8614722", "prefecture": "熊本県", "id": 1347 },
        { "address": "名越谷", "city": "下益城郡美里町", "postcode": "8614736", "prefecture": "熊本県", "id": 1348 },
        { "address": "二和田", "city": "下益城郡美里町", "postcode": "8614733", "prefecture": "熊本県", "id": 1349 },
        { "address": "馬場", "city": "下益城郡美里町", "postcode": "8614406", "prefecture": "熊本県", "id": 1350 },
        { "address": "早楠", "city": "下益城郡美里町", "postcode": "8614713", "prefecture": "熊本県", "id": 1351 },
        { "address": "払川", "city": "下益城郡美里町", "postcode": "8614416", "prefecture": "熊本県", "id": 1352 },
        { "address": "原田", "city": "下益城郡美里町", "postcode": "8614421", "prefecture": "熊本県", "id": 1353 },
        { "address": "原町", "city": "下益城郡美里町", "postcode": "8614727", "prefecture": "熊本県", "id": 1354 },
        { "address": "洞岳", "city": "下益城郡美里町", "postcode": "8614711", "prefecture": "熊本県", "id": 1355 },
        { "address": "松野原", "city": "下益城郡美里町", "postcode": "8614423", "prefecture": "熊本県", "id": 1356 },
        { "address": "三和", "city": "下益城郡美里町", "postcode": "8614732", "prefecture": "熊本県", "id": 1357 },
        { "address": "涌井", "city": "下益城郡美里町", "postcode": "8614704", "prefecture": "熊本県", "id": 1358 },
        { "city": "玉名郡玉東町", "postcode": "8690300", "prefecture": "熊本県", "id": 1359 },
        { "address": "稲佐", "city": "玉名郡玉東町", "postcode": "8690301", "prefecture": "熊本県", "id": 1360 },
        { "address": "浦田", "city": "玉名郡玉東町", "postcode": "8690304", "prefecture": "熊本県", "id": 1361 },
        { "address": "上木葉", "city": "玉名郡玉東町", "postcode": "8690305", "prefecture": "熊本県", "id": 1362 },
        { "address": "上白木", "city": "玉名郡玉東町", "postcode": "8690313", "prefecture": "熊本県", "id": 1363 },
        { "address": "木葉", "city": "玉名郡玉東町", "postcode": "8690303", "prefecture": "熊本県", "id": 1364 },
        { "address": "西安寺", "city": "玉名郡玉東町", "postcode": "8690321", "prefecture": "熊本県", "id": 1365 },
        { "address": "白木", "city": "玉名郡玉東町", "postcode": "8690312", "prefecture": "熊本県", "id": 1366 },
        { "address": "原倉", "city": "玉名郡玉東町", "postcode": "8690322", "prefecture": "熊本県", "id": 1367 },
        { "address": "二俣", "city": "玉名郡玉東町", "postcode": "8690311", "prefecture": "熊本県", "id": 1368 },
        { "address": "山口", "city": "玉名郡玉東町", "postcode": "8690302", "prefecture": "熊本県", "id": 1369 },
        { "city": "玉名郡南関町", "postcode": "8610800", "prefecture": "熊本県", "id": 1370 },
        { "address": "相谷", "city": "玉名郡南関町", "postcode": "8610812", "prefecture": "熊本県", "id": 1371 },
        { "address": "今", "city": "玉名郡南関町", "postcode": "8610832", "prefecture": "熊本県", "id": 1372 },
        { "address": "上坂下", "city": "玉名郡南関町", "postcode": "8610822", "prefecture": "熊本県", "id": 1373 },
        { "address": "上長田", "city": "玉名郡南関町", "postcode": "8610837", "prefecture": "熊本県", "id": 1374 },
        { "address": "久重", "city": "玉名郡南関町", "postcode": "8610836", "prefecture": "熊本県", "id": 1375 },
        { "address": "肥猪", "city": "玉名郡南関町", "postcode": "8610814", "prefecture": "熊本県", "id": 1376 },
        { "address": "肥猪町", "city": "玉名郡南関町", "postcode": "8610813", "prefecture": "熊本県", "id": 1377 },
        { "address": "小原", "city": "玉名郡南関町", "postcode": "8610811", "prefecture": "熊本県", "id": 1378 },
        { "address": "下坂下", "city": "玉名郡南関町", "postcode": "8610821", "prefecture": "熊本県", "id": 1379 },
        { "address": "関下", "city": "玉名郡南関町", "postcode": "8610805", "prefecture": "熊本県", "id": 1380 },
        { "address": "関外目", "city": "玉名郡南関町", "postcode": "8610801", "prefecture": "熊本県", "id": 1381 },
        { "address": "関町", "city": "玉名郡南関町", "postcode": "8610803", "prefecture": "熊本県", "id": 1382 },
        { "address": "関村", "city": "玉名郡南関町", "postcode": "8610804", "prefecture": "熊本県", "id": 1383 },
        { "address": "関東", "city": "玉名郡南関町", "postcode": "8610802", "prefecture": "熊本県", "id": 1384 },
        { "address": "高久野", "city": "玉名郡南関町", "postcode": "8610833", "prefecture": "熊本県", "id": 1385 },
        { "address": "豊永", "city": "玉名郡南関町", "postcode": "8610815", "prefecture": "熊本県", "id": 1386 },
        { "address": "長山", "city": "玉名郡南関町", "postcode": "8610835", "prefecture": "熊本県", "id": 1387 },
        { "address": "細永", "city": "玉名郡南関町", "postcode": "8610831", "prefecture": "熊本県", "id": 1388 },
        { "address": "宮尾", "city": "玉名郡南関町", "postcode": "8610834", "prefecture": "熊本県", "id": 1389 },
        { "address": "四ツ原", "city": "玉名郡南関町", "postcode": "8610823", "prefecture": "熊本県", "id": 1390 },
        { "city": "玉名郡長洲町", "postcode": "8690100", "prefecture": "熊本県", "id": 1391 },
        { "address": "有明", "city": "玉名郡長洲町", "postcode": "8690113", "prefecture": "熊本県", "id": 1392 },
        { "address": "梅田", "city": "玉名郡長洲町", "postcode": "8690122", "prefecture": "熊本県", "id": 1393 },
        { "address": "折崎", "city": "玉名郡長洲町", "postcode": "8690102", "prefecture": "熊本県", "id": 1394 },
        { "address": "上沖洲", "city": "玉名郡長洲町", "postcode": "8690104", "prefecture": "熊本県", "id": 1395 },
        { "address": "清源寺", "city": "玉名郡長洲町", "postcode": "8690105", "prefecture": "熊本県", "id": 1396 },
        { "address": "高浜", "city": "玉名郡長洲町", "postcode": "8690121", "prefecture": "熊本県", "id": 1397 },
        { "address": "永塩", "city": "玉名郡長洲町", "postcode": "8690106", "prefecture": "熊本県", "id": 1398 },
        { "address": "長洲", "city": "玉名郡長洲町", "postcode": "8690123", "prefecture": "熊本県", "id": 1399 },
        { "address": "腹赤", "city": "玉名郡長洲町", "postcode": "8690103", "prefecture": "熊本県", "id": 1400 },
        { "address": "姫ケ浦", "city": "玉名郡長洲町", "postcode": "8690112", "prefecture": "熊本県", "id": 1401 },
        { "address": "宮野", "city": "玉名郡長洲町", "postcode": "8690101", "prefecture": "熊本県", "id": 1402 },
        { "address": "名石浜", "city": "玉名郡長洲町", "postcode": "8690111", "prefecture": "熊本県", "id": 1403 },
        { "city": "玉名郡和水町", "postcode": "8650100", "prefecture": "熊本県", "id": 1404 },
        { "address": "板楠", "city": "玉名郡和水町", "postcode": "8610913", "prefecture": "熊本県", "id": 1405 },
        { "address": "岩", "city": "玉名郡和水町", "postcode": "8610922", "prefecture": "熊本県", "id": 1406 },
        { "address": "岩尻", "city": "玉名郡和水町", "postcode": "8650114", "prefecture": "熊本県", "id": 1407 },
        { "address": "内田", "city": "玉名郡和水町", "postcode": "8650104", "prefecture": "熊本県", "id": 1408 },
        { "address": "江栗", "city": "玉名郡和水町", "postcode": "8650101", "prefecture": "熊本県", "id": 1409 },
        { "address": "江田", "city": "玉名郡和水町", "postcode": "8650136", "prefecture": "熊本県", "id": 1410 },
        { "address": "榎原", "city": "玉名郡和水町", "postcode": "8650121", "prefecture": "熊本県", "id": 1411 },
        { "address": "大田黒", "city": "玉名郡和水町", "postcode": "8610924", "prefecture": "熊本県", "id": 1412 },
        { "address": "大屋", "city": "玉名郡和水町", "postcode": "8650112", "prefecture": "熊本県", "id": 1413 },
        { "address": "竈門", "city": "玉名郡和水町", "postcode": "8650116", "prefecture": "熊本県", "id": 1414 },
        { "address": "上板楠", "city": "玉名郡和水町", "postcode": "8610914", "prefecture": "熊本県", "id": 1415 },
        { "address": "上十町", "city": "玉名郡和水町", "postcode": "8610911", "prefecture": "熊本県", "id": 1416 },
        { "address": "上和仁", "city": "玉名郡和水町", "postcode": "8610901", "prefecture": "熊本県", "id": 1417 },
        { "address": "久米野", "city": "玉名郡和水町", "postcode": "8650115", "prefecture": "熊本県", "id": 1418 },
        { "address": "志口永", "city": "玉名郡和水町", "postcode": "8650117", "prefecture": "熊本県", "id": 1419 },
        { "address": "下津原", "city": "玉名郡和水町", "postcode": "8650111", "prefecture": "熊本県", "id": 1420 },
        { "address": "瀬川", "city": "玉名郡和水町", "postcode": "8650135", "prefecture": "熊本県", "id": 1421 },
        { "address": "高野", "city": "玉名郡和水町", "postcode": "8650122", "prefecture": "熊本県", "id": 1422 },
        { "address": "津田", "city": "玉名郡和水町", "postcode": "8610921", "prefecture": "熊本県", "id": 1423 },
        { "address": "長小田", "city": "玉名郡和水町", "postcode": "8650103", "prefecture": "熊本県", "id": 1424 },
        { "address": "中十町", "city": "玉名郡和水町", "postcode": "8610912", "prefecture": "熊本県", "id": 1425 },
        { "address": "中林", "city": "玉名郡和水町", "postcode": "8610905", "prefecture": "熊本県", "id": 1426 },
        { "address": "中和仁", "city": "玉名郡和水町", "postcode": "8610902", "prefecture": "熊本県", "id": 1427 },
        { "address": "西吉地", "city": "玉名郡和水町", "postcode": "8610906", "prefecture": "熊本県", "id": 1428 },
        { "address": "野田", "city": "玉名郡和水町", "postcode": "8610925", "prefecture": "熊本県", "id": 1429 },
        { "address": "萩原", "city": "玉名郡和水町", "postcode": "8650132", "prefecture": "熊本県", "id": 1430 },
        { "address": "原口", "city": "玉名郡和水町", "postcode": "8650124", "prefecture": "熊本県", "id": 1431 },
        { "address": "東吉地", "city": "玉名郡和水町", "postcode": "8610904", "prefecture": "熊本県", "id": 1432 },
        { "address": "久井原", "city": "玉名郡和水町", "postcode": "8650102", "prefecture": "熊本県", "id": 1433 },
        { "address": "日平", "city": "玉名郡和水町", "postcode": "8650134", "prefecture": "熊本県", "id": 1434 },
        { "address": "平野", "city": "玉名郡和水町", "postcode": "8610923", "prefecture": "熊本県", "id": 1435 },
        { "address": "藤田", "city": "玉名郡和水町", "postcode": "8650125", "prefecture": "熊本県", "id": 1436 },
        { "address": "蜻浦", "city": "玉名郡和水町", "postcode": "8650133", "prefecture": "熊本県", "id": 1437 },
        { "address": "前原", "city": "玉名郡和水町", "postcode": "8650126", "prefecture": "熊本県", "id": 1438 },
        { "address": "米渡尾", "city": "玉名郡和水町", "postcode": "8650123", "prefecture": "熊本県", "id": 1439 },
        { "address": "用木", "city": "玉名郡和水町", "postcode": "8650131", "prefecture": "熊本県", "id": 1440 },
        { "address": "焼米", "city": "玉名郡和水町", "postcode": "8650113", "prefecture": "熊本県", "id": 1441 },
        { "address": "山十町", "city": "玉名郡和水町", "postcode": "8610915", "prefecture": "熊本県", "id": 1442 },
        { "address": "和仁", "city": "玉名郡和水町", "postcode": "8610903", "prefecture": "熊本県", "id": 1443 },
        { "city": "菊池郡大津町", "postcode": "8691200", "prefecture": "熊本県", "id": 1444 },
        { "address": "岩坂", "city": "菊池郡大津町", "postcode": "8691222", "prefecture": "熊本県", "id": 1445 },
        { "address": "大津", "city": "菊池郡大津町", "postcode": "8691233", "prefecture": "熊本県", "id": 1446 },
        { "address": "大林", "city": "菊池郡大津町", "postcode": "8691219", "prefecture": "熊本県", "id": 1447 },
        { "address": "下町", "city": "菊池郡大津町", "postcode": "8691225", "prefecture": "熊本県", "id": 1448 },
        { "address": "新", "city": "菊池郡大津町", "postcode": "8691227", "prefecture": "熊本県", "id": 1449 },
        { "address": "陣内", "city": "菊池郡大津町", "postcode": "8691221", "prefecture": "熊本県", "id": 1450 },
        { "address": "杉水", "city": "菊池郡大津町", "postcode": "8691236", "prefecture": "熊本県", "id": 1451 },
        { "address": "瀬田", "city": "菊池郡大津町", "postcode": "8691214", "prefecture": "熊本県", "id": 1452 },
        { "address": "高尾野", "city": "菊池郡大津町", "postcode": "8691232", "prefecture": "熊本県", "id": 1453 },
        { "address": "中島", "city": "菊池郡大津町", "postcode": "8691223", "prefecture": "熊本県", "id": 1454 },
        { "address": "錦野", "city": "菊池郡大津町", "postcode": "8691216", "prefecture": "熊本県", "id": 1455 },
        { "address": "灰塚", "city": "菊池郡大津町", "postcode": "8691226", "prefecture": "熊本県", "id": 1456 },
        { "address": "引水", "city": "菊池郡大津町", "postcode": "8691234", "prefecture": "熊本県", "id": 1457 },
        { "address": "平川", "city": "菊池郡大津町", "postcode": "8691231", "prefecture": "熊本県", "id": 1458 },
        { "address": "吹田", "city": "菊池郡大津町", "postcode": "8691218", "prefecture": "熊本県", "id": 1459 },
        { "address": "古城", "city": "菊池郡大津町", "postcode": "8691213", "prefecture": "熊本県", "id": 1460 },
        { "address": "外牧", "city": "菊池郡大津町", "postcode": "8691215", "prefecture": "熊本県", "id": 1461 },
        { "address": "真木", "city": "菊池郡大津町", "postcode": "8691212", "prefecture": "熊本県", "id": 1462 },
        { "address": "町", "city": "菊池郡大津町", "postcode": "8691224", "prefecture": "熊本県", "id": 1463 },
        { "address": "美咲野", "city": "菊池郡大津町", "postcode": "8691237", "prefecture": "熊本県", "id": 1464 },
        { "address": "室", "city": "菊池郡大津町", "postcode": "8691235", "prefecture": "熊本県", "id": 1465 },
        { "address": "森", "city": "菊池郡大津町", "postcode": "8691217", "prefecture": "熊本県", "id": 1466 },
        { "address": "矢護川", "city": "菊池郡大津町", "postcode": "8691211", "prefecture": "熊本県", "id": 1467 },
        { "city": "菊池郡菊陽町", "postcode": "8691100", "prefecture": "熊本県", "id": 1468 },
        { "address": "沖野", "city": "菊池郡菊陽町", "postcode": "8691115", "prefecture": "熊本県", "id": 1469 },
        { "address": "辛川", "city": "菊池郡菊陽町", "postcode": "8691107", "prefecture": "熊本県", "id": 1470 },
        { "address": "久保田", "city": "菊池郡菊陽町", "postcode": "8691103", "prefecture": "熊本県", "id": 1471 },
        { "address": "向陽台", "city": "菊池郡菊陽町", "postcode": "8691114", "prefecture": "熊本県", "id": 1472 },
        { "address": "新山", "city": "菊池郡菊陽町", "postcode": "8691109", "prefecture": "熊本県", "id": 1473 },
        { "address": "杉並台", "city": "菊池郡菊陽町", "postcode": "8691110", "prefecture": "熊本県", "id": 1474 },
        { "address": "津久礼", "city": "菊池郡菊陽町", "postcode": "8691101", "prefecture": "熊本県", "id": 1475 },
        { "address": "戸次", "city": "菊池郡菊陽町", "postcode": "8691104", "prefecture": "熊本県", "id": 1476 },
        { "address": "花立", "city": "菊池郡菊陽町", "postcode": "8691113", "prefecture": "熊本県", "id": 1477 },
        { "address": "馬場楠", "city": "菊池郡菊陽町", "postcode": "8691105", "prefecture": "熊本県", "id": 1478 },
        { "address": "原水", "city": "菊池郡菊陽町", "postcode": "8691102", "prefecture": "熊本県", "id": 1479 },
        { "address": "光の森", "city": "菊池郡菊陽町", "postcode": "8691108", "prefecture": "熊本県", "id": 1480 },
        { "address": "曲手", "city": "菊池郡菊陽町", "postcode": "8691106", "prefecture": "熊本県", "id": 1481 },
        { "address": "武蔵ヶ丘", "city": "菊池郡菊陽町", "postcode": "8691111", "prefecture": "熊本県", "id": 1482 },
        { "address": "武蔵ヶ丘北", "city": "菊池郡菊陽町", "postcode": "8691112", "prefecture": "熊本県", "id": 1483 },
        { "city": "阿蘇郡南小国町", "postcode": "8692400", "prefecture": "熊本県", "id": 1484 },
        { "address": "赤馬場", "city": "阿蘇郡南小国町", "postcode": "8692401", "prefecture": "熊本県", "id": 1485 },
        { "address": "中原", "city": "阿蘇郡南小国町", "postcode": "8692403", "prefecture": "熊本県", "id": 1486 },
        { "address": "満願寺", "city": "阿蘇郡南小国町", "postcode": "8692402", "prefecture": "熊本県", "id": 1487 },
        { "city": "阿蘇郡小国町", "postcode": "8692500", "prefecture": "熊本県", "id": 1488 },
        { "address": "上田", "city": "阿蘇郡小国町", "postcode": "8692506", "prefecture": "熊本県", "id": 1489 },
        { "address": "北里", "city": "阿蘇郡小国町", "postcode": "8692505", "prefecture": "熊本県", "id": 1490 },
        { "address": "黒渕", "city": "阿蘇郡小国町", "postcode": "8692502", "prefecture": "熊本県", "id": 1491 },
        { "address": "下城", "city": "阿蘇郡小国町", "postcode": "8692503", "prefecture": "熊本県", "id": 1492 },
        { "address": "西里", "city": "阿蘇郡小国町", "postcode": "8692504", "prefecture": "熊本県", "id": 1493 },
        { "address": "宮原", "city": "阿蘇郡小国町", "postcode": "8692501", "prefecture": "熊本県", "id": 1494 },
        { "city": "阿蘇郡産山村", "postcode": "8692700", "prefecture": "熊本県", "id": 1495 },
        { "address": "産山", "city": "阿蘇郡産山村", "postcode": "8692705", "prefecture": "熊本県", "id": 1496 },
        { "address": "大利", "city": "阿蘇郡産山村", "postcode": "8692702", "prefecture": "熊本県", "id": 1497 },
        { "address": "片俣", "city": "阿蘇郡産山村", "postcode": "8692701", "prefecture": "熊本県", "id": 1498 },
        { "address": "田尻", "city": "阿蘇郡産山村", "postcode": "8692704", "prefecture": "熊本県", "id": 1499 },
        { "address": "山鹿", "city": "阿蘇郡産山村", "postcode": "8692703", "prefecture": "熊本県", "id": 1500 },
        { "city": "阿蘇郡高森町", "postcode": "8691600", "prefecture": "熊本県", "id": 1501 },
        { "address": "尾下", "city": "阿蘇郡高森町", "postcode": "8691825", "prefecture": "熊本県", "id": 1502 },
        { "address": "上色見", "city": "阿蘇郡高森町", "postcode": "8691601", "prefecture": "熊本県", "id": 1503 },
        { "address": "河原", "city": "阿蘇郡高森町", "postcode": "8691826", "prefecture": "熊本県", "id": 1504 },
        { "address": "草部", "city": "阿蘇郡高森町", "postcode": "8691811", "prefecture": "熊本県", "id": 1505 },
        { "address": "色見", "city": "阿蘇郡高森町", "postcode": "8691603", "prefecture": "熊本県", "id": 1506 },
        { "address": "下切", "city": "阿蘇郡高森町", "postcode": "8691815", "prefecture": "熊本県", "id": 1507 },
        { "address": "菅山", "city": "阿蘇郡高森町", "postcode": "8691813", "prefecture": "熊本県", "id": 1508 },
        { "address": "芹口", "city": "阿蘇郡高森町", "postcode": "8691812", "prefecture": "熊本県", "id": 1509 },
        { "address": "高森", "city": "阿蘇郡高森町", "postcode": "8691602", "prefecture": "熊本県", "id": 1510 },
        { "address": "津留", "city": "阿蘇郡高森町", "postcode": "8691823", "prefecture": "熊本県", "id": 1511 },
        { "address": "中", "city": "阿蘇郡高森町", "postcode": "8691821", "prefecture": "熊本県", "id": 1512 },
        { "address": "永野原", "city": "阿蘇郡高森町", "postcode": "8691814", "prefecture": "熊本県", "id": 1513 },
        { "address": "野尻", "city": "阿蘇郡高森町", "postcode": "8691824", "prefecture": "熊本県", "id": 1514 },
        { "address": "矢津田", "city": "阿蘇郡高森町", "postcode": "8691822", "prefecture": "熊本県", "id": 1515 },
        { "city": "阿蘇郡西原村", "postcode": "8612400", "prefecture": "熊本県", "id": 1516 },
        { "address": "河原", "city": "阿蘇郡西原村", "postcode": "8612404", "prefecture": "熊本県", "id": 1517 },
        { "address": "小森", "city": "阿蘇郡西原村", "postcode": "8612402", "prefecture": "熊本県", "id": 1518 },
        { "address": "鳥子", "city": "阿蘇郡西原村", "postcode": "8612401", "prefecture": "熊本県", "id": 1519 },
        { "address": "布田", "city": "阿蘇郡西原村", "postcode": "8612403", "prefecture": "熊本県", "id": 1520 },
        { "address": "宮山", "city": "阿蘇郡西原村", "postcode": "8612405", "prefecture": "熊本県", "id": 1521 },
        { "city": "阿蘇郡南阿蘇村", "postcode": "8691400", "prefecture": "熊本県", "id": 1522 },
        { "address": "一関", "city": "阿蘇郡南阿蘇村", "postcode": "8691504", "prefecture": "熊本県", "id": 1523 },
        { "address": "河陰", "city": "阿蘇郡南阿蘇村", "postcode": "8691411", "prefecture": "熊本県", "id": 1524 },
        { "address": "河陽", "city": "阿蘇郡南阿蘇村", "postcode": "8691404", "prefecture": "熊本県", "id": 1525 },
        { "address": "下野", "city": "阿蘇郡南阿蘇村", "postcode": "8691402", "prefecture": "熊本県", "id": 1526 },
        { "address": "白川", "city": "阿蘇郡南阿蘇村", "postcode": "8691502", "prefecture": "熊本県", "id": 1527 },
        { "address": "立野", "city": "阿蘇郡南阿蘇村", "postcode": "8691401", "prefecture": "熊本県", "id": 1528 },
        { "address": "長野", "city": "阿蘇郡南阿蘇村", "postcode": "8691403", "prefecture": "熊本県", "id": 1529 },
        { "address": "中松", "city": "阿蘇郡南阿蘇村", "postcode": "8692205", "prefecture": "熊本県", "id": 1530 },
        { "address": "中松", "city": "阿蘇郡南阿蘇村", "postcode": "8691505", "prefecture": "熊本県", "id": 1531 },
        { "address": "久石", "city": "阿蘇郡南阿蘇村", "postcode": "8691412", "prefecture": "熊本県", "id": 1532 },
        { "address": "吉田", "city": "阿蘇郡南阿蘇村", "postcode": "8691503", "prefecture": "熊本県", "id": 1533 },
        { "address": "両併", "city": "阿蘇郡南阿蘇村", "postcode": "8691501", "prefecture": "熊本県", "id": 1534 },
        { "city": "上益城郡御船町", "postcode": "8613200", "prefecture": "熊本県", "id": 1535 },
        { "address": "上野", "city": "上益城郡御船町", "postcode": "8613322", "prefecture": "熊本県", "id": 1536 },
        { "address": "小坂", "city": "上益城郡御船町", "postcode": "8613202", "prefecture": "熊本県", "id": 1537 },
        { "address": "木倉", "city": "上益城郡御船町", "postcode": "8613204", "prefecture": "熊本県", "id": 1538 },
        { "address": "陣", "city": "上益城郡御船町", "postcode": "8613201", "prefecture": "熊本県", "id": 1539 },
        { "address": "高木", "city": "上益城郡御船町", "postcode": "8613203", "prefecture": "熊本県", "id": 1540 },
        { "address": "滝尾", "city": "上益城郡御船町", "postcode": "8613208", "prefecture": "熊本県", "id": 1541 },
        { "address": "滝川", "city": "上益城郡御船町", "postcode": "8613205", "prefecture": "熊本県", "id": 1542 },
        { "address": "田代", "city": "上益城郡御船町", "postcode": "8613323", "prefecture": "熊本県", "id": 1543 },
        { "address": "豊秋", "city": "上益城郡御船町", "postcode": "8613131", "prefecture": "熊本県", "id": 1544 },
        { "address": "七滝", "city": "上益城郡御船町", "postcode": "8613421", "prefecture": "熊本県", "id": 1545 },
        { "address": "七滝", "city": "上益城郡御船町", "postcode": "8613321", "prefecture": "熊本県", "id": 1546 },
        { "address": "辺田見", "city": "上益城郡御船町", "postcode": "8613206", "prefecture": "熊本県", "id": 1547 },
        { "address": "水越", "city": "上益城郡御船町", "postcode": "8613211", "prefecture": "熊本県", "id": 1548 },
        { "address": "御船", "city": "上益城郡御船町", "postcode": "8613207", "prefecture": "熊本県", "id": 1549 },
        { "city": "上益城郡嘉島町", "postcode": "8613100", "prefecture": "熊本県", "id": 1550 },
        { "address": "井寺", "city": "上益城郡嘉島町", "postcode": "8613103", "prefecture": "熊本県", "id": 1551 },
        { "address": "犬渕", "city": "上益城郡嘉島町", "postcode": "8613109", "prefecture": "熊本県", "id": 1552 },
        { "address": "上島", "city": "上益城郡嘉島町", "postcode": "8613106", "prefecture": "熊本県", "id": 1553 },
        { "address": "上仲間", "city": "上益城郡嘉島町", "postcode": "8613107", "prefecture": "熊本県", "id": 1554 },
        { "address": "上六嘉", "city": "上益城郡嘉島町", "postcode": "8613105", "prefecture": "熊本県", "id": 1555 },
        { "address": "北甘木", "city": "上益城郡嘉島町", "postcode": "8613104", "prefecture": "熊本県", "id": 1556 },
        { "address": "下仲間", "city": "上益城郡嘉島町", "postcode": "8613108", "prefecture": "熊本県", "id": 1557 },
        { "address": "下六嘉", "city": "上益城郡嘉島町", "postcode": "8613102", "prefecture": "熊本県", "id": 1558 },
        { "address": "鯰", "city": "上益城郡嘉島町", "postcode": "8613101", "prefecture": "熊本県", "id": 1559 },
        { "city": "上益城郡益城町", "postcode": "8612200", "prefecture": "熊本県", "id": 1560 },
        { "address": "赤井", "city": "上益城郡益城町", "postcode": "8612221", "prefecture": "熊本県", "id": 1561 },
        { "address": "小池", "city": "上益城郡益城町", "postcode": "8612223", "prefecture": "熊本県", "id": 1562 },
        { "address": "小谷", "city": "上益城郡益城町", "postcode": "8612204", "prefecture": "熊本県", "id": 1563 },
        { "address": "上陳", "city": "上益城郡益城町", "postcode": "8612203", "prefecture": "熊本県", "id": 1564 },
        { "address": "木山", "city": "上益城郡益城町", "postcode": "8612242", "prefecture": "熊本県", "id": 1565 },
        { "address": "古閑", "city": "上益城郡益城町", "postcode": "8612234", "prefecture": "熊本県", "id": 1566 },
        { "address": "寺中", "city": "上益城郡益城町", "postcode": "8612201", "prefecture": "熊本県", "id": 1567 },
        { "address": "島田", "city": "上益城郡益城町", "postcode": "8612224", "prefecture": "熊本県", "id": 1568 },
        { "address": "下陳", "city": "上益城郡益城町", "postcode": "8612206", "prefecture": "熊本県", "id": 1569 },
        { "address": "杉堂", "city": "上益城郡益城町", "postcode": "8612205", "prefecture": "熊本県", "id": 1570 },
        { "address": "惣領", "city": "上益城郡益城町", "postcode": "8612233", "prefecture": "熊本県", "id": 1571 },
        { "address": "田原", "city": "上益城郡益城町", "postcode": "8612202", "prefecture": "熊本県", "id": 1572 },
        { "address": "辻の城", "city": "上益城郡益城町", "postcode": "8612243", "prefecture": "熊本県", "id": 1573 },
        { "address": "寺迫", "city": "上益城郡益城町", "postcode": "8612244", "prefecture": "熊本県", "id": 1574 },
        { "address": "砥川", "city": "上益城郡益城町", "postcode": "8612222", "prefecture": "熊本県", "id": 1575 },
        { "address": "平田", "city": "上益城郡益城町", "postcode": "8612212", "prefecture": "熊本県", "id": 1576 },
        { "address": "広崎", "city": "上益城郡益城町", "postcode": "8612236", "prefecture": "熊本県", "id": 1577 },
        { "address": "福富", "city": "上益城郡益城町", "postcode": "8612235", "prefecture": "熊本県", "id": 1578 },
        { "address": "福原", "city": "上益城郡益城町", "postcode": "8612211", "prefecture": "熊本県", "id": 1579 },
        { "address": "馬水", "city": "上益城郡益城町", "postcode": "8612232", "prefecture": "熊本県", "id": 1580 },
        { "address": "宮園", "city": "上益城郡益城町", "postcode": "8612241", "prefecture": "熊本県", "id": 1581 },
        { "address": "安永", "city": "上益城郡益城町", "postcode": "8612231", "prefecture": "熊本県", "id": 1582 },
        { "city": "上益城郡甲佐町", "postcode": "8614600", "prefecture": "熊本県", "id": 1583 },
        { "address": "麻生原", "city": "上益城郡甲佐町", "postcode": "8614618", "prefecture": "熊本県", "id": 1584 },
        { "address": "有安", "city": "上益城郡甲佐町", "postcode": "8614605", "prefecture": "熊本県", "id": 1585 },
        { "address": "糸田", "city": "上益城郡甲佐町", "postcode": "8613242", "prefecture": "熊本県", "id": 1586 },
        { "address": "岩下", "city": "上益城郡甲佐町", "postcode": "8614601", "prefecture": "熊本県", "id": 1587 },
        { "address": "大町", "city": "上益城郡甲佐町", "postcode": "8614604", "prefecture": "熊本県", "id": 1588 },
        { "address": "小鹿", "city": "上益城郡甲佐町", "postcode": "8614634", "prefecture": "熊本県", "id": 1589 },
        { "address": "上揚", "city": "上益城郡甲佐町", "postcode": "8614631", "prefecture": "熊本県", "id": 1590 },
        { "address": "上早川", "city": "上益城郡甲佐町", "postcode": "8614622", "prefecture": "熊本県", "id": 1591 },
        { "address": "坂谷", "city": "上益城郡甲佐町", "postcode": "8614632", "prefecture": "熊本県", "id": 1592 },
        { "address": "芝原", "city": "上益城郡甲佐町", "postcode": "8613244", "prefecture": "熊本県", "id": 1593 },
        { "address": "下横田", "city": "上益城郡甲佐町", "postcode": "8614621", "prefecture": "熊本県", "id": 1594 },
        { "address": "白旗", "city": "上益城郡甲佐町", "postcode": "8613243", "prefecture": "熊本県", "id": 1595 },
        { "address": "早川", "city": "上益城郡甲佐町", "postcode": "8613241", "prefecture": "熊本県", "id": 1596 },
        { "address": "田口", "city": "上益城郡甲佐町", "postcode": "8614616", "prefecture": "熊本県", "id": 1597 },
        { "address": "津志田", "city": "上益城郡甲佐町", "postcode": "8614617", "prefecture": "熊本県", "id": 1598 },
        { "address": "豊内", "city": "上益城郡甲佐町", "postcode": "8614607", "prefecture": "熊本県", "id": 1599 },
        { "address": "中山", "city": "上益城郡甲佐町", "postcode": "8614614", "prefecture": "熊本県", "id": 1600 },
        { "address": "中横田", "city": "上益城郡甲佐町", "postcode": "8614623", "prefecture": "熊本県", "id": 1601 },
        { "address": "西寒野", "city": "上益城郡甲佐町", "postcode": "8614609", "prefecture": "熊本県", "id": 1602 },
        { "address": "西原", "city": "上益城郡甲佐町", "postcode": "8614633", "prefecture": "熊本県", "id": 1603 },
        { "address": "仁田子", "city": "上益城郡甲佐町", "postcode": "8614603", "prefecture": "熊本県", "id": 1604 },
        { "address": "東寒野", "city": "上益城郡甲佐町", "postcode": "8614608", "prefecture": "熊本県", "id": 1605 },
        { "address": "船津", "city": "上益城郡甲佐町", "postcode": "8614611", "prefecture": "熊本県", "id": 1606 },
        { "address": "府領", "city": "上益城郡甲佐町", "postcode": "8614615", "prefecture": "熊本県", "id": 1607 },
        { "address": "緑町", "city": "上益城郡甲佐町", "postcode": "8614602", "prefecture": "熊本県", "id": 1608 },
        { "address": "南三箇", "city": "上益城郡甲佐町", "postcode": "8614613", "prefecture": "熊本県", "id": 1609 },
        { "address": "安平", "city": "上益城郡甲佐町", "postcode": "8614635", "prefecture": "熊本県", "id": 1610 },
        { "address": "横田", "city": "上益城郡甲佐町", "postcode": "8614606", "prefecture": "熊本県", "id": 1611 },
        { "address": "吉田", "city": "上益城郡甲佐町", "postcode": "8613245", "prefecture": "熊本県", "id": 1612 },
        { "address": "世持", "city": "上益城郡甲佐町", "postcode": "8614612", "prefecture": "熊本県", "id": 1613 },
        { "city": "上益城郡山都町", "postcode": "8613500", "prefecture": "熊本県", "id": 1614 },
        { "address": "麻山", "city": "上益城郡山都町", "postcode": "8613781", "prefecture": "熊本県", "id": 1615 },
        { "address": "芦屋田", "city": "上益城郡山都町", "postcode": "8613541", "prefecture": "熊本県", "id": 1616 },
        { "address": "荒谷", "city": "上益城郡山都町", "postcode": "8613521", "prefecture": "熊本県", "id": 1617 },
        { "address": "伊勢", "city": "上益城郡山都町", "postcode": "8613937", "prefecture": "熊本県", "id": 1618 },
        { "address": "市野原", "city": "上益城郡山都町", "postcode": "8613842", "prefecture": "熊本県", "id": 1619 },
        { "address": "市原", "city": "上益城郡山都町", "postcode": "8613542", "prefecture": "熊本県", "id": 1620 },
        { "address": "犬飼", "city": "上益城郡山都町", "postcode": "8613665", "prefecture": "熊本県", "id": 1621 },
        { "address": "今", "city": "上益城郡山都町", "postcode": "8613913", "prefecture": "熊本県", "id": 1622 },
        { "address": "井無田", "city": "上益城郡山都町", "postcode": "8613832", "prefecture": "熊本県", "id": 1623 },
        { "address": "入佐", "city": "上益城郡山都町", "postcode": "8613511", "prefecture": "熊本県", "id": 1624 },
        { "address": "大野", "city": "上益城郡山都町", "postcode": "8613905", "prefecture": "熊本県", "id": 1625 },
        { "address": "大平", "city": "上益城郡山都町", "postcode": "8613811", "prefecture": "熊本県", "id": 1626 },
        { "address": "大見口", "city": "上益城郡山都町", "postcode": "8613926", "prefecture": "熊本県", "id": 1627 },
        { "address": "小笹", "city": "上益城郡山都町", "postcode": "8613788", "prefecture": "熊本県", "id": 1628 },
        { "address": "男成", "city": "上益城郡山都町", "postcode": "8613789", "prefecture": "熊本県", "id": 1629 },
        { "address": "尾野尻", "city": "上益城郡山都町", "postcode": "8613844", "prefecture": "熊本県", "id": 1630 },
        { "address": "小峰", "city": "上益城郡山都町", "postcode": "8613801", "prefecture": "熊本県", "id": 1631 },
        { "address": "柏", "city": "上益城郡山都町", "postcode": "8613923", "prefecture": "熊本県", "id": 1632 },
        { "address": "金内", "city": "上益城郡山都町", "postcode": "8613451", "prefecture": "熊本県", "id": 1633 },
        { "address": "鎌野", "city": "上益城郡山都町", "postcode": "8613843", "prefecture": "熊本県", "id": 1634 },
        { "address": "上川井野", "city": "上益城郡山都町", "postcode": "8613782", "prefecture": "熊本県", "id": 1635 },
        { "address": "上差尾", "city": "上益城郡山都町", "postcode": "8613925", "prefecture": "熊本県", "id": 1636 },
        { "address": "神ノ前", "city": "上益城郡山都町", "postcode": "8613906", "prefecture": "熊本県", "id": 1637 },
        { "address": "仮屋", "city": "上益城郡山都町", "postcode": "8613841", "prefecture": "熊本県", "id": 1638 },
        { "address": "川口", "city": "上益城郡山都町", "postcode": "8613813", "prefecture": "熊本県", "id": 1639 },
        { "address": "川野", "city": "上益城郡山都町", "postcode": "8613784", "prefecture": "熊本県", "id": 1640 },
        { "address": "北中島", "city": "上益城郡山都町", "postcode": "8613455", "prefecture": "熊本県", "id": 1641 },
        { "address": "木原谷", "city": "上益城郡山都町", "postcode": "8613802", "prefecture": "熊本県", "id": 1642 },
        { "address": "葛原", "city": "上益城郡山都町", "postcode": "8613531", "prefecture": "熊本県", "id": 1643 },
        { "address": "黒川", "city": "上益城郡山都町", "postcode": "8613501", "prefecture": "熊本県", "id": 1644 },
        { "address": "下馬尾", "city": "上益城郡山都町", "postcode": "8613512", "prefecture": "熊本県", "id": 1645 },
        { "address": "高月", "city": "上益城郡山都町", "postcode": "8613834", "prefecture": "熊本県", "id": 1646 },
        { "address": "郷野原", "city": "上益城郡山都町", "postcode": "8613831", "prefecture": "熊本県", "id": 1647 },
        { "address": "御所", "city": "上益城郡山都町", "postcode": "8613502", "prefecture": "熊本県", "id": 1648 },
        { "address": "小中竹", "city": "上益城郡山都町", "postcode": "8613803", "prefecture": "熊本県", "id": 1649 },
        { "address": "猿渡", "city": "上益城郡山都町", "postcode": "8613532", "prefecture": "熊本県", "id": 1650 },
        { "address": "三ケ", "city": "上益城郡山都町", "postcode": "8613533", "prefecture": "熊本県", "id": 1651 },
        { "address": "塩出迫", "city": "上益城郡山都町", "postcode": "8613915", "prefecture": "熊本県", "id": 1652 },
        { "address": "塩原", "city": "上益城郡山都町", "postcode": "8613916", "prefecture": "熊本県", "id": 1653 },
        { "address": "島木", "city": "上益城郡山都町", "postcode": "8613454", "prefecture": "熊本県", "id": 1654 },
        { "address": "下市", "city": "上益城郡山都町", "postcode": "8613513", "prefecture": "熊本県", "id": 1655 },
        { "address": "下川井野", "city": "上益城郡山都町", "postcode": "8613786", "prefecture": "熊本県", "id": 1656 },
        { "address": "下名連石", "city": "上益城郡山都町", "postcode": "8613503", "prefecture": "熊本県", "id": 1657 },
        { "address": "下山", "city": "上益城郡山都町", "postcode": "8613932", "prefecture": "熊本県", "id": 1658 },
        { "address": "上寺", "city": "上益城郡山都町", "postcode": "8613543", "prefecture": "熊本県", "id": 1659 },
        { "address": "城原", "city": "上益城郡山都町", "postcode": "8613514", "prefecture": "熊本県", "id": 1660 },
        { "address": "城平", "city": "上益城郡山都町", "postcode": "8613515", "prefecture": "熊本県", "id": 1661 },
        { "address": "白石", "city": "上益城郡山都町", "postcode": "8613907", "prefecture": "熊本県", "id": 1662 },
        { "address": "白小野", "city": "上益城郡山都町", "postcode": "8613522", "prefecture": "熊本県", "id": 1663 },
        { "address": "白藤", "city": "上益城郡山都町", "postcode": "8613664", "prefecture": "熊本県", "id": 1664 },
        { "address": "新小", "city": "上益城郡山都町", "postcode": "8613663", "prefecture": "熊本県", "id": 1665 },
        { "address": "杉木", "city": "上益城郡山都町", "postcode": "8613544", "prefecture": "熊本県", "id": 1666 },
        { "address": "菅", "city": "上益城郡山都町", "postcode": "8613671", "prefecture": "熊本県", "id": 1667 },
        { "address": "菅尾", "city": "上益城郡山都町", "postcode": "8613911", "prefecture": "熊本県", "id": 1668 },
        { "address": "須原", "city": "上益城郡山都町", "postcode": "8613805", "prefecture": "熊本県", "id": 1669 },
        { "address": "勢井", "city": "上益城郡山都町", "postcode": "8613523", "prefecture": "熊本県", "id": 1670 },
        { "address": "千滝", "city": "上益城郡山都町", "postcode": "8613516", "prefecture": "熊本県", "id": 1671 },
        { "address": "田小野", "city": "上益城郡山都町", "postcode": "8613452", "prefecture": "熊本県", "id": 1672 },
        { "address": "高辻", "city": "上益城郡山都町", "postcode": "8613933", "prefecture": "熊本県", "id": 1673 },
        { "address": "高畑", "city": "上益城郡山都町", "postcode": "8613934", "prefecture": "熊本県", "id": 1674 },
        { "address": "滝上", "city": "上益城郡山都町", "postcode": "8613902", "prefecture": "熊本県", "id": 1675 },
        { "address": "橘", "city": "上益城郡山都町", "postcode": "8613931", "prefecture": "熊本県", "id": 1676 },
        { "address": "田所", "city": "上益城郡山都町", "postcode": "8613785", "prefecture": "熊本県", "id": 1677 },
        { "address": "玉目", "city": "上益城郡山都町", "postcode": "8613927", "prefecture": "熊本県", "id": 1678 },
        { "address": "田吉", "city": "上益城郡山都町", "postcode": "8613662", "prefecture": "熊本県", "id": 1679 },
        { "address": "津留", "city": "上益城郡山都町", "postcode": "8613673", "prefecture": "熊本県", "id": 1680 },
        { "address": "鶴ケ田", "city": "上益城郡山都町", "postcode": "8613812", "prefecture": "熊本県", "id": 1681 },
        { "address": "長崎", "city": "上益城郡山都町", "postcode": "8613908", "prefecture": "熊本県", "id": 1682 },
        { "address": "長田", "city": "上益城郡山都町", "postcode": "8613545", "prefecture": "熊本県", "id": 1683 },
        { "address": "長谷", "city": "上益城郡山都町", "postcode": "8613928", "prefecture": "熊本県", "id": 1684 },
        { "address": "長原", "city": "上益城郡山都町", "postcode": "8613661", "prefecture": "熊本県", "id": 1685 },
        { "address": "成君", "city": "上益城郡山都町", "postcode": "8613783", "prefecture": "熊本県", "id": 1686 },
        { "address": "二瀬本", "city": "上益城郡山都町", "postcode": "8613922", "prefecture": "熊本県", "id": 1687 },
        { "address": "貫原", "city": "上益城郡山都町", "postcode": "8613804", "prefecture": "熊本県", "id": 1688 },
        { "address": "野尻", "city": "上益城郡山都町", "postcode": "8613787", "prefecture": "熊本県", "id": 1689 },
        { "address": "畑", "city": "上益城郡山都町", "postcode": "8613517", "prefecture": "熊本県", "id": 1690 },
        { "address": "八木", "city": "上益城郡山都町", "postcode": "8613921", "prefecture": "熊本県", "id": 1691 },
        { "address": "花上", "city": "上益城郡山都町", "postcode": "8613914", "prefecture": "熊本県", "id": 1692 },
        { "address": "浜町", "city": "上益城郡山都町", "postcode": "8613518", "prefecture": "熊本県", "id": 1693 },
        { "address": "原", "city": "上益城郡山都町", "postcode": "8613453", "prefecture": "熊本県", "id": 1694 },
        { "address": "東竹原", "city": "上益城郡山都町", "postcode": "8613935", "prefecture": "熊本県", "id": 1695 },
        { "address": "藤木", "city": "上益城郡山都町", "postcode": "8613524", "prefecture": "熊本県", "id": 1696 },
        { "address": "二津留", "city": "上益城郡山都町", "postcode": "8613924", "prefecture": "熊本県", "id": 1697 },
        { "address": "方ケ野", "city": "上益城郡山都町", "postcode": "8613904", "prefecture": "熊本県", "id": 1698 },
        { "address": "仏原", "city": "上益城郡山都町", "postcode": "8613835", "prefecture": "熊本県", "id": 1699 },
        { "address": "牧野", "city": "上益城郡山都町", "postcode": "8613525", "prefecture": "熊本県", "id": 1700 },
        { "address": "馬見原", "city": "上益城郡山都町", "postcode": "8613901", "prefecture": "熊本県", "id": 1701 },
        { "address": "万坂", "city": "上益城郡山都町", "postcode": "8613526", "prefecture": "熊本県", "id": 1702 },
        { "address": "緑川", "city": "上益城郡山都町", "postcode": "8613845", "prefecture": "熊本県", "id": 1703 },
        { "address": "南田", "city": "上益城郡山都町", "postcode": "8613546", "prefecture": "熊本県", "id": 1704 },
        { "address": "目丸", "city": "上益城郡山都町", "postcode": "8613672", "prefecture": "熊本県", "id": 1705 },
        { "address": "安方", "city": "上益城郡山都町", "postcode": "8613833", "prefecture": "熊本県", "id": 1706 },
        { "address": "柳井原", "city": "上益城郡山都町", "postcode": "8613903", "prefecture": "熊本県", "id": 1707 },
        { "address": "柳", "city": "上益城郡山都町", "postcode": "8613936", "prefecture": "熊本県", "id": 1708 },
        { "address": "山田", "city": "上益城郡山都町", "postcode": "8613547", "prefecture": "熊本県", "id": 1709 },
        { "address": "柚木", "city": "上益城郡山都町", "postcode": "8613534", "prefecture": "熊本県", "id": 1710 },
        { "address": "米生", "city": "上益城郡山都町", "postcode": "8613806", "prefecture": "熊本県", "id": 1711 },
        { "address": "米迫", "city": "上益城郡山都町", "postcode": "8613912", "prefecture": "熊本県", "id": 1712 },
        { "city": "八代郡氷川町", "postcode": "8694600", "prefecture": "熊本県", "id": 1713 },
        { "address": "網道", "city": "八代郡氷川町", "postcode": "8694812", "prefecture": "熊本県", "id": 1714 },
        { "address": "有佐", "city": "八代郡氷川町", "postcode": "8694604", "prefecture": "熊本県", "id": 1715 },
        { "address": "今", "city": "八代郡氷川町", "postcode": "8694601", "prefecture": "熊本県", "id": 1716 },
        { "address": "大野", "city": "八代郡氷川町", "postcode": "8694804", "prefecture": "熊本県", "id": 1717 },
        { "address": "栫", "city": "八代郡氷川町", "postcode": "8694607", "prefecture": "熊本県", "id": 1718 },
        { "address": "鹿島", "city": "八代郡氷川町", "postcode": "8694815", "prefecture": "熊本県", "id": 1719 },
        { "address": "鹿野", "city": "八代郡氷川町", "postcode": "8694811", "prefecture": "熊本県", "id": 1720 },
        { "address": "河原", "city": "八代郡氷川町", "postcode": "8694806", "prefecture": "熊本県", "id": 1721 },
        { "address": "島地", "city": "八代郡氷川町", "postcode": "8694814", "prefecture": "熊本県", "id": 1722 },
        { "address": "新田", "city": "八代郡氷川町", "postcode": "8694801", "prefecture": "熊本県", "id": 1723 },
        { "address": "高塚", "city": "八代郡氷川町", "postcode": "8694802", "prefecture": "熊本県", "id": 1724 },
        { "address": "立神", "city": "八代郡氷川町", "postcode": "8694603", "prefecture": "熊本県", "id": 1725 },
        { "address": "中島", "city": "八代郡氷川町", "postcode": "8694605", "prefecture": "熊本県", "id": 1726 },
        { "address": "野津", "city": "八代郡氷川町", "postcode": "8694805", "prefecture": "熊本県", "id": 1727 },
        { "address": "早尾", "city": "八代郡氷川町", "postcode": "8694606", "prefecture": "熊本県", "id": 1728 },
        { "address": "宮原", "city": "八代郡氷川町", "postcode": "8694602", "prefecture": "熊本県", "id": 1729 },
        { "address": "宮原栄久", "city": "八代郡氷川町", "postcode": "8694608", "prefecture": "熊本県", "id": 1730 },
        { "address": "吉本", "city": "八代郡氷川町", "postcode": "8694803", "prefecture": "熊本県", "id": 1731 },
        { "address": "若洲", "city": "八代郡氷川町", "postcode": "8694813", "prefecture": "熊本県", "id": 1732 },
        { "city": "葦北郡芦北町", "postcode": "8695400", "prefecture": "熊本県", "id": 1733 },
        { "address": "芦北", "city": "葦北郡芦北町", "postcode": "8695561", "prefecture": "熊本県", "id": 1734 },
        { "address": "芦北", "city": "葦北郡芦北町", "postcode": "8695461", "prefecture": "熊本県", "id": 1735 },
        { "address": "天月", "city": "葦北郡芦北町", "postcode": "8696301", "prefecture": "熊本県", "id": 1736 },
        { "address": "市野瀬", "city": "葦北郡芦北町", "postcode": "8696306", "prefecture": "熊本県", "id": 1737 },
        { "address": "井牟田", "city": "葦北郡芦北町", "postcode": "8695307", "prefecture": "熊本県", "id": 1738 },
        { "address": "海浦", "city": "葦北郡芦北町", "postcode": "8695304", "prefecture": "熊本県", "id": 1739 },
        { "address": "上原", "city": "葦北郡芦北町", "postcode": "8696215", "prefecture": "熊本県", "id": 1740 },
        { "address": "箙瀬", "city": "葦北郡芦北町", "postcode": "8696211", "prefecture": "熊本県", "id": 1741 },
        { "address": "大岩", "city": "葦北郡芦北町", "postcode": "8696213", "prefecture": "熊本県", "id": 1742 },
        { "address": "大川内", "city": "葦北郡芦北町", "postcode": "8695574", "prefecture": "熊本県", "id": 1743 },
        { "address": "大尼田", "city": "葦北郡芦北町", "postcode": "8695422", "prefecture": "熊本県", "id": 1744 },
        { "address": "大野", "city": "葦北郡芦北町", "postcode": "8696305", "prefecture": "熊本県", "id": 1745 },
        { "address": "乙千屋", "city": "葦北郡芦北町", "postcode": "8695431", "prefecture": "熊本県", "id": 1746 },
        { "address": "海路", "city": "葦北郡芦北町", "postcode": "8696216", "prefecture": "熊本県", "id": 1747 },
        { "address": "国見", "city": "葦北郡芦北町", "postcode": "8696304", "prefecture": "熊本県", "id": 1748 },
        { "address": "黒岩", "city": "葦北郡芦北町", "postcode": "8696214", "prefecture": "熊本県", "id": 1749 },
        { "address": "桑原", "city": "葦北郡芦北町", "postcode": "8695434", "prefecture": "熊本県", "id": 1750 },
        { "address": "小田浦", "city": "葦北郡芦北町", "postcode": "8695303", "prefecture": "熊本県", "id": 1751 },
        { "address": "佐敷", "city": "葦北郡芦北町", "postcode": "8695441", "prefecture": "熊本県", "id": 1752 },
        { "address": "塩浸", "city": "葦北郡芦北町", "postcode": "8696307", "prefecture": "熊本県", "id": 1753 },
        { "address": "白石", "city": "葦北郡芦北町", "postcode": "8696302", "prefecture": "熊本県", "id": 1754 },
        { "address": "白岩", "city": "葦北郡芦北町", "postcode": "8695452", "prefecture": "熊本県", "id": 1755 },
        { "address": "白木", "city": "葦北郡芦北町", "postcode": "8696308", "prefecture": "熊本県", "id": 1756 },
        { "address": "高岡", "city": "葦北郡芦北町", "postcode": "8695576", "prefecture": "熊本県", "id": 1757 },
        { "address": "田川", "city": "葦北郡芦北町", "postcode": "8695443", "prefecture": "熊本県", "id": 1758 },
        { "address": "立川", "city": "葦北郡芦北町", "postcode": "8695421", "prefecture": "熊本県", "id": 1759 },
        { "address": "田浦", "city": "葦北郡芦北町", "postcode": "8695302", "prefecture": "熊本県", "id": 1760 },
        { "address": "田浦町", "city": "葦北郡芦北町", "postcode": "8695305", "prefecture": "熊本県", "id": 1761 },
        { "address": "告", "city": "葦北郡芦北町", "postcode": "8696303", "prefecture": "熊本県", "id": 1762 },
        { "address": "鶴木山", "city": "葦北郡芦北町", "postcode": "8695454", "prefecture": "熊本県", "id": 1763 },
        { "address": "豊岡", "city": "葦北郡芦北町", "postcode": "8695571", "prefecture": "熊本県", "id": 1764 },
        { "address": "計石", "city": "葦北郡芦北町", "postcode": "8695453", "prefecture": "熊本県", "id": 1765 },
        { "address": "波多島", "city": "葦北郡芦北町", "postcode": "8695306", "prefecture": "熊本県", "id": 1766 },
        { "address": "花岡", "city": "葦北郡芦北町", "postcode": "8695442", "prefecture": "熊本県", "id": 1767 },
        { "address": "伏木氏", "city": "葦北郡芦北町", "postcode": "8695424", "prefecture": "熊本県", "id": 1768 },
        { "address": "古石", "city": "葦北郡芦北町", "postcode": "8695575", "prefecture": "熊本県", "id": 1769 },
        { "address": "松生", "city": "葦北郡芦北町", "postcode": "8695423", "prefecture": "熊本県", "id": 1770 },
        { "address": "丸山", "city": "葦北郡芦北町", "postcode": "8695572", "prefecture": "熊本県", "id": 1771 },
        { "address": "道川内", "city": "葦北郡芦北町", "postcode": "8695451", "prefecture": "熊本県", "id": 1772 },
        { "address": "宮崎", "city": "葦北郡芦北町", "postcode": "8695562", "prefecture": "熊本県", "id": 1773 },
        { "address": "宮浦", "city": "葦北郡芦北町", "postcode": "8695432", "prefecture": "熊本県", "id": 1774 },
        { "address": "女島", "city": "葦北郡芦北町", "postcode": "8695564", "prefecture": "熊本県", "id": 1775 },
        { "address": "八幡", "city": "葦北郡芦北町", "postcode": "8695433", "prefecture": "熊本県", "id": 1776 },
        { "address": "湯浦", "city": "葦北郡芦北町", "postcode": "8695563", "prefecture": "熊本県", "id": 1777 },
        { "address": "横居木", "city": "葦北郡芦北町", "postcode": "8695301", "prefecture": "熊本県", "id": 1778 },
        { "address": "吉尾", "city": "葦北郡芦北町", "postcode": "8696212", "prefecture": "熊本県", "id": 1779 },
        { "address": "米田", "city": "葦北郡芦北町", "postcode": "8695573", "prefecture": "熊本県", "id": 1780 },
        { "city": "葦北郡津奈木町", "postcode": "8695600", "prefecture": "熊本県", "id": 1781 },
        { "address": "岩城", "city": "葦北郡津奈木町", "postcode": "8695603", "prefecture": "熊本県", "id": 1782 },
        { "address": "小津奈木", "city": "葦北郡津奈木町", "postcode": "8695604", "prefecture": "熊本県", "id": 1783 },
        { "address": "千代", "city": "葦北郡津奈木町", "postcode": "8695601", "prefecture": "熊本県", "id": 1784 },
        { "address": "津奈木", "city": "葦北郡津奈木町", "postcode": "8695602", "prefecture": "熊本県", "id": 1785 },
        { "address": "福浜", "city": "葦北郡津奈木町", "postcode": "8695605", "prefecture": "熊本県", "id": 1786 },
        { "city": "球磨郡錦町", "postcode": "8680300", "prefecture": "熊本県", "id": 1787 },
        { "address": "一武", "city": "球磨郡錦町", "postcode": "8680302", "prefecture": "熊本県", "id": 1788 },
        { "address": "木上", "city": "球磨郡錦町", "postcode": "8680301", "prefecture": "熊本県", "id": 1789 },
        { "address": "西", "city": "球磨郡錦町", "postcode": "8680303", "prefecture": "熊本県", "id": 1790 },
        { "city": "球磨郡多良木町", "postcode": "8680500", "prefecture": "熊本県", "id": 1791 },
        { "address": "奥野", "city": "球磨郡多良木町", "postcode": "8680504", "prefecture": "熊本県", "id": 1792 },
        { "address": "久米", "city": "球磨郡多良木町", "postcode": "8680503", "prefecture": "熊本県", "id": 1793 },
        { "address": "黒肥地", "city": "球磨郡多良木町", "postcode": "8680502", "prefecture": "熊本県", "id": 1794 },
        { "address": "多良木", "city": "球磨郡多良木町", "postcode": "8680501", "prefecture": "熊本県", "id": 1795 },
        { "address": "槻木", "city": "球磨郡多良木町", "postcode": "8680505", "prefecture": "熊本県", "id": 1796 },
        { "city": "球磨郡湯前町", "postcode": "8680600", "prefecture": "熊本県", "id": 1797 },
        { "address": "浅ケ野", "city": "球磨郡湯前町", "postcode": "8680604", "prefecture": "熊本県", "id": 1798 },
        { "address": "植木", "city": "球磨郡湯前町", "postcode": "8680611", "prefecture": "熊本県", "id": 1799 },
        { "address": "上猪", "city": "球磨郡湯前町", "postcode": "8680625", "prefecture": "熊本県", "id": 1800 },
        { "address": "上里", "city": "球磨郡湯前町", "postcode": "8680621", "prefecture": "熊本県", "id": 1801 },
        { "address": "上染田", "city": "球磨郡湯前町", "postcode": "8680622", "prefecture": "熊本県", "id": 1802 },
        { "address": "上村", "city": "球磨郡湯前町", "postcode": "8680612", "prefecture": "熊本県", "id": 1803 },
        { "address": "下城", "city": "球磨郡湯前町", "postcode": "8680601", "prefecture": "熊本県", "id": 1804 },
        { "address": "下里", "city": "球磨郡湯前町", "postcode": "8680607", "prefecture": "熊本県", "id": 1805 },
        { "address": "下染田", "city": "球磨郡湯前町", "postcode": "8680605", "prefecture": "熊本県", "id": 1806 },
        { "address": "下村", "city": "球磨郡湯前町", "postcode": "8680616", "prefecture": "熊本県", "id": 1807 },
        { "address": "瀬戸口", "city": "球磨郡湯前町", "postcode": "8680615", "prefecture": "熊本県", "id": 1808 },
        { "address": "田上", "city": "球磨郡湯前町", "postcode": "8680613", "prefecture": "熊本県", "id": 1809 },
        { "address": "中猪", "city": "球磨郡湯前町", "postcode": "8680624", "prefecture": "熊本県", "id": 1810 },
        { "address": "中里", "city": "球磨郡湯前町", "postcode": "8680606", "prefecture": "熊本県", "id": 1811 },
        { "address": "野中田", "city": "球磨郡湯前町", "postcode": "8680623", "prefecture": "熊本県", "id": 1812 },
        { "address": "馬場", "city": "球磨郡湯前町", "postcode": "8680614", "prefecture": "熊本県", "id": 1813 },
        { "address": "浜川", "city": "球磨郡湯前町", "postcode": "8680602", "prefecture": "熊本県", "id": 1814 },
        { "address": "古城", "city": "球磨郡湯前町", "postcode": "8680603", "prefecture": "熊本県", "id": 1815 },
        { "city": "球磨郡水上村", "postcode": "8680700", "prefecture": "熊本県", "id": 1816 },
        { "address": "岩野", "city": "球磨郡水上村", "postcode": "8680701", "prefecture": "熊本県", "id": 1817 },
        { "address": "江代", "city": "球磨郡水上村", "postcode": "8680702", "prefecture": "熊本県", "id": 1818 },
        { "address": "湯山", "city": "球磨郡水上村", "postcode": "8680703", "prefecture": "熊本県", "id": 1819 },
        { "address": "川辺", "city": "球磨郡相良村", "postcode": "8680093", "prefecture": "熊本県", "id": 1820 },
        { "address": "深水", "city": "球磨郡相良村", "postcode": "8680094", "prefecture": "熊本県", "id": 1821 },
        { "address": "柳瀬", "city": "球磨郡相良村", "postcode": "8680095", "prefecture": "熊本県", "id": 1822 },
        { "address": "四浦", "city": "球磨郡相良村", "postcode": "8680101", "prefecture": "熊本県", "id": 1823 },
        { "city": "球磨郡五木村", "postcode": "8680200", "prefecture": "熊本県", "id": 1824 },
        { "address": "甲", "city": "球磨郡五木村", "postcode": "8680201", "prefecture": "熊本県", "id": 1825 },
        { "address": "乙", "city": "球磨郡五木村", "postcode": "8680202", "prefecture": "熊本県", "id": 1826 },
        { "address": "丙", "city": "球磨郡五木村", "postcode": "8680203", "prefecture": "熊本県", "id": 1827 },
        { "address": "万江", "city": "球磨郡山江村", "postcode": "8680091", "prefecture": "熊本県", "id": 1828 },
        { "address": "山田", "city": "球磨郡山江村", "postcode": "8680092", "prefecture": "熊本県", "id": 1829 },
        { "city": "球磨郡球磨村", "postcode": "8696400", "prefecture": "熊本県", "id": 1830 },
        { "address": "一勝地", "city": "球磨郡球磨村", "postcode": "8696403", "prefecture": "熊本県", "id": 1831 },
        { "address": "大瀬", "city": "球磨郡球磨村", "postcode": "8696405", "prefecture": "熊本県", "id": 1832 },
        { "address": "神瀬", "city": "球磨郡球磨村", "postcode": "8696404", "prefecture": "熊本県", "id": 1833 },
        { "address": "三ケ浦", "city": "球磨郡球磨村", "postcode": "8696402", "prefecture": "熊本県", "id": 1834 },
        { "address": "渡", "city": "球磨郡球磨村", "postcode": "8696401", "prefecture": "熊本県", "id": 1835 },
        { "city": "球磨郡あさぎり町", "postcode": "8680400", "prefecture": "熊本県", "id": 1836 },
        { "address": "上東", "city": "球磨郡あさぎり町", "postcode": "8680421", "prefecture": "熊本県", "id": 1837 },
        { "address": "上西", "city": "球磨郡あさぎり町", "postcode": "8680424", "prefecture": "熊本県", "id": 1838 },
        { "address": "上南", "city": "球磨郡あさぎり町", "postcode": "8680423", "prefecture": "熊本県", "id": 1839 },
        { "address": "上北", "city": "球磨郡あさぎり町", "postcode": "8680422", "prefecture": "熊本県", "id": 1840 },
        { "address": "岡原南", "city": "球磨郡あさぎり町", "postcode": "8680432", "prefecture": "熊本県", "id": 1841 },
        { "address": "岡原北", "city": "球磨郡あさぎり町", "postcode": "8680431", "prefecture": "熊本県", "id": 1842 },
        { "address": "須恵", "city": "球磨郡あさぎり町", "postcode": "8680451", "prefecture": "熊本県", "id": 1843 },
        { "address": "深田東", "city": "球磨郡あさぎり町", "postcode": "8680442", "prefecture": "熊本県", "id": 1844 },
        { "address": "深田西", "city": "球磨郡あさぎり町", "postcode": "8680444", "prefecture": "熊本県", "id": 1845 },
        { "address": "深田南", "city": "球磨郡あさぎり町", "postcode": "8680443", "prefecture": "熊本県", "id": 1846 },
        { "address": "深田北", "city": "球磨郡あさぎり町", "postcode": "8680441", "prefecture": "熊本県", "id": 1847 },
        { "address": "皆越", "city": "球磨郡あさぎり町", "postcode": "8680425", "prefecture": "熊本県", "id": 1848 },
        { "address": "免田東", "city": "球磨郡あさぎり町", "postcode": "8680408", "prefecture": "熊本県", "id": 1849 },
        { "address": "免田西", "city": "球磨郡あさぎり町", "postcode": "8680415", "prefecture": "熊本県", "id": 1850 },
        { "city": "天草郡苓北町", "postcode": "8632500", "prefecture": "熊本県", "id": 1851 },
        { "address": "内田", "city": "天草郡苓北町", "postcode": "8632505", "prefecture": "熊本県", "id": 1852 },
        { "address": "上津深江", "city": "天草郡苓北町", "postcode": "8632502", "prefecture": "熊本県", "id": 1853 },
        { "address": "坂瀬川", "city": "天草郡苓北町", "postcode": "8632501", "prefecture": "熊本県", "id": 1854 },
        { "address": "志岐", "city": "天草郡苓北町", "postcode": "8632503", "prefecture": "熊本県", "id": 1855 },
        { "address": "白木尾", "city": "天草郡苓北町", "postcode": "8632506", "prefecture": "熊本県", "id": 1856 },
        { "address": "年柄", "city": "天草郡苓北町", "postcode": "8632504", "prefecture": "熊本県", "id": 1857 },
        { "address": "富岡", "city": "天草郡苓北町", "postcode": "8632507", "prefecture": "熊本県", "id": 1858 },
        { "address": "都呂々", "city": "天草郡苓北町", "postcode": "8632611", "prefecture": "熊本県", "id": 1859 }
    ]
}
