{
    "postcodes": [
        { "city": "前橋市", "postcode": "3710000", "prefecture": "群馬県", "id": 0 },
        { "address": "青梨子町", "city": "前橋市", "postcode": "3703573", "prefecture": "群馬県", "id": 1 },
        { "address": "青葉町", "city": "前橋市", "postcode": "3710826", "prefecture": "群馬県", "id": 2 },
        { "address": "青柳町", "city": "前橋市", "postcode": "3710056", "prefecture": "群馬県", "id": 3 },
        { "address": "朝倉町", "city": "前橋市", "postcode": "3710811", "prefecture": "群馬県", "id": 4 },
        { "address": "朝日が丘町", "city": "前橋市", "postcode": "3710832", "prefecture": "群馬県", "id": 5 },
        { "address": "朝日町", "city": "前橋市", "postcode": "3710014", "prefecture": "群馬県", "id": 6 },
        { "address": "天川大島町", "city": "前橋市", "postcode": "3792154", "prefecture": "群馬県", "id": 7 },
        { "address": "天川原町", "city": "前橋市", "postcode": "3710803", "prefecture": "群馬県", "id": 8 },
        { "address": "天川町", "city": "前橋市", "postcode": "3710802", "prefecture": "群馬県", "id": 9 },
        { "address": "新井町", "city": "前橋市", "postcode": "3792112", "prefecture": "群馬県", "id": 10 },
        { "address": "荒口町", "city": "前橋市", "postcode": "3792107", "prefecture": "群馬県", "id": 11 },
        { "address": "荒子町", "city": "前橋市", "postcode": "3792106", "prefecture": "群馬県", "id": 12 },
        { "address": "荒牧町", "city": "前橋市", "postcode": "3710044", "prefecture": "群馬県", "id": 13 },
        { "address": "飯土井町", "city": "前橋市", "postcode": "3792111", "prefecture": "群馬県", "id": 14 },
        { "address": "池端町", "city": "前橋市", "postcode": "3703571", "prefecture": "群馬県", "id": 15 },
        { "address": "石倉町", "city": "前橋市", "postcode": "3710841", "prefecture": "群馬県", "id": 16 },
        { "address": "石関町", "city": "前橋市", "postcode": "3710006", "prefecture": "群馬県", "id": 17 },
        { "address": "泉沢町", "city": "前橋市", "postcode": "3792101", "prefecture": "群馬県", "id": 18 },
        { "address": "市之関町", "city": "前橋市", "postcode": "3710245", "prefecture": "群馬県", "id": 19 },
        { "address": "今井町", "city": "前橋市", "postcode": "3792116", "prefecture": "群馬県", "id": 20 },
        { "address": "岩神町", "city": "前橋市", "postcode": "3710035", "prefecture": "群馬県", "id": 21 },
        { "address": "笂井町", "city": "前橋市", "postcode": "3792115", "prefecture": "群馬県", "id": 22 },
        { "address": "江木町", "city": "前橋市", "postcode": "3710002", "prefecture": "群馬県", "id": 23 },
        { "address": "江田町", "city": "前橋市", "postcode": "3710836", "prefecture": "群馬県", "id": 24 },
        { "address": "大胡町", "city": "前橋市", "postcode": "3710223", "prefecture": "群馬県", "id": 25 },
        { "address": "大手町", "city": "前橋市", "postcode": "3710026", "prefecture": "群馬県", "id": 26 },
        { "address": "大利根町", "city": "前橋市", "postcode": "3710825", "prefecture": "群馬県", "id": 27 },
        { "address": "大友町", "city": "前橋市", "postcode": "3710847", "prefecture": "群馬県", "id": 28 },
        { "address": "大前田町", "city": "前橋市", "postcode": "3710243", "prefecture": "群馬県", "id": 29 },
        { "address": "大渡町", "city": "前橋市", "postcode": "3710854", "prefecture": "群馬県", "id": 30 },
        { "address": "荻窪町", "city": "前橋市", "postcode": "3710001", "prefecture": "群馬県", "id": 31 },
        { "address": "女屋町", "city": "前橋市", "postcode": "3792163", "prefecture": "群馬県", "id": 32 },
        { "address": "表町", "city": "前橋市", "postcode": "3710024", "prefecture": "群馬県", "id": 33 },
        { "address": "柏倉町", "city": "前橋市", "postcode": "3710246", "prefecture": "群馬県", "id": 34 },
        { "address": "粕川町新屋", "city": "前橋市", "postcode": "3710206", "prefecture": "群馬県", "id": 35 },
        { "address": "粕川町稲里", "city": "前橋市", "postcode": "3710207", "prefecture": "群馬県", "id": 36 },
        { "address": "粕川町女渕", "city": "前橋市", "postcode": "3710214", "prefecture": "群馬県", "id": 37 },
        { "address": "粕川町上東田面", "city": "前橋市", "postcode": "3710211", "prefecture": "群馬県", "id": 38 },
        { "address": "粕川町込皆戸", "city": "前橋市", "postcode": "3710216", "prefecture": "群馬県", "id": 39 },
        { "address": "粕川町下東田面", "city": "前橋市", "postcode": "3710212", "prefecture": "群馬県", "id": 40 },
        { "address": "粕川町膳", "city": "前橋市", "postcode": "3710204", "prefecture": "群馬県", "id": 41 },
        { "address": "粕川町月田", "city": "前橋市", "postcode": "3710203", "prefecture": "群馬県", "id": 42 },
        { "address": "粕川町中", "city": "前橋市", "postcode": "3710205", "prefecture": "群馬県", "id": 43 },
        { "address": "粕川町中之沢", "city": "前橋市", "postcode": "3710201", "prefecture": "群馬県", "id": 44 },
        { "address": "粕川町西田面", "city": "前橋市", "postcode": "3710217", "prefecture": "群馬県", "id": 45 },
        { "address": "粕川町一日市", "city": "前橋市", "postcode": "3710213", "prefecture": "群馬県", "id": 46 },
        { "address": "粕川町深津", "city": "前橋市", "postcode": "3710215", "prefecture": "群馬県", "id": 47 },
        { "address": "粕川町前皆戸", "city": "前橋市", "postcode": "3710218", "prefecture": "群馬県", "id": 48 },
        { "address": "粕川町室沢", "city": "前橋市", "postcode": "3710202", "prefecture": "群馬県", "id": 49 },
        { "address": "勝沢町", "city": "前橋市", "postcode": "3710124", "prefecture": "群馬県", "id": 50 },
        { "address": "金丸町", "city": "前橋市", "postcode": "3710121", "prefecture": "群馬県", "id": 51 },
        { "address": "上青梨子町", "city": "前橋市", "postcode": "3703572", "prefecture": "群馬県", "id": 52 },
        { "address": "上泉町", "city": "前橋市", "postcode": "3710007", "prefecture": "群馬県", "id": 53 },
        { "address": "上大島町", "city": "前橋市", "postcode": "3792153", "prefecture": "群馬県", "id": 54 },
        { "address": "上大屋町", "city": "前橋市", "postcode": "3710222", "prefecture": "群馬県", "id": 55 },
        { "address": "上沖町", "city": "前橋市", "postcode": "3710052", "prefecture": "群馬県", "id": 56 },
        { "address": "上小出町", "city": "前橋市", "postcode": "3710037", "prefecture": "群馬県", "id": 57 },
        { "address": "上佐鳥町", "city": "前橋市", "postcode": "3710816", "prefecture": "群馬県", "id": 58 },
        { "address": "上新田町", "city": "前橋市", "postcode": "3710821", "prefecture": "群馬県", "id": 59 },
        { "address": "上長磯町", "city": "前橋市", "postcode": "3792165", "prefecture": "群馬県", "id": 60 },
        { "address": "上細井町", "city": "前橋市", "postcode": "3710051", "prefecture": "群馬県", "id": 61 },
        { "address": "上増田町", "city": "前橋市", "postcode": "3792114", "prefecture": "群馬県", "id": 62 },
        { "address": "亀泉町", "city": "前橋市", "postcode": "3710004", "prefecture": "群馬県", "id": 63 },
        { "address": "亀里町", "city": "前橋市", "postcode": "3792147", "prefecture": "群馬県", "id": 64 },
        { "address": "川端町", "city": "前橋市", "postcode": "3710041", "prefecture": "群馬県", "id": 65 },
        { "address": "川原町", "city": "前橋市", "postcode": "3710046", "prefecture": "群馬県", "id": 66 },
        { "address": "川曲町", "city": "前橋市", "postcode": "3710823", "prefecture": "群馬県", "id": 67 },
        { "address": "河原浜町", "city": "前橋市", "postcode": "3710224", "prefecture": "群馬県", "id": 68 },
        { "address": "神沢の森", "city": "前橋市", "postcode": "3792103", "prefecture": "群馬県", "id": 69 },
        { "address": "北代田町", "city": "前橋市", "postcode": "3710055", "prefecture": "群馬県", "id": 70 },
        { "address": "清野町", "city": "前橋市", "postcode": "3703574", "prefecture": "群馬県", "id": 71 },
        { "address": "公田町", "city": "前橋市", "postcode": "3792146", "prefecture": "群馬県", "id": 72 },
        { "address": "小相木町", "city": "前橋市", "postcode": "3710831", "prefecture": "群馬県", "id": 73 },
        { "address": "紅雲町", "city": "前橋市", "postcode": "3710025", "prefecture": "群馬県", "id": 74 },
        { "address": "幸塚町", "city": "前橋市", "postcode": "3710053", "prefecture": "群馬県", "id": 75 },
        { "address": "後閑町", "city": "前橋市", "postcode": "3710813", "prefecture": "群馬県", "id": 76 },
        { "address": "国領町", "city": "前橋市", "postcode": "3710033", "prefecture": "群馬県", "id": 77 },
        { "address": "後家町", "city": "前橋市", "postcode": "3710834", "prefecture": "群馬県", "id": 78 },
        { "address": "小坂子町", "city": "前橋市", "postcode": "3710122", "prefecture": "群馬県", "id": 79 },
        { "address": "小島田町", "city": "前橋市", "postcode": "3792162", "prefecture": "群馬県", "id": 80 },
        { "address": "小神明町", "city": "前橋市", "postcode": "3710134", "prefecture": "群馬県", "id": 81 },
        { "address": "五代町", "city": "前橋市", "postcode": "3710132", "prefecture": "群馬県", "id": 82 },
        { "address": "駒形町", "city": "前橋市", "postcode": "3792122", "prefecture": "群馬県", "id": 83 },
        { "address": "小屋原町", "city": "前橋市", "postcode": "3792121", "prefecture": "群馬県", "id": 84 },
        { "address": "山王町", "city": "前橋市", "postcode": "3792123", "prefecture": "群馬県", "id": 85 },
        { "address": "敷島町", "city": "前橋市", "postcode": "3710036", "prefecture": "群馬県", "id": 86 },
        { "address": "下阿内町", "city": "前橋市", "postcode": "3792142", "prefecture": "群馬県", "id": 87 },
        { "address": "下石倉町", "city": "前橋市", "postcode": "3710842", "prefecture": "群馬県", "id": 88 },
        { "address": "下大島町", "city": "前橋市", "postcode": "3792152", "prefecture": "群馬県", "id": 89 },
        { "address": "下大屋町", "city": "前橋市", "postcode": "3792102", "prefecture": "群馬県", "id": 90 },
        { "address": "下沖町", "city": "前橋市", "postcode": "3710011", "prefecture": "群馬県", "id": 91 },
        { "address": "下川町", "city": "前橋市", "postcode": "3792144", "prefecture": "群馬県", "id": 92 },
        { "address": "下小出町", "city": "前橋市", "postcode": "3710031", "prefecture": "群馬県", "id": 93 },
        { "address": "下佐鳥町", "city": "前橋市", "postcode": "3710815", "prefecture": "群馬県", "id": 94 },
        { "address": "下新田町", "city": "前橋市", "postcode": "3710822", "prefecture": "群馬県", "id": 95 },
        { "address": "下長磯町", "city": "前橋市", "postcode": "3792151", "prefecture": "群馬県", "id": 96 },
        { "address": "下細井町", "city": "前橋市", "postcode": "3710054", "prefecture": "群馬県", "id": 97 },
        { "address": "下増田町", "city": "前橋市", "postcode": "3792113", "prefecture": "群馬県", "id": 98 },
        { "address": "城東町", "city": "前橋市", "postcode": "3710016", "prefecture": "群馬県", "id": 99 },
        { "address": "昭和町", "city": "前橋市", "postcode": "3710034", "prefecture": "群馬県", "id": 100 },
        { "address": "新前橋町", "city": "前橋市", "postcode": "3710843", "prefecture": "群馬県", "id": 101 },
        { "address": "住吉町", "city": "前橋市", "postcode": "3710021", "prefecture": "群馬県", "id": 102 },
        { "address": "関根町", "city": "前橋市", "postcode": "3710047", "prefecture": "群馬県", "id": 103 },
        { "address": "総社町", "city": "前橋市", "postcode": "3710853", "prefecture": "群馬県", "id": 104 },
        { "address": "総社町植野", "city": "前橋市", "postcode": "3710851", "prefecture": "群馬県", "id": 105 },
        { "address": "総社町桜が丘", "city": "前橋市", "postcode": "3710858", "prefecture": "群馬県", "id": 106 },
        { "address": "総社町総社", "city": "前橋市", "postcode": "3710852", "prefecture": "群馬県", "id": 107 },
        { "address": "総社町高井", "city": "前橋市", "postcode": "3710856", "prefecture": "群馬県", "id": 108 },
        { "address": "高井町", "city": "前橋市", "postcode": "3710857", "prefecture": "群馬県", "id": 109 },
        { "address": "高花台", "city": "前橋市", "postcode": "3710123", "prefecture": "群馬県", "id": 110 },
        { "address": "滝窪町", "city": "前橋市", "postcode": "3710235", "prefecture": "群馬県", "id": 111 },
        { "address": "田口町", "city": "前橋市", "postcode": "3710048", "prefecture": "群馬県", "id": 112 },
        { "address": "千代田町", "city": "前橋市", "postcode": "3710022", "prefecture": "群馬県", "id": 113 },
        { "address": "堤町", "city": "前橋市", "postcode": "3710003", "prefecture": "群馬県", "id": 114 },
        { "address": "鶴が谷町", "city": "前橋市", "postcode": "3792108", "prefecture": "群馬県", "id": 115 },
        { "address": "鶴光路町", "city": "前橋市", "postcode": "3792141", "prefecture": "群馬県", "id": 116 },
        { "address": "稲荷新田町", "city": "前橋市", "postcode": "3710824", "prefecture": "群馬県", "id": 117 },
        { "address": "徳丸町", "city": "前橋市", "postcode": "3792135", "prefecture": "群馬県", "id": 118 },
        { "address": "鳥取町", "city": "前橋市", "postcode": "3710131", "prefecture": "群馬県", "id": 119 },
        { "address": "富田町", "city": "前橋市", "postcode": "3792161", "prefecture": "群馬県", "id": 120 },
        { "address": "鳥羽町", "city": "前橋市", "postcode": "3710845", "prefecture": "群馬県", "id": 121 },
        { "address": "問屋町", "city": "前橋市", "postcode": "3710855", "prefecture": "群馬県", "id": 122 },
        { "address": "苗ケ島町", "city": "前橋市", "postcode": "3710241", "prefecture": "群馬県", "id": 123 },
        { "address": "中内町", "city": "前橋市", "postcode": "3792133", "prefecture": "群馬県", "id": 124 },
        { "address": "南橘町", "city": "前橋市", "postcode": "3710043", "prefecture": "群馬県", "id": 125 },
        { "address": "新堀町", "city": "前橋市", "postcode": "3792143", "prefecture": "群馬県", "id": 126 },
        { "address": "西大室町", "city": "前橋市", "postcode": "3792104", "prefecture": "群馬県", "id": 127 },
        { "address": "西片貝町", "city": "前橋市", "postcode": "3710013", "prefecture": "群馬県", "id": 128 },
        { "address": "西善町", "city": "前橋市", "postcode": "3792131", "prefecture": "群馬県", "id": 129 },
        { "address": "日輪寺町", "city": "前橋市", "postcode": "3710042", "prefecture": "群馬県", "id": 130 },
        { "address": "二之宮町", "city": "前橋市", "postcode": "3792117", "prefecture": "群馬県", "id": 131 },
        { "address": "ぬで島町", "city": "前橋市", "postcode": "3710817", "prefecture": "群馬県", "id": 132 },
        { "address": "野中町", "city": "前橋市", "postcode": "3792166", "prefecture": "群馬県", "id": 133 },
        { "address": "端気町", "city": "前橋市", "postcode": "3710133", "prefecture": "群馬県", "id": 134 },
        { "address": "箱田町", "city": "前橋市", "postcode": "3710837", "prefecture": "群馬県", "id": 135 },
        { "address": "鼻毛石町", "city": "前橋市", "postcode": "3710244", "prefecture": "群馬県", "id": 136 },
        { "address": "馬場町", "city": "前橋市", "postcode": "3710242", "prefecture": "群馬県", "id": 137 },
        { "address": "東上野町", "city": "前橋市", "postcode": "3792164", "prefecture": "群馬県", "id": 138 },
        { "address": "東大室町", "city": "前橋市", "postcode": "3792105", "prefecture": "群馬県", "id": 139 },
        { "address": "東片貝町", "city": "前橋市", "postcode": "3710012", "prefecture": "群馬県", "id": 140 },
        { "address": "東金丸町", "city": "前橋市", "postcode": "3710234", "prefecture": "群馬県", "id": 141 },
        { "address": "東善町", "city": "前橋市", "postcode": "3792132", "prefecture": "群馬県", "id": 142 },
        { "address": "光が丘町", "city": "前橋市", "postcode": "3710833", "prefecture": "群馬県", "id": 143 },
        { "address": "樋越町", "city": "前橋市", "postcode": "3710221", "prefecture": "群馬県", "id": 144 },
        { "address": "日吉町", "city": "前橋市", "postcode": "3710017", "prefecture": "群馬県", "id": 145 },
        { "address": "広瀬町", "city": "前橋市", "postcode": "3710812", "prefecture": "群馬県", "id": 146 },
        { "address": "富士見町赤城山", "city": "前橋市", "postcode": "3710101", "prefecture": "群馬県", "id": 147 },
        { "address": "富士見町石井", "city": "前橋市", "postcode": "3710105", "prefecture": "群馬県", "id": 148 },
        { "address": "富士見町市之木場", "city": "前橋市", "postcode": "3710106", "prefecture": "群馬県", "id": 149 },
        { "address": "富士見町漆窪", "city": "前橋市", "postcode": "3710113", "prefecture": "群馬県", "id": 150 },
        { "address": "富士見町小沢", "city": "前橋市", "postcode": "3710115", "prefecture": "群馬県", "id": 151 },
        { "address": "富士見町小暮", "city": "前橋市", "postcode": "3710103", "prefecture": "群馬県", "id": 152 },
        { "address": "富士見町米野", "city": "前橋市", "postcode": "3710111", "prefecture": "群馬県", "id": 153 },
        { "address": "富士見町田島", "city": "前橋市", "postcode": "3710114", "prefecture": "群馬県", "id": 154 },
        { "address": "富士見町時沢", "city": "前橋市", "postcode": "3710104", "prefecture": "群馬県", "id": 155 },
        { "address": "富士見町原之郷", "city": "前橋市", "postcode": "3710116", "prefecture": "群馬県", "id": 156 },
        { "address": "富士見町引田", "city": "前橋市", "postcode": "3710112", "prefecture": "群馬県", "id": 157 },
        { "address": "富士見町皆沢", "city": "前橋市", "postcode": "3710102", "prefecture": "群馬県", "id": 158 },
        { "address": "富士見町山口", "city": "前橋市", "postcode": "3710107", "prefecture": "群馬県", "id": 159 },
        { "address": "富士見町横室", "city": "前橋市", "postcode": "3710117", "prefecture": "群馬県", "id": 160 },
        { "address": "古市町", "city": "前橋市", "postcode": "3710844", "prefecture": "群馬県", "id": 161 },
        { "address": "文京町", "city": "前橋市", "postcode": "3710801", "prefecture": "群馬県", "id": 162 },
        { "address": "平和町", "city": "前橋市", "postcode": "3710027", "prefecture": "群馬県", "id": 163 },
        { "address": "房丸町", "city": "前橋市", "postcode": "3792136", "prefecture": "群馬県", "id": 164 },
        { "address": "堀越町", "city": "前橋市", "postcode": "3710231", "prefecture": "群馬県", "id": 165 },
        { "address": "堀之下町", "city": "前橋市", "postcode": "3710005", "prefecture": "群馬県", "id": 166 },
        { "address": "本町", "city": "前橋市", "postcode": "3710023", "prefecture": "群馬県", "id": 167 },
        { "address": "前箱田町", "city": "前橋市", "postcode": "3710835", "prefecture": "群馬県", "id": 168 },
        { "address": "三河町", "city": "前橋市", "postcode": "3710015", "prefecture": "群馬県", "id": 169 },
        { "address": "三俣町", "city": "前橋市", "postcode": "3710018", "prefecture": "群馬県", "id": 170 },
        { "address": "緑が丘町", "city": "前橋市", "postcode": "3710045", "prefecture": "群馬県", "id": 171 },
        { "address": "南町", "city": "前橋市", "postcode": "3710805", "prefecture": "群馬県", "id": 172 },
        { "address": "嶺町", "city": "前橋市", "postcode": "3710125", "prefecture": "群馬県", "id": 173 },
        { "address": "宮地町", "city": "前橋市", "postcode": "3710814", "prefecture": "群馬県", "id": 174 },
        { "address": "三夜沢町", "city": "前橋市", "postcode": "3710247", "prefecture": "群馬県", "id": 175 },
        { "address": "茂木町", "city": "前橋市", "postcode": "3710232", "prefecture": "群馬県", "id": 176 },
        { "address": "元総社町", "city": "前橋市", "postcode": "3710846", "prefecture": "群馬県", "id": 177 },
        { "address": "横沢町", "city": "前橋市", "postcode": "3710233", "prefecture": "群馬県", "id": 178 },
        { "address": "横手町", "city": "前橋市", "postcode": "3792145", "prefecture": "群馬県", "id": 179 },
        { "address": "力丸町", "city": "前橋市", "postcode": "3792134", "prefecture": "群馬県", "id": 180 },
        { "address": "龍蔵寺町", "city": "前橋市", "postcode": "3710057", "prefecture": "群馬県", "id": 181 },
        { "address": "六供町", "city": "前橋市", "postcode": "3710804", "prefecture": "群馬県", "id": 182 },
        { "address": "若宮町", "city": "前橋市", "postcode": "3710032", "prefecture": "群馬県", "id": 183 },
        { "city": "高崎市", "postcode": "3700000", "prefecture": "群馬県", "id": 184 },
        { "address": "相生町", "city": "高崎市", "postcode": "3700811", "prefecture": "群馬県", "id": 185 },
        { "address": "赤坂町", "city": "高崎市", "postcode": "3700818", "prefecture": "群馬県", "id": 186 },
        { "address": "阿久津町", "city": "高崎市", "postcode": "3701211", "prefecture": "群馬県", "id": 187 },
        { "address": "旭町", "city": "高崎市", "postcode": "3700052", "prefecture": "群馬県", "id": 188 },
        { "address": "足門町", "city": "高崎市", "postcode": "3703531", "prefecture": "群馬県", "id": 189 },
        { "address": "東町", "city": "高崎市", "postcode": "3700045", "prefecture": "群馬県", "id": 190 },
        { "address": "あら町", "city": "高崎市", "postcode": "3700831", "prefecture": "群馬県", "id": 191 },
        { "address": "飯玉町", "city": "高崎市", "postcode": "3700063", "prefecture": "群馬県", "id": 192 },
        { "address": "飯塚町", "city": "高崎市", "postcode": "3700069", "prefecture": "群馬県", "id": 193 },
        { "address": "石原町", "city": "高崎市", "postcode": "3700864", "prefecture": "群馬県", "id": 194 },
        { "address": "井出町", "city": "高崎市", "postcode": "3703534", "prefecture": "群馬県", "id": 195 },
        { "address": "稲荷町", "city": "高崎市", "postcode": "3700062", "prefecture": "群馬県", "id": 196 },
        { "address": "井野町", "city": "高崎市", "postcode": "3700004", "prefecture": "群馬県", "id": 197 },
        { "address": "岩押町", "city": "高崎市", "postcode": "3700044", "prefecture": "群馬県", "id": 198 },
        { "address": "岩鼻町", "city": "高崎市", "postcode": "3701208", "prefecture": "群馬県", "id": 199 },
        { "address": "請地町", "city": "高崎市", "postcode": "3700067", "prefecture": "群馬県", "id": 200 },
        { "address": "後疋間町", "city": "高崎市", "postcode": "3703518", "prefecture": "群馬県", "id": 201 },
        { "address": "歌川町", "city": "高崎市", "postcode": "3700807", "prefecture": "群馬県", "id": 202 },
        { "address": "江木町", "city": "高崎市", "postcode": "3700046", "prefecture": "群馬県", "id": 203 },
        { "address": "大沢町", "city": "高崎市", "postcode": "3700012", "prefecture": "群馬県", "id": 204 },
        { "address": "大橋町", "city": "高崎市", "postcode": "3700803", "prefecture": "群馬県", "id": 205 },
        { "address": "大八木町", "city": "高崎市", "postcode": "3700072", "prefecture": "群馬県", "id": 206 },
        { "address": "沖町", "city": "高崎市", "postcode": "3700086", "prefecture": "群馬県", "id": 207 },
        { "address": "貝沢町", "city": "高崎市", "postcode": "3700042", "prefecture": "群馬県", "id": 208 },
        { "address": "鍛冶町", "city": "高崎市", "postcode": "3700838", "prefecture": "群馬県", "id": 209 },
        { "address": "片岡町", "city": "高崎市", "postcode": "3700862", "prefecture": "群馬県", "id": 210 },
        { "address": "嘉多町", "city": "高崎市", "postcode": "3700814", "prefecture": "群馬県", "id": 211 },
        { "address": "金井淵町", "city": "高崎市", "postcode": "3700882", "prefecture": "群馬県", "id": 212 },
        { "address": "金古町", "city": "高崎市", "postcode": "3703511", "prefecture": "群馬県", "id": 213 },
        { "address": "上大島町", "city": "高崎市", "postcode": "3703335", "prefecture": "群馬県", "id": 214 },
        { "address": "上大類町", "city": "高崎市", "postcode": "3700031", "prefecture": "群馬県", "id": 215 },
        { "address": "上小鳥町", "city": "高崎市", "postcode": "3700078", "prefecture": "群馬県", "id": 216 },
        { "address": "上小塙町", "city": "高崎市", "postcode": "3700077", "prefecture": "群馬県", "id": 217 },
        { "address": "上里見町", "city": "高崎市", "postcode": "3703345", "prefecture": "群馬県", "id": 218 },
        { "address": "上佐野町", "city": "高崎市", "postcode": "3700857", "prefecture": "群馬県", "id": 219 },
        { "address": "上滝町", "city": "高崎市", "postcode": "3700027", "prefecture": "群馬県", "id": 220 },
        { "address": "上豊岡町", "city": "高崎市", "postcode": "3700871", "prefecture": "群馬県", "id": 221 },
        { "address": "上中居町", "city": "高崎市", "postcode": "3700851", "prefecture": "群馬県", "id": 222 },
        { "address": "上並榎町", "city": "高崎市", "postcode": "3700801", "prefecture": "群馬県", "id": 223 },
        { "address": "上室田町", "city": "高崎市", "postcode": "3703346", "prefecture": "群馬県", "id": 224 },
        { "address": "上和田町", "city": "高崎市", "postcode": "3700806", "prefecture": "群馬県", "id": 225 },
        { "address": "菊地町", "city": "高崎市", "postcode": "3700084", "prefecture": "群馬県", "id": 226 },
        { "address": "北新波町", "city": "高崎市", "postcode": "3700082", "prefecture": "群馬県", "id": 227 },
        { "address": "北久保町", "city": "高崎市", "postcode": "3700872", "prefecture": "群馬県", "id": 228 },
        { "address": "北通町", "city": "高崎市", "postcode": "3700056", "prefecture": "群馬県", "id": 229 },
        { "address": "北原町", "city": "高崎市", "postcode": "3703513", "prefecture": "群馬県", "id": 230 },
        { "address": "北双葉町", "city": "高崎市", "postcode": "3700842", "prefecture": "群馬県", "id": 231 },
        { "address": "木部町", "city": "高崎市", "postcode": "3701212", "prefecture": "群馬県", "id": 232 },
        { "address": "京目町", "city": "高崎市", "postcode": "3700011", "prefecture": "群馬県", "id": 233 },
        { "address": "行力町", "city": "高崎市", "postcode": "3700088", "prefecture": "群馬県", "id": 234 },
        { "address": "九蔵町", "city": "高崎市", "postcode": "3700058", "prefecture": "群馬県", "id": 235 },
        { "address": "倉賀野町", "city": "高崎市", "postcode": "3701201", "prefecture": "群馬県", "id": 236 },
        { "address": "倉渕町岩氷", "city": "高崎市", "postcode": "3703404", "prefecture": "群馬県", "id": 237 },
        { "address": "倉渕町川浦", "city": "高崎市", "postcode": "3703405", "prefecture": "群馬県", "id": 238 },
        { "address": "倉渕町権田", "city": "高崎市", "postcode": "3703401", "prefecture": "群馬県", "id": 239 },
        { "address": "倉渕町三ノ倉", "city": "高崎市", "postcode": "3703402", "prefecture": "群馬県", "id": 240 },
        { "address": "倉渕町水沼", "city": "高崎市", "postcode": "3703403", "prefecture": "群馬県", "id": 241 },
        { "address": "栗崎町", "city": "高崎市", "postcode": "3701205", "prefecture": "群馬県", "id": 242 },
        { "address": "剣崎町", "city": "高崎市", "postcode": "3700883", "prefecture": "群馬県", "id": 243 },
        { "address": "神戸町", "city": "高崎市", "postcode": "3703336", "prefecture": "群馬県", "id": 244 },
        { "address": "小八木町", "city": "高崎市", "postcode": "3700071", "prefecture": "群馬県", "id": 245 },
        { "address": "栄町", "city": "高崎市", "postcode": "3700841", "prefecture": "群馬県", "id": 246 },
        { "address": "佐野窪町", "city": "高崎市", "postcode": "3700856", "prefecture": "群馬県", "id": 247 },
        { "address": "鞘町", "city": "高崎市", "postcode": "3700827", "prefecture": "群馬県", "id": 248 },
        { "address": "新後閑町", "city": "高崎市", "postcode": "3700845", "prefecture": "群馬県", "id": 249 },
        { "address": "柴崎町", "city": "高崎市", "postcode": "3700035", "prefecture": "群馬県", "id": 250 },
        { "address": "芝塚町", "city": "高崎市", "postcode": "3700064", "prefecture": "群馬県", "id": 251 },
        { "address": "島野町", "city": "高崎市", "postcode": "3700015", "prefecture": "群馬県", "id": 252 },
        { "address": "下大島町", "city": "高崎市", "postcode": "3700886", "prefecture": "群馬県", "id": 253 },
        { "address": "下大類町", "city": "高崎市", "postcode": "3700034", "prefecture": "群馬県", "id": 254 },
        { "address": "下小鳥町", "city": "高崎市", "postcode": "3700074", "prefecture": "群馬県", "id": 255 },
        { "address": "下小塙町", "city": "高崎市", "postcode": "3700076", "prefecture": "群馬県", "id": 256 },
        { "address": "下斉田町", "city": "高崎市", "postcode": "3700025", "prefecture": "群馬県", "id": 257 },
        { "address": "下里見町", "city": "高崎市", "postcode": "3703343", "prefecture": "群馬県", "id": 258 },
        { "address": "下佐野町", "city": "高崎市", "postcode": "3700855", "prefecture": "群馬県", "id": 259 },
        { "address": "下滝町", "city": "高崎市", "postcode": "3700026", "prefecture": "群馬県", "id": 260 },
        { "address": "下豊岡町", "city": "高崎市", "postcode": "3700873", "prefecture": "群馬県", "id": 261 },
        { "address": "下中居町", "city": "高崎市", "postcode": "3700853", "prefecture": "群馬県", "id": 262 },
        { "address": "下之城町", "city": "高崎市", "postcode": "3700854", "prefecture": "群馬県", "id": 263 },
        { "address": "下室田町", "city": "高崎市", "postcode": "3703342", "prefecture": "群馬県", "id": 264 },
        { "address": "下横町", "city": "高崎市", "postcode": "3700837", "prefecture": "群馬県", "id": 265 },
        { "address": "下和田町", "city": "高崎市", "postcode": "3700846", "prefecture": "群馬県", "id": 266 },
        { "address": "十文字町", "city": "高崎市", "postcode": "3703331", "prefecture": "群馬県", "id": 267 },
        { "address": "宿大類町", "city": "高崎市", "postcode": "3700032", "prefecture": "群馬県", "id": 268 },
        { "address": "宿横手町", "city": "高崎市", "postcode": "3700022", "prefecture": "群馬県", "id": 269 },
        { "address": "正観寺町", "city": "高崎市", "postcode": "3700008", "prefecture": "群馬県", "id": 270 },
        { "address": "昭和町", "city": "高崎市", "postcode": "3700068", "prefecture": "群馬県", "id": 271 },
        { "address": "白岩町", "city": "高崎市", "postcode": "3703332", "prefecture": "群馬県", "id": 272 },
        { "address": "白銀町", "city": "高崎市", "postcode": "3700825", "prefecture": "群馬県", "id": 273 },
        { "address": "城山町", "city": "高崎市", "postcode": "3700866", "prefecture": "群馬県", "id": 274 },
        { "address": "新紺屋町", "city": "高崎市", "postcode": "3700821", "prefecture": "群馬県", "id": 275 },
        { "address": "真町", "city": "高崎市", "postcode": "3700054", "prefecture": "群馬県", "id": 276 },
        { "address": "新田町", "city": "高崎市", "postcode": "3700833", "prefecture": "群馬県", "id": 277 },
        { "address": "新保田中町", "city": "高崎市", "postcode": "3700003", "prefecture": "群馬県", "id": 278 },
        { "address": "新保町", "city": "高崎市", "postcode": "3700018", "prefecture": "群馬県", "id": 279 },
        { "address": "新町", "city": "高崎市", "postcode": "3701301", "prefecture": "群馬県", "id": 280 },
        { "address": "末広町", "city": "高崎市", "postcode": "3700065", "prefecture": "群馬県", "id": 281 },
        { "address": "菅谷町", "city": "高崎市", "postcode": "3703522", "prefecture": "群馬県", "id": 282 },
        { "address": "砂賀町", "city": "高崎市", "postcode": "3700832", "prefecture": "群馬県", "id": 283 },
        { "address": "住吉町", "city": "高崎市", "postcode": "3700804", "prefecture": "群馬県", "id": 284 },
        { "address": "堰代町", "city": "高崎市", "postcode": "3700817", "prefecture": "群馬県", "id": 285 },
        { "address": "台新田町", "city": "高崎市", "postcode": "3701206", "prefecture": "群馬県", "id": 286 },
        { "address": "台町", "city": "高崎市", "postcode": "3700805", "prefecture": "群馬県", "id": 287 },
        { "address": "高砂町", "city": "高崎市", "postcode": "3700047", "prefecture": "群馬県", "id": 288 },
        { "address": "高関町", "city": "高崎市", "postcode": "3700043", "prefecture": "群馬県", "id": 289 },
        { "address": "高浜町", "city": "高崎市", "postcode": "3703333", "prefecture": "群馬県", "id": 290 },
        { "address": "高松町", "city": "高崎市", "postcode": "3700829", "prefecture": "群馬県", "id": 291 },
        { "address": "竜見町", "city": "高崎市", "postcode": "3700835", "prefecture": "群馬県", "id": 292 },
        { "address": "田町", "city": "高崎市", "postcode": "3700824", "prefecture": "群馬県", "id": 293 },
        { "address": "塚田町", "city": "高崎市", "postcode": "3703515", "prefecture": "群馬県", "id": 294 },
        { "address": "筑縄町", "city": "高崎市", "postcode": "3700075", "prefecture": "群馬県", "id": 295 },
        { "address": "椿町", "city": "高崎市", "postcode": "3700059", "prefecture": "群馬県", "id": 296 },
        { "address": "鶴見町", "city": "高崎市", "postcode": "3700848", "prefecture": "群馬県", "id": 297 },
        { "address": "寺尾町", "city": "高崎市", "postcode": "3700865", "prefecture": "群馬県", "id": 298 },
        { "address": "天神町", "city": "高崎市", "postcode": "3700061", "prefecture": "群馬県", "id": 299 },
        { "address": "稲荷台町", "city": "高崎市", "postcode": "3703516", "prefecture": "群馬県", "id": 300 },
        { "address": "通町", "city": "高崎市", "postcode": "3700053", "prefecture": "群馬県", "id": 301 },
        { "address": "常盤町", "city": "高崎市", "postcode": "3700816", "prefecture": "群馬県", "id": 302 },
        { "address": "問屋町", "city": "高崎市", "postcode": "3700006", "prefecture": "群馬県", "id": 303 },
        { "address": "問屋町西", "city": "高崎市", "postcode": "3700007", "prefecture": "群馬県", "id": 304 },
        { "address": "中泉町", "city": "高崎市", "postcode": "3703524", "prefecture": "群馬県", "id": 305 },
        { "address": "中居町", "city": "高崎市", "postcode": "3700852", "prefecture": "群馬県", "id": 306 },
        { "address": "中大類町", "city": "高崎市", "postcode": "3700033", "prefecture": "群馬県", "id": 307 },
        { "address": "中尾町", "city": "高崎市", "postcode": "3700001", "prefecture": "群馬県", "id": 308 },
        { "address": "中紺屋町", "city": "高崎市", "postcode": "3700823", "prefecture": "群馬県", "id": 309 },
        { "address": "中里町", "city": "高崎市", "postcode": "3703532", "prefecture": "群馬県", "id": 310 },
        { "address": "中里見町", "city": "高崎市", "postcode": "3703344", "prefecture": "群馬県", "id": 311 },
        { "address": "中島町", "city": "高崎市", "postcode": "3700023", "prefecture": "群馬県", "id": 312 },
        { "address": "中豊岡町", "city": "高崎市", "postcode": "3700874", "prefecture": "群馬県", "id": 313 },
        { "address": "中室田町", "city": "高崎市", "postcode": "3703347", "prefecture": "群馬県", "id": 314 },
        { "address": "並榎町", "city": "高崎市", "postcode": "3700802", "prefecture": "群馬県", "id": 315 },
        { "address": "成田町", "city": "高崎市", "postcode": "3700812", "prefecture": "群馬県", "id": 316 },
        { "address": "西国分町", "city": "高崎市", "postcode": "3703512", "prefecture": "群馬県", "id": 317 },
        { "address": "西島町", "city": "高崎市", "postcode": "3700017", "prefecture": "群馬県", "id": 318 },
        { "address": "西横手町", "city": "高崎市", "postcode": "3700021", "prefecture": "群馬県", "id": 319 },
        { "address": "日光町", "city": "高崎市", "postcode": "3700048", "prefecture": "群馬県", "id": 320 },
        { "address": "根小屋町", "city": "高崎市", "postcode": "3701214", "prefecture": "群馬県", "id": 321 },
        { "address": "乗附町", "city": "高崎市", "postcode": "3700867", "prefecture": "群馬県", "id": 322 },
        { "address": "萩原町", "city": "高崎市", "postcode": "3700013", "prefecture": "群馬県", "id": 323 },
        { "address": "鼻高町", "city": "高崎市", "postcode": "3700868", "prefecture": "群馬県", "id": 324 },
        { "address": "浜川町", "city": "高崎市", "postcode": "3700081", "prefecture": "群馬県", "id": 325 },
        { "address": "浜尻町", "city": "高崎市", "postcode": "3700005", "prefecture": "群馬県", "id": 326 },
        { "address": "榛名湖町", "city": "高崎市", "postcode": "3703348", "prefecture": "群馬県", "id": 327 },
        { "address": "榛名山町", "city": "高崎市", "postcode": "3703341", "prefecture": "群馬県", "id": 328 },
        { "address": "東貝沢町", "city": "高崎市", "postcode": "3700041", "prefecture": "群馬県", "id": 329 },
        { "address": "東国分町", "city": "高崎市", "postcode": "3703514", "prefecture": "群馬県", "id": 330 },
        { "address": "東中里町", "city": "高崎市", "postcode": "3701204", "prefecture": "群馬県", "id": 331 },
        { "address": "引間町", "city": "高崎市", "postcode": "3703517", "prefecture": "群馬県", "id": 332 },
        { "address": "聖石町", "city": "高崎市", "postcode": "3700863", "prefecture": "群馬県", "id": 333 },
        { "address": "日高町", "city": "高崎市", "postcode": "3700002", "prefecture": "群馬県", "id": 334 },
        { "address": "檜物町", "city": "高崎市", "postcode": "3700839", "prefecture": "群馬県", "id": 335 },
        { "address": "冷水町", "city": "高崎市", "postcode": "3703519", "prefecture": "群馬県", "id": 336 },
        { "address": "福島町", "city": "高崎市", "postcode": "3703523", "prefecture": "群馬県", "id": 337 },
        { "address": "藤塚町", "city": "高崎市", "postcode": "3700875", "prefecture": "群馬県", "id": 338 },
        { "address": "双葉町", "city": "高崎市", "postcode": "3700843", "prefecture": "群馬県", "id": 339 },
        { "address": "保渡田町", "city": "高崎市", "postcode": "3703533", "prefecture": "群馬県", "id": 340 },
        { "address": "本郷町", "city": "高崎市", "postcode": "3703334", "prefecture": "群馬県", "id": 341 },
        { "address": "町屋町", "city": "高崎市", "postcode": "3700881", "prefecture": "群馬県", "id": 342 },
        { "address": "箕郷町生原", "city": "高崎市", "postcode": "3703102", "prefecture": "群馬県", "id": 343 },
        { "address": "箕郷町柏木沢", "city": "高崎市", "postcode": "3703101", "prefecture": "群馬県", "id": 344 },
        { "address": "箕郷町金敷平", "city": "高崎市", "postcode": "3703114", "prefecture": "群馬県", "id": 345 },
        { "address": "箕郷町上芝", "city": "高崎市", "postcode": "3703104", "prefecture": "群馬県", "id": 346 },
        { "address": "箕郷町下芝", "city": "高崎市", "postcode": "3703103", "prefecture": "群馬県", "id": 347 },
        { "address": "箕郷町白川", "city": "高崎市", "postcode": "3703117", "prefecture": "群馬県", "id": 348 },
        { "address": "箕郷町善地", "city": "高崎市", "postcode": "3703112", "prefecture": "群馬県", "id": 349 },
        { "address": "箕郷町富岡", "city": "高崎市", "postcode": "3703115", "prefecture": "群馬県", "id": 350 },
        { "address": "箕郷町中野", "city": "高崎市", "postcode": "3703111", "prefecture": "群馬県", "id": 351 },
        { "address": "箕郷町西明屋", "city": "高崎市", "postcode": "3703105", "prefecture": "群馬県", "id": 352 },
        { "address": "箕郷町東明屋", "city": "高崎市", "postcode": "3703106", "prefecture": "群馬県", "id": 353 },
        { "address": "箕郷町松之沢", "city": "高崎市", "postcode": "3703113", "prefecture": "群馬県", "id": 354 },
        { "address": "箕郷町矢原", "city": "高崎市", "postcode": "3703107", "prefecture": "群馬県", "id": 355 },
        { "address": "箕郷町和田山", "city": "高崎市", "postcode": "3703116", "prefecture": "群馬県", "id": 356 },
        { "address": "三ツ子沢町", "city": "高崎市", "postcode": "3703337", "prefecture": "群馬県", "id": 357 },
        { "address": "三ツ寺町", "city": "高崎市", "postcode": "3703525", "prefecture": "群馬県", "id": 358 },
        { "address": "緑町", "city": "高崎市", "postcode": "3700073", "prefecture": "群馬県", "id": 359 },
        { "address": "南新波町", "city": "高崎市", "postcode": "3700083", "prefecture": "群馬県", "id": 360 },
        { "address": "南大類町", "city": "高崎市", "postcode": "3700036", "prefecture": "群馬県", "id": 361 },
        { "address": "南町", "city": "高崎市", "postcode": "3700834", "prefecture": "群馬県", "id": 362 },
        { "address": "宮沢町", "city": "高崎市", "postcode": "3703338", "prefecture": "群馬県", "id": 363 },
        { "address": "宮原町", "city": "高崎市", "postcode": "3701202", "prefecture": "群馬県", "id": 364 },
        { "address": "宮元町", "city": "高崎市", "postcode": "3700828", "prefecture": "群馬県", "id": 365 },
        { "address": "棟高町", "city": "高崎市", "postcode": "3703521", "prefecture": "群馬県", "id": 366 },
        { "address": "元紺屋町", "city": "高崎市", "postcode": "3700057", "prefecture": "群馬県", "id": 367 },
        { "address": "元島名町", "city": "高崎市", "postcode": "3700014", "prefecture": "群馬県", "id": 368 },
        { "address": "本町", "city": "高崎市", "postcode": "3700813", "prefecture": "群馬県", "id": 369 },
        { "address": "八島町", "city": "高崎市", "postcode": "3700849", "prefecture": "群馬県", "id": 370 },
        { "address": "矢島町", "city": "高崎市", "postcode": "3700016", "prefecture": "群馬県", "id": 371 },
        { "address": "八千代町", "city": "高崎市", "postcode": "3700861", "prefecture": "群馬県", "id": 372 },
        { "address": "矢中町", "city": "高崎市", "postcode": "3701203", "prefecture": "群馬県", "id": 373 },
        { "address": "柳川町", "city": "高崎市", "postcode": "3700815", "prefecture": "群馬県", "id": 374 },
        { "address": "山田町", "city": "高崎市", "postcode": "3700066", "prefecture": "群馬県", "id": 375 },
        { "address": "山名町", "city": "高崎市", "postcode": "3701213", "prefecture": "群馬県", "id": 376 },
        { "address": "八幡原町", "city": "高崎市", "postcode": "3700024", "prefecture": "群馬県", "id": 377 },
        { "address": "八幡町", "city": "高崎市", "postcode": "3700884", "prefecture": "群馬県", "id": 378 },
        { "address": "弓町", "city": "高崎市", "postcode": "3700051", "prefecture": "群馬県", "id": 379 },
        { "address": "吉井町池", "city": "高崎市", "postcode": "3702107", "prefecture": "群馬県", "id": 380 },
        { "address": "吉井町石神", "city": "高崎市", "postcode": "3702114", "prefecture": "群馬県", "id": 381 },
        { "address": "吉井町岩井", "city": "高崎市", "postcode": "3702103", "prefecture": "群馬県", "id": 382 },
        { "address": "吉井町岩崎", "city": "高崎市", "postcode": "3702131", "prefecture": "群馬県", "id": 383 },
        { "address": "吉井町大沢", "city": "高崎市", "postcode": "3702125", "prefecture": "群馬県", "id": 384 },
        { "address": "吉井町小串", "city": "高崎市", "postcode": "3702111", "prefecture": "群馬県", "id": 385 },
        { "address": "吉井町片山", "city": "高崎市", "postcode": "3702135", "prefecture": "群馬県", "id": 386 },
        { "address": "吉井町上奥平", "city": "高崎市", "postcode": "3702139", "prefecture": "群馬県", "id": 387 },
        { "address": "吉井町黒熊", "city": "高崎市", "postcode": "3702112", "prefecture": "群馬県", "id": 388 },
        { "address": "吉井町小暮", "city": "高崎市", "postcode": "3702102", "prefecture": "群馬県", "id": 389 },
        { "address": "吉井町小棚", "city": "高崎市", "postcode": "3702136", "prefecture": "群馬県", "id": 390 },
        { "address": "吉井町坂口", "city": "高崎市", "postcode": "3702137", "prefecture": "群馬県", "id": 391 },
        { "address": "吉井町塩", "city": "高崎市", "postcode": "3702124", "prefecture": "群馬県", "id": 392 },
        { "address": "吉井町塩川", "city": "高崎市", "postcode": "3702134", "prefecture": "群馬県", "id": 393 },
        { "address": "吉井町下奥平", "city": "高崎市", "postcode": "3702138", "prefecture": "群馬県", "id": 394 },
        { "address": "吉井町下長根", "city": "高崎市", "postcode": "3702121", "prefecture": "群馬県", "id": 395 },
        { "address": "吉井町神保", "city": "高崎市", "postcode": "3702123", "prefecture": "群馬県", "id": 396 },
        { "address": "吉井町多比良", "city": "高崎市", "postcode": "3702115", "prefecture": "群馬県", "id": 397 },
        { "address": "吉井町高", "city": "高崎市", "postcode": "3702122", "prefecture": "群馬県", "id": 398 },
        { "address": "吉井町多胡", "city": "高崎市", "postcode": "3702116", "prefecture": "群馬県", "id": 399 },
        { "address": "吉井町中島", "city": "高崎市", "postcode": "3702105", "prefecture": "群馬県", "id": 400 },
        { "address": "吉井町長根", "city": "高崎市", "postcode": "3702127", "prefecture": "群馬県", "id": 401 },
        { "address": "吉井町南陽台", "city": "高崎市", "postcode": "3702101", "prefecture": "群馬県", "id": 402 },
        { "address": "吉井町東谷", "city": "高崎市", "postcode": "3702126", "prefecture": "群馬県", "id": 403 },
        { "address": "吉井町深沢", "city": "高崎市", "postcode": "3702113", "prefecture": "群馬県", "id": 404 },
        { "address": "吉井町本郷", "city": "高崎市", "postcode": "3702128", "prefecture": "群馬県", "id": 405 },
        { "address": "吉井町馬庭", "city": "高崎市", "postcode": "3702104", "prefecture": "群馬県", "id": 406 },
        { "address": "吉井町矢田", "city": "高崎市", "postcode": "3702106", "prefecture": "群馬県", "id": 407 },
        { "address": "吉井町吉井", "city": "高崎市", "postcode": "3702132", "prefecture": "群馬県", "id": 408 },
        { "address": "吉井町吉井川", "city": "高崎市", "postcode": "3702133", "prefecture": "群馬県", "id": 409 },
        { "address": "四ツ屋町", "city": "高崎市", "postcode": "3700819", "prefecture": "群馬県", "id": 410 },
        { "address": "寄合町", "city": "高崎市", "postcode": "3700822", "prefecture": "群馬県", "id": 411 },
        { "address": "羅漢町", "city": "高崎市", "postcode": "3700055", "prefecture": "群馬県", "id": 412 },
        { "address": "楽間町", "city": "高崎市", "postcode": "3700087", "prefecture": "群馬県", "id": 413 },
        { "address": "連雀町", "city": "高崎市", "postcode": "3700826", "prefecture": "群馬県", "id": 414 },
        { "address": "若田町", "city": "高崎市", "postcode": "3700885", "prefecture": "群馬県", "id": 415 },
        { "address": "若松町", "city": "高崎市", "postcode": "3700836", "prefecture": "群馬県", "id": 416 },
        { "address": "我峰町", "city": "高崎市", "postcode": "3700085", "prefecture": "群馬県", "id": 417 },
        { "address": "和田多中町", "city": "高崎市", "postcode": "3700844", "prefecture": "群馬県", "id": 418 },
        { "address": "綿貫町", "city": "高崎市", "postcode": "3701207", "prefecture": "群馬県", "id": 419 },
        { "address": "和田町", "city": "高崎市", "postcode": "3700847", "prefecture": "群馬県", "id": 420 },
        { "city": "桐生市", "postcode": "3760000", "prefecture": "群馬県", "id": 421 },
        { "address": "相生町", "city": "桐生市", "postcode": "3760011", "prefecture": "群馬県", "id": 422 },
        { "address": "旭町", "city": "桐生市", "postcode": "3760037", "prefecture": "群馬県", "id": 423 },
        { "address": "東町", "city": "桐生市", "postcode": "3760032", "prefecture": "群馬県", "id": 424 },
        { "address": "泉町", "city": "桐生市", "postcode": "3760033", "prefecture": "群馬県", "id": 425 },
        { "address": "稲荷町", "city": "桐生市", "postcode": "3760022", "prefecture": "群馬県", "id": 426 },
        { "address": "梅田町", "city": "桐生市", "postcode": "3760601", "prefecture": "群馬県", "id": 427 },
        { "address": "永楽町", "city": "桐生市", "postcode": "3760044", "prefecture": "群馬県", "id": 428 },
        { "address": "織姫町", "city": "桐生市", "postcode": "3760024", "prefecture": "群馬県", "id": 429 },
        { "address": "川内町", "city": "桐生市", "postcode": "3760041", "prefecture": "群馬県", "id": 430 },
        { "address": "川岸町", "city": "桐生市", "postcode": "3760036", "prefecture": "群馬県", "id": 431 },
        { "address": "清瀬町", "city": "桐生市", "postcode": "3760026", "prefecture": "群馬県", "id": 432 },
        { "address": "黒保根町上田沢", "city": "桐生市", "postcode": "3760145", "prefecture": "群馬県", "id": 433 },
        { "address": "黒保根町下田沢", "city": "桐生市", "postcode": "3760144", "prefecture": "群馬県", "id": 434 },
        { "address": "黒保根町宿廻", "city": "桐生市", "postcode": "3760143", "prefecture": "群馬県", "id": 435 },
        { "address": "黒保根町水沼", "city": "桐生市", "postcode": "3760141", "prefecture": "群馬県", "id": 436 },
        { "address": "黒保根町八木原", "city": "桐生市", "postcode": "3760142", "prefecture": "群馬県", "id": 437 },
        { "address": "小梅町", "city": "桐生市", "postcode": "3760004", "prefecture": "群馬県", "id": 438 },
        { "address": "小曾根町", "city": "桐生市", "postcode": "3760043", "prefecture": "群馬県", "id": 439 },
        { "address": "琴平町", "city": "桐生市", "postcode": "3760003", "prefecture": "群馬県", "id": 440 },
        { "address": "境野町", "city": "桐生市", "postcode": "3760002", "prefecture": "群馬県", "id": 441 },
        { "address": "桜木町", "city": "桐生市", "postcode": "3760012", "prefecture": "群馬県", "id": 442 },
        { "address": "新宿", "city": "桐生市", "postcode": "3760006", "prefecture": "群馬県", "id": 443 },
        { "address": "末広町", "city": "桐生市", "postcode": "3760045", "prefecture": "群馬県", "id": 444 },
        { "address": "高砂町", "city": "桐生市", "postcode": "3760038", "prefecture": "群馬県", "id": 445 },
        { "address": "堤町", "city": "桐生市", "postcode": "3760042", "prefecture": "群馬県", "id": 446 },
        { "address": "天神町", "city": "桐生市", "postcode": "3760052", "prefecture": "群馬県", "id": 447 },
        { "address": "巴町", "city": "桐生市", "postcode": "3760021", "prefecture": "群馬県", "id": 448 },
        { "address": "仲町", "city": "桐生市", "postcode": "3760035", "prefecture": "群馬県", "id": 449 },
        { "address": "新里町赤城山", "city": "桐生市", "postcode": "3760137", "prefecture": "群馬県", "id": 450 },
        { "address": "新里町板橋", "city": "桐生市", "postcode": "3760136", "prefecture": "群馬県", "id": 451 },
        { "address": "新里町大久保", "city": "桐生市", "postcode": "3760133", "prefecture": "群馬県", "id": 452 },
        { "address": "新里町奥沢", "city": "桐生市", "postcode": "3760131", "prefecture": "群馬県", "id": 453 },
        { "address": "新里町小林", "city": "桐生市", "postcode": "3760124", "prefecture": "群馬県", "id": 454 },
        { "address": "新里町関", "city": "桐生市", "postcode": "3760134", "prefecture": "群馬県", "id": 455 },
        { "address": "新里町高泉", "city": "桐生市", "postcode": "3760135", "prefecture": "群馬県", "id": 456 },
        { "address": "新里町武井", "city": "桐生市", "postcode": "3760123", "prefecture": "群馬県", "id": 457 },
        { "address": "新里町鶴ケ谷", "city": "桐生市", "postcode": "3760132", "prefecture": "群馬県", "id": 458 },
        { "address": "新里町新川", "city": "桐生市", "postcode": "3760121", "prefecture": "群馬県", "id": 459 },
        { "address": "新里町野", "city": "桐生市", "postcode": "3760122", "prefecture": "群馬県", "id": 460 },
        { "address": "新里町山上", "city": "桐生市", "postcode": "3760125", "prefecture": "群馬県", "id": 461 },
        { "address": "錦町", "city": "桐生市", "postcode": "3760023", "prefecture": "群馬県", "id": 462 },
        { "address": "西久方町", "city": "桐生市", "postcode": "3760054", "prefecture": "群馬県", "id": 463 },
        { "address": "浜松町", "city": "桐生市", "postcode": "3760007", "prefecture": "群馬県", "id": 464 },
        { "address": "東", "city": "桐生市", "postcode": "3760034", "prefecture": "群馬県", "id": 465 },
        { "address": "東久方町", "city": "桐生市", "postcode": "3760053", "prefecture": "群馬県", "id": 466 },
        { "address": "菱町", "city": "桐生市", "postcode": "3760001", "prefecture": "群馬県", "id": 467 },
        { "address": "平井町", "city": "桐生市", "postcode": "3760051", "prefecture": "群馬県", "id": 468 },
        { "address": "広沢町", "city": "桐生市", "postcode": "3760013", "prefecture": "群馬県", "id": 469 },
        { "address": "広沢町間ノ島", "city": "桐生市", "postcode": "3760014", "prefecture": "群馬県", "id": 470 },
        { "address": "本町", "city": "桐生市", "postcode": "3760031", "prefecture": "群馬県", "id": 471 },
        { "address": "美原町", "city": "桐生市", "postcode": "3760025", "prefecture": "群馬県", "id": 472 },
        { "address": "宮前町", "city": "桐生市", "postcode": "3760046", "prefecture": "群馬県", "id": 473 },
        { "address": "宮本町", "city": "桐生市", "postcode": "3760056", "prefecture": "群馬県", "id": 474 },
        { "address": "三吉町", "city": "桐生市", "postcode": "3760005", "prefecture": "群馬県", "id": 475 },
        { "address": "元宿町", "city": "桐生市", "postcode": "3760027", "prefecture": "群馬県", "id": 476 },
        { "address": "横山町", "city": "桐生市", "postcode": "3760055", "prefecture": "群馬県", "id": 477 },
        { "city": "伊勢崎市", "postcode": "3720000", "prefecture": "群馬県", "id": 478 },
        { "address": "間野谷町", "city": "伊勢崎市", "postcode": "3792201", "prefecture": "群馬県", "id": 479 },
        { "address": "赤堀今井町", "city": "伊勢崎市", "postcode": "3792215", "prefecture": "群馬県", "id": 480 },
        { "address": "赤堀鹿島町", "city": "伊勢崎市", "postcode": "3792202", "prefecture": "群馬県", "id": 481 },
        { "address": "東町", "city": "伊勢崎市", "postcode": "3792231", "prefecture": "群馬県", "id": 482 },
        { "address": "阿弥大寺町", "city": "伊勢崎市", "postcode": "3720821", "prefecture": "群馬県", "id": 483 },
        { "address": "安堀町", "city": "伊勢崎市", "postcode": "3720007", "prefecture": "群馬県", "id": 484 },
        { "address": "飯島町", "city": "伊勢崎市", "postcode": "3720854", "prefecture": "群馬県", "id": 485 },
        { "address": "磯町", "city": "伊勢崎市", "postcode": "3792217", "prefecture": "群馬県", "id": 486 },
        { "address": "市場町", "city": "伊勢崎市", "postcode": "3792211", "prefecture": "群馬県", "id": 487 },
        { "address": "稲荷町", "city": "伊勢崎市", "postcode": "3720804", "prefecture": "群馬県", "id": 488 },
        { "address": "乾町", "city": "伊勢崎市", "postcode": "3720005", "prefecture": "群馬県", "id": 489 },
        { "address": "今泉町", "city": "伊勢崎市", "postcode": "3720031", "prefecture": "群馬県", "id": 490 },
        { "address": "今井町", "city": "伊勢崎市", "postcode": "3720823", "prefecture": "群馬県", "id": 491 },
        { "address": "太田町", "city": "伊勢崎市", "postcode": "3720006", "prefecture": "群馬県", "id": 492 },
        { "address": "大手町", "city": "伊勢崎市", "postcode": "3720048", "prefecture": "群馬県", "id": 493 },
        { "address": "鹿島町", "city": "伊勢崎市", "postcode": "3720015", "prefecture": "群馬県", "id": 494 },
        { "address": "粕川町", "city": "伊勢崎市", "postcode": "3720023", "prefecture": "群馬県", "id": 495 },
        { "address": "上泉町", "city": "伊勢崎市", "postcode": "3720045", "prefecture": "群馬県", "id": 496 },
        { "address": "上植木本町", "city": "伊勢崎市", "postcode": "3720013", "prefecture": "群馬県", "id": 497 },
        { "address": "上諏訪町", "city": "伊勢崎市", "postcode": "3720021", "prefecture": "群馬県", "id": 498 },
        { "address": "上田町", "city": "伊勢崎市", "postcode": "3792225", "prefecture": "群馬県", "id": 499 },
        { "address": "上蓮町", "city": "伊勢崎市", "postcode": "3720851", "prefecture": "群馬県", "id": 500 },
        { "address": "北千木町", "city": "伊勢崎市", "postcode": "3720032", "prefecture": "群馬県", "id": 501 },
        { "address": "喜多町", "city": "伊勢崎市", "postcode": "3720056", "prefecture": "群馬県", "id": 502 },
        { "address": "国定町", "city": "伊勢崎市", "postcode": "3792221", "prefecture": "群馬県", "id": 503 },
        { "address": "曲輪町", "city": "伊勢崎市", "postcode": "3720055", "prefecture": "群馬県", "id": 504 },
        { "address": "華蔵寺町", "city": "伊勢崎市", "postcode": "3720003", "prefecture": "群馬県", "id": 505 },
        { "address": "下道寺町", "city": "伊勢崎市", "postcode": "3720843", "prefecture": "群馬県", "id": 506 },
        { "address": "小泉町", "city": "伊勢崎市", "postcode": "3792232", "prefecture": "群馬県", "id": 507 },
        { "address": "香林町", "city": "伊勢崎市", "postcode": "3792206", "prefecture": "群馬県", "id": 508 },
        { "address": "国領町", "city": "伊勢崎市", "postcode": "3720853", "prefecture": "群馬県", "id": 509 },
        { "address": "寿町", "city": "伊勢崎市", "postcode": "3720052", "prefecture": "群馬県", "id": 510 },
        { "address": "五目牛町", "city": "伊勢崎市", "postcode": "3792213", "prefecture": "群馬県", "id": 511 },
        { "address": "境", "city": "伊勢崎市", "postcode": "3700124", "prefecture": "群馬県", "id": 512 },
        { "address": "境東", "city": "伊勢崎市", "postcode": "3700123", "prefecture": "群馬県", "id": 513 },
        { "address": "境伊与久", "city": "伊勢崎市", "postcode": "3700105", "prefecture": "群馬県", "id": 514 },
        { "address": "境小此木", "city": "伊勢崎市", "postcode": "3700135", "prefecture": "群馬県", "id": 515 },
        { "address": "境女塚", "city": "伊勢崎市", "postcode": "3700121", "prefecture": "群馬県", "id": 516 },
        { "address": "境上武士", "city": "伊勢崎市", "postcode": "3700127", "prefecture": "群馬県", "id": 517 },
        { "address": "境上渕名", "city": "伊勢崎市", "postcode": "3700102", "prefecture": "群馬県", "id": 518 },
        { "address": "境上矢島", "city": "伊勢崎市", "postcode": "3700111", "prefecture": "群馬県", "id": 519 },
        { "address": "境木島", "city": "伊勢崎市", "postcode": "3700104", "prefecture": "群馬県", "id": 520 },
        { "address": "境栄", "city": "伊勢崎市", "postcode": "3700122", "prefecture": "群馬県", "id": 521 },
        { "address": "境島村", "city": "伊勢崎市", "postcode": "3700134", "prefecture": "群馬県", "id": 522 },
        { "address": "境下武士", "city": "伊勢崎市", "postcode": "3700126", "prefecture": "群馬県", "id": 523 },
        { "address": "境下渕名", "city": "伊勢崎市", "postcode": "3700103", "prefecture": "群馬県", "id": 524 },
        { "address": "境新栄", "city": "伊勢崎市", "postcode": "3700114", "prefecture": "群馬県", "id": 525 },
        { "address": "境百々", "city": "伊勢崎市", "postcode": "3700117", "prefecture": "群馬県", "id": 526 },
        { "address": "境百々東", "city": "伊勢崎市", "postcode": "3700116", "prefecture": "群馬県", "id": 527 },
        { "address": "境中島", "city": "伊勢崎市", "postcode": "3700133", "prefecture": "群馬県", "id": 528 },
        { "address": "境西今井", "city": "伊勢崎市", "postcode": "3700112", "prefecture": "群馬県", "id": 529 },
        { "address": "境萩原", "city": "伊勢崎市", "postcode": "3700125", "prefecture": "群馬県", "id": 530 },
        { "address": "境東新井", "city": "伊勢崎市", "postcode": "3700101", "prefecture": "群馬県", "id": 531 },
        { "address": "境平塚", "city": "伊勢崎市", "postcode": "3700132", "prefecture": "群馬県", "id": 532 },
        { "address": "境保泉", "city": "伊勢崎市", "postcode": "3700128", "prefecture": "群馬県", "id": 533 },
        { "address": "境三ツ木", "city": "伊勢崎市", "postcode": "3700113", "prefecture": "群馬県", "id": 534 },
        { "address": "境美原", "city": "伊勢崎市", "postcode": "3700115", "prefecture": "群馬県", "id": 535 },
        { "address": "境米岡", "city": "伊勢崎市", "postcode": "3700131", "prefecture": "群馬県", "id": 536 },
        { "address": "山王町", "city": "伊勢崎市", "postcode": "3720831", "prefecture": "群馬県", "id": 537 },
        { "address": "三光町", "city": "伊勢崎市", "postcode": "3720046", "prefecture": "群馬県", "id": 538 },
        { "address": "三和町", "city": "伊勢崎市", "postcode": "3720011", "prefecture": "群馬県", "id": 539 },
        { "address": "柴町", "city": "伊勢崎市", "postcode": "3720824", "prefecture": "群馬県", "id": 540 },
        { "address": "下植木町", "city": "伊勢崎市", "postcode": "3720024", "prefecture": "群馬県", "id": 541 },
        { "address": "下蓮町", "city": "伊勢崎市", "postcode": "3720852", "prefecture": "群馬県", "id": 542 },
        { "address": "下触町", "city": "伊勢崎市", "postcode": "3792214", "prefecture": "群馬県", "id": 543 },
        { "address": "昭和町", "city": "伊勢崎市", "postcode": "3720014", "prefecture": "群馬県", "id": 544 },
        { "address": "新栄町", "city": "伊勢崎市", "postcode": "3720038", "prefecture": "群馬県", "id": 545 },
        { "address": "末広町", "city": "伊勢崎市", "postcode": "3720057", "prefecture": "群馬県", "id": 546 },
        { "address": "大正寺町", "city": "伊勢崎市", "postcode": "3720841", "prefecture": "群馬県", "id": 547 },
        { "address": "田中島町", "city": "伊勢崎市", "postcode": "3720802", "prefecture": "群馬県", "id": 548 },
        { "address": "田中町", "city": "伊勢崎市", "postcode": "3720814", "prefecture": "群馬県", "id": 549 },
        { "address": "田部井町", "city": "伊勢崎市", "postcode": "3792222", "prefecture": "群馬県", "id": 550 },
        { "address": "中央町", "city": "伊勢崎市", "postcode": "3720042", "prefecture": "群馬県", "id": 551 },
        { "address": "堤下町", "city": "伊勢崎市", "postcode": "3720004", "prefecture": "群馬県", "id": 552 },
        { "address": "堤西町", "city": "伊勢崎市", "postcode": "3720002", "prefecture": "群馬県", "id": 553 },
        { "address": "連取本町", "city": "伊勢崎市", "postcode": "3720817", "prefecture": "群馬県", "id": 554 },
        { "address": "連取元町", "city": "伊勢崎市", "postcode": "3720818", "prefecture": "群馬県", "id": 555 },
        { "address": "連取町", "city": "伊勢崎市", "postcode": "3720812", "prefecture": "群馬県", "id": 556 },
        { "address": "富塚町", "city": "伊勢崎市", "postcode": "3720833", "prefecture": "群馬県", "id": 557 },
        { "address": "戸谷塚町", "city": "伊勢崎市", "postcode": "3720825", "prefecture": "群馬県", "id": 558 },
        { "address": "豊城町", "city": "伊勢崎市", "postcode": "3720012", "prefecture": "群馬県", "id": 559 },
        { "address": "中町", "city": "伊勢崎市", "postcode": "3720822", "prefecture": "群馬県", "id": 560 },
        { "address": "長沼町", "city": "伊勢崎市", "postcode": "3720855", "prefecture": "群馬県", "id": 561 },
        { "address": "西小保方町", "city": "伊勢崎市", "postcode": "3792224", "prefecture": "群馬県", "id": 562 },
        { "address": "西上之宮町", "city": "伊勢崎市", "postcode": "3720816", "prefecture": "群馬県", "id": 563 },
        { "address": "西久保町", "city": "伊勢崎市", "postcode": "3792204", "prefecture": "群馬県", "id": 564 },
        { "address": "西田町", "city": "伊勢崎市", "postcode": "3720058", "prefecture": "群馬県", "id": 565 },
        { "address": "西野町", "city": "伊勢崎市", "postcode": "3792216", "prefecture": "群馬県", "id": 566 },
        { "address": "韮塚町", "city": "伊勢崎市", "postcode": "3720813", "prefecture": "群馬県", "id": 567 },
        { "address": "野町", "city": "伊勢崎市", "postcode": "3792205", "prefecture": "群馬県", "id": 568 },
        { "address": "羽黒町", "city": "伊勢崎市", "postcode": "3720844", "prefecture": "群馬県", "id": 569 },
        { "address": "波志江町", "city": "伊勢崎市", "postcode": "3720001", "prefecture": "群馬県", "id": 570 },
        { "address": "八寸町", "city": "伊勢崎市", "postcode": "3792236", "prefecture": "群馬県", "id": 571 },
        { "address": "東小保方町", "city": "伊勢崎市", "postcode": "3792234", "prefecture": "群馬県", "id": 572 },
        { "address": "東上之宮町", "city": "伊勢崎市", "postcode": "3720815", "prefecture": "群馬県", "id": 573 },
        { "address": "東本町", "city": "伊勢崎市", "postcode": "3720025", "prefecture": "群馬県", "id": 574 },
        { "address": "日乃出町", "city": "伊勢崎市", "postcode": "3720022", "prefecture": "群馬県", "id": 575 },
        { "address": "平井町", "city": "伊勢崎市", "postcode": "3792233", "prefecture": "群馬県", "id": 576 },
        { "address": "ひろせ町", "city": "伊勢崎市", "postcode": "3720039", "prefecture": "群馬県", "id": 577 },
        { "address": "福島町", "city": "伊勢崎市", "postcode": "3720826", "prefecture": "群馬県", "id": 578 },
        { "address": "平和町", "city": "伊勢崎市", "postcode": "3720041", "prefecture": "群馬県", "id": 579 },
        { "address": "堀口町", "city": "伊勢崎市", "postcode": "3720834", "prefecture": "群馬県", "id": 580 },
        { "address": "堀下町", "city": "伊勢崎市", "postcode": "3792212", "prefecture": "群馬県", "id": 581 },
        { "address": "本関町", "city": "伊勢崎市", "postcode": "3720016", "prefecture": "群馬県", "id": 582 },
        { "address": "本町", "city": "伊勢崎市", "postcode": "3720047", "prefecture": "群馬県", "id": 583 },
        { "address": "曲沢町", "city": "伊勢崎市", "postcode": "3792203", "prefecture": "群馬県", "id": 584 },
        { "address": "馬見塚町", "city": "伊勢崎市", "postcode": "3720842", "prefecture": "群馬県", "id": 585 },
        { "address": "緑町", "city": "伊勢崎市", "postcode": "3720043", "prefecture": "群馬県", "id": 586 },
        { "address": "南千木町", "city": "伊勢崎市", "postcode": "3720033", "prefecture": "群馬県", "id": 587 },
        { "address": "三室町", "city": "伊勢崎市", "postcode": "3792235", "prefecture": "群馬県", "id": 588 },
        { "address": "美茂呂町", "city": "伊勢崎市", "postcode": "3720037", "prefecture": "群馬県", "id": 589 },
        { "address": "宮子町", "city": "伊勢崎市", "postcode": "3720801", "prefecture": "群馬県", "id": 590 },
        { "address": "宮古町", "city": "伊勢崎市", "postcode": "3720803", "prefecture": "群馬県", "id": 591 },
        { "address": "宮前町", "city": "伊勢崎市", "postcode": "3720026", "prefecture": "群馬県", "id": 592 },
        { "address": "宗高町", "city": "伊勢崎市", "postcode": "3720053", "prefecture": "群馬県", "id": 593 },
        { "address": "茂呂町", "city": "伊勢崎市", "postcode": "3720034", "prefecture": "群馬県", "id": 594 },
        { "address": "茂呂南町", "city": "伊勢崎市", "postcode": "3720036", "prefecture": "群馬県", "id": 595 },
        { "address": "八坂町", "city": "伊勢崎市", "postcode": "3720044", "prefecture": "群馬県", "id": 596 },
        { "address": "八斗島町", "city": "伊勢崎市", "postcode": "3720827", "prefecture": "群馬県", "id": 597 },
        { "address": "柳原町", "city": "伊勢崎市", "postcode": "3720054", "prefecture": "群馬県", "id": 598 },
        { "address": "八幡町", "city": "伊勢崎市", "postcode": "3720051", "prefecture": "群馬県", "id": 599 },
        { "address": "除ケ町", "city": "伊勢崎市", "postcode": "3720832", "prefecture": "群馬県", "id": 600 },
        { "address": "若葉町", "city": "伊勢崎市", "postcode": "3720811", "prefecture": "群馬県", "id": 601 },
        { "city": "太田市", "postcode": "3730000", "prefecture": "群馬県", "id": 602 },
        { "address": "阿久津町", "city": "太田市", "postcode": "3700402", "prefecture": "群馬県", "id": 603 },
        { "address": "朝日町", "city": "太田市", "postcode": "3730814", "prefecture": "群馬県", "id": 604 },
        { "address": "新井町", "city": "太田市", "postcode": "3730852", "prefecture": "群馬県", "id": 605 },
        { "address": "安養寺町", "city": "太田市", "postcode": "3700422", "prefecture": "群馬県", "id": 606 },
        { "address": "飯田町", "city": "太田市", "postcode": "3730851", "prefecture": "群馬県", "id": 607 },
        { "address": "飯塚町", "city": "太田市", "postcode": "3730817", "prefecture": "群馬県", "id": 608 },
        { "address": "石橋町", "city": "太田市", "postcode": "3730007", "prefecture": "群馬県", "id": 609 },
        { "address": "石原町", "city": "太田市", "postcode": "3730808", "prefecture": "群馬県", "id": 610 },
        { "address": "泉町", "city": "太田市", "postcode": "3730845", "prefecture": "群馬県", "id": 611 },
        { "address": "市場町", "city": "太田市", "postcode": "3730013", "prefecture": "群馬県", "id": 612 },
        { "address": "出塚町", "city": "太田市", "postcode": "3700424", "prefecture": "群馬県", "id": 613 },
        { "address": "岩瀬川町", "city": "太田市", "postcode": "3730841", "prefecture": "群馬県", "id": 614 },
        { "address": "岩松町", "city": "太田市", "postcode": "3700403", "prefecture": "群馬県", "id": 615 },
        { "address": "植木野町", "city": "太田市", "postcode": "3730014", "prefecture": "群馬県", "id": 616 },
        { "address": "牛沢町", "city": "太田市", "postcode": "3730833", "prefecture": "群馬県", "id": 617 },
        { "address": "内ケ島町", "city": "太田市", "postcode": "3730813", "prefecture": "群馬県", "id": 618 },
        { "address": "大久保町", "city": "太田市", "postcode": "3792306", "prefecture": "群馬県", "id": 619 },
        { "address": "大島町", "city": "太田市", "postcode": "3730055", "prefecture": "群馬県", "id": 620 },
        { "address": "大舘町", "city": "太田市", "postcode": "3700423", "prefecture": "群馬県", "id": 621 },
        { "address": "大原町", "city": "太田市", "postcode": "3792304", "prefecture": "群馬県", "id": 622 },
        { "address": "大鷲町", "city": "太田市", "postcode": "3730075", "prefecture": "群馬県", "id": 623 },
        { "address": "沖野町", "city": "太田市", "postcode": "3730045", "prefecture": "群馬県", "id": 624 },
        { "address": "沖之郷町", "city": "太田市", "postcode": "3730804", "prefecture": "群馬県", "id": 625 },
        { "address": "押切町", "city": "太田市", "postcode": "3700405", "prefecture": "群馬県", "id": 626 },
        { "address": "尾島町", "city": "太田市", "postcode": "3700401", "prefecture": "群馬県", "id": 627 },
        { "address": "粕川町", "city": "太田市", "postcode": "3700421", "prefecture": "群馬県", "id": 628 },
        { "address": "金山町", "city": "太田市", "postcode": "3730027", "prefecture": "群馬県", "id": 629 },
        { "address": "上強戸町", "city": "太田市", "postcode": "3730074", "prefecture": "群馬県", "id": 630 },
        { "address": "上小林町", "city": "太田市", "postcode": "3730024", "prefecture": "群馬県", "id": 631 },
        { "address": "上田島町", "city": "太田市", "postcode": "3730044", "prefecture": "群馬県", "id": 632 },
        { "address": "亀岡町", "city": "太田市", "postcode": "3700411", "prefecture": "群馬県", "id": 633 },
        { "address": "北金井町", "city": "太田市", "postcode": "3730003", "prefecture": "群馬県", "id": 634 },
        { "address": "清原町", "city": "太田市", "postcode": "3730012", "prefecture": "群馬県", "id": 635 },
        { "address": "熊野町", "city": "太田市", "postcode": "3730025", "prefecture": "群馬県", "id": 636 },
        { "address": "強戸町", "city": "太田市", "postcode": "3730004", "prefecture": "群馬県", "id": 637 },
        { "address": "小角田町", "city": "太田市", "postcode": "3700427", "prefecture": "群馬県", "id": 638 },
        { "address": "小舞木町", "city": "太田市", "postcode": "3730818", "prefecture": "群馬県", "id": 639 },
        { "address": "下小林町", "city": "太田市", "postcode": "3730807", "prefecture": "群馬県", "id": 640 },
        { "address": "下田島町", "city": "太田市", "postcode": "3730844", "prefecture": "群馬県", "id": 641 },
        { "address": "下浜田町", "city": "太田市", "postcode": "3730821", "prefecture": "群馬県", "id": 642 },
        { "address": "城西町", "city": "太田市", "postcode": "3730038", "prefecture": "群馬県", "id": 643 },
        { "address": "庄屋町", "city": "太田市", "postcode": "3730822", "prefecture": "群馬県", "id": 644 },
        { "address": "新道町", "city": "太田市", "postcode": "3730037", "prefecture": "群馬県", "id": 645 },
        { "address": "末広町", "city": "太田市", "postcode": "3730862", "prefecture": "群馬県", "id": 646 },
        { "address": "菅塩町", "city": "太田市", "postcode": "3730002", "prefecture": "群馬県", "id": 647 },
        { "address": "すずかけ町", "city": "太田市", "postcode": "3700413", "prefecture": "群馬県", "id": 648 },
        { "address": "スバル町", "city": "太田市", "postcode": "3730028", "prefecture": "群馬県", "id": 649 },
        { "address": "世良田町", "city": "太田市", "postcode": "3700426", "prefecture": "群馬県", "id": 650 },
        { "address": "太子町", "city": "太田市", "postcode": "3700412", "prefecture": "群馬県", "id": 651 },
        { "address": "台之郷町", "city": "太田市", "postcode": "3730801", "prefecture": "群馬県", "id": 652 },
        { "address": "高瀬町", "city": "太田市", "postcode": "3730072", "prefecture": "群馬県", "id": 653 },
        { "address": "高林東町", "city": "太田市", "postcode": "3730825", "prefecture": "群馬県", "id": 654 },
        { "address": "高林西町", "city": "太田市", "postcode": "3730828", "prefecture": "群馬県", "id": 655 },
        { "address": "高林南町", "city": "太田市", "postcode": "3730827", "prefecture": "群馬県", "id": 656 },
        { "address": "高林北町", "city": "太田市", "postcode": "3730829", "prefecture": "群馬県", "id": 657 },
        { "address": "高林寿町", "city": "太田市", "postcode": "3730824", "prefecture": "群馬県", "id": 658 },
        { "address": "宝町", "city": "太田市", "postcode": "3730042", "prefecture": "群馬県", "id": 659 },
        { "address": "只上町", "city": "太田市", "postcode": "3730011", "prefecture": "群馬県", "id": 660 },
        { "address": "鶴生田町", "city": "太田市", "postcode": "3730008", "prefecture": "群馬県", "id": 661 },
        { "address": "寺井町", "city": "太田市", "postcode": "3730052", "prefecture": "群馬県", "id": 662 },
        { "address": "天良町", "city": "太田市", "postcode": "3730051", "prefecture": "群馬県", "id": 663 },
        { "address": "徳川町", "city": "太田市", "postcode": "3700425", "prefecture": "群馬県", "id": 664 },
        { "address": "富沢町", "city": "太田市", "postcode": "3730832", "prefecture": "群馬県", "id": 665 },
        { "address": "富若町", "city": "太田市", "postcode": "3730023", "prefecture": "群馬県", "id": 666 },
        { "address": "鳥山町", "city": "太田市", "postcode": "3730053", "prefecture": "群馬県", "id": 667 },
        { "address": "鳥山上町", "city": "太田市", "postcode": "3730061", "prefecture": "群馬県", "id": 668 },
        { "address": "鳥山中町", "city": "太田市", "postcode": "3730062", "prefecture": "群馬県", "id": 669 },
        { "address": "鳥山下町", "city": "太田市", "postcode": "3730063", "prefecture": "群馬県", "id": 670 },
        { "address": "中根町", "city": "太田市", "postcode": "3730846", "prefecture": "群馬県", "id": 671 },
        { "address": "長手町", "city": "太田市", "postcode": "3730054", "prefecture": "群馬県", "id": 672 },
        { "address": "成塚町", "city": "太田市", "postcode": "3730006", "prefecture": "群馬県", "id": 673 },
        { "address": "新島町", "city": "太田市", "postcode": "3730819", "prefecture": "群馬県", "id": 674 },
        { "address": "新野町", "city": "太田市", "postcode": "3730032", "prefecture": "群馬県", "id": 675 },
        { "address": "西新町", "city": "太田市", "postcode": "3730847", "prefecture": "群馬県", "id": 676 },
        { "address": "西長岡町", "city": "太田市", "postcode": "3730001", "prefecture": "群馬県", "id": 677 },
        { "address": "西野谷町", "city": "太田市", "postcode": "3730043", "prefecture": "群馬県", "id": 678 },
        { "address": "西本町", "city": "太田市", "postcode": "3730033", "prefecture": "群馬県", "id": 679 },
        { "address": "西矢島町", "city": "太田市", "postcode": "3730823", "prefecture": "群馬県", "id": 680 },
        { "address": "新田赤堀町", "city": "太田市", "postcode": "3700331", "prefecture": "群馬県", "id": 681 },
        { "address": "新田市町", "city": "太田市", "postcode": "3700304", "prefecture": "群馬県", "id": 682 },
        { "address": "新田市野井町", "city": "太田市", "postcode": "3700314", "prefecture": "群馬県", "id": 683 },
        { "address": "新田市野倉町", "city": "太田市", "postcode": "3700306", "prefecture": "群馬県", "id": 684 },
        { "address": "新田大町", "city": "太田市", "postcode": "3700351", "prefecture": "群馬県", "id": 685 },
        { "address": "新田大根町", "city": "太田市", "postcode": "3700347", "prefecture": "群馬県", "id": 686 },
        { "address": "新田金井町", "city": "太田市", "postcode": "3700341", "prefecture": "群馬県", "id": 687 },
        { "address": "新田嘉祢町", "city": "太田市", "postcode": "3700352", "prefecture": "群馬県", "id": 688 },
        { "address": "新田上江田町", "city": "太田市", "postcode": "3700342", "prefecture": "群馬県", "id": 689 },
        { "address": "新田上田中町", "city": "太田市", "postcode": "3700346", "prefecture": "群馬県", "id": 690 },
        { "address": "新田上中町", "city": "太田市", "postcode": "3700353", "prefecture": "群馬県", "id": 691 },
        { "address": "新田木崎町", "city": "太田市", "postcode": "3700321", "prefecture": "群馬県", "id": 692 },
        { "address": "新田小金井町", "city": "太田市", "postcode": "3700303", "prefecture": "群馬県", "id": 693 },
        { "address": "新田小金町", "city": "太田市", "postcode": "3700302", "prefecture": "群馬県", "id": 694 },
        { "address": "新田権右衛門町", "city": "太田市", "postcode": "3700355", "prefecture": "群馬県", "id": 695 },
        { "address": "新田下江田町", "city": "太田市", "postcode": "3700333", "prefecture": "群馬県", "id": 696 },
        { "address": "新田下田中町", "city": "太田市", "postcode": "3700343", "prefecture": "群馬県", "id": 697 },
        { "address": "新田反町町", "city": "太田市", "postcode": "3700313", "prefecture": "群馬県", "id": 698 },
        { "address": "新田高尾町", "city": "太田市", "postcode": "3700334", "prefecture": "群馬県", "id": 699 },
        { "address": "新田多村新田町", "city": "太田市", "postcode": "3700305", "prefecture": "群馬県", "id": 700 },
        { "address": "新田溜池町", "city": "太田市", "postcode": "3700354", "prefecture": "群馬県", "id": 701 },
        { "address": "新田天良町", "city": "太田市", "postcode": "3700301", "prefecture": "群馬県", "id": 702 },
        { "address": "新田中江田町", "city": "太田市", "postcode": "3700332", "prefecture": "群馬県", "id": 703 },
        { "address": "新田萩町", "city": "太田市", "postcode": "3700356", "prefecture": "群馬県", "id": 704 },
        { "address": "新田花香塚町", "city": "太田市", "postcode": "3700345", "prefecture": "群馬県", "id": 705 },
        { "address": "新田早川町", "city": "太田市", "postcode": "3700344", "prefecture": "群馬県", "id": 706 },
        { "address": "新田瑞木町", "city": "太田市", "postcode": "3700311", "prefecture": "群馬県", "id": 707 },
        { "address": "新田村田町", "city": "太田市", "postcode": "3700312", "prefecture": "群馬県", "id": 708 },
        { "address": "韮川町", "city": "太田市", "postcode": "3730029", "prefecture": "群馬県", "id": 709 },
        { "address": "八幡町", "city": "太田市", "postcode": "3730056", "prefecture": "群馬県", "id": 710 },
        { "address": "浜町", "city": "太田市", "postcode": "3730853", "prefecture": "群馬県", "id": 711 },
        { "address": "原宿町", "city": "太田市", "postcode": "3730071", "prefecture": "群馬県", "id": 712 },
        { "address": "東今泉町", "city": "太田市", "postcode": "3730021", "prefecture": "群馬県", "id": 713 },
        { "address": "東金井町", "city": "太田市", "postcode": "3730022", "prefecture": "群馬県", "id": 714 },
        { "address": "東新町", "city": "太田市", "postcode": "3730015", "prefecture": "群馬県", "id": 715 },
        { "address": "東長岡町", "city": "太田市", "postcode": "3730812", "prefecture": "群馬県", "id": 716 },
        { "address": "東別所町", "city": "太田市", "postcode": "3730815", "prefecture": "群馬県", "id": 717 },
        { "address": "東本町", "city": "太田市", "postcode": "3730026", "prefecture": "群馬県", "id": 718 },
        { "address": "東矢島町", "city": "太田市", "postcode": "3730816", "prefecture": "群馬県", "id": 719 },
        { "address": "備前島町", "city": "太田市", "postcode": "3700404", "prefecture": "群馬県", "id": 720 },
        { "address": "福沢町", "city": "太田市", "postcode": "3730831", "prefecture": "群馬県", "id": 721 },
        { "address": "藤阿久町", "city": "太田市", "postcode": "3730034", "prefecture": "群馬県", "id": 722 },
        { "address": "藤久良町", "city": "太田市", "postcode": "3730035", "prefecture": "群馬県", "id": 723 },
        { "address": "二ツ小屋町", "city": "太田市", "postcode": "3700417", "prefecture": "群馬県", "id": 724 },
        { "address": "古戸町", "city": "太田市", "postcode": "3730826", "prefecture": "群馬県", "id": 725 },
        { "address": "別所町", "city": "太田市", "postcode": "3730041", "prefecture": "群馬県", "id": 726 },
        { "address": "細谷町", "city": "太田市", "postcode": "3730842", "prefecture": "群馬県", "id": 727 },
        { "address": "堀口町", "city": "太田市", "postcode": "3700414", "prefecture": "群馬県", "id": 728 },
        { "address": "本町", "city": "太田市", "postcode": "3730057", "prefecture": "群馬県", "id": 729 },
        { "address": "前小屋町", "city": "太田市", "postcode": "3700406", "prefecture": "群馬県", "id": 730 },
        { "address": "前島町", "city": "太田市", "postcode": "3700416", "prefecture": "群馬県", "id": 731 },
        { "address": "丸山町", "city": "太田市", "postcode": "3730018", "prefecture": "群馬県", "id": 732 },
        { "address": "緑町", "city": "太田市", "postcode": "3730073", "prefecture": "群馬県", "id": 733 },
        { "address": "南ケ丘町", "city": "太田市", "postcode": "3700415", "prefecture": "群馬県", "id": 734 },
        { "address": "南矢島町", "city": "太田市", "postcode": "3730861", "prefecture": "群馬県", "id": 735 },
        { "address": "武蔵島町", "city": "太田市", "postcode": "3700418", "prefecture": "群馬県", "id": 736 },
        { "address": "茂木町", "city": "太田市", "postcode": "3730809", "prefecture": "群馬県", "id": 737 },
        { "address": "八重笠町", "city": "太田市", "postcode": "3730805", "prefecture": "群馬県", "id": 738 },
        { "address": "安良岡町", "city": "太田市", "postcode": "3730811", "prefecture": "群馬県", "id": 739 },
        { "address": "矢田堀町", "city": "太田市", "postcode": "3730016", "prefecture": "群馬県", "id": 740 },
        { "address": "矢場町", "city": "太田市", "postcode": "3730803", "prefecture": "群馬県", "id": 741 },
        { "address": "矢場新町", "city": "太田市", "postcode": "3730802", "prefecture": "群馬県", "id": 742 },
        { "address": "藪塚町", "city": "太田市", "postcode": "3792301", "prefecture": "群馬県", "id": 743 },
        { "address": "山之神町", "city": "太田市", "postcode": "3792302", "prefecture": "群馬県", "id": 744 },
        { "address": "由良町", "city": "太田市", "postcode": "3730036", "prefecture": "群馬県", "id": 745 },
        { "address": "吉沢町", "city": "太田市", "postcode": "3730019", "prefecture": "群馬県", "id": 746 },
        { "address": "米沢町", "city": "太田市", "postcode": "3730843", "prefecture": "群馬県", "id": 747 },
        { "address": "寄合町", "city": "太田市", "postcode": "3792303", "prefecture": "群馬県", "id": 748 },
        { "address": "龍舞町", "city": "太田市", "postcode": "3730806", "prefecture": "群馬県", "id": 749 },
        { "address": "六千石町", "city": "太田市", "postcode": "3792305", "prefecture": "群馬県", "id": 750 },
        { "address": "脇屋町", "city": "太田市", "postcode": "3730031", "prefecture": "群馬県", "id": 751 },
        { "city": "沼田市", "postcode": "3780000", "prefecture": "群馬県", "id": 752 },
        { "address": "秋塚町", "city": "沼田市", "postcode": "3780076", "prefecture": "群馬県", "id": 753 },
        { "address": "石墨町", "city": "沼田市", "postcode": "3780077", "prefecture": "群馬県", "id": 754 },
        { "address": "井土上町", "city": "沼田市", "postcode": "3780035", "prefecture": "群馬県", "id": 755 },
        { "address": "今井町", "city": "沼田市", "postcode": "3780025", "prefecture": "群馬県", "id": 756 },
        { "address": "岩本町", "city": "沼田市", "postcode": "3780021", "prefecture": "群馬県", "id": 757 },
        { "address": "薄根町", "city": "沼田市", "postcode": "3780031", "prefecture": "群馬県", "id": 758 },
        { "address": "宇楚井町", "city": "沼田市", "postcode": "3780068", "prefecture": "群馬県", "id": 759 },
        { "address": "大釜町", "city": "沼田市", "postcode": "3780067", "prefecture": "群馬県", "id": 760 },
        { "address": "岡谷町", "city": "沼田市", "postcode": "3780061", "prefecture": "群馬県", "id": 761 },
        { "address": "恩田町", "city": "沼田市", "postcode": "3780034", "prefecture": "群馬県", "id": 762 },
        { "address": "鍛冶町", "city": "沼田市", "postcode": "3780018", "prefecture": "群馬県", "id": 763 },
        { "address": "上川田町", "city": "沼田市", "postcode": "3780026", "prefecture": "群馬県", "id": 764 },
        { "address": "上久屋町", "city": "沼田市", "postcode": "3780003", "prefecture": "群馬県", "id": 765 },
        { "address": "上沼須町", "city": "沼田市", "postcode": "3780011", "prefecture": "群馬県", "id": 766 },
        { "address": "上之町", "city": "沼田市", "postcode": "3780047", "prefecture": "群馬県", "id": 767 },
        { "address": "上原町", "city": "沼田市", "postcode": "3780051", "prefecture": "群馬県", "id": 768 },
        { "address": "上発知町", "city": "沼田市", "postcode": "3780071", "prefecture": "群馬県", "id": 769 },
        { "address": "久屋原町", "city": "沼田市", "postcode": "3780005", "prefecture": "群馬県", "id": 770 },
        { "address": "材木町", "city": "沼田市", "postcode": "3780045", "prefecture": "群馬県", "id": 771 },
        { "address": "栄町", "city": "沼田市", "postcode": "3780014", "prefecture": "群馬県", "id": 772 },
        { "address": "桜町", "city": "沼田市", "postcode": "3780052", "prefecture": "群馬県", "id": 773 },
        { "address": "篠尾町", "city": "沼田市", "postcode": "3780023", "prefecture": "群馬県", "id": 774 },
        { "address": "佐山町", "city": "沼田市", "postcode": "3780078", "prefecture": "群馬県", "id": 775 },
        { "address": "清水町", "city": "沼田市", "postcode": "3780016", "prefecture": "群馬県", "id": 776 },
        { "address": "下川田町", "city": "沼田市", "postcode": "3780024", "prefecture": "群馬県", "id": 777 },
        { "address": "下久屋町", "city": "沼田市", "postcode": "3780004", "prefecture": "群馬県", "id": 778 },
        { "address": "下沼田町", "city": "沼田市", "postcode": "3780063", "prefecture": "群馬県", "id": 779 },
        { "address": "下之町", "city": "沼田市", "postcode": "3780044", "prefecture": "群馬県", "id": 780 },
        { "address": "下発知町", "city": "沼田市", "postcode": "3780074", "prefecture": "群馬県", "id": 781 },
        { "address": "白岩町", "city": "沼田市", "postcode": "3780033", "prefecture": "群馬県", "id": 782 },
        { "address": "白沢町岩室", "city": "沼田市", "postcode": "3780123", "prefecture": "群馬県", "id": 783 },
        { "address": "白沢町尾合", "city": "沼田市", "postcode": "3780124", "prefecture": "群馬県", "id": 784 },
        { "address": "白沢町上古語父", "city": "沼田市", "postcode": "3780126", "prefecture": "群馬県", "id": 785 },
        { "address": "白沢町下古語父", "city": "沼田市", "postcode": "3780127", "prefecture": "群馬県", "id": 786 },
        { "address": "白沢町高平", "city": "沼田市", "postcode": "3780121", "prefecture": "群馬県", "id": 787 },
        { "address": "白沢町生枝", "city": "沼田市", "postcode": "3780122", "prefecture": "群馬県", "id": 788 },
        { "address": "白沢町平出", "city": "沼田市", "postcode": "3780125", "prefecture": "群馬県", "id": 789 },
        { "address": "新町", "city": "沼田市", "postcode": "3780013", "prefecture": "群馬県", "id": 790 },
        { "address": "硯田町", "city": "沼田市", "postcode": "3780032", "prefecture": "群馬県", "id": 791 },
        { "address": "善桂寺町", "city": "沼田市", "postcode": "3780064", "prefecture": "群馬県", "id": 792 },
        { "address": "高橋場町", "city": "沼田市", "postcode": "3780056", "prefecture": "群馬県", "id": 793 },
        { "address": "戸鹿野町", "city": "沼田市", "postcode": "3780015", "prefecture": "群馬県", "id": 794 },
        { "address": "戸神町", "city": "沼田市", "postcode": "3780001", "prefecture": "群馬県", "id": 795 },
        { "address": "利根町青木", "city": "沼田市", "postcode": "3780314", "prefecture": "群馬県", "id": 796 },
        { "address": "利根町穴原", "city": "沼田市", "postcode": "3780305", "prefecture": "群馬県", "id": 797 },
        { "address": "利根町石戸新田", "city": "沼田市", "postcode": "3780326", "prefecture": "群馬県", "id": 798 },
        { "address": "利根町老神", "city": "沼田市", "postcode": "3780322", "prefecture": "群馬県", "id": 799 },
        { "address": "利根町大原", "city": "沼田市", "postcode": "3780323", "prefecture": "群馬県", "id": 800 },
        { "address": "利根町大楊", "city": "沼田市", "postcode": "3780304", "prefecture": "群馬県", "id": 801 },
        { "address": "利根町追貝", "city": "沼田市", "postcode": "3780303", "prefecture": "群馬県", "id": 802 },
        { "address": "利根町柿平", "city": "沼田市", "postcode": "3780307", "prefecture": "群馬県", "id": 803 },
        { "address": "利根町小松", "city": "沼田市", "postcode": "3780311", "prefecture": "群馬県", "id": 804 },
        { "address": "利根町砂川", "city": "沼田市", "postcode": "3780315", "prefecture": "群馬県", "id": 805 },
        { "address": "利根町園原", "city": "沼田市", "postcode": "3780324", "prefecture": "群馬県", "id": 806 },
        { "address": "利根町高戸谷", "city": "沼田市", "postcode": "3780321", "prefecture": "群馬県", "id": 807 },
        { "address": "利根町多那", "city": "沼田市", "postcode": "3780317", "prefecture": "群馬県", "id": 808 },
        { "address": "利根町千鳥", "city": "沼田市", "postcode": "3780302", "prefecture": "群馬県", "id": 809 },
        { "address": "利根町二本松", "city": "沼田市", "postcode": "3780316", "prefecture": "群馬県", "id": 810 },
        { "address": "利根町根利", "city": "沼田市", "postcode": "3780312", "prefecture": "群馬県", "id": 811 },
        { "address": "利根町日影南郷", "city": "沼田市", "postcode": "3780313", "prefecture": "群馬県", "id": 812 },
        { "address": "利根町日向南郷", "city": "沼田市", "postcode": "3780306", "prefecture": "群馬県", "id": 813 },
        { "address": "利根町平川", "city": "沼田市", "postcode": "3780301", "prefecture": "群馬県", "id": 814 },
        { "address": "利根町輪組", "city": "沼田市", "postcode": "3780325", "prefecture": "群馬県", "id": 815 },
        { "address": "中発知町", "city": "沼田市", "postcode": "3780072", "prefecture": "群馬県", "id": 816 },
        { "address": "中町", "city": "沼田市", "postcode": "3780048", "prefecture": "群馬県", "id": 817 },
        { "address": "奈良町", "city": "沼田市", "postcode": "3780075", "prefecture": "群馬県", "id": 818 },
        { "address": "西倉内町", "city": "沼田市", "postcode": "3780042", "prefecture": "群馬県", "id": 819 },
        { "address": "西原新町", "city": "沼田市", "postcode": "3780054", "prefecture": "群馬県", "id": 820 },
        { "address": "沼須町", "city": "沼田市", "postcode": "3780012", "prefecture": "群馬県", "id": 821 },
        { "address": "馬喰町", "city": "沼田市", "postcode": "3780046", "prefecture": "群馬県", "id": 822 },
        { "address": "原町", "city": "沼田市", "postcode": "3780066", "prefecture": "群馬県", "id": 823 },
        { "address": "榛名町", "city": "沼田市", "postcode": "3780041", "prefecture": "群馬県", "id": 824 },
        { "address": "東倉内町", "city": "沼田市", "postcode": "3780043", "prefecture": "群馬県", "id": 825 },
        { "address": "東原新町", "city": "沼田市", "postcode": "3780053", "prefecture": "群馬県", "id": 826 },
        { "address": "坊新田町", "city": "沼田市", "postcode": "3780017", "prefecture": "群馬県", "id": 827 },
        { "address": "発知新田町", "city": "沼田市", "postcode": "3780073", "prefecture": "群馬県", "id": 828 },
        { "address": "堀廻町", "city": "沼田市", "postcode": "3780065", "prefecture": "群馬県", "id": 829 },
        { "address": "町田町", "city": "沼田市", "postcode": "3780062", "prefecture": "群馬県", "id": 830 },
        { "address": "屋形原町", "city": "沼田市", "postcode": "3780022", "prefecture": "群馬県", "id": 831 },
        { "address": "柳町", "city": "沼田市", "postcode": "3780055", "prefecture": "群馬県", "id": 832 },
        { "address": "横塚町", "city": "沼田市", "postcode": "3780002", "prefecture": "群馬県", "id": 833 },
        { "city": "館林市", "postcode": "3740000", "prefecture": "群馬県", "id": 834 },
        { "address": "青柳町", "city": "館林市", "postcode": "3740035", "prefecture": "群馬県", "id": 835 },
        { "address": "赤土町", "city": "館林市", "postcode": "3740053", "prefecture": "群馬県", "id": 836 },
        { "address": "赤生田町", "city": "館林市", "postcode": "3740013", "prefecture": "群馬県", "id": 837 },
        { "address": "赤生田本町", "city": "館林市", "postcode": "3740014", "prefecture": "群馬県", "id": 838 },
        { "address": "朝日町", "city": "館林市", "postcode": "3740063", "prefecture": "群馬県", "id": 839 },
        { "address": "足次町", "city": "館林市", "postcode": "3740073", "prefecture": "群馬県", "id": 840 },
        { "address": "入ケ谷町", "city": "館林市", "postcode": "3740045", "prefecture": "群馬県", "id": 841 },
        { "address": "大街道", "city": "館林市", "postcode": "3740066", "prefecture": "群馬県", "id": 842 },
        { "address": "大島町", "city": "館林市", "postcode": "3740001", "prefecture": "群馬県", "id": 843 },
        { "address": "大新田町", "city": "館林市", "postcode": "3740072", "prefecture": "群馬県", "id": 844 },
        { "address": "大手町", "city": "館林市", "postcode": "3740023", "prefecture": "群馬県", "id": 845 },
        { "address": "大谷町", "city": "館林市", "postcode": "3740054", "prefecture": "群馬県", "id": 846 },
        { "address": "岡野町", "city": "館林市", "postcode": "3740067", "prefecture": "群馬県", "id": 847 },
        { "address": "尾曳町", "city": "館林市", "postcode": "3740019", "prefecture": "群馬県", "id": 848 },
        { "address": "加法師町", "city": "館林市", "postcode": "3740022", "prefecture": "群馬県", "id": 849 },
        { "address": "上赤生田町", "city": "館林市", "postcode": "3740015", "prefecture": "群馬県", "id": 850 },
        { "address": "上早川田町", "city": "館林市", "postcode": "3740079", "prefecture": "群馬県", "id": 851 },
        { "address": "上三林町", "city": "館林市", "postcode": "3740046", "prefecture": "群馬県", "id": 852 },
        { "address": "北成島町", "city": "館林市", "postcode": "3740057", "prefecture": "群馬県", "id": 853 },
        { "address": "木戸町", "city": "館林市", "postcode": "3740077", "prefecture": "群馬県", "id": 854 },
        { "address": "楠町", "city": "館林市", "postcode": "3740004", "prefecture": "群馬県", "id": 855 },
        { "address": "小桑原町", "city": "館林市", "postcode": "3740037", "prefecture": "群馬県", "id": 856 },
        { "address": "近藤町", "city": "館林市", "postcode": "3740042", "prefecture": "群馬県", "id": 857 },
        { "address": "栄町", "city": "館林市", "postcode": "3740052", "prefecture": "群馬県", "id": 858 },
        { "address": "坂下町", "city": "館林市", "postcode": "3740069", "prefecture": "群馬県", "id": 859 },
        { "address": "下早川田町", "city": "館林市", "postcode": "3740071", "prefecture": "群馬県", "id": 860 },
        { "address": "下三林町", "city": "館林市", "postcode": "3740044", "prefecture": "群馬県", "id": 861 },
        { "address": "城町", "city": "館林市", "postcode": "3740018", "prefecture": "群馬県", "id": 862 },
        { "address": "新栄町", "city": "館林市", "postcode": "3740051", "prefecture": "群馬県", "id": 863 },
        { "address": "新宿", "city": "館林市", "postcode": "3740026", "prefecture": "群馬県", "id": 864 },
        { "address": "諏訪町", "city": "館林市", "postcode": "3740036", "prefecture": "群馬県", "id": 865 },
        { "address": "瀬戸谷町", "city": "館林市", "postcode": "3740021", "prefecture": "群馬県", "id": 866 },
        { "address": "代官町", "city": "館林市", "postcode": "3740064", "prefecture": "群馬県", "id": 867 },
        { "address": "台宿町", "city": "館林市", "postcode": "3740068", "prefecture": "群馬県", "id": 868 },
        { "address": "高根町", "city": "館林市", "postcode": "3740074", "prefecture": "群馬県", "id": 869 },
        { "address": "田谷町", "city": "館林市", "postcode": "3740002", "prefecture": "群馬県", "id": 870 },
        { "address": "千塚町", "city": "館林市", "postcode": "3740009", "prefecture": "群馬県", "id": 871 },
        { "address": "千代田町", "city": "館林市", "postcode": "3740028", "prefecture": "群馬県", "id": 872 },
        { "address": "つつじ町", "city": "館林市", "postcode": "3740017", "prefecture": "群馬県", "id": 873 },
        { "address": "当郷町", "city": "館林市", "postcode": "3740006", "prefecture": "群馬県", "id": 874 },
        { "address": "苗木町", "city": "館林市", "postcode": "3740043", "prefecture": "群馬県", "id": 875 },
        { "address": "仲町", "city": "館林市", "postcode": "3740029", "prefecture": "群馬県", "id": 876 },
        { "address": "成島町", "city": "館林市", "postcode": "3740055", "prefecture": "群馬県", "id": 877 },
        { "address": "西高根町", "city": "館林市", "postcode": "3740075", "prefecture": "群馬県", "id": 878 },
        { "address": "西本町", "city": "館林市", "postcode": "3740065", "prefecture": "群馬県", "id": 879 },
        { "address": "西美園町", "city": "館林市", "postcode": "3740038", "prefecture": "群馬県", "id": 880 },
        { "address": "野辺町", "city": "館林市", "postcode": "3740047", "prefecture": "群馬県", "id": 881 },
        { "address": "花山町", "city": "館林市", "postcode": "3740005", "prefecture": "群馬県", "id": 882 },
        { "address": "羽附旭町", "city": "館林市", "postcode": "3740012", "prefecture": "群馬県", "id": 883 },
        { "address": "羽附町", "city": "館林市", "postcode": "3740011", "prefecture": "群馬県", "id": 884 },
        { "address": "東広内町", "city": "館林市", "postcode": "3740061", "prefecture": "群馬県", "id": 885 },
        { "address": "東美園町", "city": "館林市", "postcode": "3740031", "prefecture": "群馬県", "id": 886 },
        { "address": "日向町", "city": "館林市", "postcode": "3740076", "prefecture": "群馬県", "id": 887 },
        { "address": "広内町", "city": "館林市", "postcode": "3740062", "prefecture": "群馬県", "id": 888 },
        { "address": "富士原町", "city": "館林市", "postcode": "3740041", "prefecture": "群馬県", "id": 889 },
        { "address": "富士見町", "city": "館林市", "postcode": "3740027", "prefecture": "群馬県", "id": 890 },
        { "address": "分福町", "city": "館林市", "postcode": "3740034", "prefecture": "群馬県", "id": 891 },
        { "address": "傍示塚町", "city": "館林市", "postcode": "3740078", "prefecture": "群馬県", "id": 892 },
        { "address": "細内町", "city": "館林市", "postcode": "3740008", "prefecture": "群馬県", "id": 893 },
        { "address": "堀工町", "city": "館林市", "postcode": "3740033", "prefecture": "群馬県", "id": 894 },
        { "address": "本町", "city": "館林市", "postcode": "3740024", "prefecture": "群馬県", "id": 895 },
        { "address": "松沼町", "city": "館林市", "postcode": "3740056", "prefecture": "群馬県", "id": 896 },
        { "address": "松原", "city": "館林市", "postcode": "3740016", "prefecture": "群馬県", "id": 897 },
        { "address": "美園町", "city": "館林市", "postcode": "3740039", "prefecture": "群馬県", "id": 898 },
        { "address": "緑町", "city": "館林市", "postcode": "3740025", "prefecture": "群馬県", "id": 899 },
        { "address": "南美園町", "city": "館林市", "postcode": "3740032", "prefecture": "群馬県", "id": 900 },
        { "address": "四ツ谷町", "city": "館林市", "postcode": "3740003", "prefecture": "群馬県", "id": 901 },
        { "address": "若宮町", "city": "館林市", "postcode": "3740007", "prefecture": "群馬県", "id": 902 },
        { "city": "渋川市", "postcode": "3770000", "prefecture": "群馬県", "id": 903 },
        { "address": "赤城町勝保沢", "city": "渋川市", "postcode": "3791122", "prefecture": "群馬県", "id": 904 },
        { "address": "赤城町上三原田", "city": "渋川市", "postcode": "3791125", "prefecture": "群馬県", "id": 905 },
        { "address": "赤城町北赤城山", "city": "渋川市", "postcode": "3791111", "prefecture": "群馬県", "id": 906 },
        { "address": "赤城町北上野", "city": "渋川市", "postcode": "3791105", "prefecture": "群馬県", "id": 907 },
        { "address": "赤城町栄", "city": "渋川市", "postcode": "3791114", "prefecture": "群馬県", "id": 908 },
        { "address": "赤城町敷島", "city": "渋川市", "postcode": "3791104", "prefecture": "群馬県", "id": 909 },
        { "address": "赤城町滝沢", "city": "渋川市", "postcode": "3791124", "prefecture": "群馬県", "id": 910 },
        { "address": "赤城町棚下", "city": "渋川市", "postcode": "3791101", "prefecture": "群馬県", "id": 911 },
        { "address": "赤城町樽", "city": "渋川市", "postcode": "3791127", "prefecture": "群馬県", "id": 912 },
        { "address": "赤城町津久田", "city": "渋川市", "postcode": "3791103", "prefecture": "群馬県", "id": 913 },
        { "address": "赤城町長井小川田", "city": "渋川市", "postcode": "3791102", "prefecture": "群馬県", "id": 914 },
        { "address": "赤城町溝呂木", "city": "渋川市", "postcode": "3791115", "prefecture": "群馬県", "id": 915 },
        { "address": "赤城町見立", "city": "渋川市", "postcode": "3791123", "prefecture": "群馬県", "id": 916 },
        { "address": "赤城町南赤城山", "city": "渋川市", "postcode": "3791113", "prefecture": "群馬県", "id": 917 },
        { "address": "赤城町三原田", "city": "渋川市", "postcode": "3791126", "prefecture": "群馬県", "id": 918 },
        { "address": "赤城町宮田", "city": "渋川市", "postcode": "3791121", "prefecture": "群馬県", "id": 919 },
        { "address": "赤城町深山", "city": "渋川市", "postcode": "3791112", "prefecture": "群馬県", "id": 920 },
        { "address": "赤城町持柏木", "city": "渋川市", "postcode": "3791116", "prefecture": "群馬県", "id": 921 },
        { "address": "阿久津", "city": "渋川市", "postcode": "3770031", "prefecture": "群馬県", "id": 922 },
        { "address": "有馬", "city": "渋川市", "postcode": "3770005", "prefecture": "群馬県", "id": 923 },
        { "address": "伊香保町伊香保", "city": "渋川市", "postcode": "3770102", "prefecture": "群馬県", "id": 924 },
        { "address": "伊香保町水沢", "city": "渋川市", "postcode": "3770103", "prefecture": "群馬県", "id": 925 },
        { "address": "伊香保町湯中子", "city": "渋川市", "postcode": "3770101", "prefecture": "群馬県", "id": 926 },
        { "address": "石原", "city": "渋川市", "postcode": "3770007", "prefecture": "群馬県", "id": 927 },
        { "address": "祖母島", "city": "渋川市", "postcode": "3770024", "prefecture": "群馬県", "id": 928 },
        { "address": "小野子", "city": "渋川市", "postcode": "3770312", "prefecture": "群馬県", "id": 929 },
        { "address": "金井", "city": "渋川市", "postcode": "3770027", "prefecture": "群馬県", "id": 930 },
        { "address": "上白井", "city": "渋川市", "postcode": "3770201", "prefecture": "群馬県", "id": 931 },
        { "address": "川島", "city": "渋川市", "postcode": "3770025", "prefecture": "群馬県", "id": 932 },
        { "address": "北牧", "city": "渋川市", "postcode": "3770205", "prefecture": "群馬県", "id": 933 },
        { "address": "渋川", "city": "渋川市", "postcode": "3770008", "prefecture": "群馬県", "id": 934 },
        { "address": "白井", "city": "渋川市", "postcode": "3770204", "prefecture": "群馬県", "id": 935 },
        { "address": "中郷", "city": "渋川市", "postcode": "3770202", "prefecture": "群馬県", "id": 936 },
        { "address": "中村", "city": "渋川市", "postcode": "3770002", "prefecture": "群馬県", "id": 937 },
        { "address": "南牧", "city": "渋川市", "postcode": "3770026", "prefecture": "群馬県", "id": 938 },
        { "address": "半田", "city": "渋川市", "postcode": "3770004", "prefecture": "群馬県", "id": 939 },
        { "address": "吹屋", "city": "渋川市", "postcode": "3770203", "prefecture": "群馬県", "id": 940 },
        { "address": "北橘町赤城山", "city": "渋川市", "postcode": "3770051", "prefecture": "群馬県", "id": 941 },
        { "address": "北橘町上南室", "city": "渋川市", "postcode": "3770055", "prefecture": "群馬県", "id": 942 },
        { "address": "北橘町上箱田", "city": "渋川市", "postcode": "3770052", "prefecture": "群馬県", "id": 943 },
        { "address": "北橘町小室", "city": "渋川市", "postcode": "3770065", "prefecture": "群馬県", "id": 944 },
        { "address": "北橘町下南室", "city": "渋川市", "postcode": "3770054", "prefecture": "群馬県", "id": 945 },
        { "address": "北橘町下箱田", "city": "渋川市", "postcode": "3770061", "prefecture": "群馬県", "id": 946 },
        { "address": "北橘町箱田", "city": "渋川市", "postcode": "3770053", "prefecture": "群馬県", "id": 947 },
        { "address": "北橘町八崎", "city": "渋川市", "postcode": "3770064", "prefecture": "群馬県", "id": 948 },
        { "address": "北橘町分郷八崎", "city": "渋川市", "postcode": "3770063", "prefecture": "群馬県", "id": 949 },
        { "address": "北橘町真壁", "city": "渋川市", "postcode": "3770062", "prefecture": "群馬県", "id": 950 },
        { "address": "行幸田", "city": "渋川市", "postcode": "3770006", "prefecture": "群馬県", "id": 951 },
        { "address": "村上", "city": "渋川市", "postcode": "3770311", "prefecture": "群馬県", "id": 952 },
        { "address": "八木原", "city": "渋川市", "postcode": "3770003", "prefecture": "群馬県", "id": 953 },
        { "address": "横堀", "city": "渋川市", "postcode": "3770206", "prefecture": "群馬県", "id": 954 },
        { "city": "藤岡市", "postcode": "3750000", "prefecture": "群馬県", "id": 955 },
        { "address": "鮎川", "city": "藤岡市", "postcode": "3750042", "prefecture": "群馬県", "id": 956 },
        { "address": "牛田", "city": "藤岡市", "postcode": "3750034", "prefecture": "群馬県", "id": 957 },
        { "address": "岡之郷", "city": "藤岡市", "postcode": "3750011", "prefecture": "群馬県", "id": 958 },
        { "address": "鬼石", "city": "藤岡市", "postcode": "3701401", "prefecture": "群馬県", "id": 959 },
        { "address": "金井", "city": "藤岡市", "postcode": "3750045", "prefecture": "群馬県", "id": 960 },
        { "address": "上大塚", "city": "藤岡市", "postcode": "3750054", "prefecture": "群馬県", "id": 961 },
        { "address": "上落合", "city": "藤岡市", "postcode": "3750057", "prefecture": "群馬県", "id": 962 },
        { "address": "上栗須", "city": "藤岡市", "postcode": "3750016", "prefecture": "群馬県", "id": 963 },
        { "address": "上戸塚", "city": "藤岡市", "postcode": "3750013", "prefecture": "群馬県", "id": 964 },
        { "address": "上日野", "city": "藤岡市", "postcode": "3750047", "prefecture": "群馬県", "id": 965 },
        { "address": "川除", "city": "藤岡市", "postcode": "3750033", "prefecture": "群馬県", "id": 966 },
        { "address": "小林", "city": "藤岡市", "postcode": "3750021", "prefecture": "群馬県", "id": 967 },
        { "address": "坂原", "city": "藤岡市", "postcode": "3701404", "prefecture": "群馬県", "id": 968 },
        { "address": "三波川", "city": "藤岡市", "postcode": "3701405", "prefecture": "群馬県", "id": 969 },
        { "address": "三本木", "city": "藤岡市", "postcode": "3750037", "prefecture": "群馬県", "id": 970 },
        { "address": "篠塚", "city": "藤岡市", "postcode": "3750017", "prefecture": "群馬県", "id": 971 },
        { "address": "下大塚", "city": "藤岡市", "postcode": "3750052", "prefecture": "群馬県", "id": 972 },
        { "address": "下栗須", "city": "藤岡市", "postcode": "3750014", "prefecture": "群馬県", "id": 973 },
        { "address": "下戸塚", "city": "藤岡市", "postcode": "3750012", "prefecture": "群馬県", "id": 974 },
        { "address": "下日野", "city": "藤岡市", "postcode": "3750046", "prefecture": "群馬県", "id": 975 },
        { "address": "浄法寺", "city": "藤岡市", "postcode": "3701406", "prefecture": "群馬県", "id": 976 },
        { "address": "白石", "city": "藤岡市", "postcode": "3750055", "prefecture": "群馬県", "id": 977 },
        { "address": "神田", "city": "藤岡市", "postcode": "3750032", "prefecture": "群馬県", "id": 978 },
        { "address": "高山", "city": "藤岡市", "postcode": "3750036", "prefecture": "群馬県", "id": 979 },
        { "address": "立石", "city": "藤岡市", "postcode": "3750002", "prefecture": "群馬県", "id": 980 },
        { "address": "立石新田", "city": "藤岡市", "postcode": "3750003", "prefecture": "群馬県", "id": 981 },
        { "address": "中", "city": "藤岡市", "postcode": "3750005", "prefecture": "群馬県", "id": 982 },
        { "address": "中大塚", "city": "藤岡市", "postcode": "3750053", "prefecture": "群馬県", "id": 983 },
        { "address": "中栗須", "city": "藤岡市", "postcode": "3750015", "prefecture": "群馬県", "id": 984 },
        { "address": "中島", "city": "藤岡市", "postcode": "3750001", "prefecture": "群馬県", "id": 985 },
        { "address": "西平井", "city": "藤岡市", "postcode": "3750044", "prefecture": "群馬県", "id": 986 },
        { "address": "根岸", "city": "藤岡市", "postcode": "3750022", "prefecture": "群馬県", "id": 987 },
        { "address": "東平井", "city": "藤岡市", "postcode": "3750043", "prefecture": "群馬県", "id": 988 },
        { "address": "藤岡", "city": "藤岡市", "postcode": "3750024", "prefecture": "群馬県", "id": 989 },
        { "address": "保美", "city": "藤岡市", "postcode": "3750035", "prefecture": "群馬県", "id": 990 },
        { "address": "保美濃山", "city": "藤岡市", "postcode": "3701403", "prefecture": "群馬県", "id": 991 },
        { "address": "本郷", "city": "藤岡市", "postcode": "3750023", "prefecture": "群馬県", "id": 992 },
        { "address": "三ツ木", "city": "藤岡市", "postcode": "3750056", "prefecture": "群馬県", "id": 993 },
        { "address": "緑埜", "city": "藤岡市", "postcode": "3750041", "prefecture": "群馬県", "id": 994 },
        { "address": "本動堂", "city": "藤岡市", "postcode": "3750051", "prefecture": "群馬県", "id": 995 },
        { "address": "森", "city": "藤岡市", "postcode": "3750004", "prefecture": "群馬県", "id": 996 },
        { "address": "森新田", "city": "藤岡市", "postcode": "3750006", "prefecture": "群馬県", "id": 997 },
        { "address": "矢場", "city": "藤岡市", "postcode": "3750031", "prefecture": "群馬県", "id": 998 },
        { "address": "譲原", "city": "藤岡市", "postcode": "3701402", "prefecture": "群馬県", "id": 999 },
        { "city": "富岡市", "postcode": "3702300", "prefecture": "群馬県", "id": 1000 },
        { "address": "相野田", "city": "富岡市", "postcode": "3702306", "prefecture": "群馬県", "id": 1001 },
        { "address": "一ノ宮", "city": "富岡市", "postcode": "3702452", "prefecture": "群馬県", "id": 1002 },
        { "address": "岩染", "city": "富岡市", "postcode": "3702322", "prefecture": "群馬県", "id": 1003 },
        { "address": "宇田", "city": "富岡市", "postcode": "3702451", "prefecture": "群馬県", "id": 1004 },
        { "address": "大島", "city": "富岡市", "postcode": "3702335", "prefecture": "群馬県", "id": 1005 },
        { "address": "岡本", "city": "富岡市", "postcode": "3702321", "prefecture": "群馬県", "id": 1006 },
        { "address": "蚊沼", "city": "富岡市", "postcode": "3702466", "prefecture": "群馬県", "id": 1007 },
        { "address": "神農原", "city": "富岡市", "postcode": "3702455", "prefecture": "群馬県", "id": 1008 },
        { "address": "上黒岩", "city": "富岡市", "postcode": "3702345", "prefecture": "群馬県", "id": 1009 },
        { "address": "上小林", "city": "富岡市", "postcode": "3702456", "prefecture": "群馬県", "id": 1010 },
        { "address": "上高尾", "city": "富岡市", "postcode": "3702317", "prefecture": "群馬県", "id": 1011 },
        { "address": "上高瀬", "city": "富岡市", "postcode": "3702334", "prefecture": "群馬県", "id": 1012 },
        { "address": "上丹生", "city": "富岡市", "postcode": "3702461", "prefecture": "群馬県", "id": 1013 },
        { "address": "神成", "city": "富岡市", "postcode": "3702463", "prefecture": "群馬県", "id": 1014 },
        { "address": "君川", "city": "富岡市", "postcode": "3702313", "prefecture": "群馬県", "id": 1015 },
        { "address": "黒川", "city": "富岡市", "postcode": "3702344", "prefecture": "群馬県", "id": 1016 },
        { "address": "桑原", "city": "富岡市", "postcode": "3702301", "prefecture": "群馬県", "id": 1017 },
        { "address": "後賀", "city": "富岡市", "postcode": "3702304", "prefecture": "群馬県", "id": 1018 },
        { "address": "小桑原", "city": "富岡市", "postcode": "3702302", "prefecture": "群馬県", "id": 1019 },
        { "address": "下黒岩", "city": "富岡市", "postcode": "3702341", "prefecture": "群馬県", "id": 1020 },
        { "address": "下高尾", "city": "富岡市", "postcode": "3702311", "prefecture": "群馬県", "id": 1021 },
        { "address": "下高瀬", "city": "富岡市", "postcode": "3702332", "prefecture": "群馬県", "id": 1022 },
        { "address": "下丹生", "city": "富岡市", "postcode": "3702462", "prefecture": "群馬県", "id": 1023 },
        { "address": "白岩", "city": "富岡市", "postcode": "3702305", "prefecture": "群馬県", "id": 1024 },
        { "address": "曽木", "city": "富岡市", "postcode": "3702315", "prefecture": "群馬県", "id": 1025 },
        { "address": "内匠", "city": "富岡市", "postcode": "3702331", "prefecture": "群馬県", "id": 1026 },
        { "address": "田篠", "city": "富岡市", "postcode": "3702314", "prefecture": "群馬県", "id": 1027 },
        { "address": "田島", "city": "富岡市", "postcode": "3702454", "prefecture": "群馬県", "id": 1028 },
        { "address": "富岡", "city": "富岡市", "postcode": "3702316", "prefecture": "群馬県", "id": 1029 },
        { "address": "中沢", "city": "富岡市", "postcode": "3702465", "prefecture": "群馬県", "id": 1030 },
        { "address": "中高瀬", "city": "富岡市", "postcode": "3702333", "prefecture": "群馬県", "id": 1031 },
        { "address": "七日市", "city": "富岡市", "postcode": "3702343", "prefecture": "群馬県", "id": 1032 },
        { "address": "南蛇井", "city": "富岡市", "postcode": "3702464", "prefecture": "群馬県", "id": 1033 },
        { "address": "野上", "city": "富岡市", "postcode": "3702323", "prefecture": "群馬県", "id": 1034 },
        { "address": "原", "city": "富岡市", "postcode": "3702467", "prefecture": "群馬県", "id": 1035 },
        { "address": "藤木", "city": "富岡市", "postcode": "3702307", "prefecture": "群馬県", "id": 1036 },
        { "address": "別保", "city": "富岡市", "postcode": "3702342", "prefecture": "群馬県", "id": 1037 },
        { "address": "星田", "city": "富岡市", "postcode": "3702312", "prefecture": "群馬県", "id": 1038 },
        { "address": "南後箇", "city": "富岡市", "postcode": "3702324", "prefecture": "群馬県", "id": 1039 },
        { "address": "宮崎", "city": "富岡市", "postcode": "3702453", "prefecture": "群馬県", "id": 1040 },
        { "address": "妙義町大牛", "city": "富岡市", "postcode": "3790202", "prefecture": "群馬県", "id": 1041 },
        { "address": "妙義町上高田", "city": "富岡市", "postcode": "3702411", "prefecture": "群馬県", "id": 1042 },
        { "address": "妙義町北山", "city": "富岡市", "postcode": "3790205", "prefecture": "群馬県", "id": 1043 },
        { "address": "妙義町下高田", "city": "富岡市", "postcode": "3702412", "prefecture": "群馬県", "id": 1044 },
        { "address": "妙義町菅原", "city": "富岡市", "postcode": "3790208", "prefecture": "群馬県", "id": 1045 },
        { "address": "妙義町岳", "city": "富岡市", "postcode": "3790203", "prefecture": "群馬県", "id": 1046 },
        { "address": "妙義町中里", "city": "富岡市", "postcode": "3790206", "prefecture": "群馬県", "id": 1047 },
        { "address": "妙義町行沢", "city": "富岡市", "postcode": "3790204", "prefecture": "群馬県", "id": 1048 },
        { "address": "妙義町古立", "city": "富岡市", "postcode": "3790207", "prefecture": "群馬県", "id": 1049 },
        { "address": "妙義町妙義", "city": "富岡市", "postcode": "3790201", "prefecture": "群馬県", "id": 1050 },
        { "address": "妙義町諸戸", "city": "富岡市", "postcode": "3790209", "prefecture": "群馬県", "id": 1051 },
        { "address": "妙義町八木連", "city": "富岡市", "postcode": "3702413", "prefecture": "群馬県", "id": 1052 },
        { "address": "蕨", "city": "富岡市", "postcode": "3702303", "prefecture": "群馬県", "id": 1053 },
        { "city": "安中市", "postcode": "3790100", "prefecture": "群馬県", "id": 1054 },
        { "address": "秋間みのりが丘", "city": "安中市", "postcode": "3790109", "prefecture": "群馬県", "id": 1055 },
        { "address": "安中", "city": "安中市", "postcode": "3790116", "prefecture": "群馬県", "id": 1056 },
        { "address": "磯部", "city": "安中市", "postcode": "3790127", "prefecture": "群馬県", "id": 1057 },
        { "address": "板鼻", "city": "安中市", "postcode": "3790111", "prefecture": "群馬県", "id": 1058 },
        { "address": "岩井", "city": "安中市", "postcode": "3790112", "prefecture": "群馬県", "id": 1059 },
        { "address": "大竹", "city": "安中市", "postcode": "3790121", "prefecture": "群馬県", "id": 1060 },
        { "address": "大谷", "city": "安中市", "postcode": "3790113", "prefecture": "群馬県", "id": 1061 },
        { "address": "小俣", "city": "安中市", "postcode": "3790105", "prefecture": "群馬県", "id": 1062 },
        { "address": "上後閑", "city": "安中市", "postcode": "3790108", "prefecture": "群馬県", "id": 1063 },
        { "address": "上間仁田", "city": "安中市", "postcode": "3790123", "prefecture": "群馬県", "id": 1064 },
        { "address": "郷原", "city": "安中市", "postcode": "3790135", "prefecture": "群馬県", "id": 1065 },
        { "address": "高別当", "city": "安中市", "postcode": "3790132", "prefecture": "群馬県", "id": 1066 },
        { "address": "鷺宮", "city": "安中市", "postcode": "3790124", "prefecture": "群馬県", "id": 1067 },
        { "address": "下秋間", "city": "安中市", "postcode": "3790104", "prefecture": "群馬県", "id": 1068 },
        { "address": "下磯部", "city": "安中市", "postcode": "3790129", "prefecture": "群馬県", "id": 1069 },
        { "address": "下後閑", "city": "安中市", "postcode": "3790106", "prefecture": "群馬県", "id": 1070 },
        { "address": "下間仁田", "city": "安中市", "postcode": "3790122", "prefecture": "群馬県", "id": 1071 },
        { "address": "中秋間", "city": "安中市", "postcode": "3790103", "prefecture": "群馬県", "id": 1072 },
        { "address": "中後閑", "city": "安中市", "postcode": "3790107", "prefecture": "群馬県", "id": 1073 },
        { "address": "中宿", "city": "安中市", "postcode": "3790115", "prefecture": "群馬県", "id": 1074 },
        { "address": "中野谷", "city": "安中市", "postcode": "3790125", "prefecture": "群馬県", "id": 1075 },
        { "address": "西上秋間", "city": "安中市", "postcode": "3790101", "prefecture": "群馬県", "id": 1076 },
        { "address": "西上磯部", "city": "安中市", "postcode": "3790126", "prefecture": "群馬県", "id": 1077 },
        { "address": "野殿", "city": "安中市", "postcode": "3790114", "prefecture": "群馬県", "id": 1078 },
        { "address": "原市", "city": "安中市", "postcode": "3790133", "prefecture": "群馬県", "id": 1079 },
        { "address": "東上秋間", "city": "安中市", "postcode": "3790102", "prefecture": "群馬県", "id": 1080 },
        { "address": "東上磯部", "city": "安中市", "postcode": "3790128", "prefecture": "群馬県", "id": 1081 },
        { "address": "古屋", "city": "安中市", "postcode": "3790131", "prefecture": "群馬県", "id": 1082 },
        { "address": "松井田町新井", "city": "安中市", "postcode": "3790216", "prefecture": "群馬県", "id": 1083 },
        { "address": "松井田町入山", "city": "安中市", "postcode": "3790305", "prefecture": "群馬県", "id": 1084 },
        { "address": "松井田町行田", "city": "安中市", "postcode": "3790226", "prefecture": "群馬県", "id": 1085 },
        { "address": "松井田町小日向", "city": "安中市", "postcode": "3790213", "prefecture": "群馬県", "id": 1086 },
        { "address": "松井田町上増田", "city": "安中市", "postcode": "3790211", "prefecture": "群馬県", "id": 1087 },
        { "address": "松井田町北野牧", "city": "安中市", "postcode": "3790304", "prefecture": "群馬県", "id": 1088 },
        { "address": "松井田町国衙", "city": "安中市", "postcode": "3790214", "prefecture": "群馬県", "id": 1089 },
        { "address": "松井田町五料", "city": "安中市", "postcode": "3790302", "prefecture": "群馬県", "id": 1090 },
        { "address": "松井田町坂本", "city": "安中市", "postcode": "3790307", "prefecture": "群馬県", "id": 1091 },
        { "address": "松井田町下増田", "city": "安中市", "postcode": "3790212", "prefecture": "群馬県", "id": 1092 },
        { "address": "松井田町高梨子", "city": "安中市", "postcode": "3790215", "prefecture": "群馬県", "id": 1093 },
        { "address": "松井田町峠", "city": "安中市", "postcode": "3890121", "prefecture": "群馬県", "id": 1094 },
        { "address": "松井田町新堀", "city": "安中市", "postcode": "3790221", "prefecture": "群馬県", "id": 1095 },
        { "address": "松井田町二軒在家", "city": "安中市", "postcode": "3790223", "prefecture": "群馬県", "id": 1096 },
        { "address": "松井田町西野牧", "city": "安中市", "postcode": "3790303", "prefecture": "群馬県", "id": 1097 },
        { "address": "松井田町原", "city": "安中市", "postcode": "3790306", "prefecture": "群馬県", "id": 1098 },
        { "address": "松井田町土塩", "city": "安中市", "postcode": "3790217", "prefecture": "群馬県", "id": 1099 },
        { "address": "松井田町人見", "city": "安中市", "postcode": "3790224", "prefecture": "群馬県", "id": 1100 },
        { "address": "松井田町松井田", "city": "安中市", "postcode": "3790222", "prefecture": "群馬県", "id": 1101 },
        { "address": "松井田町八城", "city": "安中市", "postcode": "3790225", "prefecture": "群馬県", "id": 1102 },
        { "address": "松井田町横川", "city": "安中市", "postcode": "3790301", "prefecture": "群馬県", "id": 1103 },
        { "address": "嶺", "city": "安中市", "postcode": "3790136", "prefecture": "群馬県", "id": 1104 },
        { "address": "簗瀬", "city": "安中市", "postcode": "3790134", "prefecture": "群馬県", "id": 1105 },
        { "city": "みどり市", "postcode": "3760100", "prefecture": "群馬県", "id": 1106 },
        { "address": "東町荻原", "city": "みどり市", "postcode": "3760306", "prefecture": "群馬県", "id": 1107 },
        { "address": "東町草木", "city": "みどり市", "postcode": "3760302", "prefecture": "群馬県", "id": 1108 },
        { "address": "東町神戸", "city": "みどり市", "postcode": "3760304", "prefecture": "群馬県", "id": 1109 },
        { "address": "東町小中", "city": "みどり市", "postcode": "3760308", "prefecture": "群馬県", "id": 1110 },
        { "address": "東町座間", "city": "みどり市", "postcode": "3760303", "prefecture": "群馬県", "id": 1111 },
        { "address": "東町小夜戸", "city": "みどり市", "postcode": "3760305", "prefecture": "群馬県", "id": 1112 },
        { "address": "東町沢入", "city": "みどり市", "postcode": "3760301", "prefecture": "群馬県", "id": 1113 },
        { "address": "東町花輪", "city": "みどり市", "postcode": "3760307", "prefecture": "群馬県", "id": 1114 },
        { "address": "大間々町浅原", "city": "みどり市", "postcode": "3760114", "prefecture": "群馬県", "id": 1115 },
        { "address": "大間々町大間々", "city": "みどり市", "postcode": "3760101", "prefecture": "群馬県", "id": 1116 },
        { "address": "大間々町小平", "city": "みどり市", "postcode": "3760111", "prefecture": "群馬県", "id": 1117 },
        { "address": "大間々町上神梅", "city": "みどり市", "postcode": "3760104", "prefecture": "群馬県", "id": 1118 },
        { "address": "大間々町桐原", "city": "みどり市", "postcode": "3760102", "prefecture": "群馬県", "id": 1119 },
        { "address": "大間々町塩沢", "city": "みどり市", "postcode": "3760116", "prefecture": "群馬県", "id": 1120 },
        { "address": "大間々町塩原", "city": "みどり市", "postcode": "3760115", "prefecture": "群馬県", "id": 1121 },
        { "address": "大間々町下神梅", "city": "みどり市", "postcode": "3760103", "prefecture": "群馬県", "id": 1122 },
        { "address": "大間々町高津戸", "city": "みどり市", "postcode": "3760113", "prefecture": "群馬県", "id": 1123 },
        { "address": "大間々町長尾根", "city": "みどり市", "postcode": "3760112", "prefecture": "群馬県", "id": 1124 },
        { "address": "笠懸町阿左美", "city": "みどり市", "postcode": "3792311", "prefecture": "群馬県", "id": 1125 },
        { "address": "笠懸町久宮", "city": "みどり市", "postcode": "3792312", "prefecture": "群馬県", "id": 1126 },
        { "address": "笠懸町西鹿田", "city": "みどり市", "postcode": "3792314", "prefecture": "群馬県", "id": 1127 },
        { "address": "笠懸町鹿", "city": "みどり市", "postcode": "3792313", "prefecture": "群馬県", "id": 1128 },
        { "city": "北群馬郡榛東村", "postcode": "3703500", "prefecture": "群馬県", "id": 1129 },
        { "address": "新井", "city": "北群馬郡榛東村", "postcode": "3703503", "prefecture": "群馬県", "id": 1130 },
        { "address": "上野原", "city": "北群馬郡榛東村", "postcode": "3703505", "prefecture": "群馬県", "id": 1131 },
        { "address": "長岡", "city": "北群馬郡榛東村", "postcode": "3703501", "prefecture": "群馬県", "id": 1132 },
        { "address": "広馬場", "city": "北群馬郡榛東村", "postcode": "3703504", "prefecture": "群馬県", "id": 1133 },
        { "address": "山子田", "city": "北群馬郡榛東村", "postcode": "3703502", "prefecture": "群馬県", "id": 1134 },
        { "city": "北群馬郡吉岡町", "postcode": "3703600", "prefecture": "群馬県", "id": 1135 },
        { "address": "漆原", "city": "北群馬郡吉岡町", "postcode": "3703601", "prefecture": "群馬県", "id": 1136 },
        { "address": "大久保", "city": "北群馬郡吉岡町", "postcode": "3703602", "prefecture": "群馬県", "id": 1137 },
        { "address": "小倉", "city": "北群馬郡吉岡町", "postcode": "3703607", "prefecture": "群馬県", "id": 1138 },
        { "address": "上野田", "city": "北群馬郡吉岡町", "postcode": "3703606", "prefecture": "群馬県", "id": 1139 },
        { "address": "北下", "city": "北群馬郡吉岡町", "postcode": "3703605", "prefecture": "群馬県", "id": 1140 },
        { "address": "下野田", "city": "北群馬郡吉岡町", "postcode": "3703608", "prefecture": "群馬県", "id": 1141 },
        { "address": "陣場", "city": "北群馬郡吉岡町", "postcode": "3703603", "prefecture": "群馬県", "id": 1142 },
        { "address": "南下", "city": "北群馬郡吉岡町", "postcode": "3703604", "prefecture": "群馬県", "id": 1143 },
        { "city": "多野郡上野村", "postcode": "3701600", "prefecture": "群馬県", "id": 1144 },
        { "address": "乙父", "city": "多野郡上野村", "postcode": "3701616", "prefecture": "群馬県", "id": 1145 },
        { "address": "乙母", "city": "多野郡上野村", "postcode": "3701615", "prefecture": "群馬県", "id": 1146 },
        { "address": "勝山", "city": "多野郡上野村", "postcode": "3701613", "prefecture": "群馬県", "id": 1147 },
        { "address": "川和", "city": "多野郡上野村", "postcode": "3701614", "prefecture": "群馬県", "id": 1148 },
        { "address": "楢原", "city": "多野郡上野村", "postcode": "3701617", "prefecture": "群馬県", "id": 1149 },
        { "address": "新羽", "city": "多野郡上野村", "postcode": "3701611", "prefecture": "群馬県", "id": 1150 },
        { "address": "野栗沢", "city": "多野郡上野村", "postcode": "3701612", "prefecture": "群馬県", "id": 1151 },
        { "address": "相原", "city": "多野郡神流町", "postcode": "3701511", "prefecture": "群馬県", "id": 1152 },
        { "address": "青梨", "city": "多野郡神流町", "postcode": "3701512", "prefecture": "群馬県", "id": 1153 },
        { "address": "麻生", "city": "多野郡神流町", "postcode": "3701502", "prefecture": "群馬県", "id": 1154 },
        { "address": "尾附", "city": "多野郡神流町", "postcode": "3701604", "prefecture": "群馬県", "id": 1155 },
        { "address": "神ケ原", "city": "多野郡神流町", "postcode": "3701602", "prefecture": "群馬県", "id": 1156 },
        { "address": "柏木", "city": "多野郡神流町", "postcode": "3701501", "prefecture": "群馬県", "id": 1157 },
        { "address": "黒田", "city": "多野郡神流町", "postcode": "3701506", "prefecture": "群馬県", "id": 1158 },
        { "address": "小平", "city": "多野郡神流町", "postcode": "3701513", "prefecture": "群馬県", "id": 1159 },
        { "address": "塩沢", "city": "多野郡神流町", "postcode": "3701514", "prefecture": "群馬県", "id": 1160 },
        { "address": "生利", "city": "多野郡神流町", "postcode": "3701503", "prefecture": "群馬県", "id": 1161 },
        { "address": "船子", "city": "多野郡神流町", "postcode": "3701515", "prefecture": "群馬県", "id": 1162 },
        { "address": "平原", "city": "多野郡神流町", "postcode": "3701603", "prefecture": "群馬県", "id": 1163 },
        { "address": "万場", "city": "多野郡神流町", "postcode": "3701504", "prefecture": "群馬県", "id": 1164 },
        { "address": "森戸", "city": "多野郡神流町", "postcode": "3701505", "prefecture": "群馬県", "id": 1165 },
        { "address": "魚尾", "city": "多野郡神流町", "postcode": "3701601", "prefecture": "群馬県", "id": 1166 },
        { "city": "甘楽郡下仁田町", "postcode": "3702600", "prefecture": "群馬県", "id": 1167 },
        { "address": "青倉", "city": "甘楽郡下仁田町", "postcode": "3702611", "prefecture": "群馬県", "id": 1168 },
        { "address": "大桑原", "city": "甘楽郡下仁田町", "postcode": "3702613", "prefecture": "群馬県", "id": 1169 },
        { "address": "風口", "city": "甘楽郡下仁田町", "postcode": "3702614", "prefecture": "群馬県", "id": 1170 },
        { "address": "上小坂", "city": "甘楽郡下仁田町", "postcode": "3702621", "prefecture": "群馬県", "id": 1171 },
        { "address": "川井", "city": "甘楽郡下仁田町", "postcode": "3702606", "prefecture": "群馬県", "id": 1172 },
        { "address": "栗山", "city": "甘楽郡下仁田町", "postcode": "3702605", "prefecture": "群馬県", "id": 1173 },
        { "address": "下小坂", "city": "甘楽郡下仁田町", "postcode": "3702623", "prefecture": "群馬県", "id": 1174 },
        { "address": "下郷", "city": "甘楽郡下仁田町", "postcode": "3702616", "prefecture": "群馬県", "id": 1175 },
        { "address": "下仁田", "city": "甘楽郡下仁田町", "postcode": "3702601", "prefecture": "群馬県", "id": 1176 },
        { "address": "中小坂", "city": "甘楽郡下仁田町", "postcode": "3702622", "prefecture": "群馬県", "id": 1177 },
        { "address": "西野牧", "city": "甘楽郡下仁田町", "postcode": "3702627", "prefecture": "群馬県", "id": 1178 },
        { "address": "白山", "city": "甘楽郡下仁田町", "postcode": "3702602", "prefecture": "群馬県", "id": 1179 },
        { "address": "東野牧", "city": "甘楽郡下仁田町", "postcode": "3702624", "prefecture": "群馬県", "id": 1180 },
        { "address": "平原", "city": "甘楽郡下仁田町", "postcode": "3702612", "prefecture": "群馬県", "id": 1181 },
        { "address": "馬山", "city": "甘楽郡下仁田町", "postcode": "3702603", "prefecture": "群馬県", "id": 1182 },
        { "address": "南野牧", "city": "甘楽郡下仁田町", "postcode": "3702626", "prefecture": "群馬県", "id": 1183 },
        { "address": "宮室", "city": "甘楽郡下仁田町", "postcode": "3702615", "prefecture": "群馬県", "id": 1184 },
        { "address": "本宿", "city": "甘楽郡下仁田町", "postcode": "3702625", "prefecture": "群馬県", "id": 1185 },
        { "address": "吉崎", "city": "甘楽郡下仁田町", "postcode": "3702604", "prefecture": "群馬県", "id": 1186 },
        { "city": "甘楽郡南牧村", "postcode": "3702800", "prefecture": "群馬県", "id": 1187 },
        { "address": "磐戸", "city": "甘楽郡南牧村", "postcode": "3702804", "prefecture": "群馬県", "id": 1188 },
        { "address": "大塩沢", "city": "甘楽郡南牧村", "postcode": "3702801", "prefecture": "群馬県", "id": 1189 },
        { "address": "大仁田", "city": "甘楽郡南牧村", "postcode": "3702812", "prefecture": "群馬県", "id": 1190 },
        { "address": "大日向", "city": "甘楽郡南牧村", "postcode": "3702806", "prefecture": "群馬県", "id": 1191 },
        { "address": "小沢", "city": "甘楽郡南牧村", "postcode": "3702802", "prefecture": "群馬県", "id": 1192 },
        { "address": "熊倉", "city": "甘楽郡南牧村", "postcode": "3702815", "prefecture": "群馬県", "id": 1193 },
        { "address": "千原", "city": "甘楽郡南牧村", "postcode": "3702803", "prefecture": "群馬県", "id": 1194 },
        { "address": "砥沢", "city": "甘楽郡南牧村", "postcode": "3702813", "prefecture": "群馬県", "id": 1195 },
        { "address": "羽沢", "city": "甘楽郡南牧村", "postcode": "3702814", "prefecture": "群馬県", "id": 1196 },
        { "address": "檜沢", "city": "甘楽郡南牧村", "postcode": "3702805", "prefecture": "群馬県", "id": 1197 },
        { "address": "星尾", "city": "甘楽郡南牧村", "postcode": "3702816", "prefecture": "群馬県", "id": 1198 },
        { "address": "六車", "city": "甘楽郡南牧村", "postcode": "3702811", "prefecture": "群馬県", "id": 1199 },
        { "city": "甘楽郡甘楽町", "postcode": "3702200", "prefecture": "群馬県", "id": 1200 },
        { "address": "秋畑", "city": "甘楽郡甘楽町", "postcode": "3702204", "prefecture": "群馬県", "id": 1201 },
        { "address": "天引", "city": "甘楽郡甘楽町", "postcode": "3702217", "prefecture": "群馬県", "id": 1202 },
        { "address": "上野", "city": "甘楽郡甘楽町", "postcode": "3702201", "prefecture": "群馬県", "id": 1203 },
        { "address": "小川", "city": "甘楽郡甘楽町", "postcode": "3702211", "prefecture": "群馬県", "id": 1204 },
        { "address": "小幡", "city": "甘楽郡甘楽町", "postcode": "3702202", "prefecture": "群馬県", "id": 1205 },
        { "address": "金井", "city": "甘楽郡甘楽町", "postcode": "3702216", "prefecture": "群馬県", "id": 1206 },
        { "address": "国峰", "city": "甘楽郡甘楽町", "postcode": "3702205", "prefecture": "群馬県", "id": 1207 },
        { "address": "白倉", "city": "甘楽郡甘楽町", "postcode": "3702213", "prefecture": "群馬県", "id": 1208 },
        { "address": "善慶寺", "city": "甘楽郡甘楽町", "postcode": "3702206", "prefecture": "群馬県", "id": 1209 },
        { "address": "造石", "city": "甘楽郡甘楽町", "postcode": "3702215", "prefecture": "群馬県", "id": 1210 },
        { "address": "轟", "city": "甘楽郡甘楽町", "postcode": "3702203", "prefecture": "群馬県", "id": 1211 },
        { "address": "庭谷", "city": "甘楽郡甘楽町", "postcode": "3702214", "prefecture": "群馬県", "id": 1212 },
        { "address": "福島", "city": "甘楽郡甘楽町", "postcode": "3702212", "prefecture": "群馬県", "id": 1213 },
        { "city": "吾妻郡中之条町", "postcode": "3770400", "prefecture": "群馬県", "id": 1214 },
        { "address": "青山", "city": "吾妻郡中之条町", "postcode": "3770422", "prefecture": "群馬県", "id": 1215 },
        { "address": "赤岩", "city": "吾妻郡中之条町", "postcode": "3771311", "prefecture": "群馬県", "id": 1216 },
        { "address": "赤坂", "city": "吾妻郡中之条町", "postcode": "3770417", "prefecture": "群馬県", "id": 1217 },
        { "address": "蟻川", "city": "吾妻郡中之条町", "postcode": "3770416", "prefecture": "群馬県", "id": 1218 },
        { "address": "伊勢町", "city": "吾妻郡中之条町", "postcode": "3770423", "prefecture": "群馬県", "id": 1219 },
        { "address": "市城", "city": "吾妻郡中之条町", "postcode": "3770421", "prefecture": "群馬県", "id": 1220 },
        { "address": "入山", "city": "吾妻郡中之条町", "postcode": "3771701", "prefecture": "群馬県", "id": 1221 },
        { "address": "岩本", "city": "吾妻郡中之条町", "postcode": "3770431", "prefecture": "群馬県", "id": 1222 },
        { "address": "太子", "city": "吾妻郡中之条町", "postcode": "3771703", "prefecture": "群馬県", "id": 1223 },
        { "address": "大塚", "city": "吾妻郡中之条町", "postcode": "3770413", "prefecture": "群馬県", "id": 1224 },
        { "address": "折田", "city": "吾妻郡中之条町", "postcode": "3770544", "prefecture": "群馬県", "id": 1225 },
        { "address": "折田", "city": "吾妻郡中之条町", "postcode": "3770433", "prefecture": "群馬県", "id": 1226 },
        { "address": "上沢渡", "city": "吾妻郡中之条町", "postcode": "3770541", "prefecture": "群馬県", "id": 1227 },
        { "address": "小雨", "city": "吾妻郡中之条町", "postcode": "3771704", "prefecture": "群馬県", "id": 1228 },
        { "address": "五反田", "city": "吾妻郡中之条町", "postcode": "3770432", "prefecture": "群馬県", "id": 1229 },
        { "address": "四万", "city": "吾妻郡中之条町", "postcode": "3770601", "prefecture": "群馬県", "id": 1230 },
        { "address": "下沢渡", "city": "吾妻郡中之条町", "postcode": "3770542", "prefecture": "群馬県", "id": 1231 },
        { "address": "大道", "city": "吾妻郡中之条町", "postcode": "3770411", "prefecture": "群馬県", "id": 1232 },
        { "address": "平", "city": "吾妻郡中之条町", "postcode": "3770414", "prefecture": "群馬県", "id": 1233 },
        { "address": "栃窪", "city": "吾妻郡中之条町", "postcode": "3770412", "prefecture": "群馬県", "id": 1234 },
        { "address": "中之条町", "city": "吾妻郡中之条町", "postcode": "3770424", "prefecture": "群馬県", "id": 1235 },
        { "address": "生須", "city": "吾妻郡中之条町", "postcode": "3771702", "prefecture": "群馬県", "id": 1236 },
        { "address": "西中之条", "city": "吾妻郡中之条町", "postcode": "3770425", "prefecture": "群馬県", "id": 1237 },
        { "address": "日影", "city": "吾妻郡中之条町", "postcode": "3771312", "prefecture": "群馬県", "id": 1238 },
        { "address": "山田", "city": "吾妻郡中之条町", "postcode": "3770543", "prefecture": "群馬県", "id": 1239 },
        { "address": "山田", "city": "吾妻郡中之条町", "postcode": "3770434", "prefecture": "群馬県", "id": 1240 },
        { "address": "横尾", "city": "吾妻郡中之条町", "postcode": "3770415", "prefecture": "群馬県", "id": 1241 },
        { "city": "吾妻郡長野原町", "postcode": "3771300", "prefecture": "群馬県", "id": 1242 },
        { "address": "応桑", "city": "吾妻郡長野原町", "postcode": "3771310", "prefecture": "群馬県", "id": 1243 },
        { "address": "応桑", "city": "吾妻郡長野原町", "postcode": "3771411", "prefecture": "群馬県", "id": 1244 },
        { "address": "大津", "city": "吾妻郡長野原町", "postcode": "3771308", "prefecture": "群馬県", "id": 1245 },
        { "address": "川原畑", "city": "吾妻郡長野原町", "postcode": "3771301", "prefecture": "群馬県", "id": 1246 },
        { "address": "川原湯", "city": "吾妻郡長野原町", "postcode": "3771302", "prefecture": "群馬県", "id": 1247 },
        { "address": "北軽井沢", "city": "吾妻郡長野原町", "postcode": "3771412", "prefecture": "群馬県", "id": 1248 },
        { "address": "長野原", "city": "吾妻郡長野原町", "postcode": "3771304", "prefecture": "群馬県", "id": 1249 },
        { "address": "羽根尾", "city": "吾妻郡長野原町", "postcode": "3771307", "prefecture": "群馬県", "id": 1250 },
        { "address": "林", "city": "吾妻郡長野原町", "postcode": "3771309", "prefecture": "群馬県", "id": 1251 },
        { "address": "古森", "city": "吾妻郡長野原町", "postcode": "3771306", "prefecture": "群馬県", "id": 1252 },
        { "address": "与喜屋", "city": "吾妻郡長野原町", "postcode": "3771305", "prefecture": "群馬県", "id": 1253 },
        { "address": "横壁", "city": "吾妻郡長野原町", "postcode": "3771303", "prefecture": "群馬県", "id": 1254 },
        { "city": "吾妻郡嬬恋村", "postcode": "3771500", "prefecture": "群馬県", "id": 1255 },
        { "address": "芦生田", "city": "吾妻郡嬬恋村", "postcode": "3771523", "prefecture": "群馬県", "id": 1256 },
        { "address": "今井", "city": "吾妻郡嬬恋村", "postcode": "3771521", "prefecture": "群馬県", "id": 1257 },
        { "address": "大笹", "city": "吾妻郡嬬恋村", "postcode": "3771613", "prefecture": "群馬県", "id": 1258 },
        { "address": "大前", "city": "吾妻郡嬬恋村", "postcode": "3771512", "prefecture": "群馬県", "id": 1259 },
        { "address": "大前", "city": "吾妻郡嬬恋村", "postcode": "3771612", "prefecture": "群馬県", "id": 1260 },
        { "address": "門貝", "city": "吾妻郡嬬恋村", "postcode": "3771527", "prefecture": "群馬県", "id": 1261 },
        { "address": "鎌原", "city": "吾妻郡嬬恋村", "postcode": "3771403", "prefecture": "群馬県", "id": 1262 },
        { "address": "鎌原", "city": "吾妻郡嬬恋村", "postcode": "3771404", "prefecture": "群馬県", "id": 1263 },
        { "address": "鎌原", "city": "吾妻郡嬬恋村", "postcode": "3771401", "prefecture": "群馬県", "id": 1264 },
        { "address": "鎌原", "city": "吾妻郡嬬恋村", "postcode": "3771402", "prefecture": "群馬県", "id": 1265 },
        { "address": "鎌原", "city": "吾妻郡嬬恋村", "postcode": "3771616", "prefecture": "群馬県", "id": 1266 },
        { "address": "鎌原", "city": "吾妻郡嬬恋村", "postcode": "3771617", "prefecture": "群馬県", "id": 1267 },
        { "address": "鎌原", "city": "吾妻郡嬬恋村", "postcode": "3840097", "prefecture": "群馬県", "id": 1268 },
        { "address": "鎌原", "city": "吾妻郡嬬恋村", "postcode": "3771615", "prefecture": "群馬県", "id": 1269 },
        { "address": "鎌原", "city": "吾妻郡嬬恋村", "postcode": "3771405", "prefecture": "群馬県", "id": 1270 },
        { "address": "鎌原", "city": "吾妻郡嬬恋村", "postcode": "3771524", "prefecture": "群馬県", "id": 1271 },
        { "address": "西窪", "city": "吾妻郡嬬恋村", "postcode": "3771525", "prefecture": "群馬県", "id": 1272 },
        { "address": "田代", "city": "吾妻郡嬬恋村", "postcode": "3771614", "prefecture": "群馬県", "id": 1273 },
        { "address": "袋倉", "city": "吾妻郡嬬恋村", "postcode": "3771522", "prefecture": "群馬県", "id": 1274 },
        { "address": "干俣", "city": "吾妻郡嬬恋村", "postcode": "3771528", "prefecture": "群馬県", "id": 1275 },
        { "address": "干俣", "city": "吾妻郡嬬恋村", "postcode": "3771611", "prefecture": "群馬県", "id": 1276 },
        { "address": "三原", "city": "吾妻郡嬬恋村", "postcode": "3771526", "prefecture": "群馬県", "id": 1277 },
        { "city": "吾妻郡草津町", "postcode": "3771700", "prefecture": "群馬県", "id": 1278 },
        { "address": "草津", "city": "吾妻郡草津町", "postcode": "3771711", "prefecture": "群馬県", "id": 1279 },
        { "address": "前口", "city": "吾妻郡草津町", "postcode": "3771712", "prefecture": "群馬県", "id": 1280 },
        { "city": "吾妻郡高山村", "postcode": "3770700", "prefecture": "群馬県", "id": 1281 },
        { "address": "尻高", "city": "吾妻郡高山村", "postcode": "3770701", "prefecture": "群馬県", "id": 1282 },
        { "address": "中山", "city": "吾妻郡高山村", "postcode": "3770702", "prefecture": "群馬県", "id": 1283 },
        { "city": "吾妻郡東吾妻町", "postcode": "3770800", "prefecture": "群馬県", "id": 1284 },
        { "address": "厚田", "city": "吾妻郡東吾妻町", "postcode": "3770812", "prefecture": "群馬県", "id": 1285 },
        { "address": "新巻", "city": "吾妻郡東吾妻町", "postcode": "3770303", "prefecture": "群馬県", "id": 1286 },
        { "address": "泉沢", "city": "吾妻郡東吾妻町", "postcode": "3703321", "prefecture": "群馬県", "id": 1287 },
        { "address": "泉沢", "city": "吾妻郡東吾妻町", "postcode": "3770807", "prefecture": "群馬県", "id": 1288 },
        { "address": "岩井", "city": "吾妻郡東吾妻町", "postcode": "3770804", "prefecture": "群馬県", "id": 1289 },
        { "address": "岩下", "city": "吾妻郡東吾妻町", "postcode": "3770815", "prefecture": "群馬県", "id": 1290 },
        { "address": "植栗", "city": "吾妻郡東吾妻町", "postcode": "3770805", "prefecture": "群馬県", "id": 1291 },
        { "address": "大柏木", "city": "吾妻郡東吾妻町", "postcode": "3770935", "prefecture": "群馬県", "id": 1292 },
        { "address": "大戸", "city": "吾妻郡東吾妻町", "postcode": "3770931", "prefecture": "群馬県", "id": 1293 },
        { "address": "岡崎", "city": "吾妻郡東吾妻町", "postcode": "3703311", "prefecture": "群馬県", "id": 1294 },
        { "address": "岡崎", "city": "吾妻郡東吾妻町", "postcode": "3770302", "prefecture": "群馬県", "id": 1295 },
        { "address": "奥田", "city": "吾妻郡東吾妻町", "postcode": "3770304", "prefecture": "群馬県", "id": 1296 },
        { "address": "金井", "city": "吾妻郡東吾妻町", "postcode": "3770803", "prefecture": "群馬県", "id": 1297 },
        { "address": "川戸", "city": "吾妻郡東吾妻町", "postcode": "3703322", "prefecture": "群馬県", "id": 1298 },
        { "address": "川戸", "city": "吾妻郡東吾妻町", "postcode": "3770802", "prefecture": "群馬県", "id": 1299 },
        { "address": "小泉", "city": "吾妻郡東吾妻町", "postcode": "3770806", "prefecture": "群馬県", "id": 1300 },
        { "address": "郷原", "city": "吾妻郡東吾妻町", "postcode": "3770811", "prefecture": "群馬県", "id": 1301 },
        { "address": "五町田", "city": "吾妻郡東吾妻町", "postcode": "3770305", "prefecture": "群馬県", "id": 1302 },
        { "address": "須賀尾", "city": "吾妻郡東吾妻町", "postcode": "3770934", "prefecture": "群馬県", "id": 1303 },
        { "address": "萩生", "city": "吾妻郡東吾妻町", "postcode": "3770932", "prefecture": "群馬県", "id": 1304 },
        { "address": "箱島", "city": "吾妻郡東吾妻町", "postcode": "3770301", "prefecture": "群馬県", "id": 1305 },
        { "address": "原町", "city": "吾妻郡東吾妻町", "postcode": "3770801", "prefecture": "群馬県", "id": 1306 },
        { "address": "松谷", "city": "吾妻郡東吾妻町", "postcode": "3770814", "prefecture": "群馬県", "id": 1307 },
        { "address": "三島", "city": "吾妻郡東吾妻町", "postcode": "3770813", "prefecture": "群馬県", "id": 1308 },
        { "address": "本宿", "city": "吾妻郡東吾妻町", "postcode": "3770933", "prefecture": "群馬県", "id": 1309 },
        { "address": "矢倉", "city": "吾妻郡東吾妻町", "postcode": "3770816", "prefecture": "群馬県", "id": 1310 },
        { "city": "利根郡片品村", "postcode": "3780400", "prefecture": "群馬県", "id": 1311 },
        { "address": "鎌田", "city": "利根郡片品村", "postcode": "3780415", "prefecture": "群馬県", "id": 1312 },
        { "address": "越本", "city": "利根郡片品村", "postcode": "3780413", "prefecture": "群馬県", "id": 1313 },
        { "address": "下平", "city": "利根郡片品村", "postcode": "3780405", "prefecture": "群馬県", "id": 1314 },
        { "address": "須賀川", "city": "利根郡片品村", "postcode": "3780401", "prefecture": "群馬県", "id": 1315 },
        { "address": "菅沼", "city": "利根郡片品村", "postcode": "3780403", "prefecture": "群馬県", "id": 1316 },
        { "address": "摺淵", "city": "利根郡片品村", "postcode": "3780406", "prefecture": "群馬県", "id": 1317 },
        { "address": "築地", "city": "利根郡片品村", "postcode": "3780404", "prefecture": "群馬県", "id": 1318 },
        { "address": "土出", "city": "利根郡片品村", "postcode": "3780412", "prefecture": "群馬県", "id": 1319 },
        { "address": "戸倉", "city": "利根郡片品村", "postcode": "3780411", "prefecture": "群馬県", "id": 1320 },
        { "address": "幡谷", "city": "利根郡片品村", "postcode": "3780407", "prefecture": "群馬県", "id": 1321 },
        { "address": "花咲", "city": "利根郡片品村", "postcode": "3780408", "prefecture": "群馬県", "id": 1322 },
        { "address": "針山", "city": "利根郡片品村", "postcode": "3780409", "prefecture": "群馬県", "id": 1323 },
        { "address": "東小川", "city": "利根郡片品村", "postcode": "3780414", "prefecture": "群馬県", "id": 1324 },
        { "address": "御座入", "city": "利根郡片品村", "postcode": "3780402", "prefecture": "群馬県", "id": 1325 },
        { "city": "利根郡川場村", "postcode": "3780100", "prefecture": "群馬県", "id": 1326 },
        { "address": "太田川", "city": "利根郡川場村", "postcode": "3780104", "prefecture": "群馬県", "id": 1327 },
        { "address": "川場湯原", "city": "利根郡川場村", "postcode": "3780102", "prefecture": "群馬県", "id": 1328 },
        { "address": "小田川", "city": "利根郡川場村", "postcode": "3780105", "prefecture": "群馬県", "id": 1329 },
        { "address": "立岩", "city": "利根郡川場村", "postcode": "3780112", "prefecture": "群馬県", "id": 1330 },
        { "address": "天神", "city": "利根郡川場村", "postcode": "3780114", "prefecture": "群馬県", "id": 1331 },
        { "address": "中野", "city": "利根郡川場村", "postcode": "3780103", "prefecture": "群馬県", "id": 1332 },
        { "address": "生品", "city": "利根郡川場村", "postcode": "3780113", "prefecture": "群馬県", "id": 1333 },
        { "address": "萩室", "city": "利根郡川場村", "postcode": "3780111", "prefecture": "群馬県", "id": 1334 },
        { "address": "門前", "city": "利根郡川場村", "postcode": "3780115", "prefecture": "群馬県", "id": 1335 },
        { "address": "谷地", "city": "利根郡川場村", "postcode": "3780101", "prefecture": "群馬県", "id": 1336 },
        { "city": "利根郡昭和村", "postcode": "3791200", "prefecture": "群馬県", "id": 1337 },
        { "address": "赤城原", "city": "利根郡昭和村", "postcode": "3791207", "prefecture": "群馬県", "id": 1338 },
        { "address": "糸井", "city": "利根郡昭和村", "postcode": "3791203", "prefecture": "群馬県", "id": 1339 },
        { "address": "生越", "city": "利根郡昭和村", "postcode": "3791201", "prefecture": "群馬県", "id": 1340 },
        { "address": "貝野瀬", "city": "利根郡昭和村", "postcode": "3791202", "prefecture": "群馬県", "id": 1341 },
        { "address": "川額", "city": "利根郡昭和村", "postcode": "3791205", "prefecture": "群馬県", "id": 1342 },
        { "address": "橡久保", "city": "利根郡昭和村", "postcode": "3791206", "prefecture": "群馬県", "id": 1343 },
        { "address": "森下", "city": "利根郡昭和村", "postcode": "3791204", "prefecture": "群馬県", "id": 1344 },
        { "city": "利根郡みなかみ町", "postcode": "3791300", "prefecture": "群馬県", "id": 1345 },
        { "address": "相俣", "city": "利根郡みなかみ町", "postcode": "3791404", "prefecture": "群馬県", "id": 1346 },
        { "address": "阿能川", "city": "利根郡みなかみ町", "postcode": "3791618", "prefecture": "群馬県", "id": 1347 },
        { "address": "新巻", "city": "利根郡みなかみ町", "postcode": "3791411", "prefecture": "群馬県", "id": 1348 },
        { "address": "粟沢", "city": "利根郡みなかみ町", "postcode": "3791723", "prefecture": "群馬県", "id": 1349 },
        { "address": "石倉", "city": "利根郡みなかみ町", "postcode": "3791311", "prefecture": "群馬県", "id": 1350 },
        { "address": "入須川", "city": "利根郡みなかみ町", "postcode": "3791416", "prefecture": "群馬県", "id": 1351 },
        { "address": "大穴", "city": "利根郡みなかみ町", "postcode": "3791727", "prefecture": "群馬県", "id": 1352 },
        { "address": "大沼", "city": "利根郡みなかみ町", "postcode": "3791302", "prefecture": "群馬県", "id": 1353 },
        { "address": "小川", "city": "利根郡みなかみ町", "postcode": "3791312", "prefecture": "群馬県", "id": 1354 },
        { "address": "小日向", "city": "利根郡みなかみ町", "postcode": "3791612", "prefecture": "群馬県", "id": 1355 },
        { "address": "鹿野沢", "city": "利根郡みなかみ町", "postcode": "3791611", "prefecture": "群馬県", "id": 1356 },
        { "address": "上津", "city": "利根郡みなかみ町", "postcode": "3791315", "prefecture": "群馬県", "id": 1357 },
        { "address": "上牧", "city": "利根郡みなかみ町", "postcode": "3791303", "prefecture": "群馬県", "id": 1358 },
        { "address": "川上", "city": "利根郡みなかみ町", "postcode": "3791616", "prefecture": "群馬県", "id": 1359 },
        { "address": "幸知", "city": "利根郡みなかみ町", "postcode": "3791726", "prefecture": "群馬県", "id": 1360 },
        { "address": "後閑", "city": "利根郡みなかみ町", "postcode": "3791305", "prefecture": "群馬県", "id": 1361 },
        { "address": "小仁田", "city": "利根郡みなかみ町", "postcode": "3791615", "prefecture": "群馬県", "id": 1362 },
        {
            "address": "猿ヶ京温泉",
            "city": "利根郡みなかみ町",
            "postcode": "3791403",
            "prefecture": "群馬県",
            "id": 1363
        },
        { "address": "下津", "city": "利根郡みなかみ町", "postcode": "3791314", "prefecture": "群馬県", "id": 1364 },
        { "address": "下牧", "city": "利根郡みなかみ町", "postcode": "3791304", "prefecture": "群馬県", "id": 1365 },
        { "address": "須川", "city": "利根郡みなかみ町", "postcode": "3791418", "prefecture": "群馬県", "id": 1366 },
        { "address": "高日向", "city": "利根郡みなかみ町", "postcode": "3791613", "prefecture": "群馬県", "id": 1367 },
        { "address": "谷川", "city": "利根郡みなかみ町", "postcode": "3791619", "prefecture": "群馬県", "id": 1368 },
        { "address": "月夜野", "city": "利根郡みなかみ町", "postcode": "3791313", "prefecture": "群馬県", "id": 1369 },
        { "address": "綱子", "city": "利根郡みなかみ町", "postcode": "3791725", "prefecture": "群馬県", "id": 1370 },
        { "address": "寺間", "city": "利根郡みなかみ町", "postcode": "3791614", "prefecture": "群馬県", "id": 1371 },
        { "address": "永井", "city": "利根郡みなかみ町", "postcode": "3791401", "prefecture": "群馬県", "id": 1372 },
        { "address": "奈女沢", "city": "利根郡みなかみ町", "postcode": "3791301", "prefecture": "群馬県", "id": 1373 },
        {
            "address": "西峰須川",
            "city": "利根郡みなかみ町",
            "postcode": "3791415",
            "prefecture": "群馬県",
            "id": 1374
        },
        { "address": "羽場", "city": "利根郡みなかみ町", "postcode": "3791412", "prefecture": "群馬県", "id": 1375 },
        { "address": "東峰", "city": "利根郡みなかみ町", "postcode": "3791417", "prefecture": "群馬県", "id": 1376 },
        { "address": "吹路", "city": "利根郡みなかみ町", "postcode": "3791402", "prefecture": "群馬県", "id": 1377 },
        { "address": "藤原", "city": "利根郡みなかみ町", "postcode": "3791721", "prefecture": "群馬県", "id": 1378 },
        { "address": "布施", "city": "利根郡みなかみ町", "postcode": "3791414", "prefecture": "群馬県", "id": 1379 },
        { "address": "真庭", "city": "利根郡みなかみ町", "postcode": "3791308", "prefecture": "群馬県", "id": 1380 },
        { "address": "政所", "city": "利根郡みなかみ町", "postcode": "3791307", "prefecture": "群馬県", "id": 1381 },
        { "address": "向山", "city": "利根郡みなかみ町", "postcode": "3791724", "prefecture": "群馬県", "id": 1382 },
        { "address": "師", "city": "利根郡みなかみ町", "postcode": "3791306", "prefecture": "群馬県", "id": 1383 },
        { "address": "師田", "city": "利根郡みなかみ町", "postcode": "3791413", "prefecture": "群馬県", "id": 1384 },
        {
            "address": "湯宿温泉",
            "city": "利根郡みなかみ町",
            "postcode": "3791409",
            "prefecture": "群馬県",
            "id": 1385
        },
        { "address": "湯原", "city": "利根郡みなかみ町", "postcode": "3791617", "prefecture": "群馬県", "id": 1386 },
        { "address": "湯桧曽", "city": "利根郡みなかみ町", "postcode": "3791728", "prefecture": "群馬県", "id": 1387 },
        { "address": "夜後", "city": "利根郡みなかみ町", "postcode": "3791722", "prefecture": "群馬県", "id": 1388 },
        { "address": "吉本", "city": "利根郡みなかみ町", "postcode": "3791601", "prefecture": "群馬県", "id": 1389 },
        { "city": "佐波郡玉村町", "postcode": "3701100", "prefecture": "群馬県", "id": 1390 },
        { "address": "飯倉", "city": "佐波郡玉村町", "postcode": "3701116", "prefecture": "群馬県", "id": 1391 },
        { "address": "飯塚", "city": "佐波郡玉村町", "postcode": "3701102", "prefecture": "群馬県", "id": 1392 },
        { "address": "板井", "city": "佐波郡玉村町", "postcode": "3701135", "prefecture": "群馬県", "id": 1393 },
        { "address": "宇貫", "city": "佐波郡玉村町", "postcode": "3701126", "prefecture": "群馬県", "id": 1394 },
        { "address": "上飯島", "city": "佐波郡玉村町", "postcode": "3701121", "prefecture": "群馬県", "id": 1395 },
        { "address": "上新田", "city": "佐波郡玉村町", "postcode": "3701133", "prefecture": "群馬県", "id": 1396 },
        { "address": "上之手", "city": "佐波郡玉村町", "postcode": "3701127", "prefecture": "群馬県", "id": 1397 },
        { "address": "上福島", "city": "佐波郡玉村町", "postcode": "3701104", "prefecture": "群馬県", "id": 1398 },
        { "address": "上茂木", "city": "佐波郡玉村町", "postcode": "3701122", "prefecture": "群馬県", "id": 1399 },
        { "address": "川井", "city": "佐波郡玉村町", "postcode": "3701117", "prefecture": "群馬県", "id": 1400 },
        { "address": "小泉", "city": "佐波郡玉村町", "postcode": "3701114", "prefecture": "群馬県", "id": 1401 },
        { "address": "後箇", "city": "佐波郡玉村町", "postcode": "3701128", "prefecture": "群馬県", "id": 1402 },
        { "address": "五料", "city": "佐波郡玉村町", "postcode": "3701115", "prefecture": "群馬県", "id": 1403 },
        { "address": "斎田", "city": "佐波郡玉村町", "postcode": "3701131", "prefecture": "群馬県", "id": 1404 },
        { "address": "下新田", "city": "佐波郡玉村町", "postcode": "3701132", "prefecture": "群馬県", "id": 1405 },
        { "address": "下之宮", "city": "佐波郡玉村町", "postcode": "3701112", "prefecture": "群馬県", "id": 1406 },
        { "address": "下茂木", "city": "佐波郡玉村町", "postcode": "3701123", "prefecture": "群馬県", "id": 1407 },
        { "address": "角渕", "city": "佐波郡玉村町", "postcode": "3701124", "prefecture": "群馬県", "id": 1408 },
        { "address": "南玉", "city": "佐波郡玉村町", "postcode": "3701111", "prefecture": "群馬県", "id": 1409 },
        { "address": "箱石", "city": "佐波郡玉村町", "postcode": "3701113", "prefecture": "群馬県", "id": 1410 },
        { "address": "樋越", "city": "佐波郡玉村町", "postcode": "3701103", "prefecture": "群馬県", "id": 1411 },
        { "address": "福島", "city": "佐波郡玉村町", "postcode": "3701105", "prefecture": "群馬県", "id": 1412 },
        { "address": "藤川", "city": "佐波郡玉村町", "postcode": "3701101", "prefecture": "群馬県", "id": 1413 },
        { "address": "八幡原", "city": "佐波郡玉村町", "postcode": "3701125", "prefecture": "群馬県", "id": 1414 },
        { "address": "与六分", "city": "佐波郡玉村町", "postcode": "3701134", "prefecture": "群馬県", "id": 1415 },
        { "city": "邑楽郡板倉町", "postcode": "3740100", "prefecture": "群馬県", "id": 1416 },
        { "address": "朝日野", "city": "邑楽郡板倉町", "postcode": "3740112", "prefecture": "群馬県", "id": 1417 },
        { "address": "飯野", "city": "邑楽郡板倉町", "postcode": "3740123", "prefecture": "群馬県", "id": 1418 },
        { "address": "泉野", "city": "邑楽郡板倉町", "postcode": "3740113", "prefecture": "群馬県", "id": 1419 },
        { "address": "板倉", "city": "邑楽郡板倉町", "postcode": "3740132", "prefecture": "群馬県", "id": 1420 },
        { "address": "岩田", "city": "邑楽郡板倉町", "postcode": "3740133", "prefecture": "群馬県", "id": 1421 },
        { "address": "内蔵新田", "city": "邑楽郡板倉町", "postcode": "3740135", "prefecture": "群馬県", "id": 1422 },
        { "address": "海老瀬", "city": "邑楽郡板倉町", "postcode": "3740111", "prefecture": "群馬県", "id": 1423 },
        { "address": "大蔵", "city": "邑楽郡板倉町", "postcode": "3740131", "prefecture": "群馬県", "id": 1424 },
        { "address": "大高嶋", "city": "邑楽郡板倉町", "postcode": "3740122", "prefecture": "群馬県", "id": 1425 },
        { "address": "大荷場", "city": "邑楽郡板倉町", "postcode": "3740104", "prefecture": "群馬県", "id": 1426 },
        { "address": "大曲", "city": "邑楽郡板倉町", "postcode": "3740105", "prefecture": "群馬県", "id": 1427 },
        { "address": "下五箇", "city": "邑楽郡板倉町", "postcode": "3740121", "prefecture": "群馬県", "id": 1428 },
        { "address": "西岡", "city": "邑楽郡板倉町", "postcode": "3740107", "prefecture": "群馬県", "id": 1429 },
        { "address": "西岡新田", "city": "邑楽郡板倉町", "postcode": "3740106", "prefecture": "群馬県", "id": 1430 },
        { "address": "離", "city": "邑楽郡板倉町", "postcode": "3740102", "prefecture": "群馬県", "id": 1431 },
        { "address": "細谷", "city": "邑楽郡板倉町", "postcode": "3740103", "prefecture": "群馬県", "id": 1432 },
        { "address": "籾谷", "city": "邑楽郡板倉町", "postcode": "3740134", "prefecture": "群馬県", "id": 1433 },
        { "address": "除川", "city": "邑楽郡板倉町", "postcode": "3740101", "prefecture": "群馬県", "id": 1434 },
        { "city": "邑楽郡明和町", "postcode": "3700700", "prefecture": "群馬県", "id": 1435 },
        { "address": "入ケ谷", "city": "邑楽郡明和町", "postcode": "3700711", "prefecture": "群馬県", "id": 1436 },
        { "address": "梅原", "city": "邑楽郡明和町", "postcode": "3700714", "prefecture": "群馬県", "id": 1437 },
        { "address": "江口", "city": "邑楽郡明和町", "postcode": "3700706", "prefecture": "群馬県", "id": 1438 },
        { "address": "大佐貫", "city": "邑楽郡明和町", "postcode": "3700715", "prefecture": "群馬県", "id": 1439 },
        { "address": "大輪", "city": "邑楽郡明和町", "postcode": "3700718", "prefecture": "群馬県", "id": 1440 },
        { "address": "上江黒", "city": "邑楽郡明和町", "postcode": "3700702", "prefecture": "群馬県", "id": 1441 },
        { "address": "川俣", "city": "邑楽郡明和町", "postcode": "3700716", "prefecture": "群馬県", "id": 1442 },
        { "address": "下江黒", "city": "邑楽郡明和町", "postcode": "3700703", "prefecture": "群馬県", "id": 1443 },
        { "address": "須賀", "city": "邑楽郡明和町", "postcode": "3700717", "prefecture": "群馬県", "id": 1444 },
        { "address": "千津井", "city": "邑楽郡明和町", "postcode": "3700705", "prefecture": "群馬県", "id": 1445 },
        { "address": "田島", "city": "邑楽郡明和町", "postcode": "3700707", "prefecture": "群馬県", "id": 1446 },
        { "address": "斗合田", "city": "邑楽郡明和町", "postcode": "3700704", "prefecture": "群馬県", "id": 1447 },
        { "address": "中谷", "city": "邑楽郡明和町", "postcode": "3700713", "prefecture": "群馬県", "id": 1448 },
        { "address": "新里", "city": "邑楽郡明和町", "postcode": "3700708", "prefecture": "群馬県", "id": 1449 },
        { "address": "南大島", "city": "邑楽郡明和町", "postcode": "3700701", "prefecture": "群馬県", "id": 1450 },
        { "address": "矢島", "city": "邑楽郡明和町", "postcode": "3700712", "prefecture": "群馬県", "id": 1451 },
        { "city": "邑楽郡千代田町", "postcode": "3700500", "prefecture": "群馬県", "id": 1452 },
        { "address": "赤岩", "city": "邑楽郡千代田町", "postcode": "3700503", "prefecture": "群馬県", "id": 1453 },
        { "address": "赤岩西", "city": "邑楽郡千代田町", "postcode": "3700506", "prefecture": "群馬県", "id": 1454 },
        { "address": "上五箇", "city": "邑楽郡千代田町", "postcode": "3700726", "prefecture": "群馬県", "id": 1455 },
        { "address": "上中森", "city": "邑楽郡千代田町", "postcode": "3700725", "prefecture": "群馬県", "id": 1456 },
        { "address": "萱野", "city": "邑楽郡千代田町", "postcode": "3700722", "prefecture": "群馬県", "id": 1457 },
        { "address": "木崎", "city": "邑楽郡千代田町", "postcode": "3700721", "prefecture": "群馬県", "id": 1458 },
        { "address": "下中森", "city": "邑楽郡千代田町", "postcode": "3700724", "prefecture": "群馬県", "id": 1459 },
        { "address": "昭和", "city": "邑楽郡千代田町", "postcode": "3700723", "prefecture": "群馬県", "id": 1460 },
        { "address": "新福寺", "city": "邑楽郡千代田町", "postcode": "3700505", "prefecture": "群馬県", "id": 1461 },
        { "address": "瀬戸井", "city": "邑楽郡千代田町", "postcode": "3700727", "prefecture": "群馬県", "id": 1462 },
        { "address": "鍋谷", "city": "邑楽郡千代田町", "postcode": "3700502", "prefecture": "群馬県", "id": 1463 },
        { "address": "福島", "city": "邑楽郡千代田町", "postcode": "3700501", "prefecture": "群馬県", "id": 1464 },
        { "address": "舞木", "city": "邑楽郡千代田町", "postcode": "3700504", "prefecture": "群馬県", "id": 1465 },
        { "address": "舞木東", "city": "邑楽郡千代田町", "postcode": "3700507", "prefecture": "群馬県", "id": 1466 },
        { "address": "朝日", "city": "邑楽郡大泉町", "postcode": "3700514", "prefecture": "群馬県", "id": 1467 },
        { "address": "いずみ", "city": "邑楽郡大泉町", "postcode": "3700531", "prefecture": "群馬県", "id": 1468 },
        { "address": "丘山", "city": "邑楽郡大泉町", "postcode": "3700534", "prefecture": "群馬県", "id": 1469 },
        { "address": "上小泉", "city": "邑楽郡大泉町", "postcode": "3700512", "prefecture": "群馬県", "id": 1470 },
        { "address": "北小泉", "city": "邑楽郡大泉町", "postcode": "3700511", "prefecture": "群馬県", "id": 1471 },
        { "address": "古海", "city": "邑楽郡大泉町", "postcode": "3700524", "prefecture": "群馬県", "id": 1472 },
        { "address": "坂田", "city": "邑楽郡大泉町", "postcode": "3700532", "prefecture": "群馬県", "id": 1473 },
        { "address": "下小泉", "city": "邑楽郡大泉町", "postcode": "3700515", "prefecture": "群馬県", "id": 1474 },
        { "address": "城之内", "city": "邑楽郡大泉町", "postcode": "3700518", "prefecture": "群馬県", "id": 1475 },
        { "address": "住吉", "city": "邑楽郡大泉町", "postcode": "3700521", "prefecture": "群馬県", "id": 1476 },
        { "address": "仙石", "city": "邑楽郡大泉町", "postcode": "3700533", "prefecture": "群馬県", "id": 1477 },
        { "address": "中央", "city": "邑楽郡大泉町", "postcode": "3700516", "prefecture": "群馬県", "id": 1478 },
        { "address": "西小泉", "city": "邑楽郡大泉町", "postcode": "3700517", "prefecture": "群馬県", "id": 1479 },
        { "address": "東小泉", "city": "邑楽郡大泉町", "postcode": "3700513", "prefecture": "群馬県", "id": 1480 },
        { "address": "日の出", "city": "邑楽郡大泉町", "postcode": "3700525", "prefecture": "群馬県", "id": 1481 },
        { "address": "富士", "city": "邑楽郡大泉町", "postcode": "3700522", "prefecture": "群馬県", "id": 1482 },
        { "address": "古氷", "city": "邑楽郡大泉町", "postcode": "3700536", "prefecture": "群馬県", "id": 1483 },
        { "address": "吉田", "city": "邑楽郡大泉町", "postcode": "3700523", "prefecture": "群馬県", "id": 1484 },
        { "address": "寄木戸", "city": "邑楽郡大泉町", "postcode": "3700535", "prefecture": "群馬県", "id": 1485 },
        { "city": "邑楽郡邑楽町", "postcode": "3700600", "prefecture": "群馬県", "id": 1486 },
        { "address": "赤堀", "city": "邑楽郡邑楽町", "postcode": "3700614", "prefecture": "群馬県", "id": 1487 },
        { "address": "秋妻", "city": "邑楽郡邑楽町", "postcode": "3700606", "prefecture": "群馬県", "id": 1488 },
        { "address": "明野", "city": "邑楽郡邑楽町", "postcode": "3700602", "prefecture": "群馬県", "id": 1489 },
        { "address": "石打", "city": "邑楽郡邑楽町", "postcode": "3700604", "prefecture": "群馬県", "id": 1490 },
        { "address": "鶉", "city": "邑楽郡邑楽町", "postcode": "3700601", "prefecture": "群馬県", "id": 1491 },
        { "address": "鶉新田", "city": "邑楽郡邑楽町", "postcode": "3700611", "prefecture": "群馬県", "id": 1492 },
        { "address": "光善寺", "city": "邑楽郡邑楽町", "postcode": "3700616", "prefecture": "群馬県", "id": 1493 },
        { "address": "篠塚", "city": "邑楽郡邑楽町", "postcode": "3700615", "prefecture": "群馬県", "id": 1494 },
        { "address": "新中野", "city": "邑楽郡邑楽町", "postcode": "3700612", "prefecture": "群馬県", "id": 1495 },
        { "address": "中野", "city": "邑楽郡邑楽町", "postcode": "3700603", "prefecture": "群馬県", "id": 1496 },
        { "address": "藤川", "city": "邑楽郡邑楽町", "postcode": "3700605", "prefecture": "群馬県", "id": 1497 },
        { "address": "狸塚", "city": "邑楽郡邑楽町", "postcode": "3700613", "prefecture": "群馬県", "id": 1498 }
    ]
}
