{
    "postcodes": [
        { "city": "長崎市", "postcode": "8500000", "prefecture": "長崎県", "id": 0 },
        { "address": "相生町", "city": "長崎市", "postcode": "8500922", "prefecture": "長崎県", "id": 1 },
        { "address": "相川町", "city": "長崎市", "postcode": "8511122", "prefecture": "長崎県", "id": 2 },
        { "address": "青山町", "city": "長崎市", "postcode": "8528036", "prefecture": "長崎県", "id": 3 },
        { "address": "赤首町", "city": "長崎市", "postcode": "8512321", "prefecture": "長崎県", "id": 4 },
        { "address": "赤迫", "city": "長崎市", "postcode": "8528156", "prefecture": "長崎県", "id": 5 },
        { "address": "秋月町", "city": "長崎市", "postcode": "8500064", "prefecture": "長崎県", "id": 6 },
        { "address": "飽の浦町", "city": "長崎市", "postcode": "8500063", "prefecture": "長崎県", "id": 7 },
        { "address": "曙町", "city": "長崎市", "postcode": "8528008", "prefecture": "長崎県", "id": 8 },
        { "address": "旭町", "city": "長崎市", "postcode": "8528003", "prefecture": "長崎県", "id": 9 },
        { "address": "畝刈町", "city": "長崎市", "postcode": "8512212", "prefecture": "長崎県", "id": 10 },
        { "address": "畦別当町", "city": "長崎市", "postcode": "8528141", "prefecture": "長崎県", "id": 11 },
        { "address": "畦町", "city": "長崎市", "postcode": "8512201", "prefecture": "長崎県", "id": 12 },
        { "address": "愛宕", "city": "長崎市", "postcode": "8500822", "prefecture": "長崎県", "id": 13 },
        { "address": "網場町", "city": "長崎市", "postcode": "8510123", "prefecture": "長崎県", "id": 14 },
        { "address": "油木町", "city": "長崎市", "postcode": "8528035", "prefecture": "長崎県", "id": 15 },
        { "address": "油屋町", "city": "長崎市", "postcode": "8500832", "prefecture": "長崎県", "id": 16 },
        { "address": "家野町", "city": "長崎市", "postcode": "8528136", "prefecture": "長崎県", "id": 17 },
        { "address": "伊王島町", "city": "長崎市", "postcode": "8511201", "prefecture": "長崎県", "id": 18 },
        { "address": "飯香浦町", "city": "長崎市", "postcode": "8510254", "prefecture": "長崎県", "id": 19 },
        { "address": "以下宿町", "city": "長崎市", "postcode": "8510502", "prefecture": "長崎県", "id": 20 },
        { "address": "池島町", "city": "長崎市", "postcode": "8570071", "prefecture": "長崎県", "id": 21 },
        { "address": "石神町", "city": "長崎市", "postcode": "8528126", "prefecture": "長崎県", "id": 22 },
        { "address": "泉", "city": "長崎市", "postcode": "8528151", "prefecture": "長崎県", "id": 23 },
        { "address": "泉町", "city": "長崎市", "postcode": "8528157", "prefecture": "長崎県", "id": 24 },
        { "address": "出雲", "city": "長崎市", "postcode": "8500924", "prefecture": "長崎県", "id": 25 },
        { "address": "伊勢町", "city": "長崎市", "postcode": "8500018", "prefecture": "長崎県", "id": 26 },
        { "address": "磯道町", "city": "長崎市", "postcode": "8500971", "prefecture": "長崎県", "id": 27 },
        { "address": "稲佐町", "city": "長崎市", "postcode": "8528011", "prefecture": "長崎県", "id": 28 },
        { "address": "稲田町", "city": "長崎市", "postcode": "8500907", "prefecture": "長崎県", "id": 29 },
        { "address": "今博多町", "city": "長崎市", "postcode": "8500025", "prefecture": "長崎県", "id": 30 },
        { "address": "伊良林", "city": "長崎市", "postcode": "8500802", "prefecture": "長崎県", "id": 31 },
        { "address": "入船町", "city": "長崎市", "postcode": "8500065", "prefecture": "長崎県", "id": 32 },
        { "address": "岩川町", "city": "長崎市", "postcode": "8528106", "prefecture": "長崎県", "id": 33 },
        { "address": "岩瀬道町", "city": "長崎市", "postcode": "8500072", "prefecture": "長崎県", "id": 34 },
        { "address": "岩見町", "city": "長崎市", "postcode": "8528017", "prefecture": "長崎県", "id": 35 },
        { "address": "岩屋町", "city": "長崎市", "postcode": "8528052", "prefecture": "長崎県", "id": 36 },
        { "address": "上田町", "city": "長崎市", "postcode": "8500923", "prefecture": "長崎県", "id": 37 },
        { "address": "上野町", "city": "長崎市", "postcode": "8528113", "prefecture": "長崎県", "id": 38 },
        { "address": "魚の町", "city": "長崎市", "postcode": "8500874", "prefecture": "長崎県", "id": 39 },
        { "address": "現川町", "city": "長崎市", "postcode": "8510135", "prefecture": "長崎県", "id": 40 },
        { "address": "馬町", "city": "長崎市", "postcode": "8500022", "prefecture": "長崎県", "id": 41 },
        { "address": "梅香崎町", "city": "長崎市", "postcode": "8500909", "prefecture": "長崎県", "id": 42 },
        { "address": "上町", "city": "長崎市", "postcode": "8500054", "prefecture": "長崎県", "id": 43 },
        { "address": "江川町", "city": "長崎市", "postcode": "8500992", "prefecture": "長崎県", "id": 44 },
        { "address": "江戸町", "city": "長崎市", "postcode": "8500861", "prefecture": "長崎県", "id": 45 },
        { "address": "江の浦町", "city": "長崎市", "postcode": "8528007", "prefecture": "長崎県", "id": 46 },
        { "address": "恵美須町", "city": "長崎市", "postcode": "8500056", "prefecture": "長崎県", "id": 47 },
        { "address": "江平", "city": "長崎市", "postcode": "8528101", "prefecture": "長崎県", "id": 48 },
        { "address": "エミネント葉山町", "city": "長崎市", "postcode": "8528054", "prefecture": "長崎県", "id": 49 },
        { "address": "江里町", "city": "長崎市", "postcode": "8528032", "prefecture": "長崎県", "id": 50 },
        { "address": "扇町", "city": "長崎市", "postcode": "8528132", "prefecture": "長崎県", "id": 51 },
        { "address": "大井手町", "city": "長崎市", "postcode": "8500024", "prefecture": "長崎県", "id": 52 },
        { "address": "大浦東町", "city": "長崎市", "postcode": "8500916", "prefecture": "長崎県", "id": 53 },
        { "address": "大浦町", "city": "長崎市", "postcode": "8500918", "prefecture": "長崎県", "id": 54 },
        { "address": "大籠町", "city": "長崎市", "postcode": "8510302", "prefecture": "長崎県", "id": 55 },
        { "address": "大崎町", "city": "長崎市", "postcode": "8510244", "prefecture": "長崎県", "id": 56 },
        { "address": "大園町", "city": "長崎市", "postcode": "8528062", "prefecture": "長崎県", "id": 57 },
        { "address": "太田尾町", "city": "長崎市", "postcode": "8510255", "prefecture": "長崎県", "id": 58 },
        { "address": "大谷町", "city": "長崎市", "postcode": "8500062", "prefecture": "長崎県", "id": 59 },
        { "address": "大手", "city": "長崎市", "postcode": "8528127", "prefecture": "長崎県", "id": 60 },
        { "address": "大鳥町", "city": "長崎市", "postcode": "8528005", "prefecture": "長崎県", "id": 61 },
        { "address": "大橋町", "city": "長崎市", "postcode": "8528134", "prefecture": "長崎県", "id": 62 },
        { "address": "大浜町", "city": "長崎市", "postcode": "8500066", "prefecture": "長崎県", "id": 63 },
        { "address": "大宮町", "city": "長崎市", "postcode": "8528056", "prefecture": "長崎県", "id": 64 },
        { "address": "大山町", "city": "長崎市", "postcode": "8500964", "prefecture": "長崎県", "id": 65 },
        { "address": "岡町", "city": "長崎市", "postcode": "8528115", "prefecture": "長崎県", "id": 66 },
        { "address": "桶屋町", "city": "長崎市", "postcode": "8500027", "prefecture": "長崎県", "id": 67 },
        { "address": "音無町", "city": "長崎市", "postcode": "8528044", "prefecture": "長崎県", "id": 68 },
        { "address": "尾上町", "city": "長崎市", "postcode": "8500058", "prefecture": "長崎県", "id": 69 },
        { "address": "御船蔵町", "city": "長崎市", "postcode": "8500042", "prefecture": "長崎県", "id": 70 },
        { "address": "かき道", "city": "長崎市", "postcode": "8510115", "prefecture": "長崎県", "id": 71 },
        { "address": "柿泊町", "city": "長崎市", "postcode": "8511134", "prefecture": "長崎県", "id": 72 },
        { "address": "籠町", "city": "長崎市", "postcode": "8500905", "prefecture": "長崎県", "id": 73 },
        { "address": "風頭町", "city": "長崎市", "postcode": "8500803", "prefecture": "長崎県", "id": 74 },
        { "address": "樫山町", "city": "長崎市", "postcode": "8512202", "prefecture": "長崎県", "id": 75 },
        { "address": "鍛冶屋町", "city": "長崎市", "postcode": "8500831", "prefecture": "長崎県", "id": 76 },
        { "address": "春日町", "city": "長崎市", "postcode": "8510124", "prefecture": "長崎県", "id": 77 },
        { "address": "片淵", "city": "長崎市", "postcode": "8500003", "prefecture": "長崎県", "id": 78 },
        { "address": "勝山町", "city": "長崎市", "postcode": "8500028", "prefecture": "長崎県", "id": 79 },
        { "address": "金堀町", "city": "長崎市", "postcode": "8528026", "prefecture": "長崎県", "id": 80 },
        { "address": "金屋町", "city": "長崎市", "postcode": "8500037", "prefecture": "長崎県", "id": 81 },
        { "address": "鹿尾町", "city": "長崎市", "postcode": "8500973", "prefecture": "長崎県", "id": 82 },
        { "address": "樺島町", "city": "長崎市", "postcode": "8500034", "prefecture": "長崎県", "id": 83 },
        { "address": "上浦町", "city": "長崎市", "postcode": "8511131", "prefecture": "長崎県", "id": 84 },
        { "address": "上大野町", "city": "長崎市", "postcode": "8512426", "prefecture": "長崎県", "id": 85 },
        { "address": "上黒崎町", "city": "長崎市", "postcode": "8512324", "prefecture": "長崎県", "id": 86 },
        { "address": "上小島", "city": "長崎市", "postcode": "8500834", "prefecture": "長崎県", "id": 87 },
        { "address": "上銭座町", "city": "長崎市", "postcode": "8500048", "prefecture": "長崎県", "id": 88 },
        { "address": "上戸石町", "city": "長崎市", "postcode": "8510111", "prefecture": "長崎県", "id": 89 },
        { "address": "上戸町", "city": "長崎市", "postcode": "8500953", "prefecture": "長崎県", "id": 90 },
        { "address": "上西山町", "city": "長崎市", "postcode": "8500006", "prefecture": "長崎県", "id": 91 },
        { "address": "神ノ島町", "city": "長崎市", "postcode": "8500078", "prefecture": "長崎県", "id": 92 },
        { "address": "蚊焼町", "city": "長崎市", "postcode": "8510401", "prefecture": "長崎県", "id": 93 },
        { "address": "川内町", "city": "長崎市", "postcode": "8510112", "prefecture": "長崎県", "id": 94 },
        { "address": "川上町", "city": "長崎市", "postcode": "8500946", "prefecture": "長崎県", "id": 95 },
        { "address": "川口町", "city": "長崎市", "postcode": "8528108", "prefecture": "長崎県", "id": 96 },
        { "address": "川平町", "city": "長崎市", "postcode": "8528143", "prefecture": "長崎県", "id": 97 },
        { "address": "川原町", "city": "長崎市", "postcode": "8510407", "prefecture": "長崎県", "id": 98 },
        { "address": "館内町", "city": "長崎市", "postcode": "8500906", "prefecture": "長崎県", "id": 99 },
        { "address": "北浦町", "city": "長崎市", "postcode": "8510242", "prefecture": "長崎県", "id": 100 },
        { "address": "木鉢町", "city": "長崎市", "postcode": "8500076", "prefecture": "長崎県", "id": 101 },
        { "address": "京太郎町", "city": "長崎市", "postcode": "8500974", "prefecture": "長崎県", "id": 102 },
        { "address": "京泊", "city": "長崎市", "postcode": "8512211", "prefecture": "長崎県", "id": 103 },
        { "address": "琴海大平町", "city": "長崎市", "postcode": "8513214", "prefecture": "長崎県", "id": 104 },
        { "address": "琴海尾戸町", "city": "長崎市", "postcode": "8513215", "prefecture": "長崎県", "id": 105 },
        { "address": "琴海形上町", "city": "長崎市", "postcode": "8513213", "prefecture": "長崎県", "id": 106 },
        { "address": "琴海戸根原町", "city": "長崎市", "postcode": "8513211", "prefecture": "長崎県", "id": 107 },
        { "address": "琴海戸根町", "city": "長崎市", "postcode": "8513103", "prefecture": "長崎県", "id": 108 },
        { "address": "琴海村松町", "city": "長崎市", "postcode": "8513102", "prefecture": "長崎県", "id": 109 },
        { "address": "銀屋町", "city": "長崎市", "postcode": "8500854", "prefecture": "長崎県", "id": 110 },
        { "address": "草住町", "city": "長崎市", "postcode": "8500981", "prefecture": "長崎県", "id": 111 },
        { "address": "黒浜町", "city": "長崎市", "postcode": "8510501", "prefecture": "長崎県", "id": 112 },
        { "address": "毛井首町", "city": "長崎市", "postcode": "8500976", "prefecture": "長崎県", "id": 113 },
        { "address": "けやき台町", "city": "長崎市", "postcode": "8528146", "prefecture": "長崎県", "id": 114 },
        { "address": "麹屋町", "city": "長崎市", "postcode": "8500871", "prefecture": "長崎県", "id": 115 },
        { "address": "興善町", "city": "長崎市", "postcode": "8500032", "prefecture": "長崎県", "id": 116 },
        { "address": "神浦江川町", "city": "長崎市", "postcode": "8512403", "prefecture": "長崎県", "id": 117 },
        { "address": "神浦扇山町", "city": "長崎市", "postcode": "8512411", "prefecture": "長崎県", "id": 118 },
        { "address": "神浦上大中尾町", "city": "長崎市", "postcode": "8512422", "prefecture": "長崎県", "id": 119 },
        { "address": "神浦上道徳町", "city": "長崎市", "postcode": "8512424", "prefecture": "長崎県", "id": 120 },
        { "address": "神浦北大中尾町", "city": "長崎市", "postcode": "8512421", "prefecture": "長崎県", "id": 121 },
        { "address": "神浦口福町", "city": "長崎市", "postcode": "8512401", "prefecture": "長崎県", "id": 122 },
        { "address": "神浦下大中尾町", "city": "長崎市", "postcode": "8512423", "prefecture": "長崎県", "id": 123 },
        { "address": "神浦下道徳町", "city": "長崎市", "postcode": "8512425", "prefecture": "長崎県", "id": 124 },
        { "address": "神浦夏井町", "city": "長崎市", "postcode": "8512413", "prefecture": "長崎県", "id": 125 },
        { "address": "神浦丸尾町", "city": "長崎市", "postcode": "8512404", "prefecture": "長崎県", "id": 126 },
        { "address": "神浦向町", "city": "長崎市", "postcode": "8512405", "prefecture": "長崎県", "id": 127 },
        { "address": "香焼町", "city": "長崎市", "postcode": "8510310", "prefecture": "長崎県", "id": 128 },
        { "address": "小浦町", "city": "長崎市", "postcode": "8500067", "prefecture": "長崎県", "id": 129 },
        { "address": "小江原", "city": "長崎市", "postcode": "8511132", "prefecture": "長崎県", "id": 130 },
        { "address": "小江町", "city": "長崎市", "postcode": "8511133", "prefecture": "長崎県", "id": 131 },
        { "address": "小ケ倉町", "city": "長崎市", "postcode": "8500961", "prefecture": "長崎県", "id": 132 },
        { "address": "古賀町", "city": "長崎市", "postcode": "8510101", "prefecture": "長崎県", "id": 133 },
        { "address": "国分町", "city": "長崎市", "postcode": "8500951", "prefecture": "長崎県", "id": 134 },
        { "address": "小菅町", "city": "長崎市", "postcode": "8500934", "prefecture": "長崎県", "id": 135 },
        { "address": "小瀬戸町", "city": "長崎市", "postcode": "8500077", "prefecture": "長崎県", "id": 136 },
        { "address": "小曽根町", "city": "長崎市", "postcode": "8500937", "prefecture": "長崎県", "id": 137 },
        { "address": "五島町", "city": "長崎市", "postcode": "8500036", "prefecture": "長崎県", "id": 138 },
        { "address": "木場町", "city": "長崎市", "postcode": "8500002", "prefecture": "長崎県", "id": 139 },
        { "address": "小峰町", "city": "長崎市", "postcode": "8528125", "prefecture": "長崎県", "id": 140 },
        { "address": "米山町", "city": "長崎市", "postcode": "8500983", "prefecture": "長崎県", "id": 141 },
        { "address": "幸町", "city": "長崎市", "postcode": "8500046", "prefecture": "長崎県", "id": 142 },
        { "address": "竿浦町", "city": "長崎市", "postcode": "8500994", "prefecture": "長崎県", "id": 143 },
        { "address": "界", "city": "長崎市", "postcode": "8510122", "prefecture": "長崎県", "id": 144 },
        { "address": "栄町", "city": "長崎市", "postcode": "8500875", "prefecture": "長崎県", "id": 145 },
        { "address": "坂本", "city": "長崎市", "postcode": "8528102", "prefecture": "長崎県", "id": 146 },
        { "address": "桜木町", "city": "長崎市", "postcode": "8500835", "prefecture": "長崎県", "id": 147 },
        { "address": "さくらの里", "city": "長崎市", "postcode": "8512207", "prefecture": "長崎県", "id": 148 },
        { "address": "桜馬場", "city": "長崎市", "postcode": "8500015", "prefecture": "長崎県", "id": 149 },
        { "address": "桜町", "city": "長崎市", "postcode": "8500031", "prefecture": "長崎県", "id": 150 },
        { "address": "三京町", "city": "長崎市", "postcode": "8512206", "prefecture": "長崎県", "id": 151 },
        { "address": "三景台町", "city": "長崎市", "postcode": "8500824", "prefecture": "長崎県", "id": 152 },
        { "address": "三和町", "city": "長崎市", "postcode": "8500975", "prefecture": "長崎県", "id": 153 },
        { "address": "椎の木町", "city": "長崎市", "postcode": "8500947", "prefecture": "長崎県", "id": 154 },
        { "address": "塩浜町", "city": "長崎市", "postcode": "8500071", "prefecture": "長崎県", "id": 155 },
        { "address": "潮見町", "city": "長崎市", "postcode": "8510125", "prefecture": "長崎県", "id": 156 },
        { "address": "式見町", "city": "長崎市", "postcode": "8511137", "prefecture": "長崎県", "id": 157 },
        { "address": "下町", "city": "長崎市", "postcode": "8500917", "prefecture": "長崎県", "id": 158 },
        { "address": "清水町", "city": "長崎市", "postcode": "8528041", "prefecture": "長崎県", "id": 159 },
        { "address": "下大野町", "city": "長崎市", "postcode": "8512427", "prefecture": "長崎県", "id": 160 },
        { "address": "下黒崎町", "city": "長崎市", "postcode": "8512326", "prefecture": "長崎県", "id": 161 },
        { "address": "下西山町", "city": "長崎市", "postcode": "8500004", "prefecture": "長崎県", "id": 162 },
        { "address": "十人町", "city": "長崎市", "postcode": "8500908", "prefecture": "長崎県", "id": 163 },
        { "address": "宿町", "city": "長崎市", "postcode": "8510121", "prefecture": "長崎県", "id": 164 },
        { "address": "城栄町", "city": "長崎市", "postcode": "8528034", "prefecture": "長崎県", "id": 165 },
        { "address": "昭和", "city": "長崎市", "postcode": "8528145", "prefecture": "長崎県", "id": 166 },
        { "address": "白鳥町", "city": "長崎市", "postcode": "8528042", "prefecture": "長崎県", "id": 167 },
        { "address": "白木町", "city": "長崎市", "postcode": "8500812", "prefecture": "長崎県", "id": 168 },
        { "address": "城山台", "city": "長崎市", "postcode": "8528027", "prefecture": "長崎県", "id": 169 },
        { "address": "城山町", "city": "長崎市", "postcode": "8528021", "prefecture": "長崎県", "id": 170 },
        { "address": "新小が倉", "city": "長崎市", "postcode": "8500962", "prefecture": "長崎県", "id": 171 },
        { "address": "新大工町", "city": "長崎市", "postcode": "8500017", "prefecture": "長崎県", "id": 172 },
        { "address": "新地町", "city": "長崎市", "postcode": "8500842", "prefecture": "長崎県", "id": 173 },
        { "address": "新戸町", "city": "長崎市", "postcode": "8500954", "prefecture": "長崎県", "id": 174 },
        { "address": "新中川町", "city": "長崎市", "postcode": "8500014", "prefecture": "長崎県", "id": 175 },
        { "address": "新牧野町", "city": "長崎市", "postcode": "8512323", "prefecture": "長崎県", "id": 176 },
        { "address": "末石町", "city": "長崎市", "postcode": "8500991", "prefecture": "長崎県", "id": 177 },
        { "address": "芒塚町", "city": "長崎市", "postcode": "8510126", "prefecture": "長崎県", "id": 178 },
        { "address": "住吉台町", "city": "長崎市", "postcode": "8528152", "prefecture": "長崎県", "id": 179 },
        { "address": "住吉町", "city": "長崎市", "postcode": "8528154", "prefecture": "長崎県", "id": 180 },
        { "address": "諏訪町", "city": "長崎市", "postcode": "8500873", "prefecture": "長崎県", "id": 181 },
        { "address": "銭座町", "city": "長崎市", "postcode": "8500047", "prefecture": "長崎県", "id": 182 },
        { "address": "園田町", "city": "長崎市", "postcode": "8511125", "prefecture": "長崎県", "id": 183 },
        { "address": "大黒町", "city": "長崎市", "postcode": "8500057", "prefecture": "長崎県", "id": 184 },
        { "address": "ダイヤランド", "city": "長崎市", "postcode": "8500963", "prefecture": "長崎県", "id": 185 },
        { "address": "多以良町", "city": "長崎市", "postcode": "8512213", "prefecture": "長崎県", "id": 186 },
        { "address": "高丘", "city": "長崎市", "postcode": "8500941", "prefecture": "長崎県", "id": 187 },
        { "address": "高尾町", "city": "長崎市", "postcode": "8528111", "prefecture": "長崎県", "id": 188 },
        { "address": "高島町", "city": "長崎市", "postcode": "8511315", "prefecture": "長崎県", "id": 189 },
        { "address": "高城台", "city": "長崎市", "postcode": "8510137", "prefecture": "長崎県", "id": 190 },
        { "address": "高浜町", "city": "長崎市", "postcode": "8510503", "prefecture": "長崎県", "id": 191 },
        { "address": "高平町", "city": "長崎市", "postcode": "8500821", "prefecture": "長崎県", "id": 192 },
        { "address": "宝町", "city": "長崎市", "postcode": "8500045", "prefecture": "長崎県", "id": 193 },
        { "address": "田上", "city": "長崎市", "postcode": "8510251", "prefecture": "長崎県", "id": 194 },
        { "address": "竹の久保町", "city": "長崎市", "postcode": "8528014", "prefecture": "長崎県", "id": 195 },
        { "address": "立岩町", "city": "長崎市", "postcode": "8528025", "prefecture": "長崎県", "id": 196 },
        { "address": "立山", "city": "長崎市", "postcode": "8500007", "prefecture": "長崎県", "id": 197 },
        { "address": "田手原町", "city": "長崎市", "postcode": "8510252", "prefecture": "長崎県", "id": 198 },
        { "address": "田中町", "city": "長崎市", "postcode": "8510134", "prefecture": "長崎県", "id": 199 },
        { "address": "玉園町", "city": "長崎市", "postcode": "8500053", "prefecture": "長崎県", "id": 200 },
        { "address": "為石町", "city": "長崎市", "postcode": "8510405", "prefecture": "長崎県", "id": 201 },
        { "address": "筑後町", "city": "長崎市", "postcode": "8500052", "prefecture": "長崎県", "id": 202 },
        { "address": "千々町", "city": "長崎市", "postcode": "8510245", "prefecture": "長崎県", "id": 203 },
        { "address": "千歳町", "city": "長崎市", "postcode": "8528135", "prefecture": "長崎県", "id": 204 },
        { "address": "築町", "city": "長崎市", "postcode": "8500877", "prefecture": "長崎県", "id": 205 },
        { "address": "辻町", "city": "長崎市", "postcode": "8528124", "prefecture": "長崎県", "id": 206 },
        { "address": "つつじが丘", "city": "長崎市", "postcode": "8510102", "prefecture": "長崎県", "id": 207 },
        { "address": "椿が丘町", "city": "長崎市", "postcode": "8510406", "prefecture": "長崎県", "id": 208 },
        { "address": "鶴の尾町", "city": "長崎市", "postcode": "8510132", "prefecture": "長崎県", "id": 209 },
        { "address": "鶴見台", "city": "長崎市", "postcode": "8500984", "prefecture": "長崎県", "id": 210 },
        { "address": "出来大工町", "city": "長崎市", "postcode": "8500023", "prefecture": "長崎県", "id": 211 },
        { "address": "手熊町", "city": "長崎市", "postcode": "8511135", "prefecture": "長崎県", "id": 212 },
        { "address": "出島町", "city": "長崎市", "postcode": "8500862", "prefecture": "長崎県", "id": 213 },
        { "address": "寺町", "city": "長崎市", "postcode": "8500872", "prefecture": "長崎県", "id": 214 },
        { "address": "天神町", "city": "長崎市", "postcode": "8500044", "prefecture": "長崎県", "id": 215 },
        { "address": "戸石町", "city": "長崎市", "postcode": "8510113", "prefecture": "長崎県", "id": 216 },
        { "address": "土井首町", "city": "長崎市", "postcode": "8500977", "prefecture": "長崎県", "id": 217 },
        { "address": "銅座町", "city": "長崎市", "postcode": "8500841", "prefecture": "長崎県", "id": 218 },
        { "address": "藤田尾町", "city": "長崎市", "postcode": "8510404", "prefecture": "長崎県", "id": 219 },
        { "address": "常盤町", "city": "長崎市", "postcode": "8500843", "prefecture": "長崎県", "id": 220 },
        { "address": "戸町", "city": "長崎市", "postcode": "8500952", "prefecture": "長崎県", "id": 221 },
        { "address": "長浦町", "city": "長崎市", "postcode": "8513212", "prefecture": "長崎県", "id": 222 },
        { "address": "中川", "city": "長崎市", "postcode": "8500013", "prefecture": "長崎県", "id": 223 },
        { "address": "中小島", "city": "長崎市", "postcode": "8500836", "prefecture": "長崎県", "id": 224 },
        { "address": "中里町", "city": "長崎市", "postcode": "8510103", "prefecture": "長崎県", "id": 225 },
        { "address": "中新町", "city": "長崎市", "postcode": "8500912", "prefecture": "長崎県", "id": 226 },
        { "address": "中園町", "city": "長崎市", "postcode": "8528155", "prefecture": "長崎県", "id": 227 },
        { "address": "永田町", "city": "長崎市", "postcode": "8512325", "prefecture": "長崎県", "id": 228 },
        { "address": "中町", "city": "長崎市", "postcode": "8500055", "prefecture": "長崎県", "id": 229 },
        { "address": "浪の平町", "city": "長崎市", "postcode": "8500936", "prefecture": "長崎県", "id": 230 },
        { "address": "滑石", "city": "長崎市", "postcode": "8528061", "prefecture": "長崎県", "id": 231 },
        { "address": "鳴滝", "city": "長崎市", "postcode": "8500011", "prefecture": "長崎県", "id": 232 },
        { "address": "鳴見台", "city": "長崎市", "postcode": "8512215", "prefecture": "長崎県", "id": 233 },
        { "address": "鳴見町", "city": "長崎市", "postcode": "8512214", "prefecture": "長崎県", "id": 234 },
        { "address": "南越町", "city": "長崎市", "postcode": "8510504", "prefecture": "長崎県", "id": 235 },
        { "address": "賑町", "city": "長崎市", "postcode": "8500876", "prefecture": "長崎県", "id": 236 },
        { "address": "西海町", "city": "長崎市", "postcode": "8513101", "prefecture": "長崎県", "id": 237 },
        { "address": "虹が丘町", "city": "長崎市", "postcode": "8528055", "prefecture": "長崎県", "id": 238 },
        { "address": "西北町", "city": "長崎市", "postcode": "8528051", "prefecture": "長崎県", "id": 239 },
        { "address": "錦", "city": "長崎市", "postcode": "8528045", "prefecture": "長崎県", "id": 240 },
        { "address": "西小島", "city": "長崎市", "postcode": "8500837", "prefecture": "長崎県", "id": 241 },
        { "address": "西琴平町", "city": "長崎市", "postcode": "8500933", "prefecture": "長崎県", "id": 242 },
        { "address": "西坂町", "city": "長崎市", "postcode": "8500051", "prefecture": "長崎県", "id": 243 },
        { "address": "西出津町", "city": "長崎市", "postcode": "8512322", "prefecture": "長崎県", "id": 244 },
        { "address": "西立神町", "city": "長崎市", "postcode": "8500074", "prefecture": "長崎県", "id": 245 },
        { "address": "西泊町", "city": "長崎市", "postcode": "8500075", "prefecture": "長崎県", "id": 246 },
        { "address": "西町", "city": "長崎市", "postcode": "8528043", "prefecture": "長崎県", "id": 247 },
        { "address": "西山", "city": "長崎市", "postcode": "8500001", "prefecture": "長崎県", "id": 248 },
        { "address": "西山台", "city": "長崎市", "postcode": "8528122", "prefecture": "長崎県", "id": 249 },
        { "address": "西山本町", "city": "長崎市", "postcode": "8500005", "prefecture": "長崎県", "id": 250 },
        { "address": "布巻町", "city": "長崎市", "postcode": "8510403", "prefecture": "長崎県", "id": 251 },
        { "address": "野母崎樺島町", "city": "長崎市", "postcode": "8510507", "prefecture": "長崎県", "id": 252 },
        { "address": "野母町", "city": "長崎市", "postcode": "8510505", "prefecture": "長崎県", "id": 253 },
        { "address": "橋口町", "city": "長崎市", "postcode": "8528114", "prefecture": "長崎県", "id": 254 },
        { "address": "八郎岳町", "city": "長崎市", "postcode": "8500993", "prefecture": "長崎県", "id": 255 },
        { "address": "八景町", "city": "長崎市", "postcode": "8500944", "prefecture": "長崎県", "id": 256 },
        { "address": "花丘町", "city": "長崎市", "postcode": "8528153", "prefecture": "長崎県", "id": 257 },
        { "address": "花園町", "city": "長崎市", "postcode": "8528024", "prefecture": "長崎県", "id": 258 },
        { "address": "浜口町", "city": "長崎市", "postcode": "8528107", "prefecture": "長崎県", "id": 259 },
        { "address": "浜平", "city": "長崎市", "postcode": "8500041", "prefecture": "長崎県", "id": 260 },
        { "address": "浜町", "city": "長崎市", "postcode": "8500853", "prefecture": "長崎県", "id": 261 },
        { "address": "早坂町", "city": "長崎市", "postcode": "8510253", "prefecture": "長崎県", "id": 262 },
        { "address": "葉山", "city": "長崎市", "postcode": "8528053", "prefecture": "長崎県", "id": 263 },
        { "address": "春木町", "city": "長崎市", "postcode": "8528015", "prefecture": "長崎県", "id": 264 },
        { "address": "晴海台町", "city": "長崎市", "postcode": "8510402", "prefecture": "長崎県", "id": 265 },
        { "address": "光町", "city": "長崎市", "postcode": "8528001", "prefecture": "長崎県", "id": 266 },
        { "address": "東小島町", "city": "長崎市", "postcode": "8500833", "prefecture": "長崎県", "id": 267 },
        { "address": "東琴平", "city": "長崎市", "postcode": "8500932", "prefecture": "長崎県", "id": 268 },
        { "address": "東出津町", "city": "長崎市", "postcode": "8512327", "prefecture": "長崎県", "id": 269 },
        { "address": "東立神町", "city": "長崎市", "postcode": "8500073", "prefecture": "長崎県", "id": 270 },
        { "address": "東古川町", "city": "長崎市", "postcode": "8500855", "prefecture": "長崎県", "id": 271 },
        { "address": "東町", "city": "長崎市", "postcode": "8510116", "prefecture": "長崎県", "id": 272 },
        { "address": "東山手町", "city": "長崎市", "postcode": "8500911", "prefecture": "長崎県", "id": 273 },
        { "address": "東山町", "city": "長崎市", "postcode": "8500915", "prefecture": "長崎県", "id": 274 },
        { "address": "彦見町", "city": "長崎市", "postcode": "8500804", "prefecture": "長崎県", "id": 275 },
        { "address": "日の出町", "city": "長崎市", "postcode": "8500914", "prefecture": "長崎県", "id": 276 },
        { "address": "平瀬町", "city": "長崎市", "postcode": "8500985", "prefecture": "長崎県", "id": 277 },
        { "address": "平戸小屋町", "city": "長崎市", "postcode": "8528006", "prefecture": "長崎県", "id": 278 },
        { "address": "平野町", "city": "長崎市", "postcode": "8528117", "prefecture": "長崎県", "id": 279 },
        { "address": "平間町", "city": "長崎市", "postcode": "8510136", "prefecture": "長崎県", "id": 280 },
        { "address": "平山台", "city": "長崎市", "postcode": "8500996", "prefecture": "長崎県", "id": 281 },
        { "address": "平山町", "city": "長崎市", "postcode": "8500995", "prefecture": "長崎県", "id": 282 },
        { "address": "夫婦川町", "city": "長崎市", "postcode": "8500016", "prefecture": "長崎県", "id": 283 },
        { "address": "深堀町", "city": "長崎市", "postcode": "8510301", "prefecture": "長崎県", "id": 284 },
        { "address": "福田本町", "city": "長崎市", "postcode": "8500068", "prefecture": "長崎県", "id": 285 },
        { "address": "富士見町", "city": "長崎市", "postcode": "8528022", "prefecture": "長崎県", "id": 286 },
        { "address": "淵町", "city": "長崎市", "postcode": "8528012", "prefecture": "長崎県", "id": 287 },
        { "address": "船石町", "city": "長崎市", "postcode": "8510104", "prefecture": "長崎県", "id": 288 },
        { "address": "船大工町", "city": "長崎市", "postcode": "8500904", "prefecture": "長崎県", "id": 289 },
        { "address": "古川町", "city": "長崎市", "postcode": "8500851", "prefecture": "長崎県", "id": 290 },
        { "address": "古河町", "city": "長崎市", "postcode": "8500935", "prefecture": "長崎県", "id": 291 },
        { "address": "古町", "city": "長崎市", "postcode": "8500026", "prefecture": "長崎県", "id": 292 },
        { "address": "古道町", "city": "長崎市", "postcode": "8500972", "prefecture": "長崎県", "id": 293 },
        { "address": "文教町", "city": "長崎市", "postcode": "8528131", "prefecture": "長崎県", "id": 294 },
        { "address": "平和町", "city": "長崎市", "postcode": "8528116", "prefecture": "長崎県", "id": 295 },
        { "address": "弁天町", "city": "長崎市", "postcode": "8528002", "prefecture": "長崎県", "id": 296 },
        { "address": "宝栄町", "city": "長崎市", "postcode": "8528016", "prefecture": "長崎県", "id": 297 },
        { "address": "豊洋台", "city": "長崎市", "postcode": "8512216", "prefecture": "長崎県", "id": 298 },
        { "address": "北栄町", "city": "長崎市", "postcode": "8528063", "prefecture": "長崎県", "id": 299 },
        { "address": "北陽町", "city": "長崎市", "postcode": "8528064", "prefecture": "長崎県", "id": 300 },
        { "address": "星取", "city": "長崎市", "postcode": "8500945", "prefecture": "長崎県", "id": 301 },
        { "address": "本河内", "city": "長崎市", "postcode": "8500012", "prefecture": "長崎県", "id": 302 },
        { "address": "牧島町", "city": "長崎市", "postcode": "8510114", "prefecture": "長崎県", "id": 303 },
        { "address": "牧野町", "city": "長崎市", "postcode": "8511124", "prefecture": "長崎県", "id": 304 },
        { "address": "松が枝町", "city": "長崎市", "postcode": "8500921", "prefecture": "長崎県", "id": 305 },
        { "address": "松崎町", "city": "長崎市", "postcode": "8512205", "prefecture": "長崎県", "id": 306 },
        { "address": "松原町", "city": "長崎市", "postcode": "8510131", "prefecture": "長崎県", "id": 307 },
        { "address": "松山町", "city": "長崎市", "postcode": "8528118", "prefecture": "長崎県", "id": 308 },
        { "address": "丸尾町", "city": "長崎市", "postcode": "8528004", "prefecture": "長崎県", "id": 309 },
        { "address": "丸山町", "city": "長崎市", "postcode": "8500902", "prefecture": "長崎県", "id": 310 },
        { "address": "万才町", "city": "長崎市", "postcode": "8500033", "prefecture": "長崎県", "id": 311 },
        { "address": "三重田町", "city": "長崎市", "postcode": "8512203", "prefecture": "長崎県", "id": 312 },
        { "address": "三重町", "city": "長崎市", "postcode": "8512204", "prefecture": "長崎県", "id": 313 },
        { "address": "三川町", "city": "長崎市", "postcode": "8528121", "prefecture": "長崎県", "id": 314 },
        { "address": "見崎町", "city": "長崎市", "postcode": "8511121", "prefecture": "長崎県", "id": 315 },
        { "address": "水の浦町", "city": "長崎市", "postcode": "8500061", "prefecture": "長崎県", "id": 316 },
        { "address": "三ツ山町", "city": "長崎市", "postcode": "8528142", "prefecture": "長崎県", "id": 317 },
        { "address": "緑が丘町", "city": "長崎市", "postcode": "8528033", "prefecture": "長崎県", "id": 318 },
        { "address": "緑町", "city": "長崎市", "postcode": "8528103", "prefecture": "長崎県", "id": 319 },
        { "address": "みなと坂", "city": "長崎市", "postcode": "8500079", "prefecture": "長崎県", "id": 320 },
        { "address": "南が丘町", "city": "長崎市", "postcode": "8500943", "prefecture": "長崎県", "id": 321 },
        { "address": "南町", "city": "長崎市", "postcode": "8500942", "prefecture": "長崎県", "id": 322 },
        { "address": "南山手町", "city": "長崎市", "postcode": "8500931", "prefecture": "長崎県", "id": 323 },
        { "address": "三原", "city": "長崎市", "postcode": "8528123", "prefecture": "長崎県", "id": 324 },
        { "address": "宮崎町", "city": "長崎市", "postcode": "8510408", "prefecture": "長崎県", "id": 325 },
        { "address": "宮摺町", "city": "長崎市", "postcode": "8510243", "prefecture": "長崎県", "id": 326 },
        { "address": "三芳町", "city": "長崎市", "postcode": "8528031", "prefecture": "長崎県", "id": 327 },
        { "address": "向町", "city": "長崎市", "postcode": "8511136", "prefecture": "長崎県", "id": 328 },
        { "address": "目覚町", "city": "長崎市", "postcode": "8528105", "prefecture": "長崎県", "id": 329 },
        { "address": "女の都", "city": "長崎市", "postcode": "8528144", "prefecture": "長崎県", "id": 330 },
        { "address": "茂木町", "city": "長崎市", "postcode": "8510241", "prefecture": "長崎県", "id": 331 },
        { "address": "本尾町", "city": "長崎市", "postcode": "8528112", "prefecture": "長崎県", "id": 332 },
        { "address": "本石灰町", "city": "長崎市", "postcode": "8500901", "prefecture": "長崎県", "id": 333 },
        { "address": "本原町", "city": "長崎市", "postcode": "8528133", "prefecture": "長崎県", "id": 334 },
        { "address": "元船町", "city": "長崎市", "postcode": "8500035", "prefecture": "長崎県", "id": 335 },
        { "address": "元町", "city": "長崎市", "postcode": "8500913", "prefecture": "長崎県", "id": 336 },
        { "address": "茂里町", "city": "長崎市", "postcode": "8528104", "prefecture": "長崎県", "id": 337 },
        { "address": "八百屋町", "city": "長崎市", "postcode": "8500029", "prefecture": "長崎県", "id": 338 },
        { "address": "矢上町", "city": "長崎市", "postcode": "8510133", "prefecture": "長崎県", "id": 339 },
        { "address": "八千代町", "city": "長崎市", "postcode": "8500043", "prefecture": "長崎県", "id": 340 },
        { "address": "八つ尾町", "city": "長崎市", "postcode": "8500813", "prefecture": "長崎県", "id": 341 },
        { "address": "梁川町", "city": "長崎市", "postcode": "8528013", "prefecture": "長崎県", "id": 342 },
        { "address": "柳谷町", "city": "長崎市", "postcode": "8528046", "prefecture": "長崎県", "id": 343 },
        { "address": "柳田町", "city": "長崎市", "postcode": "8500982", "prefecture": "長崎県", "id": 344 },
        { "address": "矢の平", "city": "長崎市", "postcode": "8500811", "prefecture": "長崎県", "id": 345 },
        { "address": "八幡町", "city": "長崎市", "postcode": "8500801", "prefecture": "長崎県", "id": 346 },
        { "address": "弥生町", "city": "長崎市", "postcode": "8500823", "prefecture": "長崎県", "id": 347 },
        { "address": "横尾", "city": "長崎市", "postcode": "8528065", "prefecture": "長崎県", "id": 348 },
        { "address": "四杖町", "city": "長崎市", "postcode": "8511123", "prefecture": "長崎県", "id": 349 },
        { "address": "寄合町", "city": "長崎市", "postcode": "8500903", "prefecture": "長崎県", "id": 350 },
        { "address": "万屋町", "city": "長崎市", "postcode": "8500852", "prefecture": "長崎県", "id": 351 },
        { "address": "炉粕町", "city": "長崎市", "postcode": "8500021", "prefecture": "長崎県", "id": 352 },
        { "address": "若草町", "city": "長崎市", "postcode": "8528023", "prefecture": "長崎県", "id": 353 },
        { "address": "若竹町", "city": "長崎市", "postcode": "8528047", "prefecture": "長崎県", "id": 354 },
        { "address": "若葉町", "city": "長崎市", "postcode": "8528137", "prefecture": "長崎県", "id": 355 },
        { "address": "脇岬町", "city": "長崎市", "postcode": "8510506", "prefecture": "長崎県", "id": 356 },
        { "city": "佐世保市", "postcode": "8570000", "prefecture": "長崎県", "id": 357 },
        { "address": "相生町", "city": "佐世保市", "postcode": "8570044", "prefecture": "長崎県", "id": 358 },
        { "address": "相浦町", "city": "佐世保市", "postcode": "8580918", "prefecture": "長崎県", "id": 359 },
        { "address": "赤木町", "city": "佐世保市", "postcode": "8570013", "prefecture": "長崎県", "id": 360 },
        { "address": "赤崎町", "city": "佐世保市", "postcode": "8570064", "prefecture": "長崎県", "id": 361 },
        { "address": "浅子町", "city": "佐世保市", "postcode": "8570431", "prefecture": "長崎県", "id": 362 },
        { "address": "愛宕町", "city": "佐世保市", "postcode": "8580917", "prefecture": "長崎県", "id": 363 },
        { "address": "有福町", "city": "佐世保市", "postcode": "8593241", "prefecture": "長崎県", "id": 364 },
        { "address": "庵浦町", "city": "佐世保市", "postcode": "8571233", "prefecture": "長崎県", "id": 365 },
        { "address": "石坂町", "city": "佐世保市", "postcode": "8570037", "prefecture": "長崎県", "id": 366 },
        { "address": "泉町", "city": "佐世保市", "postcode": "8570057", "prefecture": "長崎県", "id": 367 },
        { "address": "稲荷町", "city": "佐世保市", "postcode": "8570851", "prefecture": "長崎県", "id": 368 },
        { "address": "今福町", "city": "佐世保市", "postcode": "8570061", "prefecture": "長崎県", "id": 369 },
        { "address": "宇久町飯良", "city": "佐世保市", "postcode": "8574813", "prefecture": "長崎県", "id": 370 },
        { "address": "宇久町大久保", "city": "佐世保市", "postcode": "8574815", "prefecture": "長崎県", "id": 371 },
        { "address": "宇久町太田江", "city": "佐世保市", "postcode": "8574903", "prefecture": "長崎県", "id": 372 },
        { "address": "宇久町小浜", "city": "佐世保市", "postcode": "8574812", "prefecture": "長崎県", "id": 373 },
        { "address": "宇久町神浦", "city": "佐世保市", "postcode": "8574811", "prefecture": "長崎県", "id": 374 },
        { "address": "宇久町木場", "city": "佐世保市", "postcode": "8574904", "prefecture": "長崎県", "id": 375 },
        { "address": "宇久町平", "city": "佐世保市", "postcode": "8574901", "prefecture": "長崎県", "id": 376 },
        { "address": "宇久町寺島", "city": "佐世保市", "postcode": "8574816", "prefecture": "長崎県", "id": 377 },
        { "address": "宇久町野方", "city": "佐世保市", "postcode": "8574902", "prefecture": "長崎県", "id": 378 },
        { "address": "宇久町本飯良", "city": "佐世保市", "postcode": "8574814", "prefecture": "長崎県", "id": 379 },
        { "address": "鵜渡越町", "city": "佐世保市", "postcode": "8570069", "prefecture": "長崎県", "id": 380 },
        { "address": "梅田町", "city": "佐世保市", "postcode": "8570017", "prefecture": "長崎県", "id": 381 },
        { "address": "浦川内町", "city": "佐世保市", "postcode": "8593225", "prefecture": "長崎県", "id": 382 },
        { "address": "上原町", "city": "佐世保市", "postcode": "8593202", "prefecture": "長崎県", "id": 383 },
        { "address": "上町", "city": "佐世保市", "postcode": "8570058", "prefecture": "長崎県", "id": 384 },
        { "address": "江上町", "city": "佐世保市", "postcode": "8593244", "prefecture": "長崎県", "id": 385 },
        { "address": "江永町", "city": "佐世保市", "postcode": "8593165", "prefecture": "長崎県", "id": 386 },
        { "address": "烏帽子町", "city": "佐世保市", "postcode": "8570001", "prefecture": "長崎県", "id": 387 },
        { "address": "江迎町赤坂", "city": "佐世保市", "postcode": "8596131", "prefecture": "長崎県", "id": 388 },
        { "address": "江迎町飯良坂", "city": "佐世保市", "postcode": "8596111", "prefecture": "長崎県", "id": 389 },
        { "address": "江迎町猪調", "city": "佐世保市", "postcode": "8596133", "prefecture": "長崎県", "id": 390 },
        { "address": "江迎町埋立", "city": "佐世保市", "postcode": "8596103", "prefecture": "長崎県", "id": 391 },
        { "address": "江迎町箙尾", "city": "佐世保市", "postcode": "8596114", "prefecture": "長崎県", "id": 392 },
        { "address": "江迎町奥川内", "city": "佐世保市", "postcode": "8596121", "prefecture": "長崎県", "id": 393 },
        { "address": "江迎町梶ノ村", "city": "佐世保市", "postcode": "8596105", "prefecture": "長崎県", "id": 394 },
        { "address": "江迎町上川内", "city": "佐世保市", "postcode": "8596102", "prefecture": "長崎県", "id": 395 },
        { "address": "江迎町北田", "city": "佐世保市", "postcode": "8596106", "prefecture": "長崎県", "id": 396 },
        { "address": "江迎町北平", "city": "佐世保市", "postcode": "8596126", "prefecture": "長崎県", "id": 397 },
        { "address": "江迎町栗越", "city": "佐世保市", "postcode": "8596113", "prefecture": "長崎県", "id": 398 },
        { "address": "江迎町小川内", "city": "佐世保市", "postcode": "8596123", "prefecture": "長崎県", "id": 399 },
        { "address": "江迎町志戸氏", "city": "佐世保市", "postcode": "8596132", "prefecture": "長崎県", "id": 400 },
        { "address": "江迎町末橘", "city": "佐世保市", "postcode": "8596104", "prefecture": "長崎県", "id": 401 },
        { "address": "江迎町田ノ元", "city": "佐世保市", "postcode": "8596134", "prefecture": "長崎県", "id": 402 },
        { "address": "江迎町中尾", "city": "佐世保市", "postcode": "8596115", "prefecture": "長崎県", "id": 403 },
        { "address": "江迎町長坂", "city": "佐世保市", "postcode": "8596101", "prefecture": "長崎県", "id": 404 },
        { "address": "江迎町七腕", "city": "佐世保市", "postcode": "8596122", "prefecture": "長崎県", "id": 405 },
        { "address": "江迎町根引", "city": "佐世保市", "postcode": "8596112", "prefecture": "長崎県", "id": 406 },
        { "address": "江迎町三浦", "city": "佐世保市", "postcode": "8596125", "prefecture": "長崎県", "id": 407 },
        { "address": "江迎町乱橋", "city": "佐世保市", "postcode": "8596124", "prefecture": "長崎県", "id": 408 },
        { "address": "大潟町", "city": "佐世保市", "postcode": "8580926", "prefecture": "長崎県", "id": 409 },
        { "address": "大岳台町", "city": "佐世保市", "postcode": "8571163", "prefecture": "長崎県", "id": 410 },
        { "address": "大野町", "city": "佐世保市", "postcode": "8570131", "prefecture": "長崎県", "id": 411 },
        { "address": "大宮町", "city": "佐世保市", "postcode": "8570841", "prefecture": "長崎県", "id": 412 },
        { "address": "小川内町", "city": "佐世保市", "postcode": "8570146", "prefecture": "長崎県", "id": 413 },
        { "address": "沖新町", "city": "佐世保市", "postcode": "8571171", "prefecture": "長崎県", "id": 414 },
        { "address": "奥山町", "city": "佐世保市", "postcode": "8593233", "prefecture": "長崎県", "id": 415 },
        { "address": "踊石町", "city": "佐世保市", "postcode": "8580902", "prefecture": "長崎県", "id": 416 },
        { "address": "小野町", "city": "佐世保市", "postcode": "8570065", "prefecture": "長崎県", "id": 417 },
        { "address": "小野町", "city": "佐世保市", "postcode": "8580965", "prefecture": "長崎県", "id": 418 },
        { "address": "折橋町", "city": "佐世保市", "postcode": "8570021", "prefecture": "長崎県", "id": 419 },
        { "address": "卸本町", "city": "佐世保市", "postcode": "8571162", "prefecture": "長崎県", "id": 420 },
        { "address": "皆瀬町", "city": "佐世保市", "postcode": "8570144", "prefecture": "長崎県", "id": 421 },
        { "address": "鹿子前町", "city": "佐世保市", "postcode": "8580922", "prefecture": "長崎県", "id": 422 },
        { "address": "春日町", "city": "佐世保市", "postcode": "8570011", "prefecture": "長崎県", "id": 423 },
        { "address": "勝海町", "city": "佐世保市", "postcode": "8593216", "prefecture": "長崎県", "id": 424 },
        { "address": "勝富町", "city": "佐世保市", "postcode": "8570803", "prefecture": "長崎県", "id": 425 },
        { "address": "上相浦町", "city": "佐世保市", "postcode": "8580915", "prefecture": "長崎県", "id": 426 },
        { "address": "上京町", "city": "佐世保市", "postcode": "8570872", "prefecture": "長崎県", "id": 427 },
        { "address": "神島町", "city": "佐世保市", "postcode": "8570067", "prefecture": "長崎県", "id": 428 },
        { "address": "上本山町", "city": "佐世保市", "postcode": "8580903", "prefecture": "長崎県", "id": 429 },
        { "address": "上柚木町", "city": "佐世保市", "postcode": "8570126", "prefecture": "長崎県", "id": 430 },
        { "address": "川下町", "city": "佐世保市", "postcode": "8580914", "prefecture": "長崎県", "id": 431 },
        { "address": "川谷町", "city": "佐世保市", "postcode": "8570123", "prefecture": "長崎県", "id": 432 },
        { "address": "祇園町", "city": "佐世保市", "postcode": "8570801", "prefecture": "長崎県", "id": 433 },
        { "address": "木風町", "city": "佐世保市", "postcode": "8571166", "prefecture": "長崎県", "id": 434 },
        { "address": "木宮町", "city": "佐世保市", "postcode": "8580916", "prefecture": "長崎県", "id": 435 },
        { "address": "木原町", "city": "佐世保市", "postcode": "8593166", "prefecture": "長崎県", "id": 436 },
        { "address": "京坪町", "city": "佐世保市", "postcode": "8570874", "prefecture": "長崎県", "id": 437 },
        { "address": "潜木町", "city": "佐世保市", "postcode": "8570121", "prefecture": "長崎県", "id": 438 },
        { "address": "楠木町", "city": "佐世保市", "postcode": "8570104", "prefecture": "長崎県", "id": 439 },
        { "address": "口の尾町", "city": "佐世保市", "postcode": "8593161", "prefecture": "長崎県", "id": 440 },
        { "address": "熊野町", "city": "佐世保市", "postcode": "8570025", "prefecture": "長崎県", "id": 441 },
        { "address": "黒髪町", "city": "佐世保市", "postcode": "8571152", "prefecture": "長崎県", "id": 442 },
        { "address": "黒島町", "city": "佐世保市", "postcode": "8573271", "prefecture": "長崎県", "id": 443 },
        { "address": "桑木場町", "city": "佐世保市", "postcode": "8593157", "prefecture": "長崎県", "id": 444 },
        { "address": "光月町", "city": "佐世保市", "postcode": "8570805", "prefecture": "長崎県", "id": 445 },
        { "address": "高天町", "city": "佐世保市", "postcode": "8570802", "prefecture": "長崎県", "id": 446 },
        { "address": "心野町", "city": "佐世保市", "postcode": "8593164", "prefecture": "長崎県", "id": 447 },
        { "address": "小佐々町臼ノ浦", "city": "佐世保市", "postcode": "8570403", "prefecture": "長崎県", "id": 448 },
        { "address": "小佐々町楠泊", "city": "佐世保市", "postcode": "8570413", "prefecture": "長崎県", "id": 449 },
        { "address": "小佐々町黒石", "city": "佐世保市", "postcode": "8570401", "prefecture": "長崎県", "id": 450 },
        { "address": "小佐々町小坂", "city": "佐世保市", "postcode": "8570402", "prefecture": "長崎県", "id": 451 },
        { "address": "小佐々町岳ノ木場", "city": "佐世保市", "postcode": "8570411", "prefecture": "長崎県", "id": 452 },
        { "address": "小佐々町田原", "city": "佐世保市", "postcode": "8570404", "prefecture": "長崎県", "id": 453 },
        { "address": "小佐々町葛籠", "city": "佐世保市", "postcode": "8570405", "prefecture": "長崎県", "id": 454 },
        { "address": "小佐々町西川内", "city": "佐世保市", "postcode": "8570412", "prefecture": "長崎県", "id": 455 },
        { "address": "小佐々町平原", "city": "佐世保市", "postcode": "8570406", "prefecture": "長崎県", "id": 456 },
        { "address": "小佐々町矢岳", "city": "佐世保市", "postcode": "8570414", "prefecture": "長崎県", "id": 457 },
        { "address": "小佐世保町", "city": "佐世保市", "postcode": "8570813", "prefecture": "長崎県", "id": 458 },
        { "address": "小島町", "city": "佐世保市", "postcode": "8570066", "prefecture": "長崎県", "id": 459 },
        { "address": "木場田町", "city": "佐世保市", "postcode": "8570041", "prefecture": "長崎県", "id": 460 },
        { "address": "小舟町", "city": "佐世保市", "postcode": "8570114", "prefecture": "長崎県", "id": 461 },
        { "address": "菰田町", "city": "佐世保市", "postcode": "8570106", "prefecture": "長崎県", "id": 462 },
        { "address": "権常寺", "city": "佐世保市", "postcode": "8593214", "prefecture": "長崎県", "id": 463 },
        { "address": "権常寺町", "city": "佐世保市", "postcode": "8593213", "prefecture": "長崎県", "id": 464 },
        { "address": "金比良町", "city": "佐世保市", "postcode": "8570062", "prefecture": "長崎県", "id": 465 },
        { "address": "栄町", "city": "佐世保市", "postcode": "8570054", "prefecture": "長崎県", "id": 466 },
        { "address": "崎岡町", "city": "佐世保市", "postcode": "8593226", "prefecture": "長崎県", "id": 467 },
        { "address": "崎辺町", "city": "佐世保市", "postcode": "8571176", "prefecture": "長崎県", "id": 468 },
        { "address": "桜木町", "city": "佐世保市", "postcode": "8570012", "prefecture": "長崎県", "id": 469 },
        { "address": "指方町", "city": "佐世保市", "postcode": "8593242", "prefecture": "長崎県", "id": 470 },
        { "address": "里美町", "city": "佐世保市", "postcode": "8570122", "prefecture": "長崎県", "id": 471 },
        { "address": "早苗町", "city": "佐世保市", "postcode": "8593211", "prefecture": "長崎県", "id": 472 },
        { "address": "椎木町", "city": "佐世保市", "postcode": "8580925", "prefecture": "長崎県", "id": 473 },
        { "address": "塩浜町", "city": "佐世保市", "postcode": "8570876", "prefecture": "長崎県", "id": 474 },
        { "address": "塩浸町", "city": "佐世保市", "postcode": "8593154", "prefecture": "長崎県", "id": 475 },
        { "address": "潮見町", "city": "佐世保市", "postcode": "8570834", "prefecture": "長崎県", "id": 476 },
        { "address": "鹿町町大屋", "city": "佐世保市", "postcode": "8596201", "prefecture": "長崎県", "id": 477 },
        { "address": "鹿町町上歌ヶ浦", "city": "佐世保市", "postcode": "8596202", "prefecture": "長崎県", "id": 478 },
        { "address": "鹿町町口ノ里", "city": "佐世保市", "postcode": "8596203", "prefecture": "長崎県", "id": 479 },
        { "address": "鹿町町鹿町", "city": "佐世保市", "postcode": "8596144", "prefecture": "長崎県", "id": 480 },
        { "address": "鹿町町下歌ヶ浦", "city": "佐世保市", "postcode": "8596204", "prefecture": "長崎県", "id": 481 },
        { "address": "鹿町町新深江", "city": "佐世保市", "postcode": "8596141", "prefecture": "長崎県", "id": 482 },
        { "address": "鹿町町土肥ノ浦", "city": "佐世保市", "postcode": "8596145", "prefecture": "長崎県", "id": 483 },
        { "address": "鹿町町中野", "city": "佐世保市", "postcode": "8596205", "prefecture": "長崎県", "id": 484 },
        { "address": "鹿町町長串", "city": "佐世保市", "postcode": "8596206", "prefecture": "長崎県", "id": 485 },
        { "address": "鹿町町深江", "city": "佐世保市", "postcode": "8596142", "prefecture": "長崎県", "id": 486 },
        { "address": "鹿町町深江潟", "city": "佐世保市", "postcode": "8596143", "prefecture": "長崎県", "id": 487 },
        { "address": "鹿町町船ノ村", "city": "佐世保市", "postcode": "8596207", "prefecture": "長崎県", "id": 488 },
        { "address": "重尾町", "city": "佐世保市", "postcode": "8593224", "prefecture": "長崎県", "id": 489 },
        { "address": "島瀬町", "city": "佐世保市", "postcode": "8570806", "prefecture": "長崎県", "id": 490 },
        { "address": "島地町", "city": "佐世保市", "postcode": "8570879", "prefecture": "長崎県", "id": 491 },
        { "address": "清水町", "city": "佐世保市", "postcode": "8570036", "prefecture": "長崎県", "id": 492 },
        { "address": "下宇戸町", "city": "佐世保市", "postcode": "8570113", "prefecture": "長崎県", "id": 493 },
        { "address": "下京町", "city": "佐世保市", "postcode": "8570875", "prefecture": "長崎県", "id": 494 },
        { "address": "下の原町", "city": "佐世保市", "postcode": "8593156", "prefecture": "長崎県", "id": 495 },
        { "address": "下船越町", "city": "佐世保市", "postcode": "8571232", "prefecture": "長崎県", "id": 496 },
        { "address": "下本山町", "city": "佐世保市", "postcode": "8580905", "prefecture": "長崎県", "id": 497 },
        { "address": "十郎新町", "city": "佐世保市", "postcode": "8571173", "prefecture": "長崎県", "id": 498 },
        { "address": "城間町", "city": "佐世保市", "postcode": "8593237", "prefecture": "長崎県", "id": 499 },
        { "address": "白木町", "city": "佐世保市", "postcode": "8570821", "prefecture": "長崎県", "id": 500 },
        { "address": "白岳町", "city": "佐世保市", "postcode": "8571164", "prefecture": "長崎県", "id": 501 },
        { "address": "白仁田町", "city": "佐世保市", "postcode": "8570105", "prefecture": "長崎県", "id": 502 },
        { "address": "白南風町", "city": "佐世保市", "postcode": "8570862", "prefecture": "長崎県", "id": 503 },
        { "address": "城山町", "city": "佐世保市", "postcode": "8570033", "prefecture": "長崎県", "id": 504 },
        { "address": "新替町", "city": "佐世保市", "postcode": "8593158", "prefecture": "長崎県", "id": 505 },
        { "address": "新行江町", "city": "佐世保市", "postcode": "8593152", "prefecture": "長崎県", "id": 506 },
        { "address": "新田町", "city": "佐世保市", "postcode": "8580913", "prefecture": "長崎県", "id": 507 },
        { "address": "陣の内町", "city": "佐世保市", "postcode": "8593203", "prefecture": "長崎県", "id": 508 },
        { "address": "新港町", "city": "佐世保市", "postcode": "8570855", "prefecture": "長崎県", "id": 509 },
        { "address": "須佐町", "city": "佐世保市", "postcode": "8570812", "prefecture": "長崎県", "id": 510 },
        { "address": "須田尾町", "city": "佐世保市", "postcode": "8570831", "prefecture": "長崎県", "id": 511 },
        { "address": "星和台町", "city": "佐世保市", "postcode": "8580924", "prefecture": "長崎県", "id": 512 },
        { "address": "世知原町赤木場", "city": "佐世保市", "postcode": "8596401", "prefecture": "長崎県", "id": 513 },
        { "address": "世知原町岩谷口", "city": "佐世保市", "postcode": "8596402", "prefecture": "長崎県", "id": 514 },
        { "address": "世知原町上野原", "city": "佐世保市", "postcode": "8596403", "prefecture": "長崎県", "id": 515 },
        { "address": "世知原町太田", "city": "佐世保市", "postcode": "8596404", "prefecture": "長崎県", "id": 516 },
        { "address": "世知原町開作", "city": "佐世保市", "postcode": "8596405", "prefecture": "長崎県", "id": 517 },
        { "address": "世知原町木浦原", "city": "佐世保市", "postcode": "8596406", "prefecture": "長崎県", "id": 518 },
        { "address": "世知原町北川内", "city": "佐世保市", "postcode": "8596407", "prefecture": "長崎県", "id": 519 },
        { "address": "世知原町栗迎", "city": "佐世保市", "postcode": "8596408", "prefecture": "長崎県", "id": 520 },
        { "address": "世知原町長田代", "city": "佐世保市", "postcode": "8596411", "prefecture": "長崎県", "id": 521 },
        { "address": "世知原町中通", "city": "佐世保市", "postcode": "8596409", "prefecture": "長崎県", "id": 522 },
        { "address": "世知原町西ノ岳", "city": "佐世保市", "postcode": "8596412", "prefecture": "長崎県", "id": 523 },
        { "address": "世知原町笥瀬", "city": "佐世保市", "postcode": "8596413", "prefecture": "長崎県", "id": 524 },
        { "address": "世知原町矢櫃", "city": "佐世保市", "postcode": "8596414", "prefecture": "長崎県", "id": 525 },
        { "address": "世知原町槍巻", "city": "佐世保市", "postcode": "8596415", "prefecture": "長崎県", "id": 526 },
        { "address": "瀬道町", "city": "佐世保市", "postcode": "8593231", "prefecture": "長崎県", "id": 527 },
        { "address": "瀬戸越", "city": "佐世保市", "postcode": "8570134", "prefecture": "長崎県", "id": 528 },
        { "address": "瀬戸越町", "city": "佐世保市", "postcode": "8570135", "prefecture": "長崎県", "id": 529 },
        { "address": "園田町", "city": "佐世保市", "postcode": "8570045", "prefecture": "長崎県", "id": 530 },
        { "address": "大黒町", "city": "佐世保市", "postcode": "8570843", "prefecture": "長崎県", "id": 531 },
        { "address": "大塔町", "city": "佐世保市", "postcode": "8571161", "prefecture": "長崎県", "id": 532 },
        { "address": "高砂町", "city": "佐世保市", "postcode": "8570042", "prefecture": "長崎県", "id": 533 },
        { "address": "高島町", "city": "佐世保市", "postcode": "8580931", "prefecture": "長崎県", "id": 534 },
        { "address": "高梨町", "city": "佐世保市", "postcode": "8570811", "prefecture": "長崎県", "id": 535 },
        { "address": "高花町", "city": "佐世保市", "postcode": "8570125", "prefecture": "長崎県", "id": 536 },
        { "address": "岳野町", "city": "佐世保市", "postcode": "8580901", "prefecture": "長崎県", "id": 537 },
        { "address": "竹辺町", "city": "佐世保市", "postcode": "8580911", "prefecture": "長崎県", "id": 538 },
        { "address": "田代町", "city": "佐世保市", "postcode": "8570014", "prefecture": "長崎県", "id": 539 },
        { "address": "立神町", "city": "佐世保市", "postcode": "8570063", "prefecture": "長崎県", "id": 540 },
        { "address": "棚方町", "city": "佐世保市", "postcode": "8580907", "prefecture": "長崎県", "id": 541 },
        { "address": "谷郷町", "city": "佐世保市", "postcode": "8570027", "prefecture": "長崎県", "id": 542 },
        { "address": "田の浦町", "city": "佐世保市", "postcode": "8593205", "prefecture": "長崎県", "id": 543 },
        { "address": "田原町", "city": "佐世保市", "postcode": "8570136", "prefecture": "長崎県", "id": 544 },
        { "address": "俵ケ浦町", "city": "佐世保市", "postcode": "8571235", "prefecture": "長崎県", "id": 545 },
        { "address": "俵町", "city": "佐世保市", "postcode": "8570016", "prefecture": "長崎県", "id": 546 },
        { "address": "知見寺町", "city": "佐世保市", "postcode": "8570101", "prefecture": "長崎県", "id": 547 },
        { "address": "筒井町", "city": "佐世保市", "postcode": "8570111", "prefecture": "長崎県", "id": 548 },
        { "address": "天神", "city": "佐世保市", "postcode": "8571174", "prefecture": "長崎県", "id": 549 },
        { "address": "天神町", "city": "佐世保市", "postcode": "8571175", "prefecture": "長崎県", "id": 550 },
        { "address": "天満町", "city": "佐世保市", "postcode": "8570043", "prefecture": "長崎県", "id": 551 },
        { "address": "戸ケ倉町", "city": "佐世保市", "postcode": "8570124", "prefecture": "長崎県", "id": 552 },
        { "address": "常盤町", "city": "佐世保市", "postcode": "8570053", "prefecture": "長崎県", "id": 553 },
        { "address": "戸尾町", "city": "佐世保市", "postcode": "8570864", "prefecture": "長崎県", "id": 554 },
        { "address": "十文野町", "city": "佐世保市", "postcode": "8570141", "prefecture": "長崎県", "id": 555 },
        { "address": "長尾町", "city": "佐世保市", "postcode": "8570046", "prefecture": "長崎県", "id": 556 },
        { "address": "長坂町", "city": "佐世保市", "postcode": "8580921", "prefecture": "長崎県", "id": 557 },
        { "address": "中里町", "city": "佐世保市", "postcode": "8580904", "prefecture": "長崎県", "id": 558 },
        { "address": "中通町", "city": "佐世保市", "postcode": "8570038", "prefecture": "長崎県", "id": 559 },
        { "address": "長畑町", "city": "佐世保市", "postcode": "8593234", "prefecture": "長崎県", "id": 560 },
        { "address": "中原町", "city": "佐世保市", "postcode": "8593221", "prefecture": "長崎県", "id": 561 },
        { "address": "名切町", "city": "佐世保市", "postcode": "8570023", "prefecture": "長崎県", "id": 562 },
        { "address": "西大久保町", "city": "佐世保市", "postcode": "8570048", "prefecture": "長崎県", "id": 563 },
        { "address": "野崎町", "city": "佐世保市", "postcode": "8571234", "prefecture": "長崎県", "id": 564 },
        { "address": "野中町", "city": "佐世保市", "postcode": "8570142", "prefecture": "長崎県", "id": 565 },
        { "address": "早岐", "city": "佐世保市", "postcode": "8593215", "prefecture": "長崎県", "id": 566 },
        { "address": "ハウステンボス町", "city": "佐世保市", "postcode": "8593243", "prefecture": "長崎県", "id": 567 },
        { "address": "南風崎町", "city": "佐世保市", "postcode": "8593236", "prefecture": "長崎県", "id": 568 },
        { "address": "萩坂町", "city": "佐世保市", "postcode": "8593232", "prefecture": "長崎県", "id": 569 },
        { "address": "八の久保町", "city": "佐世保市", "postcode": "8580906", "prefecture": "長崎県", "id": 570 },
        { "address": "八幡町", "city": "佐世保市", "postcode": "8570028", "prefecture": "長崎県", "id": 571 },
        { "address": "花園町", "city": "佐世保市", "postcode": "8570024", "prefecture": "長崎県", "id": 572 },
        { "address": "花高", "city": "佐世保市", "postcode": "8593212", "prefecture": "長崎県", "id": 573 },
        { "address": "浜田町", "city": "佐世保市", "postcode": "8570051", "prefecture": "長崎県", "id": 574 },
        { "address": "針尾北町", "city": "佐世保市", "postcode": "8593454", "prefecture": "長崎県", "id": 575 },
        { "address": "針尾中町", "city": "佐世保市", "postcode": "8593452", "prefecture": "長崎県", "id": 576 },
        { "address": "針尾西町", "city": "佐世保市", "postcode": "8593453", "prefecture": "長崎県", "id": 577 },
        { "address": "針尾東町", "city": "佐世保市", "postcode": "8593451", "prefecture": "長崎県", "id": 578 },
        { "address": "原分町", "city": "佐世保市", "postcode": "8570103", "prefecture": "長崎県", "id": 579 },
        { "address": "日宇町", "city": "佐世保市", "postcode": "8571151", "prefecture": "長崎県", "id": 580 },
        { "address": "ひうみ町", "city": "佐世保市", "postcode": "8571167", "prefecture": "長崎県", "id": 581 },
        { "address": "東大久保町", "city": "佐世保市", "postcode": "8570049", "prefecture": "長崎県", "id": 582 },
        { "address": "東浜町", "city": "佐世保市", "postcode": "8571172", "prefecture": "長崎県", "id": 583 },
        { "address": "東山町", "city": "佐世保市", "postcode": "8570842", "prefecture": "長崎県", "id": 584 },
        { "address": "光町", "city": "佐世保市", "postcode": "8580908", "prefecture": "長崎県", "id": 585 },
        { "address": "干尽町", "city": "佐世保市", "postcode": "8570852", "prefecture": "長崎県", "id": 586 },
        { "address": "日野町", "city": "佐世保市", "postcode": "8580923", "prefecture": "長崎県", "id": 587 },
        { "address": "平瀬町", "city": "佐世保市", "postcode": "8570056", "prefecture": "長崎県", "id": 588 },
        { "address": "比良町", "city": "佐世保市", "postcode": "8570040", "prefecture": "長崎県", "id": 589 },
        { "address": "平松町", "city": "佐世保市", "postcode": "8593201", "prefecture": "長崎県", "id": 590 },
        { "address": "広田", "city": "佐世保市", "postcode": "8593223", "prefecture": "長崎県", "id": 591 },
        { "address": "広田町", "city": "佐世保市", "postcode": "8593222", "prefecture": "長崎県", "id": 592 },
        { "address": "福石町", "city": "佐世保市", "postcode": "8570854", "prefecture": "長崎県", "id": 593 },
        { "address": "福田町", "city": "佐世保市", "postcode": "8570035", "prefecture": "長崎県", "id": 594 },
        { "address": "藤原町", "city": "佐世保市", "postcode": "8570832", "prefecture": "長崎県", "id": 595 },
        { "address": "船越町", "city": "佐世保市", "postcode": "8571231", "prefecture": "長崎県", "id": 596 },
        { "address": "母ケ浦町", "city": "佐世保市", "postcode": "8580912", "prefecture": "長崎県", "id": 597 },
        { "address": "保立町", "city": "佐世保市", "postcode": "8570031", "prefecture": "長崎県", "id": 598 },
        { "address": "前畑町", "city": "佐世保市", "postcode": "8570853", "prefecture": "長崎県", "id": 599 },
        { "address": "牧の地町", "city": "佐世保市", "postcode": "8570145", "prefecture": "長崎県", "id": 600 },
        { "address": "松浦町", "city": "佐世保市", "postcode": "8570052", "prefecture": "長崎県", "id": 601 },
        { "address": "松川町", "city": "佐世保市", "postcode": "8570804", "prefecture": "長崎県", "id": 602 },
        { "address": "松瀬町", "city": "佐世保市", "postcode": "8570102", "prefecture": "長崎県", "id": 603 },
        { "address": "松原町", "city": "佐世保市", "postcode": "8570132", "prefecture": "長崎県", "id": 604 },
        { "address": "松山町", "city": "佐世保市", "postcode": "8570015", "prefecture": "長崎県", "id": 605 },
        { "address": "万徳町", "city": "佐世保市", "postcode": "8570034", "prefecture": "長崎県", "id": 606 },
        { "address": "三浦町", "city": "佐世保市", "postcode": "8570863", "prefecture": "長崎県", "id": 607 },
        { "address": "三川内新町", "city": "佐世保市", "postcode": "8593153", "prefecture": "長崎県", "id": 608 },
        { "address": "三川内町", "city": "佐世保市", "postcode": "8593155", "prefecture": "長崎県", "id": 609 },
        { "address": "三川内本町", "city": "佐世保市", "postcode": "8593151", "prefecture": "長崎県", "id": 610 },
        { "address": "湊町", "city": "佐世保市", "postcode": "8570055", "prefecture": "長崎県", "id": 611 },
        { "address": "峰坂町", "city": "佐世保市", "postcode": "8570861", "prefecture": "長崎県", "id": 612 },
        { "address": "御船町", "city": "佐世保市", "postcode": "8570068", "prefecture": "長崎県", "id": 613 },
        { "address": "宮崎町", "city": "佐世保市", "postcode": "8570873", "prefecture": "長崎県", "id": 614 },
        { "address": "宮地町", "city": "佐世保市", "postcode": "8570026", "prefecture": "長崎県", "id": 615 },
        { "address": "宮田町", "city": "佐世保市", "postcode": "8570032", "prefecture": "長崎県", "id": 616 },
        { "address": "宮津町", "city": "佐世保市", "postcode": "8593235", "prefecture": "長崎県", "id": 617 },
        { "address": "本島町", "city": "佐世保市", "postcode": "8570871", "prefecture": "長崎県", "id": 618 },
        { "address": "元町", "city": "佐世保市", "postcode": "8570059", "prefecture": "長崎県", "id": 619 },
        { "address": "もみじが丘町", "city": "佐世保市", "postcode": "8571153", "prefecture": "長崎県", "id": 620 },
        { "address": "矢岳町", "city": "佐世保市", "postcode": "8570047", "prefecture": "長崎県", "id": 621 },
        { "address": "山県町", "city": "佐世保市", "postcode": "8570878", "prefecture": "長崎県", "id": 622 },
        { "address": "山祇町", "city": "佐世保市", "postcode": "8570822", "prefecture": "長崎県", "id": 623 },
        { "address": "山手町", "city": "佐世保市", "postcode": "8570022", "prefecture": "長崎県", "id": 624 },
        { "address": "大和町", "city": "佐世保市", "postcode": "8571165", "prefecture": "長崎県", "id": 625 },
        { "address": "矢峰町", "city": "佐世保市", "postcode": "8570133", "prefecture": "長崎県", "id": 626 },
        { "address": "柚木町", "city": "佐世保市", "postcode": "8570112", "prefecture": "長崎県", "id": 627 },
        { "address": "柚木元町", "city": "佐世保市", "postcode": "8570115", "prefecture": "長崎県", "id": 628 },
        { "address": "横尾町", "city": "佐世保市", "postcode": "8570018", "prefecture": "長崎県", "id": 629 },
        { "address": "横手町", "city": "佐世保市", "postcode": "8593163", "prefecture": "長崎県", "id": 630 },
        { "address": "吉井町板樋", "city": "佐世保市", "postcode": "8596303", "prefecture": "長崎県", "id": 631 },
        { "address": "吉井町大渡", "city": "佐世保市", "postcode": "8596325", "prefecture": "長崎県", "id": 632 },
        { "address": "吉井町乙石尾", "city": "佐世保市", "postcode": "8596316", "prefecture": "長崎県", "id": 633 },
        { "address": "吉井町踊瀬", "city": "佐世保市", "postcode": "8596322", "prefecture": "長崎県", "id": 634 },
        { "address": "吉井町梶木場", "city": "佐世保市", "postcode": "8596304", "prefecture": "長崎県", "id": 635 },
        { "address": "吉井町上吉田", "city": "佐世保市", "postcode": "8596313", "prefecture": "長崎県", "id": 636 },
        { "address": "吉井町下原", "city": "佐世保市", "postcode": "8596315", "prefecture": "長崎県", "id": 637 },
        { "address": "吉井町草ノ尾", "city": "佐世保市", "postcode": "8596301", "prefecture": "長崎県", "id": 638 },
        { "address": "吉井町高峰", "city": "佐世保市", "postcode": "8596317", "prefecture": "長崎県", "id": 639 },
        { "address": "吉井町立石", "city": "佐世保市", "postcode": "8596326", "prefecture": "長崎県", "id": 640 },
        { "address": "吉井町田原", "city": "佐世保市", "postcode": "8596314", "prefecture": "長崎県", "id": 641 },
        { "address": "吉井町直谷", "city": "佐世保市", "postcode": "8596305", "prefecture": "長崎県", "id": 642 },
        { "address": "吉井町橋川内", "city": "佐世保市", "postcode": "8596311", "prefecture": "長崎県", "id": 643 },
        { "address": "吉井町橋口", "city": "佐世保市", "postcode": "8596312", "prefecture": "長崎県", "id": 644 },
        { "address": "吉井町春明", "city": "佐世保市", "postcode": "8596323", "prefecture": "長崎県", "id": 645 },
        { "address": "吉井町福井", "city": "佐世保市", "postcode": "8596302", "prefecture": "長崎県", "id": 646 },
        { "address": "吉井町前岳", "city": "佐世保市", "postcode": "8596321", "prefecture": "長崎県", "id": 647 },
        { "address": "吉井町吉元", "city": "佐世保市", "postcode": "8596324", "prefecture": "長崎県", "id": 648 },
        { "address": "吉岡町", "city": "佐世保市", "postcode": "8570143", "prefecture": "長崎県", "id": 649 },
        { "address": "吉福町", "city": "佐世保市", "postcode": "8593162", "prefecture": "長崎県", "id": 650 },
        { "address": "万津町", "city": "佐世保市", "postcode": "8570877", "prefecture": "長崎県", "id": 651 },
        { "address": "若竹台町", "city": "佐世保市", "postcode": "8593204", "prefecture": "長崎県", "id": 652 },
        { "address": "若葉町", "city": "佐世保市", "postcode": "8570833", "prefecture": "長崎県", "id": 653 },
        { "city": "島原市", "postcode": "8550000", "prefecture": "長崎県", "id": 654 },
        { "city": "島原市", "postcode": "8550038", "prefecture": "長崎県", "id": 655 },
        { "address": "青葉町", "city": "島原市", "postcode": "8550855", "prefecture": "長崎県", "id": 656 },
        { "address": "油堀町", "city": "島原市", "postcode": "8550021", "prefecture": "長崎県", "id": 657 },
        { "address": "洗切町", "city": "島原市", "postcode": "8550002", "prefecture": "長崎県", "id": 658 },
        { "address": "有明町大三東乙", "city": "島原市", "postcode": "8591412", "prefecture": "長崎県", "id": 659 },
        { "address": "有明町大三東甲", "city": "島原市", "postcode": "8591411", "prefecture": "長崎県", "id": 660 },
        { "address": "有明町大三東丁", "city": "島原市", "postcode": "8591414", "prefecture": "長崎県", "id": 661 },
        { "address": "有明町大三東丙", "city": "島原市", "postcode": "8591413", "prefecture": "長崎県", "id": 662 },
        { "address": "有明町大三東戊", "city": "島原市", "postcode": "8591415", "prefecture": "長崎県", "id": 663 },
        { "address": "有明町湯江乙", "city": "島原市", "postcode": "8591402", "prefecture": "長崎県", "id": 664 },
        { "address": "有明町湯江甲", "city": "島原市", "postcode": "8591401", "prefecture": "長崎県", "id": 665 },
        { "address": "有明町湯江丁", "city": "島原市", "postcode": "8591404", "prefecture": "長崎県", "id": 666 },
        { "address": "有明町湯江丙", "city": "島原市", "postcode": "8591403", "prefecture": "長崎県", "id": 667 },
        { "address": "有馬船津町", "city": "島原市", "postcode": "8550813", "prefecture": "長崎県", "id": 668 },
        { "address": "出の川町", "city": "島原市", "postcode": "8550023", "prefecture": "長崎県", "id": 669 },
        { "address": "出平町", "city": "島原市", "postcode": "8550015", "prefecture": "長崎県", "id": 670 },
        { "address": "今川町", "city": "島原市", "postcode": "8550046", "prefecture": "長崎県", "id": 671 },
        { "address": "上の原", "city": "島原市", "postcode": "8550853", "prefecture": "長崎県", "id": 672 },
        { "address": "上の町", "city": "島原市", "postcode": "8550045", "prefecture": "長崎県", "id": 673 },
        { "address": "宇土町", "city": "島原市", "postcode": "8550071", "prefecture": "長崎県", "id": 674 },
        { "address": "梅園町", "city": "島原市", "postcode": "8550872", "prefecture": "長崎県", "id": 675 },
        { "address": "浦田", "city": "島原市", "postcode": "8550817", "prefecture": "長崎県", "id": 676 },
        { "address": "浦の川", "city": "島原市", "postcode": "8550056", "prefecture": "長崎県", "id": 677 },
        { "address": "上新丁", "city": "島原市", "postcode": "8550067", "prefecture": "長崎県", "id": 678 },
        { "address": "江戸丁", "city": "島原市", "postcode": "8550059", "prefecture": "長崎県", "id": 679 },
        { "address": "蛭子町", "city": "島原市", "postcode": "8550816", "prefecture": "長崎県", "id": 680 },
        { "address": "江里町", "city": "島原市", "postcode": "8550017", "prefecture": "長崎県", "id": 681 },
        { "address": "大下町", "city": "島原市", "postcode": "8550878", "prefecture": "長崎県", "id": 682 },
        { "address": "大手原町", "city": "島原市", "postcode": "8550012", "prefecture": "長崎県", "id": 683 },
        { "address": "御手水町", "city": "島原市", "postcode": "8550011", "prefecture": "長崎県", "id": 684 },
        { "address": "柿の木町", "city": "島原市", "postcode": "8550066", "prefecture": "長崎県", "id": 685 },
        { "address": "柏野町", "city": "島原市", "postcode": "8550064", "prefecture": "長崎県", "id": 686 },
        { "address": "片町", "city": "島原市", "postcode": "8550042", "prefecture": "長崎県", "id": 687 },
        { "address": "門内町", "city": "島原市", "postcode": "8550881", "prefecture": "長崎県", "id": 688 },
        { "address": "鎌田町", "city": "島原市", "postcode": "8550874", "prefecture": "長崎県", "id": 689 },
        { "address": "上折橋町", "city": "島原市", "postcode": "8550076", "prefecture": "長崎県", "id": 690 },
        { "address": "加美町", "city": "島原市", "postcode": "8550808", "prefecture": "長崎県", "id": 691 },
        { "address": "亀の甲町", "city": "島原市", "postcode": "8550004", "prefecture": "長崎県", "id": 692 },
        { "address": "北安徳町", "city": "島原市", "postcode": "8550873", "prefecture": "長崎県", "id": 693 },
        { "address": "北上木場町", "city": "島原市", "postcode": "8550886", "prefecture": "長崎県", "id": 694 },
        { "address": "北千本木町", "city": "島原市", "postcode": "8550078", "prefecture": "長崎県", "id": 695 },
        { "address": "北原町", "city": "島原市", "postcode": "8550058", "prefecture": "長崎県", "id": 696 },
        { "address": "北門町", "city": "島原市", "postcode": "8550032", "prefecture": "長崎県", "id": 697 },
        { "address": "崩山町", "city": "島原市", "postcode": "8550841", "prefecture": "長崎県", "id": 698 },
        { "address": "礫石原町", "city": "島原市", "postcode": "8550026", "prefecture": "長崎県", "id": 699 },
        { "address": "湖南町", "city": "島原市", "postcode": "8550836", "prefecture": "長崎県", "id": 700 },
        { "address": "小山町", "city": "島原市", "postcode": "8550856", "prefecture": "長崎県", "id": 701 },
        { "address": "坂上町", "city": "島原市", "postcode": "8550832", "prefecture": "長崎県", "id": 702 },
        { "address": "栄町", "city": "島原市", "postcode": "8550842", "prefecture": "長崎県", "id": 703 },
        { "address": "坂下町", "city": "島原市", "postcode": "8550833", "prefecture": "長崎県", "id": 704 },
        { "address": "先魁町", "city": "島原市", "postcode": "8550035", "prefecture": "長崎県", "id": 705 },
        { "address": "桜町", "city": "島原市", "postcode": "8550809", "prefecture": "長崎県", "id": 706 },
        { "address": "桜門町", "city": "島原市", "postcode": "8550051", "prefecture": "長崎県", "id": 707 },
        { "address": "寺中町", "city": "島原市", "postcode": "8550006", "prefecture": "長崎県", "id": 708 },
        { "address": "下新丁", "city": "島原市", "postcode": "8550055", "prefecture": "長崎県", "id": 709 },
        { "address": "下の丁", "city": "島原市", "postcode": "8550052", "prefecture": "長崎県", "id": 710 },
        { "address": "下折橋町", "city": "島原市", "postcode": "8550075", "prefecture": "長崎県", "id": 711 },
        { "address": "下川尻町", "city": "島原市", "postcode": "8550861", "prefecture": "長崎県", "id": 712 },
        { "address": "下宮町", "city": "島原市", "postcode": "8550014", "prefecture": "長崎県", "id": 713 },
        { "address": "城西中の丁", "city": "島原市", "postcode": "8550053", "prefecture": "長崎県", "id": 714 },
        { "address": "城内", "city": "島原市", "postcode": "8550036", "prefecture": "長崎県", "id": 715 },
        { "address": "白谷町", "city": "島原市", "postcode": "8550885", "prefecture": "長崎県", "id": 716 },
        { "address": "白土町", "city": "島原市", "postcode": "8550807", "prefecture": "長崎県", "id": 717 },
        { "address": "白土桃山", "city": "島原市", "postcode": "8550811", "prefecture": "長崎県", "id": 718 },
        { "address": "城見町", "city": "島原市", "postcode": "8550074", "prefecture": "長崎県", "id": 719 },
        { "address": "新建", "city": "島原市", "postcode": "8550057", "prefecture": "長崎県", "id": 720 },
        { "address": "新田町", "city": "島原市", "postcode": "8550043", "prefecture": "長崎県", "id": 721 },
        { "address": "新馬場町", "city": "島原市", "postcode": "8550033", "prefecture": "長崎県", "id": 722 },
        { "address": "新町", "city": "島原市", "postcode": "8550803", "prefecture": "長崎県", "id": 723 },
        { "address": "新湊", "city": "島原市", "postcode": "8550862", "prefecture": "長崎県", "id": 724 },
        { "address": "新山", "city": "島原市", "postcode": "8550843", "prefecture": "長崎県", "id": 725 },
        { "address": "親和町", "city": "島原市", "postcode": "8550863", "prefecture": "長崎県", "id": 726 },
        { "address": "杉山町", "city": "島原市", "postcode": "8550068", "prefecture": "長崎県", "id": 727 },
        { "address": "高島", "city": "島原市", "postcode": "8550801", "prefecture": "長崎県", "id": 728 },
        { "address": "立野町", "city": "島原市", "postcode": "8550025", "prefecture": "長崎県", "id": 729 },
        { "address": "田町", "city": "島原市", "postcode": "8550034", "prefecture": "長崎県", "id": 730 },
        { "address": "秩父が浦町", "city": "島原市", "postcode": "8550864", "prefecture": "長崎県", "id": 731 },
        { "address": "津吹町", "city": "島原市", "postcode": "8550007", "prefecture": "長崎県", "id": 732 },
        { "address": "津町", "city": "島原市", "postcode": "8550814", "prefecture": "長崎県", "id": 733 },
        { "address": "寺町", "city": "島原市", "postcode": "8550852", "prefecture": "長崎県", "id": 734 },
        { "address": "天神元町", "city": "島原市", "postcode": "8550883", "prefecture": "長崎県", "id": 735 },
        { "address": "中安徳町", "city": "島原市", "postcode": "8550875", "prefecture": "長崎県", "id": 736 },
        { "address": "中尾町", "city": "島原市", "postcode": "8550061", "prefecture": "長崎県", "id": 737 },
        { "address": "中組町", "city": "島原市", "postcode": "8550822", "prefecture": "長崎県", "id": 738 },
        { "address": "中野町", "city": "島原市", "postcode": "8550001", "prefecture": "長崎県", "id": 739 },
        { "address": "中原町", "city": "島原市", "postcode": "8550005", "prefecture": "長崎県", "id": 740 },
        { "address": "中堀町", "city": "島原市", "postcode": "8550806", "prefecture": "長崎県", "id": 741 },
        { "address": "中町", "city": "島原市", "postcode": "8550044", "prefecture": "長崎県", "id": 742 },
        { "address": "長貫町", "city": "島原市", "postcode": "8550022", "prefecture": "長崎県", "id": 743 },
        { "address": "西町", "city": "島原市", "postcode": "8550018", "prefecture": "長崎県", "id": 744 },
        { "address": "西八幡町", "city": "島原市", "postcode": "8550835", "prefecture": "長崎県", "id": 745 },
        { "address": "仁田町", "city": "島原市", "postcode": "8550884", "prefecture": "長崎県", "id": 746 },
        { "address": "萩が丘", "city": "島原市", "postcode": "8550854", "prefecture": "長崎県", "id": 747 },
        { "address": "萩原", "city": "島原市", "postcode": "8550851", "prefecture": "長崎県", "id": 748 },
        { "address": "白山町", "city": "島原市", "postcode": "8550824", "prefecture": "長崎県", "id": 749 },
        { "address": "浜の町", "city": "島原市", "postcode": "8550877", "prefecture": "長崎県", "id": 750 },
        { "address": "原口町", "city": "島原市", "postcode": "8550008", "prefecture": "長崎県", "id": 751 },
        { "address": "原町", "city": "島原市", "postcode": "8550063", "prefecture": "長崎県", "id": 752 },
        { "address": "稗田町", "city": "島原市", "postcode": "8550013", "prefecture": "長崎県", "id": 753 },
        { "address": "広高野町", "city": "島原市", "postcode": "8550024", "prefecture": "長崎県", "id": 754 },
        { "address": "広馬場町", "city": "島原市", "postcode": "8550825", "prefecture": "長崎県", "id": 755 },
        { "address": "札の元町", "city": "島原市", "postcode": "8550882", "prefecture": "長崎県", "id": 756 },
        { "address": "船泊町", "city": "島原市", "postcode": "8550865", "prefecture": "長崎県", "id": 757 },
        { "address": "古丁", "city": "島原市", "postcode": "8550054", "prefecture": "長崎県", "id": 758 },
        { "address": "平成町", "city": "島原市", "postcode": "8550879", "prefecture": "長崎県", "id": 759 },
        { "address": "弁天町", "city": "島原市", "postcode": "8550802", "prefecture": "長崎県", "id": 760 },
        { "address": "堀町", "city": "島原市", "postcode": "8550805", "prefecture": "長崎県", "id": 761 },
        { "address": "本光寺町", "city": "島原市", "postcode": "8550073", "prefecture": "長崎県", "id": 762 },
        { "address": "本町", "city": "島原市", "postcode": "8550062", "prefecture": "長崎県", "id": 763 },
        { "address": "前浜町", "city": "島原市", "postcode": "8550031", "prefecture": "長崎県", "id": 764 },
        { "address": "三会町", "city": "島原市", "postcode": "8550003", "prefecture": "長崎県", "id": 765 },
        { "address": "緑町", "city": "島原市", "postcode": "8550867", "prefecture": "長崎県", "id": 766 },
        { "address": "湊新地町", "city": "島原市", "postcode": "8550821", "prefecture": "長崎県", "id": 767 },
        { "address": "湊町", "city": "島原市", "postcode": "8550823", "prefecture": "長崎県", "id": 768 },
        { "address": "湊道", "city": "島原市", "postcode": "8550831", "prefecture": "長崎県", "id": 769 },
        { "address": "南安徳町", "city": "島原市", "postcode": "8550876", "prefecture": "長崎県", "id": 770 },
        { "address": "南柏野町", "city": "島原市", "postcode": "8550065", "prefecture": "長崎県", "id": 771 },
        { "address": "南上木場町", "city": "島原市", "postcode": "8550887", "prefecture": "長崎県", "id": 772 },
        { "address": "南崩山町", "city": "島原市", "postcode": "8550871", "prefecture": "長崎県", "id": 773 },
        { "address": "南下川尻町", "city": "島原市", "postcode": "8550866", "prefecture": "長崎県", "id": 774 },
        { "address": "南千本木町", "city": "島原市", "postcode": "8550077", "prefecture": "長崎県", "id": 775 },
        { "address": "宮の町", "city": "島原市", "postcode": "8550041", "prefecture": "長崎県", "id": 776 },
        { "address": "六ツ木町", "city": "島原市", "postcode": "8550072", "prefecture": "長崎県", "id": 777 },
        { "address": "元船津町", "city": "島原市", "postcode": "8550815", "prefecture": "長崎県", "id": 778 },
        { "address": "八幡町", "city": "島原市", "postcode": "8550834", "prefecture": "長崎県", "id": 779 },
        { "address": "山寺町", "city": "島原市", "postcode": "8550016", "prefecture": "長崎県", "id": 780 },
        { "address": "万町", "city": "島原市", "postcode": "8550804", "prefecture": "長崎県", "id": 781 },
        { "address": "霊南", "city": "島原市", "postcode": "8550812", "prefecture": "長崎県", "id": 782 },
        { "city": "諫早市", "postcode": "8540000", "prefecture": "長崎県", "id": 783 },
        { "address": "青葉台", "city": "諫早市", "postcode": "8540068", "prefecture": "長崎県", "id": 784 },
        { "address": "赤崎町", "city": "諫早市", "postcode": "8540032", "prefecture": "長崎県", "id": 785 },
        { "address": "旭町", "city": "諫早市", "postcode": "8540027", "prefecture": "長崎県", "id": 786 },
        { "address": "小豆崎町", "city": "諫早市", "postcode": "8590311", "prefecture": "長崎県", "id": 787 },
        { "address": "飯盛町池下", "city": "諫早市", "postcode": "8541125", "prefecture": "長崎県", "id": 788 },
        { "address": "飯盛町上原", "city": "諫早市", "postcode": "8541104", "prefecture": "長崎県", "id": 789 },
        { "address": "飯盛町後田", "city": "諫早市", "postcode": "8541105", "prefecture": "長崎県", "id": 790 },
        { "address": "飯盛町川下", "city": "諫早市", "postcode": "8541124", "prefecture": "長崎県", "id": 791 },
        { "address": "飯盛町久保", "city": "諫早市", "postcode": "8541114", "prefecture": "長崎県", "id": 792 },
        { "address": "飯盛町古場", "city": "諫早市", "postcode": "8541121", "prefecture": "長崎県", "id": 793 },
        { "address": "飯盛町佐田", "city": "諫早市", "postcode": "8541122", "prefecture": "長崎県", "id": 794 },
        { "address": "飯盛町里", "city": "諫早市", "postcode": "8541123", "prefecture": "長崎県", "id": 795 },
        { "address": "飯盛町下釜", "city": "諫早市", "postcode": "8541113", "prefecture": "長崎県", "id": 796 },
        { "address": "飯盛町中山", "city": "諫早市", "postcode": "8541103", "prefecture": "長崎県", "id": 797 },
        { "address": "飯盛町野中", "city": "諫早市", "postcode": "8541101", "prefecture": "長崎県", "id": 798 },
        { "address": "飯盛町開", "city": "諫早市", "postcode": "8541112", "prefecture": "長崎県", "id": 799 },
        { "address": "飯盛町平古場", "city": "諫早市", "postcode": "8541111", "prefecture": "長崎県", "id": 800 },
        { "address": "飯盛町山口", "city": "諫早市", "postcode": "8541102", "prefecture": "長崎県", "id": 801 },
        { "address": "泉町", "city": "諫早市", "postcode": "8540003", "prefecture": "長崎県", "id": 802 },
        { "address": "上野町", "city": "諫早市", "postcode": "8540042", "prefecture": "長崎県", "id": 803 },
        { "address": "有喜町", "city": "諫早市", "postcode": "8540121", "prefecture": "長崎県", "id": 804 },
        { "address": "宇都町", "city": "諫早市", "postcode": "8540061", "prefecture": "長崎県", "id": 805 },
        { "address": "永昌東町", "city": "諫早市", "postcode": "8540071", "prefecture": "長崎県", "id": 806 },
        { "address": "永昌町", "city": "諫早市", "postcode": "8540072", "prefecture": "長崎県", "id": 807 },
        { "address": "栄田町", "city": "諫早市", "postcode": "8540081", "prefecture": "長崎県", "id": 808 },
        { "address": "大さこ町", "city": "諫早市", "postcode": "8540087", "prefecture": "長崎県", "id": 809 },
        { "address": "大場町", "city": "諫早市", "postcode": "8590315", "prefecture": "長崎県", "id": 810 },
        { "address": "小川町", "city": "諫早市", "postcode": "8540053", "prefecture": "長崎県", "id": 811 },
        { "address": "御手水町", "city": "諫早市", "postcode": "8590314", "prefecture": "長崎県", "id": 812 },
        { "address": "小野島町", "city": "諫早市", "postcode": "8540031", "prefecture": "長崎県", "id": 813 },
        { "address": "小野町", "city": "諫早市", "postcode": "8540034", "prefecture": "長崎県", "id": 814 },
        { "address": "小船越町", "city": "諫早市", "postcode": "8540062", "prefecture": "長崎県", "id": 815 },
        { "address": "貝津ヶ丘", "city": "諫早市", "postcode": "8540069", "prefecture": "長崎県", "id": 816 },
        { "address": "貝津町", "city": "諫早市", "postcode": "8540063", "prefecture": "長崎県", "id": 817 },
        { "address": "金谷町", "city": "諫早市", "postcode": "8540004", "prefecture": "長崎県", "id": 818 },
        { "address": "上大渡野町", "city": "諫早市", "postcode": "8540095", "prefecture": "長崎県", "id": 819 },
        { "address": "上町", "city": "諫早市", "postcode": "8540024", "prefecture": "長崎県", "id": 820 },
        { "address": "川内町", "city": "諫早市", "postcode": "8540037", "prefecture": "長崎県", "id": 821 },
        { "address": "川床町", "city": "諫早市", "postcode": "8540052", "prefecture": "長崎県", "id": 822 },
        { "address": "久山台", "city": "諫早市", "postcode": "8540067", "prefecture": "長崎県", "id": 823 },
        { "address": "久山町", "city": "諫早市", "postcode": "8540066", "prefecture": "長崎県", "id": 824 },
        { "address": "栗面町", "city": "諫早市", "postcode": "8540055", "prefecture": "長崎県", "id": 825 },
        { "address": "黒崎町", "city": "諫早市", "postcode": "8540033", "prefecture": "長崎県", "id": 826 },
        { "address": "厚生町", "city": "諫早市", "postcode": "8540023", "prefecture": "長崎県", "id": 827 },
        { "address": "高天町", "city": "諫早市", "postcode": "8590303", "prefecture": "長崎県", "id": 828 },
        { "address": "小ケ倉町", "city": "諫早市", "postcode": "8540054", "prefecture": "長崎県", "id": 829 },
        { "address": "小長井町井崎", "city": "諫早市", "postcode": "8590166", "prefecture": "長崎県", "id": 830 },
        { "address": "小長井町打越", "city": "諫早市", "postcode": "8590151", "prefecture": "長崎県", "id": 831 },
        { "address": "小長井町大搦", "city": "諫早市", "postcode": "8590152", "prefecture": "長崎県", "id": 832 },
        { "address": "小長井町大峰", "city": "諫早市", "postcode": "8590153", "prefecture": "長崎県", "id": 833 },
        { "address": "小長井町小川原浦", "city": "諫早市", "postcode": "8590165", "prefecture": "長崎県", "id": 834 },
        { "address": "小長井町川内", "city": "諫早市", "postcode": "8590154", "prefecture": "長崎県", "id": 835 },
        { "address": "小長井町古場", "city": "諫早市", "postcode": "8590161", "prefecture": "長崎県", "id": 836 },
        { "address": "小長井町新田原", "city": "諫早市", "postcode": "8590162", "prefecture": "長崎県", "id": 837 },
        { "address": "小長井町田原", "city": "諫早市", "postcode": "8590163", "prefecture": "長崎県", "id": 838 },
        { "address": "小長井町遠竹", "city": "諫早市", "postcode": "8590167", "prefecture": "長崎県", "id": 839 },
        { "address": "小長井町牧", "city": "諫早市", "postcode": "8590164", "prefecture": "長崎県", "id": 840 },
        { "address": "幸町", "city": "諫早市", "postcode": "8540022", "prefecture": "長崎県", "id": 841 },
        { "address": "栄町", "city": "諫早市", "postcode": "8540013", "prefecture": "長崎県", "id": 842 },
        { "address": "猿崎町", "city": "諫早市", "postcode": "8590305", "prefecture": "長崎県", "id": 843 },
        { "address": "下大渡野町", "city": "諫早市", "postcode": "8540096", "prefecture": "長崎県", "id": 844 },
        { "address": "正久寺町", "city": "諫早市", "postcode": "8590302", "prefecture": "長崎県", "id": 845 },
        { "address": "白岩町", "city": "諫早市", "postcode": "8540077", "prefecture": "長崎県", "id": 846 },
        { "address": "白木峰町", "city": "諫早市", "postcode": "8590307", "prefecture": "長崎県", "id": 847 },
        { "address": "白浜町", "city": "諫早市", "postcode": "8590304", "prefecture": "長崎県", "id": 848 },
        { "address": "白原町", "city": "諫早市", "postcode": "8590306", "prefecture": "長崎県", "id": 849 },
        { "address": "城見町", "city": "諫早市", "postcode": "8540005", "prefecture": "長崎県", "id": 850 },
        { "address": "新道町", "city": "諫早市", "postcode": "8540045", "prefecture": "長崎県", "id": 851 },
        { "address": "高来町泉", "city": "諫早市", "postcode": "8590121", "prefecture": "長崎県", "id": 852 },
        { "address": "高来町上与", "city": "諫早市", "postcode": "8590111", "prefecture": "長崎県", "id": 853 },
        { "address": "高来町小江干拓", "city": "諫早市", "postcode": "8590171", "prefecture": "長崎県", "id": 854 },
        { "address": "高来町大戸", "city": "諫早市", "postcode": "8590101", "prefecture": "長崎県", "id": 855 },
        { "address": "高来町折山", "city": "諫早市", "postcode": "8590102", "prefecture": "長崎県", "id": 856 },
        { "address": "高来町金崎", "city": "諫早市", "postcode": "8590146", "prefecture": "長崎県", "id": 857 },
        { "address": "高来町汲水", "city": "諫早市", "postcode": "8590141", "prefecture": "長崎県", "id": 858 },
        { "address": "高来町黒崎", "city": "諫早市", "postcode": "8590122", "prefecture": "長崎県", "id": 859 },
        { "address": "高来町黒新田", "city": "諫早市", "postcode": "8590142", "prefecture": "長崎県", "id": 860 },
        { "address": "高来町神津倉", "city": "諫早市", "postcode": "8590131", "prefecture": "長崎県", "id": 861 },
        { "address": "高来町古場", "city": "諫早市", "postcode": "8590103", "prefecture": "長崎県", "id": 862 },
        { "address": "高来町小船津", "city": "諫早市", "postcode": "8590112", "prefecture": "長崎県", "id": 863 },
        { "address": "高来町小峰", "city": "諫早市", "postcode": "8590123", "prefecture": "長崎県", "id": 864 },
        { "address": "高来町坂元", "city": "諫早市", "postcode": "8590143", "prefecture": "長崎県", "id": 865 },
        { "address": "高来町里", "city": "諫早市", "postcode": "8590124", "prefecture": "長崎県", "id": 866 },
        { "address": "高来町三部壱", "city": "諫早市", "postcode": "8590132", "prefecture": "長崎県", "id": 867 },
        { "address": "高来町下与", "city": "諫早市", "postcode": "8590113", "prefecture": "長崎県", "id": 868 },
        { "address": "高来町善住寺", "city": "諫早市", "postcode": "8590125", "prefecture": "長崎県", "id": 869 },
        { "address": "高来町建山", "city": "諫早市", "postcode": "8590104", "prefecture": "長崎県", "id": 870 },
        { "address": "高来町西尾", "city": "諫早市", "postcode": "8590115", "prefecture": "長崎県", "id": 871 },
        { "address": "高来町西平原", "city": "諫早市", "postcode": "8590114", "prefecture": "長崎県", "id": 872 },
        { "address": "高来町法川", "city": "諫早市", "postcode": "8590126", "prefecture": "長崎県", "id": 873 },
        { "address": "高来町東平原", "city": "諫早市", "postcode": "8590133", "prefecture": "長崎県", "id": 874 },
        { "address": "高来町平田", "city": "諫早市", "postcode": "8590116", "prefecture": "長崎県", "id": 875 },
        { "address": "高来町冨地戸", "city": "諫早市", "postcode": "8590106", "prefecture": "長崎県", "id": 876 },
        { "address": "高来町船津", "city": "諫早市", "postcode": "8590105", "prefecture": "長崎県", "id": 877 },
        { "address": "高来町町名", "city": "諫早市", "postcode": "8590127", "prefecture": "長崎県", "id": 878 },
        { "address": "高来町水ノ浦", "city": "諫早市", "postcode": "8590147", "prefecture": "長崎県", "id": 879 },
        { "address": "高来町溝口", "city": "諫早市", "postcode": "8590144", "prefecture": "長崎県", "id": 880 },
        { "address": "高来町峰", "city": "諫早市", "postcode": "8590117", "prefecture": "長崎県", "id": 881 },
        { "address": "高来町山道", "city": "諫早市", "postcode": "8590145", "prefecture": "長崎県", "id": 882 },
        { "address": "高城町", "city": "諫早市", "postcode": "8540016", "prefecture": "長崎県", "id": 883 },
        { "address": "立石町", "city": "諫早市", "postcode": "8540043", "prefecture": "長崎県", "id": 884 },
        { "address": "多良見町市布", "city": "諫早市", "postcode": "8590403", "prefecture": "長崎県", "id": 885 },
        { "address": "多良見町囲", "city": "諫早市", "postcode": "8590402", "prefecture": "長崎県", "id": 886 },
        { "address": "多良見町木床", "city": "諫早市", "postcode": "8590406", "prefecture": "長崎県", "id": 887 },
        { "address": "多良見町化屋", "city": "諫早市", "postcode": "8590401", "prefecture": "長崎県", "id": 888 },
        { "address": "多良見町佐瀬", "city": "諫早市", "postcode": "8590418", "prefecture": "長崎県", "id": 889 },
        { "address": "多良見町シーサイド", "city": "諫早市", "postcode": "8590407", "prefecture": "長崎県", "id": 890 },
        { "address": "多良見町中里", "city": "諫早市", "postcode": "8590405", "prefecture": "長崎県", "id": 891 },
        { "address": "多良見町西川内", "city": "諫早市", "postcode": "8590404", "prefecture": "長崎県", "id": 892 },
        { "address": "多良見町西園", "city": "諫早市", "postcode": "8590412", "prefecture": "長崎県", "id": 893 },
        { "address": "多良見町野川内", "city": "諫早市", "postcode": "8590416", "prefecture": "長崎県", "id": 894 },
        { "address": "多良見町野副", "city": "諫早市", "postcode": "8590413", "prefecture": "長崎県", "id": 895 },
        { "address": "多良見町東園", "city": "諫早市", "postcode": "8590411", "prefecture": "長崎県", "id": 896 },
        { "address": "多良見町舟津", "city": "諫早市", "postcode": "8590417", "prefecture": "長崎県", "id": 897 },
        { "address": "多良見町元釜", "city": "諫早市", "postcode": "8590414", "prefecture": "長崎県", "id": 898 },
        { "address": "多良見町山川内", "city": "諫早市", "postcode": "8590415", "prefecture": "長崎県", "id": 899 },
        { "address": "中央干拓", "city": "諫早市", "postcode": "8540038", "prefecture": "長崎県", "id": 900 },
        { "address": "津久葉町", "city": "諫早市", "postcode": "8540065", "prefecture": "長崎県", "id": 901 },
        { "address": "津水町", "city": "諫早市", "postcode": "8540083", "prefecture": "長崎県", "id": 902 },
        { "address": "鶴田町", "city": "諫早市", "postcode": "8540122", "prefecture": "長崎県", "id": 903 },
        { "address": "天神町", "city": "諫早市", "postcode": "8540123", "prefecture": "長崎県", "id": 904 },
        { "address": "天満町", "city": "諫早市", "postcode": "8540006", "prefecture": "長崎県", "id": 905 },
        { "address": "堂崎町", "city": "諫早市", "postcode": "8540076", "prefecture": "長崎県", "id": 906 },
        { "address": "富川町", "city": "諫早市", "postcode": "8540091", "prefecture": "長崎県", "id": 907 },
        { "address": "仲沖町", "city": "諫早市", "postcode": "8540021", "prefecture": "長崎県", "id": 908 },
        { "address": "中尾町", "city": "諫早市", "postcode": "8540073", "prefecture": "長崎県", "id": 909 },
        { "address": "中田町", "city": "諫早市", "postcode": "8590313", "prefecture": "長崎県", "id": 910 },
        { "address": "長田町", "city": "諫早市", "postcode": "8590301", "prefecture": "長崎県", "id": 911 },
        { "address": "中通町", "city": "諫早市", "postcode": "8540124", "prefecture": "長崎県", "id": 912 },
        { "address": "長野町", "city": "諫早市", "postcode": "8540036", "prefecture": "長崎県", "id": 913 },
        { "address": "西栄田町", "city": "諫早市", "postcode": "8540082", "prefecture": "長崎県", "id": 914 },
        { "address": "西小路町", "city": "諫早市", "postcode": "8540015", "prefecture": "長崎県", "id": 915 },
        { "address": "西郷町", "city": "諫早市", "postcode": "8540044", "prefecture": "長崎県", "id": 916 },
        { "address": "西里町", "city": "諫早市", "postcode": "8590312", "prefecture": "長崎県", "id": 917 },
        { "address": "野中町", "city": "諫早市", "postcode": "8540047", "prefecture": "長崎県", "id": 918 },
        { "address": "土師野尾町", "city": "諫早市", "postcode": "8540056", "prefecture": "長崎県", "id": 919 },
        { "address": "八天町", "city": "諫早市", "postcode": "8540011", "prefecture": "長崎県", "id": 920 },
        { "address": "早見町", "city": "諫早市", "postcode": "8540125", "prefecture": "長崎県", "id": 921 },
        { "address": "原口町", "city": "諫早市", "postcode": "8540046", "prefecture": "長崎県", "id": 922 },
        { "address": "東小路町", "city": "諫早市", "postcode": "8540014", "prefecture": "長崎県", "id": 923 },
        { "address": "東本町", "city": "諫早市", "postcode": "8540026", "prefecture": "長崎県", "id": 924 },
        { "address": "日の出町", "city": "諫早市", "postcode": "8540002", "prefecture": "長崎県", "id": 925 },
        { "address": "平山町", "city": "諫早市", "postcode": "8540057", "prefecture": "長崎県", "id": 926 },
        { "address": "福田町", "city": "諫早市", "postcode": "8540001", "prefecture": "長崎県", "id": 927 },
        { "address": "船越町", "city": "諫早市", "postcode": "8540041", "prefecture": "長崎県", "id": 928 },
        { "address": "堀の内町", "city": "諫早市", "postcode": "8540086", "prefecture": "長崎県", "id": 929 },
        { "address": "本町", "city": "諫早市", "postcode": "8540012", "prefecture": "長崎県", "id": 930 },
        { "address": "本明町", "city": "諫早市", "postcode": "8540094", "prefecture": "長崎県", "id": 931 },
        { "address": "真崎町", "city": "諫早市", "postcode": "8540084", "prefecture": "長崎県", "id": 932 },
        { "address": "松里町", "city": "諫早市", "postcode": "8540126", "prefecture": "長崎県", "id": 933 },
        { "address": "馬渡町", "city": "諫早市", "postcode": "8540075", "prefecture": "長崎県", "id": 934 },
        { "address": "宗方町", "city": "諫早市", "postcode": "8540035", "prefecture": "長崎県", "id": 935 },
        { "address": "目代町", "city": "諫早市", "postcode": "8540007", "prefecture": "長崎県", "id": 936 },
        { "address": "本野町", "city": "諫早市", "postcode": "8540093", "prefecture": "長崎県", "id": 937 },
        { "address": "森山町上井牟田", "city": "諫早市", "postcode": "8540209", "prefecture": "長崎県", "id": 938 },
        { "address": "森山町唐比北", "city": "諫早市", "postcode": "8540206", "prefecture": "長崎県", "id": 939 },
        { "address": "森山町唐比西", "city": "諫早市", "postcode": "8540208", "prefecture": "長崎県", "id": 940 },
        { "address": "森山町唐比東", "city": "諫早市", "postcode": "8540207", "prefecture": "長崎県", "id": 941 },
        { "address": "森山町慶師野", "city": "諫早市", "postcode": "8540202", "prefecture": "長崎県", "id": 942 },
        { "address": "森山町下井牟田", "city": "諫早市", "postcode": "8540201", "prefecture": "長崎県", "id": 943 },
        { "address": "森山町杉谷", "city": "諫早市", "postcode": "8540205", "prefecture": "長崎県", "id": 944 },
        { "address": "森山町田尻", "city": "諫早市", "postcode": "8540204", "prefecture": "長崎県", "id": 945 },
        { "address": "森山町本村", "city": "諫早市", "postcode": "8540203", "prefecture": "長崎県", "id": 946 },
        { "address": "八坂町", "city": "諫早市", "postcode": "8540025", "prefecture": "長崎県", "id": 947 },
        { "address": "山川町", "city": "諫早市", "postcode": "8540074", "prefecture": "長崎県", "id": 948 },
        { "address": "湯野尾町", "city": "諫早市", "postcode": "8540092", "prefecture": "長崎県", "id": 949 },
        { "address": "若葉町", "city": "諫早市", "postcode": "8540064", "prefecture": "長崎県", "id": 950 },
        { "address": "鷲崎町", "city": "諫早市", "postcode": "8540051", "prefecture": "長崎県", "id": 951 },
        { "address": "破籠井町", "city": "諫早市", "postcode": "8540085", "prefecture": "長崎県", "id": 952 },
        { "city": "大村市", "postcode": "8560000", "prefecture": "長崎県", "id": 953 },
        { "address": "赤佐古町", "city": "大村市", "postcode": "8560048", "prefecture": "長崎県", "id": 954 },
        { "address": "荒瀬町", "city": "大村市", "postcode": "8560017", "prefecture": "長崎県", "id": 955 },
        { "address": "荒平町", "city": "大村市", "postcode": "8560033", "prefecture": "長崎県", "id": 956 },
        { "address": "池田", "city": "大村市", "postcode": "8560026", "prefecture": "長崎県", "id": 957 },
        { "address": "池田新町", "city": "大村市", "postcode": "8560029", "prefecture": "長崎県", "id": 958 },
        { "address": "乾馬場町", "city": "大村市", "postcode": "8560823", "prefecture": "長崎県", "id": 959 },
        { "address": "今津町", "city": "大村市", "postcode": "8560818", "prefecture": "長崎県", "id": 960 },
        { "address": "今富町", "city": "大村市", "postcode": "8560018", "prefecture": "長崎県", "id": 961 },
        { "address": "今村町", "city": "大村市", "postcode": "8560843", "prefecture": "長崎県", "id": 962 },
        { "address": "岩松町", "city": "大村市", "postcode": "8560044", "prefecture": "長崎県", "id": 963 },
        { "address": "植松", "city": "大村市", "postcode": "8560027", "prefecture": "長崎県", "id": 964 },
        { "address": "大川田町", "city": "大村市", "postcode": "8560804", "prefecture": "長崎県", "id": 965 },
        { "address": "大里町", "city": "大村市", "postcode": "8560845", "prefecture": "長崎県", "id": 966 },
        { "address": "小川内町", "city": "大村市", "postcode": "8560043", "prefecture": "長崎県", "id": 967 },
        { "address": "沖田町", "city": "大村市", "postcode": "8560809", "prefecture": "長崎県", "id": 968 },
        { "address": "鬼橋町", "city": "大村市", "postcode": "8560021", "prefecture": "長崎県", "id": 969 },
        { "address": "小路口本町", "city": "大村市", "postcode": "8560020", "prefecture": "長崎県", "id": 970 },
        { "address": "小路口町", "city": "大村市", "postcode": "8560025", "prefecture": "長崎県", "id": 971 },
        { "address": "皆同町", "city": "大村市", "postcode": "8560802", "prefecture": "長崎県", "id": 972 },
        { "address": "陰平町", "city": "大村市", "postcode": "8560841", "prefecture": "長崎県", "id": 973 },
        { "address": "水主町", "city": "大村市", "postcode": "8560827", "prefecture": "長崎県", "id": 974 },
        { "address": "片町", "city": "大村市", "postcode": "8560833", "prefecture": "長崎県", "id": 975 },
        { "address": "上諏訪町", "city": "大村市", "postcode": "8560023", "prefecture": "長崎県", "id": 976 },
        { "address": "協和町", "city": "大村市", "postcode": "8560820", "prefecture": "長崎県", "id": 977 },
        { "address": "杭出津", "city": "大村市", "postcode": "8560828", "prefecture": "長崎県", "id": 978 },
        { "address": "草場町", "city": "大村市", "postcode": "8560007", "prefecture": "長崎県", "id": 979 },
        { "address": "玖島", "city": "大村市", "postcode": "8560834", "prefecture": "長崎県", "id": 980 },
        { "address": "久原", "city": "大村市", "postcode": "8560835", "prefecture": "長崎県", "id": 981 },
        { "address": "黒木町", "city": "大村市", "postcode": "8560012", "prefecture": "長崎県", "id": 982 },
        { "address": "黒丸町", "city": "大村市", "postcode": "8560808", "prefecture": "長崎県", "id": 983 },
        { "address": "古賀島町", "city": "大村市", "postcode": "8560817", "prefecture": "長崎県", "id": 984 },
        { "address": "木場", "city": "大村市", "postcode": "8560046", "prefecture": "長崎県", "id": 985 },
        { "address": "幸町", "city": "大村市", "postcode": "8560836", "prefecture": "長崎県", "id": 986 },
        { "address": "坂口町", "city": "大村市", "postcode": "8560028", "prefecture": "長崎県", "id": 987 },
        { "address": "桜馬場", "city": "大村市", "postcode": "8560812", "prefecture": "長崎県", "id": 988 },
        { "address": "三城町", "city": "大村市", "postcode": "8560031", "prefecture": "長崎県", "id": 989 },
        { "address": "重井田町", "city": "大村市", "postcode": "8560011", "prefecture": "長崎県", "id": 990 },
        { "address": "寿古町", "city": "大村市", "postcode": "8560801", "prefecture": "長崎県", "id": 991 },
        { "address": "須田ノ木町", "city": "大村市", "postcode": "8560047", "prefecture": "長崎県", "id": 992 },
        { "address": "諏訪", "city": "大村市", "postcode": "8560024", "prefecture": "長崎県", "id": 993 },
        { "address": "西部町", "city": "大村市", "postcode": "8560847", "prefecture": "長崎県", "id": 994 },
        { "address": "武部町", "city": "大村市", "postcode": "8560035", "prefecture": "長崎県", "id": 995 },
        { "address": "竹松本町", "city": "大村市", "postcode": "8560805", "prefecture": "長崎県", "id": 996 },
        { "address": "竹松町", "city": "大村市", "postcode": "8560803", "prefecture": "長崎県", "id": 997 },
        { "address": "田下町", "city": "大村市", "postcode": "8560014", "prefecture": "長崎県", "id": 998 },
        { "address": "徳泉川内町", "city": "大村市", "postcode": "8560041", "prefecture": "長崎県", "id": 999 },
        { "address": "富の原", "city": "大村市", "postcode": "8560806", "prefecture": "長崎県", "id": 1000 },
        { "address": "中里町", "city": "大村市", "postcode": "8560842", "prefecture": "長崎県", "id": 1001 },
        { "address": "中岳町", "city": "大村市", "postcode": "8560013", "prefecture": "長崎県", "id": 1002 },
        { "address": "西乾馬場町", "city": "大村市", "postcode": "8560821", "prefecture": "長崎県", "id": 1003 },
        { "address": "西大村本町", "city": "大村市", "postcode": "8560813", "prefecture": "長崎県", "id": 1004 },
        { "address": "西三城町", "city": "大村市", "postcode": "8560825", "prefecture": "長崎県", "id": 1005 },
        { "address": "西本町", "city": "大村市", "postcode": "8560837", "prefecture": "長崎県", "id": 1006 },
        { "address": "野岳町", "city": "大村市", "postcode": "8560003", "prefecture": "長崎県", "id": 1007 },
        { "address": "野田町", "city": "大村市", "postcode": "8560019", "prefecture": "長崎県", "id": 1008 },
        { "address": "原口町", "city": "大村市", "postcode": "8560811", "prefecture": "長崎県", "id": 1009 },
        { "address": "原町", "city": "大村市", "postcode": "8560016", "prefecture": "長崎県", "id": 1010 },
        { "address": "東大村", "city": "大村市", "postcode": "8560032", "prefecture": "長崎県", "id": 1011 },
        { "address": "東三城町", "city": "大村市", "postcode": "8560826", "prefecture": "長崎県", "id": 1012 },
        { "address": "東野岳町", "city": "大村市", "postcode": "8560002", "prefecture": "長崎県", "id": 1013 },
        { "address": "東本町", "city": "大村市", "postcode": "8560831", "prefecture": "長崎県", "id": 1014 },
        { "address": "日泊町", "city": "大村市", "postcode": "8560846", "prefecture": "長崎県", "id": 1015 },
        { "address": "平町", "city": "大村市", "postcode": "8560042", "prefecture": "長崎県", "id": 1016 },
        { "address": "福重町", "city": "大村市", "postcode": "8560006", "prefecture": "長崎県", "id": 1017 },
        { "address": "古町", "city": "大村市", "postcode": "8560822", "prefecture": "長崎県", "id": 1018 },
        { "address": "本町", "city": "大村市", "postcode": "8560832", "prefecture": "長崎県", "id": 1019 },
        { "address": "雄ケ原町", "city": "大村市", "postcode": "8560022", "prefecture": "長崎県", "id": 1020 },
        { "address": "松並", "city": "大村市", "postcode": "8560814", "prefecture": "長崎県", "id": 1021 },
        { "address": "松原", "city": "大村市", "postcode": "8560008", "prefecture": "長崎県", "id": 1022 },
        { "address": "松原本町", "city": "大村市", "postcode": "8560009", "prefecture": "長崎県", "id": 1023 },
        { "address": "松山町", "city": "大村市", "postcode": "8560829", "prefecture": "長崎県", "id": 1024 },
        { "address": "箕島町", "city": "大村市", "postcode": "8560816", "prefecture": "長崎県", "id": 1025 },
        { "address": "水田町", "city": "大村市", "postcode": "8560824", "prefecture": "長崎県", "id": 1026 },
        { "address": "水計町", "city": "大村市", "postcode": "8560034", "prefecture": "長崎県", "id": 1027 },
        { "address": "溝陸町", "city": "大村市", "postcode": "8560844", "prefecture": "長崎県", "id": 1028 },
        { "address": "宮小路", "city": "大村市", "postcode": "8560807", "prefecture": "長崎県", "id": 1029 },
        { "address": "宮代町", "city": "大村市", "postcode": "8560015", "prefecture": "長崎県", "id": 1030 },
        { "address": "弥勒寺町", "city": "大村市", "postcode": "8560005", "prefecture": "長崎県", "id": 1031 },
        { "address": "向木場町", "city": "大村市", "postcode": "8560045", "prefecture": "長崎県", "id": 1032 },
        { "address": "武留路町", "city": "大村市", "postcode": "8560001", "prefecture": "長崎県", "id": 1033 },
        { "address": "森園町", "city": "大村市", "postcode": "8560815", "prefecture": "長崎県", "id": 1034 },
        { "address": "立福寺町", "city": "大村市", "postcode": "8560004", "prefecture": "長崎県", "id": 1035 },
        { "city": "平戸市", "postcode": "8595100", "prefecture": "長崎県", "id": 1036 },
        { "address": "赤松町", "city": "平戸市", "postcode": "8595384", "prefecture": "長崎県", "id": 1037 },
        { "address": "明の川内町", "city": "平戸市", "postcode": "8595122", "prefecture": "長崎県", "id": 1038 },
        { "address": "鮎川町", "city": "平戸市", "postcode": "8595515", "prefecture": "長崎県", "id": 1039 },
        { "address": "飯良町", "city": "平戸市", "postcode": "8595382", "prefecture": "長崎県", "id": 1040 },
        { "address": "生月町壱部", "city": "平戸市", "postcode": "8595701", "prefecture": "長崎県", "id": 1041 },
        { "address": "生月町壱部浦", "city": "平戸市", "postcode": "8595702", "prefecture": "長崎県", "id": 1042 },
        { "address": "生月町里免", "city": "平戸市", "postcode": "8595703", "prefecture": "長崎県", "id": 1043 },
        { "address": "生月町舘浦", "city": "平戸市", "postcode": "8595705", "prefecture": "長崎県", "id": 1044 },
        { "address": "生月町御崎", "city": "平戸市", "postcode": "8595707", "prefecture": "長崎県", "id": 1045 },
        { "address": "生月町南免", "city": "平戸市", "postcode": "8595706", "prefecture": "長崎県", "id": 1046 },
        { "address": "生月町山田免", "city": "平戸市", "postcode": "8595704", "prefecture": "長崎県", "id": 1047 },
        { "address": "猪渡谷町", "city": "平戸市", "postcode": "8595502", "prefecture": "長崎県", "id": 1048 },
        { "address": "岩の上町", "city": "平戸市", "postcode": "8595121", "prefecture": "長崎県", "id": 1049 },
        { "address": "魚の棚町", "city": "平戸市", "postcode": "8595117", "prefecture": "長崎県", "id": 1050 },
        { "address": "浦の町", "city": "平戸市", "postcode": "8595111", "prefecture": "長崎県", "id": 1051 },
        { "address": "大石脇町", "city": "平戸市", "postcode": "8595376", "prefecture": "長崎県", "id": 1052 },
        { "address": "大川原町", "city": "平戸市", "postcode": "8595383", "prefecture": "長崎県", "id": 1053 },
        { "address": "大久保町", "city": "平戸市", "postcode": "8595102", "prefecture": "長崎県", "id": 1054 },
        { "address": "大佐志町", "city": "平戸市", "postcode": "8595516", "prefecture": "長崎県", "id": 1055 },
        { "address": "大志々伎町", "city": "平戸市", "postcode": "8595532", "prefecture": "長崎県", "id": 1056 },
        { "address": "大島村的山川内", "city": "平戸市", "postcode": "8595805", "prefecture": "長崎県", "id": 1057 },
        { "address": "大島村的山戸田", "city": "平戸市", "postcode": "8595806", "prefecture": "長崎県", "id": 1058 },
        { "address": "大島村大根坂", "city": "平戸市", "postcode": "8595804", "prefecture": "長崎県", "id": 1059 },
        { "address": "大島村神浦", "city": "平戸市", "postcode": "8595801", "prefecture": "長崎県", "id": 1060 },
        { "address": "大島村西宇戸", "city": "平戸市", "postcode": "8595803", "prefecture": "長崎県", "id": 1061 },
        { "address": "大島村前平", "city": "平戸市", "postcode": "8595802", "prefecture": "長崎県", "id": 1062 },
        { "address": "大野町", "city": "平戸市", "postcode": "8595123", "prefecture": "長崎県", "id": 1063 },
        { "address": "大山町", "city": "平戸市", "postcode": "8595131", "prefecture": "長崎県", "id": 1064 },
        { "address": "小田町", "city": "平戸市", "postcode": "8595534", "prefecture": "長崎県", "id": 1065 },
        { "address": "鏡川町", "city": "平戸市", "postcode": "8595152", "prefecture": "長崎県", "id": 1066 },
        { "address": "春日町", "city": "平戸市", "postcode": "8595373", "prefecture": "長崎県", "id": 1067 },
        { "address": "神上町", "city": "平戸市", "postcode": "8595524", "prefecture": "長崎県", "id": 1068 },
        { "address": "上中津良町", "city": "平戸市", "postcode": "8595503", "prefecture": "長崎県", "id": 1069 },
        { "address": "川内町", "city": "平戸市", "postcode": "8595132", "prefecture": "長崎県", "id": 1070 },
        { "address": "木ケ津町", "city": "平戸市", "postcode": "8595362", "prefecture": "長崎県", "id": 1071 },
        { "address": "木引田町", "city": "平戸市", "postcode": "8595113", "prefecture": "長崎県", "id": 1072 },
        { "address": "草積町", "city": "平戸市", "postcode": "8595363", "prefecture": "長崎県", "id": 1073 },
        { "address": "神ノ川町", "city": "平戸市", "postcode": "8595522", "prefecture": "長崎県", "id": 1074 },
        { "address": "紺屋町", "city": "平戸市", "postcode": "8595118", "prefecture": "長崎県", "id": 1075 },
        { "address": "木場町", "city": "平戸市", "postcode": "8595365", "prefecture": "長崎県", "id": 1076 },
        { "address": "木引町", "city": "平戸市", "postcode": "8595151", "prefecture": "長崎県", "id": 1077 },
        { "address": "崎方町", "city": "平戸市", "postcode": "8595104", "prefecture": "長崎県", "id": 1078 },
        { "address": "敷佐町", "city": "平戸市", "postcode": "8595505", "prefecture": "長崎県", "id": 1079 },
        { "address": "獅子町", "city": "平戸市", "postcode": "8595371", "prefecture": "長崎県", "id": 1080 },
        { "address": "志々伎町", "city": "平戸市", "postcode": "8595533", "prefecture": "長崎県", "id": 1081 },
        { "address": "神船町", "city": "平戸市", "postcode": "8595511", "prefecture": "長崎県", "id": 1082 },
        { "address": "下中津良町", "city": "平戸市", "postcode": "8595504", "prefecture": "長崎県", "id": 1083 },
        { "address": "下中野町", "city": "平戸市", "postcode": "8595144", "prefecture": "長崎県", "id": 1084 },
        { "address": "主師町", "city": "平戸市", "postcode": "8595142", "prefecture": "長崎県", "id": 1085 },
        { "address": "職人町", "city": "平戸市", "postcode": "8595116", "prefecture": "長崎県", "id": 1086 },
        { "address": "新町", "city": "平戸市", "postcode": "8595115", "prefecture": "長崎県", "id": 1087 },
        { "address": "高越町", "city": "平戸市", "postcode": "8595372", "prefecture": "長崎県", "id": 1088 },
        { "address": "度島町", "city": "平戸市", "postcode": "8595101", "prefecture": "長崎県", "id": 1089 },
        { "address": "田代町", "city": "平戸市", "postcode": "8595527", "prefecture": "長崎県", "id": 1090 },
        { "address": "田助町", "city": "平戸市", "postcode": "8595103", "prefecture": "長崎県", "id": 1091 },
        { "address": "田平町一関免", "city": "平戸市", "postcode": "8594822", "prefecture": "長崎県", "id": 1092 },
        { "address": "田平町以善免", "city": "平戸市", "postcode": "8594814", "prefecture": "長崎県", "id": 1093 },
        { "address": "田平町大久保免", "city": "平戸市", "postcode": "8594821", "prefecture": "長崎県", "id": 1094 },
        { "address": "田平町荻田免", "city": "平戸市", "postcode": "8594823", "prefecture": "長崎県", "id": 1095 },
        { "address": "田平町上亀免", "city": "平戸市", "postcode": "8594804", "prefecture": "長崎県", "id": 1096 },
        { "address": "田平町小崎免", "city": "平戸市", "postcode": "8594803", "prefecture": "長崎県", "id": 1097 },
        { "address": "田平町小手田免", "city": "平戸市", "postcode": "8594824", "prefecture": "長崎県", "id": 1098 },
        { "address": "田平町里免", "city": "平戸市", "postcode": "8594807", "prefecture": "長崎県", "id": 1099 },
        { "address": "田平町下亀免", "city": "平戸市", "postcode": "8594806", "prefecture": "長崎県", "id": 1100 },
        { "address": "田平町下寺免", "city": "平戸市", "postcode": "8594815", "prefecture": "長崎県", "id": 1101 },
        { "address": "田平町岳崎免", "city": "平戸市", "postcode": "8594801", "prefecture": "長崎県", "id": 1102 },
        { "address": "田平町田代免", "city": "平戸市", "postcode": "8594812", "prefecture": "長崎県", "id": 1103 },
        { "address": "田平町野田免", "city": "平戸市", "postcode": "8594826", "prefecture": "長崎県", "id": 1104 },
        { "address": "田平町深月免", "city": "平戸市", "postcode": "8594813", "prefecture": "長崎県", "id": 1105 },
        { "address": "田平町福崎免", "city": "平戸市", "postcode": "8594802", "prefecture": "長崎県", "id": 1106 },
        { "address": "田平町古梶免", "city": "平戸市", "postcode": "8594811", "prefecture": "長崎県", "id": 1107 },
        { "address": "田平町本山免", "city": "平戸市", "postcode": "8594805", "prefecture": "長崎県", "id": 1108 },
        { "address": "田平町山内免", "city": "平戸市", "postcode": "8594825", "prefecture": "長崎県", "id": 1109 },
        { "address": "田平町横島免", "city": "平戸市", "postcode": "8594827", "prefecture": "長崎県", "id": 1110 },
        { "address": "築地町", "city": "平戸市", "postcode": "8595114", "prefecture": "長崎県", "id": 1111 },
        { "address": "辻町", "city": "平戸市", "postcode": "8595513", "prefecture": "長崎県", "id": 1112 },
        { "address": "堤町", "city": "平戸市", "postcode": "8595501", "prefecture": "長崎県", "id": 1113 },
        { "address": "津吉町", "city": "平戸市", "postcode": "8595512", "prefecture": "長崎県", "id": 1114 },
        { "address": "戸石川町", "city": "平戸市", "postcode": "8595153", "prefecture": "長崎県", "id": 1115 },
        { "address": "中野大久保町", "city": "平戸市", "postcode": "8595133", "prefecture": "長崎県", "id": 1116 },
        { "address": "西中山町", "city": "平戸市", "postcode": "8595526", "prefecture": "長崎県", "id": 1117 },
        { "address": "根獅子町", "city": "平戸市", "postcode": "8595381", "prefecture": "長崎県", "id": 1118 },
        { "address": "野子町", "city": "平戸市", "postcode": "8595535", "prefecture": "長崎県", "id": 1119 },
        { "address": "早福町", "city": "平戸市", "postcode": "8595531", "prefecture": "長崎県", "id": 1120 },
        { "address": "東中山町", "city": "平戸市", "postcode": "8595525", "prefecture": "長崎県", "id": 1121 },
        { "address": "紐差町", "city": "平戸市", "postcode": "8595361", "prefecture": "長崎県", "id": 1122 },
        { "address": "深川町", "city": "平戸市", "postcode": "8595374", "prefecture": "長崎県", "id": 1123 },
        { "address": "無代寺町", "city": "平戸市", "postcode": "8595514", "prefecture": "長崎県", "id": 1124 },
        { "address": "船木町", "city": "平戸市", "postcode": "8595521", "prefecture": "長崎県", "id": 1125 },
        { "address": "古江町", "city": "平戸市", "postcode": "8595145", "prefecture": "長崎県", "id": 1126 },
        { "address": "朶の原町", "city": "平戸市", "postcode": "8595375", "prefecture": "長崎県", "id": 1127 },
        { "address": "坊方町", "city": "平戸市", "postcode": "8595143", "prefecture": "長崎県", "id": 1128 },
        { "address": "宝亀町", "city": "平戸市", "postcode": "8595366", "prefecture": "長崎県", "id": 1129 },
        { "address": "前津吉町", "city": "平戸市", "postcode": "8595523", "prefecture": "長崎県", "id": 1130 },
        { "address": "水垂町", "city": "平戸市", "postcode": "8595134", "prefecture": "長崎県", "id": 1131 },
        { "address": "宮の町", "city": "平戸市", "postcode": "8595112", "prefecture": "長崎県", "id": 1132 },
        { "address": "迎紐差町", "city": "平戸市", "postcode": "8595364", "prefecture": "長崎県", "id": 1133 },
        { "address": "山中町", "city": "平戸市", "postcode": "8595141", "prefecture": "長崎県", "id": 1134 },
        { "city": "松浦市", "postcode": "8594500", "prefecture": "長崎県", "id": 1135 },
        { "address": "今福町浦免", "city": "松浦市", "postcode": "8594528", "prefecture": "長崎県", "id": 1136 },
        { "address": "今福町北免", "city": "松浦市", "postcode": "8594521", "prefecture": "長崎県", "id": 1137 },
        { "address": "今福町木場免", "city": "松浦市", "postcode": "8594524", "prefecture": "長崎県", "id": 1138 },
        { "address": "今福町坂野免", "city": "松浦市", "postcode": "8594526", "prefecture": "長崎県", "id": 1139 },
        { "address": "今福町寺上免", "city": "松浦市", "postcode": "8594525", "prefecture": "長崎県", "id": 1140 },
        { "address": "今福町飛島免", "city": "松浦市", "postcode": "8594529", "prefecture": "長崎県", "id": 1141 },
        { "address": "今福町滑栄免", "city": "松浦市", "postcode": "8594523", "prefecture": "長崎県", "id": 1142 },
        { "address": "今福町東免", "city": "松浦市", "postcode": "8594522", "prefecture": "長崎県", "id": 1143 },
        { "address": "今福町仏坂免", "city": "松浦市", "postcode": "8594527", "prefecture": "長崎県", "id": 1144 },
        { "address": "志佐町赤木免", "city": "松浦市", "postcode": "8594511", "prefecture": "長崎県", "id": 1145 },
        { "address": "志佐町池成免", "city": "松浦市", "postcode": "8594518", "prefecture": "長崎県", "id": 1146 },
        { "address": "志佐町浦免", "city": "松浦市", "postcode": "8594501", "prefecture": "長崎県", "id": 1147 },
        { "address": "志佐町栢木免", "city": "松浦市", "postcode": "8594504", "prefecture": "長崎県", "id": 1148 },
        { "address": "志佐町里免", "city": "松浦市", "postcode": "8594502", "prefecture": "長崎県", "id": 1149 },
        { "address": "志佐町庄野免", "city": "松浦市", "postcode": "8594507", "prefecture": "長崎県", "id": 1150 },
        { "address": "志佐町白浜免", "city": "松浦市", "postcode": "8594506", "prefecture": "長崎県", "id": 1151 },
        { "address": "志佐町高野免", "city": "松浦市", "postcode": "8594503", "prefecture": "長崎県", "id": 1152 },
        { "address": "志佐町田ノ平免", "city": "松浦市", "postcode": "8594513", "prefecture": "長崎県", "id": 1153 },
        { "address": "志佐町長野免", "city": "松浦市", "postcode": "8594516", "prefecture": "長崎県", "id": 1154 },
        { "address": "志佐町西山免", "city": "松浦市", "postcode": "8594505", "prefecture": "長崎県", "id": 1155 },
        { "address": "志佐町稗木場免", "city": "松浦市", "postcode": "8594515", "prefecture": "長崎県", "id": 1156 },
        { "address": "志佐町笛吹免", "city": "松浦市", "postcode": "8594512", "prefecture": "長崎県", "id": 1157 },
        { "address": "志佐町柚木川内免", "city": "松浦市", "postcode": "8594514", "prefecture": "長崎県", "id": 1158 },
        { "address": "志佐町横辺田免", "city": "松浦市", "postcode": "8594517", "prefecture": "長崎県", "id": 1159 },
        { "address": "鷹島町阿翁浦免", "city": "松浦市", "postcode": "8594301", "prefecture": "長崎県", "id": 1160 },
        { "address": "鷹島町阿翁免", "city": "松浦市", "postcode": "8594302", "prefecture": "長崎県", "id": 1161 },
        { "address": "鷹島町黒島免", "city": "松浦市", "postcode": "8594309", "prefecture": "長崎県", "id": 1162 },
        { "address": "鷹島町神崎免", "city": "松浦市", "postcode": "8594303", "prefecture": "長崎県", "id": 1163 },
        { "address": "鷹島町里免", "city": "松浦市", "postcode": "8594304", "prefecture": "長崎県", "id": 1164 },
        { "address": "鷹島町三里免", "city": "松浦市", "postcode": "8594307", "prefecture": "長崎県", "id": 1165 },
        { "address": "鷹島町中通免", "city": "松浦市", "postcode": "8594305", "prefecture": "長崎県", "id": 1166 },
        { "address": "鷹島町原免", "city": "松浦市", "postcode": "8594306", "prefecture": "長崎県", "id": 1167 },
        { "address": "鷹島町船唐津免", "city": "松浦市", "postcode": "8594308", "prefecture": "長崎県", "id": 1168 },
        { "address": "調川町上免", "city": "松浦市", "postcode": "8594533", "prefecture": "長崎県", "id": 1169 },
        { "address": "調川町中免", "city": "松浦市", "postcode": "8594532", "prefecture": "長崎県", "id": 1170 },
        { "address": "調川町下免", "city": "松浦市", "postcode": "8594536", "prefecture": "長崎県", "id": 1171 },
        { "address": "調川町白井免", "city": "松浦市", "postcode": "8594534", "prefecture": "長崎県", "id": 1172 },
        { "address": "調川町平尾免", "city": "松浦市", "postcode": "8594531", "prefecture": "長崎県", "id": 1173 },
        { "address": "調川町松山田免", "city": "松浦市", "postcode": "8594535", "prefecture": "長崎県", "id": 1174 },
        { "address": "福島町浅谷免", "city": "松浦市", "postcode": "8480404", "prefecture": "長崎県", "id": 1175 },
        { "address": "福島町喜内瀬免", "city": "松浦市", "postcode": "8480401", "prefecture": "長崎県", "id": 1176 },
        { "address": "福島町里免", "city": "松浦市", "postcode": "8480408", "prefecture": "長崎県", "id": 1177 },
        { "address": "福島町塩浜免", "city": "松浦市", "postcode": "8480403", "prefecture": "長崎県", "id": 1178 },
        { "address": "福島町土谷免", "city": "松浦市", "postcode": "8480405", "prefecture": "長崎県", "id": 1179 },
        { "address": "福島町鍋串免", "city": "松浦市", "postcode": "8480407", "prefecture": "長崎県", "id": 1180 },
        { "address": "福島町端免", "city": "松浦市", "postcode": "8480402", "prefecture": "長崎県", "id": 1181 },
        { "address": "福島町原免", "city": "松浦市", "postcode": "8480406", "prefecture": "長崎県", "id": 1182 },
        { "address": "星鹿町青島免", "city": "松浦市", "postcode": "8594745", "prefecture": "長崎県", "id": 1183 },
        { "address": "星鹿町北久保免", "city": "松浦市", "postcode": "8594741", "prefecture": "長崎県", "id": 1184 },
        { "address": "星鹿町下田免", "city": "松浦市", "postcode": "8594743", "prefecture": "長崎県", "id": 1185 },
        { "address": "星鹿町岳崎免", "city": "松浦市", "postcode": "8594744", "prefecture": "長崎県", "id": 1186 },
        { "address": "星鹿町牟田免", "city": "松浦市", "postcode": "8594742", "prefecture": "長崎県", "id": 1187 },
        { "address": "御厨町相坂免", "city": "松浦市", "postcode": "8594761", "prefecture": "長崎県", "id": 1188 },
        { "address": "御厨町池田免", "city": "松浦市", "postcode": "8594751", "prefecture": "長崎県", "id": 1189 },
        { "address": "御厨町板橋免", "city": "松浦市", "postcode": "8594777", "prefecture": "長崎県", "id": 1190 },
        { "address": "御厨町大崎免", "city": "松浦市", "postcode": "8594758", "prefecture": "長崎県", "id": 1191 },
        { "address": "御厨町上登木免", "city": "松浦市", "postcode": "8594773", "prefecture": "長崎県", "id": 1192 },
        { "address": "御厨町狩原免", "city": "松浦市", "postcode": "8594764", "prefecture": "長崎県", "id": 1193 },
        { "address": "御厨町川内免", "city": "松浦市", "postcode": "8594767", "prefecture": "長崎県", "id": 1194 },
        { "address": "御厨町北平免", "city": "松浦市", "postcode": "8594754", "prefecture": "長崎県", "id": 1195 },
        { "address": "御厨町郭公尾免", "city": "松浦市", "postcode": "8594775", "prefecture": "長崎県", "id": 1196 },
        { "address": "御厨町木場免", "city": "松浦市", "postcode": "8594776", "prefecture": "長崎県", "id": 1197 },
        { "address": "御厨町小船免", "city": "松浦市", "postcode": "8594762", "prefecture": "長崎県", "id": 1198 },
        { "address": "御厨町米ノ山免", "city": "松浦市", "postcode": "8594765", "prefecture": "長崎県", "id": 1199 },
        { "address": "御厨町里免", "city": "松浦市", "postcode": "8594752", "prefecture": "長崎県", "id": 1200 },
        { "address": "御厨町下登木免", "city": "松浦市", "postcode": "8594771", "prefecture": "長崎県", "id": 1201 },
        { "address": "御厨町高野免", "city": "松浦市", "postcode": "8594757", "prefecture": "長崎県", "id": 1202 },
        { "address": "御厨町田代免", "city": "松浦市", "postcode": "8594778", "prefecture": "長崎県", "id": 1203 },
        { "address": "御厨町立木免", "city": "松浦市", "postcode": "8594774", "prefecture": "長崎県", "id": 1204 },
        { "address": "御厨町寺ノ尾免", "city": "松浦市", "postcode": "8594772", "prefecture": "長崎県", "id": 1205 },
        { "address": "御厨町中野免", "city": "松浦市", "postcode": "8594753", "prefecture": "長崎県", "id": 1206 },
        { "address": "御厨町西木場免", "city": "松浦市", "postcode": "8594769", "prefecture": "長崎県", "id": 1207 },
        { "address": "御厨町西田免", "city": "松浦市", "postcode": "8594768", "prefecture": "長崎県", "id": 1208 },
        { "address": "御厨町普住免", "city": "松浦市", "postcode": "8594766", "prefecture": "長崎県", "id": 1209 },
        { "address": "御厨町前田免", "city": "松浦市", "postcode": "8594756", "prefecture": "長崎県", "id": 1210 },
        { "address": "御厨町山根免", "city": "松浦市", "postcode": "8594763", "prefecture": "長崎県", "id": 1211 },
        { "address": "御厨町横久保免", "city": "松浦市", "postcode": "8594755", "prefecture": "長崎県", "id": 1212 },
        { "city": "対馬市", "postcode": "8170000", "prefecture": "長崎県", "id": 1213 },
        { "address": "厳原町安神", "city": "対馬市", "postcode": "8170034", "prefecture": "長崎県", "id": 1214 },
        { "address": "厳原町浅藻", "city": "対馬市", "postcode": "8170153", "prefecture": "長崎県", "id": 1215 },
        { "address": "厳原町阿連", "city": "対馬市", "postcode": "8170241", "prefecture": "長崎県", "id": 1216 },
        { "address": "厳原町今屋敷", "city": "対馬市", "postcode": "8170021", "prefecture": "長崎県", "id": 1217 },
        { "address": "厳原町内山", "city": "対馬市", "postcode": "8170157", "prefecture": "長崎県", "id": 1218 },
        { "address": "厳原町尾浦", "city": "対馬市", "postcode": "8170033", "prefecture": "長崎県", "id": 1219 },
        { "address": "厳原町大手橋", "city": "対馬市", "postcode": "8170024", "prefecture": "長崎県", "id": 1220 },
        { "address": "厳原町樫根", "city": "対馬市", "postcode": "8170243", "prefecture": "長崎県", "id": 1221 },
        { "address": "厳原町北里", "city": "対馬市", "postcode": "8170006", "prefecture": "長崎県", "id": 1222 },
        { "address": "厳原町久田", "city": "対馬市", "postcode": "8170032", "prefecture": "長崎県", "id": 1223 },
        { "address": "厳原町久田道", "city": "対馬市", "postcode": "8170031", "prefecture": "長崎県", "id": 1224 },
        { "address": "厳原町久根田舎", "city": "対馬市", "postcode": "8170245", "prefecture": "長崎県", "id": 1225 },
        { "address": "厳原町久根浜", "city": "対馬市", "postcode": "8170244", "prefecture": "長崎県", "id": 1226 },
        { "address": "厳原町久和", "city": "対馬市", "postcode": "8170035", "prefecture": "長崎県", "id": 1227 },
        { "address": "厳原町上槻", "city": "対馬市", "postcode": "8170246", "prefecture": "長崎県", "id": 1228 },
        { "address": "厳原町小浦", "city": "対馬市", "postcode": "8170001", "prefecture": "長崎県", "id": 1229 },
        { "address": "厳原町国分", "city": "対馬市", "postcode": "8170022", "prefecture": "長崎県", "id": 1230 },
        { "address": "厳原町小茂田", "city": "対馬市", "postcode": "8170248", "prefecture": "長崎県", "id": 1231 },
        { "address": "厳原町桟原", "city": "対馬市", "postcode": "8170005", "prefecture": "長崎県", "id": 1232 },
        { "address": "厳原町佐須瀬", "city": "対馬市", "postcode": "8170156", "prefecture": "長崎県", "id": 1233 },
        { "address": "厳原町椎根", "city": "対馬市", "postcode": "8170247", "prefecture": "長崎県", "id": 1234 },
        { "address": "厳原町下原", "city": "対馬市", "postcode": "8170242", "prefecture": "長崎県", "id": 1235 },
        { "address": "厳原町田渕", "city": "対馬市", "postcode": "8170023", "prefecture": "長崎県", "id": 1236 },
        { "address": "厳原町豆酘", "city": "対馬市", "postcode": "8170154", "prefecture": "長崎県", "id": 1237 },
        { "address": "厳原町豆酘瀬", "city": "対馬市", "postcode": "8170155", "prefecture": "長崎県", "id": 1238 },
        { "address": "厳原町豆酘内院", "city": "対馬市", "postcode": "8170152", "prefecture": "長崎県", "id": 1239 },
        { "address": "厳原町天道茂", "city": "対馬市", "postcode": "8170014", "prefecture": "長崎県", "id": 1240 },
        { "address": "厳原町中村", "city": "対馬市", "postcode": "8170013", "prefecture": "長崎県", "id": 1241 },
        { "address": "厳原町南室", "city": "対馬市", "postcode": "8170003", "prefecture": "長崎県", "id": 1242 },
        { "address": "厳原町西里", "city": "対馬市", "postcode": "8170015", "prefecture": "長崎県", "id": 1243 },
        { "address": "厳原町東里", "city": "対馬市", "postcode": "8170016", "prefecture": "長崎県", "id": 1244 },
        { "address": "厳原町日吉", "city": "対馬市", "postcode": "8170012", "prefecture": "長崎県", "id": 1245 },
        { "address": "厳原町曲", "city": "対馬市", "postcode": "8170002", "prefecture": "長崎県", "id": 1246 },
        { "address": "厳原町宮谷", "city": "対馬市", "postcode": "8170011", "prefecture": "長崎県", "id": 1247 },
        { "address": "厳原町与良内院", "city": "対馬市", "postcode": "8170151", "prefecture": "長崎県", "id": 1248 },
        { "address": "上県町伊奈", "city": "対馬市", "postcode": "8171532", "prefecture": "長崎県", "id": 1249 },
        { "address": "上県町犬ケ浦", "city": "対馬市", "postcode": "8171524", "prefecture": "長崎県", "id": 1250 },
        { "address": "上県町女連", "city": "対馬市", "postcode": "8171513", "prefecture": "長崎県", "id": 1251 },
        { "address": "上県町飼所", "city": "対馬市", "postcode": "8171521", "prefecture": "長崎県", "id": 1252 },
        { "address": "上県町樫滝", "city": "対馬市", "postcode": "8171522", "prefecture": "長崎県", "id": 1253 },
        { "address": "上県町久原", "city": "対馬市", "postcode": "8171512", "prefecture": "長崎県", "id": 1254 },
        { "address": "上県町越高", "city": "対馬市", "postcode": "8171531", "prefecture": "長崎県", "id": 1255 },
        { "address": "上県町佐護", "city": "対馬市", "postcode": "8171603", "prefecture": "長崎県", "id": 1256 },
        { "address": "上県町佐須奈", "city": "対馬市", "postcode": "8171602", "prefecture": "長崎県", "id": 1257 },
        { "address": "上県町鹿見", "city": "対馬市", "postcode": "8171511", "prefecture": "長崎県", "id": 1258 },
        { "address": "上県町志多留", "city": "対馬市", "postcode": "8171533", "prefecture": "長崎県", "id": 1259 },
        { "address": "上県町瀬田", "city": "対馬市", "postcode": "8171523", "prefecture": "長崎県", "id": 1260 },
        { "address": "上県町西津屋", "city": "対馬市", "postcode": "8171601", "prefecture": "長崎県", "id": 1261 },
        { "address": "上県町御園", "city": "対馬市", "postcode": "8171525", "prefecture": "長崎県", "id": 1262 },
        { "address": "上対馬町芦見", "city": "対馬市", "postcode": "8172243", "prefecture": "長崎県", "id": 1263 },
        { "address": "上対馬町網代", "city": "対馬市", "postcode": "8171704", "prefecture": "長崎県", "id": 1264 },
        { "address": "上対馬町泉", "city": "対馬市", "postcode": "8171725", "prefecture": "長崎県", "id": 1265 },
        { "address": "上対馬町大浦", "city": "対馬市", "postcode": "8171722", "prefecture": "長崎県", "id": 1266 },
        { "address": "上対馬町大増", "city": "対馬市", "postcode": "8171715", "prefecture": "長崎県", "id": 1267 },
        { "address": "上対馬町小鹿", "city": "対馬市", "postcode": "8172241", "prefecture": "長崎県", "id": 1268 },
        { "address": "上対馬町河内", "city": "対馬市", "postcode": "8171721", "prefecture": "長崎県", "id": 1269 },
        { "address": "上対馬町琴", "city": "対馬市", "postcode": "8172331", "prefecture": "長崎県", "id": 1270 },
        { "address": "上対馬町玖須", "city": "対馬市", "postcode": "8171714", "prefecture": "長崎県", "id": 1271 },
        { "address": "上対馬町五根緒", "city": "対馬市", "postcode": "8172332", "prefecture": "長崎県", "id": 1272 },
        { "address": "上対馬町舟志", "city": "対馬市", "postcode": "8172333", "prefecture": "長崎県", "id": 1273 },
        { "address": "上対馬町唐舟志", "city": "対馬市", "postcode": "8171712", "prefecture": "長崎県", "id": 1274 },
        { "address": "上対馬町冨浦", "city": "対馬市", "postcode": "8171711", "prefecture": "長崎県", "id": 1275 },
        { "address": "上対馬町豊", "city": "対馬市", "postcode": "8171724", "prefecture": "長崎県", "id": 1276 },
        { "address": "上対馬町西泊", "city": "対馬市", "postcode": "8171703", "prefecture": "長崎県", "id": 1277 },
        { "address": "上対馬町浜久須", "city": "対馬市", "postcode": "8171713", "prefecture": "長崎県", "id": 1278 },
        { "address": "上対馬町比田勝", "city": "対馬市", "postcode": "8171701", "prefecture": "長崎県", "id": 1279 },
        { "address": "上対馬町一重", "city": "対馬市", "postcode": "8172242", "prefecture": "長崎県", "id": 1280 },
        { "address": "上対馬町古里", "city": "対馬市", "postcode": "8171702", "prefecture": "長崎県", "id": 1281 },
        { "address": "上対馬町鰐浦", "city": "対馬市", "postcode": "8171723", "prefecture": "長崎県", "id": 1282 },
        { "address": "豊玉町糸瀬", "city": "対馬市", "postcode": "8171231", "prefecture": "長崎県", "id": 1283 },
        { "address": "豊玉町卯麦", "city": "対馬市", "postcode": "8171253", "prefecture": "長崎県", "id": 1284 },
        { "address": "豊玉町大綱", "city": "対馬市", "postcode": "8171252", "prefecture": "長崎県", "id": 1285 },
        { "address": "豊玉町貝口", "city": "対馬市", "postcode": "8171241", "prefecture": "長崎県", "id": 1286 },
        { "address": "豊玉町貝鮒", "city": "対馬市", "postcode": "8171233", "prefecture": "長崎県", "id": 1287 },
        { "address": "豊玉町唐洲", "city": "対馬市", "postcode": "8171245", "prefecture": "長崎県", "id": 1288 },
        { "address": "豊玉町小綱", "city": "対馬市", "postcode": "8171256", "prefecture": "長崎県", "id": 1289 },
        { "address": "豊玉町嵯峨", "city": "対馬市", "postcode": "8171232", "prefecture": "長崎県", "id": 1290 },
        { "address": "豊玉町佐志賀", "city": "対馬市", "postcode": "8171234", "prefecture": "長崎県", "id": 1291 },
        { "address": "豊玉町佐保", "city": "対馬市", "postcode": "8171254", "prefecture": "長崎県", "id": 1292 },
        { "address": "豊玉町志多浦", "city": "対馬市", "postcode": "8171255", "prefecture": "長崎県", "id": 1293 },
        { "address": "豊玉町曽", "city": "対馬市", "postcode": "8171212", "prefecture": "長崎県", "id": 1294 },
        { "address": "豊玉町田", "city": "対馬市", "postcode": "8171251", "prefecture": "長崎県", "id": 1295 },
        { "address": "豊玉町千尋藻", "city": "対馬市", "postcode": "8171213", "prefecture": "長崎県", "id": 1296 },
        { "address": "豊玉町仁位", "city": "対馬市", "postcode": "8171201", "prefecture": "長崎県", "id": 1297 },
        { "address": "豊玉町廻", "city": "対馬市", "postcode": "8171246", "prefecture": "長崎県", "id": 1298 },
        { "address": "豊玉町銘", "city": "対馬市", "postcode": "8171257", "prefecture": "長崎県", "id": 1299 },
        { "address": "豊玉町鑓川", "city": "対馬市", "postcode": "8171214", "prefecture": "長崎県", "id": 1300 },
        { "address": "豊玉町横浦", "city": "対馬市", "postcode": "8171223", "prefecture": "長崎県", "id": 1301 },
        { "address": "豊玉町和板", "city": "対馬市", "postcode": "8171202", "prefecture": "長崎県", "id": 1302 },
        { "address": "美津島町犬吠", "city": "対馬市", "postcode": "8171106", "prefecture": "長崎県", "id": 1303 },
        { "address": "美津島町今里", "city": "対馬市", "postcode": "8170432", "prefecture": "長崎県", "id": 1304 },
        { "address": "美津島町大船越", "city": "対馬市", "postcode": "8170323", "prefecture": "長崎県", "id": 1305 },
        { "address": "美津島町緒方", "city": "対馬市", "postcode": "8170325", "prefecture": "長崎県", "id": 1306 },
        { "address": "美津島町尾崎", "city": "対馬市", "postcode": "8170431", "prefecture": "長崎県", "id": 1307 },
        { "address": "美津島町大山", "city": "対馬市", "postcode": "8171105", "prefecture": "長崎県", "id": 1308 },
        { "address": "美津島町加志", "city": "対馬市", "postcode": "8170433", "prefecture": "長崎県", "id": 1309 },
        { "address": "美津島町鴨居瀬", "city": "対馬市", "postcode": "8171107", "prefecture": "長崎県", "id": 1310 },
        { "address": "美津島町賀谷", "city": "対馬市", "postcode": "8171103", "prefecture": "長崎県", "id": 1311 },
        { "address": "美津島町久須保", "city": "対馬市", "postcode": "8170324", "prefecture": "長崎県", "id": 1312 },
        { "address": "美津島町黒瀬", "city": "対馬市", "postcode": "8170512", "prefecture": "長崎県", "id": 1313 },
        { "address": "美津島町鶏知", "city": "対馬市", "postcode": "8170322", "prefecture": "長崎県", "id": 1314 },
        { "address": "美津島町小船越", "city": "対馬市", "postcode": "8171101", "prefecture": "長崎県", "id": 1315 },
        { "address": "美津島町島山", "city": "対馬市", "postcode": "8170514", "prefecture": "長崎県", "id": 1316 },
        { "address": "美津島町洲藻", "city": "対馬市", "postcode": "8170321", "prefecture": "長崎県", "id": 1317 },
        { "address": "美津島町竹敷", "city": "対馬市", "postcode": "8170511", "prefecture": "長崎県", "id": 1318 },
        { "address": "美津島町根緒", "city": "対馬市", "postcode": "8170326", "prefecture": "長崎県", "id": 1319 },
        { "address": "美津島町濃部", "city": "対馬市", "postcode": "8171104", "prefecture": "長崎県", "id": 1320 },
        { "address": "美津島町昼ケ浦", "city": "対馬市", "postcode": "8170513", "prefecture": "長崎県", "id": 1321 },
        { "address": "美津島町吹崎", "city": "対馬市", "postcode": "8170434", "prefecture": "長崎県", "id": 1322 },
        { "address": "美津島町箕形", "city": "対馬市", "postcode": "8170435", "prefecture": "長崎県", "id": 1323 },
        { "address": "美津島町芦浦", "city": "対馬市", "postcode": "8171102", "prefecture": "長崎県", "id": 1324 },
        { "address": "峰町青海", "city": "対馬市", "postcode": "8171304", "prefecture": "長崎県", "id": 1325 },
        { "address": "峰町賀佐", "city": "対馬市", "postcode": "8171307", "prefecture": "長崎県", "id": 1326 },
        { "address": "峰町狩尾", "city": "対馬市", "postcode": "8171302", "prefecture": "長崎県", "id": 1327 },
        { "address": "峰町木坂", "city": "対馬市", "postcode": "8171303", "prefecture": "長崎県", "id": 1328 },
        { "address": "峰町櫛", "city": "対馬市", "postcode": "8171411", "prefecture": "長崎県", "id": 1329 },
        { "address": "峰町佐賀", "city": "対馬市", "postcode": "8171412", "prefecture": "長崎県", "id": 1330 },
        { "address": "峰町志多賀", "city": "対馬市", "postcode": "8171413", "prefecture": "長崎県", "id": 1331 },
        { "address": "峰町津柳", "city": "対馬市", "postcode": "8171305", "prefecture": "長崎県", "id": 1332 },
        { "address": "峰町三根", "city": "対馬市", "postcode": "8171301", "prefecture": "長崎県", "id": 1333 },
        { "address": "峰町吉田", "city": "対馬市", "postcode": "8171306", "prefecture": "長崎県", "id": 1334 },
        { "city": "壱岐市", "postcode": "8115100", "prefecture": "長崎県", "id": 1335 },
        { "address": "芦辺町芦辺浦", "city": "壱岐市", "postcode": "8115301", "prefecture": "長崎県", "id": 1336 },
        { "address": "芦辺町国分川迎触", "city": "壱岐市", "postcode": "8115733", "prefecture": "長崎県", "id": 1337 },
        { "address": "芦辺町国分当田触", "city": "壱岐市", "postcode": "8115731", "prefecture": "長崎県", "id": 1338 },
        { "address": "芦辺町国分東触", "city": "壱岐市", "postcode": "8115732", "prefecture": "長崎県", "id": 1339 },
        { "address": "芦辺町国分本村触", "city": "壱岐市", "postcode": "8115734", "prefecture": "長崎県", "id": 1340 },
        { "address": "芦辺町住吉後触", "city": "壱岐市", "postcode": "8115744", "prefecture": "長崎県", "id": 1341 },
        { "address": "芦辺町住吉東触", "city": "壱岐市", "postcode": "8115742", "prefecture": "長崎県", "id": 1342 },
        { "address": "芦辺町住吉前触", "city": "壱岐市", "postcode": "8115743", "prefecture": "長崎県", "id": 1343 },
        { "address": "芦辺町住吉山信触", "city": "壱岐市", "postcode": "8115741", "prefecture": "長崎県", "id": 1344 },
        { "address": "芦辺町瀬戸浦", "city": "壱岐市", "postcode": "8115461", "prefecture": "長崎県", "id": 1345 },
        { "address": "芦辺町中野郷仲触", "city": "壱岐市", "postcode": "8115751", "prefecture": "長崎県", "id": 1346 },
        { "address": "芦辺町中野郷西触", "city": "壱岐市", "postcode": "8115757", "prefecture": "長崎県", "id": 1347 },
        { "address": "芦辺町中野郷東触", "city": "壱岐市", "postcode": "8115752", "prefecture": "長崎県", "id": 1348 },
        {
            "address": "芦辺町中野郷本村触",
            "city": "壱岐市",
            "postcode": "8115756",
            "prefecture": "長崎県",
            "id": 1349
        },
        { "address": "芦辺町箱崎江角触", "city": "壱岐市", "postcode": "8115467", "prefecture": "長崎県", "id": 1350 },
        {
            "address": "芦辺町箱崎釘ノ尾触",
            "city": "壱岐市",
            "postcode": "8115465",
            "prefecture": "長崎県",
            "id": 1351
        },
        {
            "address": "芦辺町箱崎大左右触",
            "city": "壱岐市",
            "postcode": "8115462",
            "prefecture": "長崎県",
            "id": 1352
        },
        { "address": "芦辺町箱崎谷江触", "city": "壱岐市", "postcode": "8115464", "prefecture": "長崎県", "id": 1353 },
        { "address": "芦辺町箱崎中山触", "city": "壱岐市", "postcode": "8115463", "prefecture": "長崎県", "id": 1354 },
        { "address": "芦辺町箱崎本村触", "city": "壱岐市", "postcode": "8115466", "prefecture": "長崎県", "id": 1355 },
        { "address": "芦辺町箱崎諸津触", "city": "壱岐市", "postcode": "8115468", "prefecture": "長崎県", "id": 1356 },
        { "address": "芦辺町深江栄触", "city": "壱岐市", "postcode": "8115321", "prefecture": "長崎県", "id": 1357 },
        { "address": "芦辺町深江鶴亀触", "city": "壱岐市", "postcode": "8115322", "prefecture": "長崎県", "id": 1358 },
        { "address": "芦辺町深江東触", "city": "壱岐市", "postcode": "8115324", "prefecture": "長崎県", "id": 1359 },
        { "address": "芦辺町深江平触", "city": "壱岐市", "postcode": "8115323", "prefecture": "長崎県", "id": 1360 },
        { "address": "芦辺町深江本村触", "city": "壱岐市", "postcode": "8115326", "prefecture": "長崎県", "id": 1361 },
        { "address": "芦辺町深江南触", "city": "壱岐市", "postcode": "8115325", "prefecture": "長崎県", "id": 1362 },
        { "address": "芦辺町諸吉大石触", "city": "壱岐市", "postcode": "8115316", "prefecture": "長崎県", "id": 1363 },
        { "address": "芦辺町諸吉仲触", "city": "壱岐市", "postcode": "8115313", "prefecture": "長崎県", "id": 1364 },
        { "address": "芦辺町諸吉東触", "city": "壱岐市", "postcode": "8115314", "prefecture": "長崎県", "id": 1365 },
        { "address": "芦辺町諸吉二亦触", "city": "壱岐市", "postcode": "8115315", "prefecture": "長崎県", "id": 1366 },
        { "address": "芦辺町諸吉本村触", "city": "壱岐市", "postcode": "8115311", "prefecture": "長崎県", "id": 1367 },
        { "address": "芦辺町諸吉南触", "city": "壱岐市", "postcode": "8115312", "prefecture": "長崎県", "id": 1368 },
        { "address": "芦辺町湯岳興触", "city": "壱岐市", "postcode": "8115755", "prefecture": "長崎県", "id": 1369 },
        { "address": "芦辺町湯岳今坂触", "city": "壱岐市", "postcode": "8115754", "prefecture": "長崎県", "id": 1370 },
        { "address": "芦辺町湯岳本村触", "city": "壱岐市", "postcode": "8115753", "prefecture": "長崎県", "id": 1371 },
        { "address": "石田町池田仲触", "city": "壱岐市", "postcode": "8115222", "prefecture": "長崎県", "id": 1372 },
        { "address": "石田町池田西触", "city": "壱岐市", "postcode": "8115224", "prefecture": "長崎県", "id": 1373 },
        { "address": "石田町池田東触", "city": "壱岐市", "postcode": "8115221", "prefecture": "長崎県", "id": 1374 },
        { "address": "石田町石田西触", "city": "壱岐市", "postcode": "8115215", "prefecture": "長崎県", "id": 1375 },
        { "address": "石田町石田東触", "city": "壱岐市", "postcode": "8115211", "prefecture": "長崎県", "id": 1376 },
        { "address": "石田町印通寺浦", "city": "壱岐市", "postcode": "8115214", "prefecture": "長崎県", "id": 1377 },
        { "address": "石田町久喜触", "city": "壱岐市", "postcode": "8115223", "prefecture": "長崎県", "id": 1378 },
        { "address": "石田町筒城仲触", "city": "壱岐市", "postcode": "8115202", "prefecture": "長崎県", "id": 1379 },
        { "address": "石田町筒城西触", "city": "壱岐市", "postcode": "8115204", "prefecture": "長崎県", "id": 1380 },
        { "address": "石田町筒城東触", "city": "壱岐市", "postcode": "8115203", "prefecture": "長崎県", "id": 1381 },
        { "address": "石田町本村触", "city": "壱岐市", "postcode": "8115212", "prefecture": "長崎県", "id": 1382 },
        { "address": "石田町南触", "city": "壱岐市", "postcode": "8115213", "prefecture": "長崎県", "id": 1383 },
        { "address": "石田町山崎触", "city": "壱岐市", "postcode": "8115201", "prefecture": "長崎県", "id": 1384 },
        {
            "address": "石田町湯岳射手吉触",
            "city": "壱岐市",
            "postcode": "8115226",
            "prefecture": "長崎県",
            "id": 1385
        },
        { "address": "石田町湯岳興触", "city": "壱岐市", "postcode": "8115225", "prefecture": "長崎県", "id": 1386 },
        { "address": "勝本町上場触", "city": "壱岐市", "postcode": "8115543", "prefecture": "長崎県", "id": 1387 },
        { "address": "勝本町大久保触", "city": "壱岐市", "postcode": "8115532", "prefecture": "長崎県", "id": 1388 },
        { "address": "勝本町片山触", "city": "壱岐市", "postcode": "8115523", "prefecture": "長崎県", "id": 1389 },
        { "address": "勝本町勝本浦", "city": "壱岐市", "postcode": "8115501", "prefecture": "長崎県", "id": 1390 },
        { "address": "勝本町北触", "city": "壱岐市", "postcode": "8115513", "prefecture": "長崎県", "id": 1391 },
        { "address": "勝本町西戸触", "city": "壱岐市", "postcode": "8115521", "prefecture": "長崎県", "id": 1392 },
        { "address": "勝本町坂本触", "city": "壱岐市", "postcode": "8115531", "prefecture": "長崎県", "id": 1393 },
        { "address": "勝本町新城西触", "city": "壱岐市", "postcode": "8115533", "prefecture": "長崎県", "id": 1394 },
        { "address": "勝本町新城東触", "city": "壱岐市", "postcode": "8115522", "prefecture": "長崎県", "id": 1395 },
        { "address": "勝本町立石仲触", "city": "壱岐市", "postcode": "8115554", "prefecture": "長崎県", "id": 1396 },
        { "address": "勝本町立石西触", "city": "壱岐市", "postcode": "8115556", "prefecture": "長崎県", "id": 1397 },
        { "address": "勝本町立石東触", "city": "壱岐市", "postcode": "8115553", "prefecture": "長崎県", "id": 1398 },
        { "address": "勝本町立石南触", "city": "壱岐市", "postcode": "8115555", "prefecture": "長崎県", "id": 1399 },
        { "address": "勝本町仲触", "city": "壱岐市", "postcode": "8115511", "prefecture": "長崎県", "id": 1400 },
        { "address": "勝本町東触", "city": "壱岐市", "postcode": "8115512", "prefecture": "長崎県", "id": 1401 },
        { "address": "勝本町布気触", "city": "壱岐市", "postcode": "8115544", "prefecture": "長崎県", "id": 1402 },
        { "address": "勝本町本宮仲触", "city": "壱岐市", "postcode": "8115546", "prefecture": "長崎県", "id": 1403 },
        { "address": "勝本町本宮西触", "city": "壱岐市", "postcode": "8115541", "prefecture": "長崎県", "id": 1404 },
        { "address": "勝本町本宮東触", "city": "壱岐市", "postcode": "8115542", "prefecture": "長崎県", "id": 1405 },
        { "address": "勝本町本宮南触", "city": "壱岐市", "postcode": "8115545", "prefecture": "長崎県", "id": 1406 },
        { "address": "勝本町湯本浦", "city": "壱岐市", "postcode": "8115551", "prefecture": "長崎県", "id": 1407 },
        { "address": "勝本町百合畑触", "city": "壱岐市", "postcode": "8115552", "prefecture": "長崎県", "id": 1408 },
        { "address": "郷ノ浦町有安触", "city": "壱岐市", "postcode": "8115107", "prefecture": "長崎県", "id": 1409 },
        { "address": "郷ノ浦町牛方触", "city": "壱岐市", "postcode": "8115113", "prefecture": "長崎県", "id": 1410 },
        { "address": "郷ノ浦町大浦触", "city": "壱岐市", "postcode": "8115112", "prefecture": "長崎県", "id": 1411 },
        { "address": "郷ノ浦町大島", "city": "壱岐市", "postcode": "8115161", "prefecture": "長崎県", "id": 1412 },
        { "address": "郷ノ浦町片原触", "city": "壱岐市", "postcode": "8115136", "prefecture": "長崎県", "id": 1413 },
        { "address": "郷ノ浦町木田触", "city": "壱岐市", "postcode": "8115115", "prefecture": "長崎県", "id": 1414 },
        { "address": "郷ノ浦町釘山触", "city": "壱岐市", "postcode": "8115123", "prefecture": "長崎県", "id": 1415 },
        { "address": "郷ノ浦町郷ノ浦", "city": "壱岐市", "postcode": "8115135", "prefecture": "長崎県", "id": 1416 },
        { "address": "郷ノ浦町小牧西触", "city": "壱岐市", "postcode": "8115105", "prefecture": "長崎県", "id": 1417 },
        { "address": "郷ノ浦町小牧東触", "city": "壱岐市", "postcode": "8115106", "prefecture": "長崎県", "id": 1418 },
        { "address": "郷ノ浦町里触", "city": "壱岐市", "postcode": "8115104", "prefecture": "長崎県", "id": 1419 },
        { "address": "郷ノ浦町志原西触", "city": "壱岐市", "postcode": "8115125", "prefecture": "長崎県", "id": 1420 },
        { "address": "郷ノ浦町志原南触", "city": "壱岐市", "postcode": "8115124", "prefecture": "長崎県", "id": 1421 },
        { "address": "郷ノ浦町庄触", "city": "壱岐市", "postcode": "8115134", "prefecture": "長崎県", "id": 1422 },
        { "address": "郷ノ浦町新田触", "city": "壱岐市", "postcode": "8115103", "prefecture": "長崎県", "id": 1423 },
        { "address": "郷ノ浦町大原触", "city": "壱岐市", "postcode": "8115122", "prefecture": "長崎県", "id": 1424 },
        { "address": "郷ノ浦町田中触", "city": "壱岐市", "postcode": "8115117", "prefecture": "長崎県", "id": 1425 },
        { "address": "郷ノ浦町坪触", "city": "壱岐市", "postcode": "8115142", "prefecture": "長崎県", "id": 1426 },
        { "address": "郷ノ浦町長島", "city": "壱岐市", "postcode": "8115162", "prefecture": "長崎県", "id": 1427 },
        { "address": "郷ノ浦町永田触", "city": "壱岐市", "postcode": "8115131", "prefecture": "長崎県", "id": 1428 },
        { "address": "郷ノ浦町長峰東触", "city": "壱岐市", "postcode": "8115102", "prefecture": "長崎県", "id": 1429 },
        {
            "address": "郷ノ浦町長峰本村触",
            "city": "壱岐市",
            "postcode": "8115101",
            "prefecture": "長崎県",
            "id": 1430
        },
        { "address": "郷ノ浦町初山西触", "city": "壱岐市", "postcode": "8115143", "prefecture": "長崎県", "id": 1431 },
        { "address": "郷ノ浦町初山東触", "city": "壱岐市", "postcode": "8115144", "prefecture": "長崎県", "id": 1432 },
        { "address": "郷ノ浦町原島", "city": "壱岐市", "postcode": "8115163", "prefecture": "長崎県", "id": 1433 },
        {
            "address": "郷ノ浦町半城本村触",
            "city": "壱岐市",
            "postcode": "8115111",
            "prefecture": "長崎県",
            "id": 1434
        },
        { "address": "郷ノ浦町東触", "city": "壱岐市", "postcode": "8115132", "prefecture": "長崎県", "id": 1435 },
        { "address": "郷ノ浦町平人触", "city": "壱岐市", "postcode": "8115121", "prefecture": "長崎県", "id": 1436 },
        { "address": "郷ノ浦町本村触", "city": "壱岐市", "postcode": "8115133", "prefecture": "長崎県", "id": 1437 },
        { "address": "郷ノ浦町麦谷触", "city": "壱岐市", "postcode": "8115155", "prefecture": "長崎県", "id": 1438 },
        {
            "address": "郷ノ浦町物部本村触",
            "city": "壱岐市",
            "postcode": "8115116",
            "prefecture": "長崎県",
            "id": 1439
        },
        { "address": "郷ノ浦町柳田触", "city": "壱岐市", "postcode": "8115114", "prefecture": "長崎県", "id": 1440 },
        { "address": "郷ノ浦町若松触", "city": "壱岐市", "postcode": "8115141", "prefecture": "長崎県", "id": 1441 },
        { "address": "郷ノ浦町渡良浦", "city": "壱岐市", "postcode": "8115151", "prefecture": "長崎県", "id": 1442 },
        { "address": "郷ノ浦町渡良西触", "city": "壱岐市", "postcode": "8115153", "prefecture": "長崎県", "id": 1443 },
        { "address": "郷ノ浦町渡良東触", "city": "壱岐市", "postcode": "8115154", "prefecture": "長崎県", "id": 1444 },
        { "address": "郷ノ浦町渡良南触", "city": "壱岐市", "postcode": "8115152", "prefecture": "長崎県", "id": 1445 },
        { "city": "五島市", "postcode": "8530000", "prefecture": "長崎県", "id": 1446 },
        { "address": "赤島町", "city": "五島市", "postcode": "8530062", "prefecture": "長崎県", "id": 1447 },
        { "address": "池田町", "city": "五島市", "postcode": "8530018", "prefecture": "長崎県", "id": 1448 },
        { "address": "猪之木町", "city": "五島市", "postcode": "8532174", "prefecture": "長崎県", "id": 1449 },
        { "address": "伊福貴町", "city": "五島市", "postcode": "8532481", "prefecture": "長崎県", "id": 1450 },
        { "address": "江川町", "city": "五島市", "postcode": "8530006", "prefecture": "長崎県", "id": 1451 },
        { "address": "黄島町", "city": "五島市", "postcode": "8530061", "prefecture": "長崎県", "id": 1452 },
        { "address": "大荒町", "city": "五島市", "postcode": "8530032", "prefecture": "長崎県", "id": 1453 },
        { "address": "奥浦町", "city": "五島市", "postcode": "8530053", "prefecture": "長崎県", "id": 1454 },
        { "address": "小泊町", "city": "五島市", "postcode": "8530025", "prefecture": "長崎県", "id": 1455 },
        { "address": "上大津町", "city": "五島市", "postcode": "8530013", "prefecture": "長崎県", "id": 1456 },
        { "address": "上崎山町", "city": "五島市", "postcode": "8530023", "prefecture": "長崎県", "id": 1457 },
        { "address": "岐宿町川原", "city": "五島市", "postcode": "8530702", "prefecture": "長崎県", "id": 1458 },
        { "address": "岐宿町岐宿", "city": "五島市", "postcode": "8530701", "prefecture": "長崎県", "id": 1459 },
        { "address": "岐宿町楠原", "city": "五島市", "postcode": "8530703", "prefecture": "長崎県", "id": 1460 },
        { "address": "岐宿町河務", "city": "五島市", "postcode": "8530704", "prefecture": "長崎県", "id": 1461 },
        { "address": "岐宿町唐船ノ浦", "city": "五島市", "postcode": "8530706", "prefecture": "長崎県", "id": 1462 },
        { "address": "岐宿町戸岐ノ首", "city": "五島市", "postcode": "8530705", "prefecture": "長崎県", "id": 1463 },
        { "address": "岐宿町中嶽", "city": "五島市", "postcode": "8530312", "prefecture": "長崎県", "id": 1464 },
        { "address": "岐宿町二本楠", "city": "五島市", "postcode": "8530311", "prefecture": "長崎県", "id": 1465 },
        { "address": "岐宿町松山", "city": "五島市", "postcode": "8530313", "prefecture": "長崎県", "id": 1466 },
        { "address": "高田町", "city": "五島市", "postcode": "8530043", "prefecture": "長崎県", "id": 1467 },
        { "address": "木場町", "city": "五島市", "postcode": "8530033", "prefecture": "長崎県", "id": 1468 },
        { "address": "籠淵町", "city": "五島市", "postcode": "8530041", "prefecture": "長崎県", "id": 1469 },
        { "address": "紺屋町", "city": "五島市", "postcode": "8530016", "prefecture": "長崎県", "id": 1470 },
        { "address": "幸町", "city": "五島市", "postcode": "8530004", "prefecture": "長崎県", "id": 1471 },
        { "address": "栄町", "city": "五島市", "postcode": "8530001", "prefecture": "長崎県", "id": 1472 },
        { "address": "坂の上", "city": "五島市", "postcode": "8530065", "prefecture": "長崎県", "id": 1473 },
        { "address": "下大津町", "city": "五島市", "postcode": "8530011", "prefecture": "長崎県", "id": 1474 },
        { "address": "下崎山町", "city": "五島市", "postcode": "8530021", "prefecture": "長崎県", "id": 1475 },
        { "address": "新港町", "city": "五島市", "postcode": "8530063", "prefecture": "長崎県", "id": 1476 },
        { "address": "末広町", "city": "五島市", "postcode": "8530005", "prefecture": "長崎県", "id": 1477 },
        { "address": "大円寺町", "city": "五島市", "postcode": "8530066", "prefecture": "長崎県", "id": 1478 },
        { "address": "田ノ浦町", "city": "五島市", "postcode": "8532173", "prefecture": "長崎県", "id": 1479 },
        { "address": "玉之浦町荒川", "city": "五島市", "postcode": "8530501", "prefecture": "長崎県", "id": 1480 },
        { "address": "玉之浦町幾久山", "city": "五島市", "postcode": "8530502", "prefecture": "長崎県", "id": 1481 },
        { "address": "玉之浦町小川", "city": "五島市", "postcode": "8530503", "prefecture": "長崎県", "id": 1482 },
        { "address": "玉之浦町上の平", "city": "五島市", "postcode": "8530506", "prefecture": "長崎県", "id": 1483 },
        { "address": "玉之浦町大宝", "city": "五島市", "postcode": "8530413", "prefecture": "長崎県", "id": 1484 },
        { "address": "玉之浦町立谷", "city": "五島市", "postcode": "8530412", "prefecture": "長崎県", "id": 1485 },
        { "address": "玉之浦町玉之浦", "city": "五島市", "postcode": "8530411", "prefecture": "長崎県", "id": 1486 },
        { "address": "玉之浦町丹奈", "city": "五島市", "postcode": "8530504", "prefecture": "長崎県", "id": 1487 },
        { "address": "玉之浦町頓泊", "city": "五島市", "postcode": "8530507", "prefecture": "長崎県", "id": 1488 },
        { "address": "玉之浦町中須", "city": "五島市", "postcode": "8530505", "prefecture": "長崎県", "id": 1489 },
        { "address": "玉之浦町布浦", "city": "五島市", "postcode": "8530508", "prefecture": "長崎県", "id": 1490 },
        { "address": "中央町", "city": "五島市", "postcode": "8530002", "prefecture": "長崎県", "id": 1491 },
        { "address": "堤町", "city": "五島市", "postcode": "8530044", "prefecture": "長崎県", "id": 1492 },
        { "address": "戸岐町", "city": "五島市", "postcode": "8530054", "prefecture": "長崎県", "id": 1493 },
        { "address": "富江町狩立", "city": "五島市", "postcode": "8530205", "prefecture": "長崎県", "id": 1494 },
        { "address": "富江町黒島", "city": "五島市", "postcode": "8530208", "prefecture": "長崎県", "id": 1495 },
        { "address": "富江町黒瀬", "city": "五島市", "postcode": "8530211", "prefecture": "長崎県", "id": 1496 },
        { "address": "富江町繁敷", "city": "五島市", "postcode": "8530204", "prefecture": "長崎県", "id": 1497 },
        { "address": "富江町職人", "city": "五島市", "postcode": "8530215", "prefecture": "長崎県", "id": 1498 },
        { "address": "富江町田尾", "city": "五島市", "postcode": "8530203", "prefecture": "長崎県", "id": 1499 },
        { "address": "富江町岳", "city": "五島市", "postcode": "8530213", "prefecture": "長崎県", "id": 1500 },
        { "address": "富江町土取", "city": "五島市", "postcode": "8530214", "prefecture": "長崎県", "id": 1501 },
        { "address": "富江町富江", "city": "五島市", "postcode": "8530201", "prefecture": "長崎県", "id": 1502 },
        { "address": "富江町長峰", "city": "五島市", "postcode": "8530207", "prefecture": "長崎県", "id": 1503 },
        { "address": "富江町松尾", "city": "五島市", "postcode": "8530202", "prefecture": "長崎県", "id": 1504 },
        { "address": "富江町山下", "city": "五島市", "postcode": "8530212", "prefecture": "長崎県", "id": 1505 },
        { "address": "富江町山手", "city": "五島市", "postcode": "8530206", "prefecture": "長崎県", "id": 1506 },
        { "address": "長手町", "city": "五島市", "postcode": "8530012", "prefecture": "長崎県", "id": 1507 },
        { "address": "奈留町浦", "city": "五島市", "postcode": "8532201", "prefecture": "長崎県", "id": 1508 },
        { "address": "奈留町大串", "city": "五島市", "postcode": "8532202", "prefecture": "長崎県", "id": 1509 },
        { "address": "奈留町泊", "city": "五島市", "postcode": "8532203", "prefecture": "長崎県", "id": 1510 },
        { "address": "奈留町船廻", "city": "五島市", "postcode": "8532204", "prefecture": "長崎県", "id": 1511 },
        { "address": "錦町", "city": "五島市", "postcode": "8530003", "prefecture": "長崎県", "id": 1512 },
        { "address": "野々切町", "city": "五島市", "postcode": "8530024", "prefecture": "長崎県", "id": 1513 },
        { "address": "浜町", "city": "五島市", "postcode": "8530026", "prefecture": "長崎県", "id": 1514 },
        { "address": "東浜町", "city": "五島市", "postcode": "8530015", "prefecture": "長崎県", "id": 1515 },
        { "address": "久賀町", "city": "五島市", "postcode": "8532171", "prefecture": "長崎県", "id": 1516 },
        { "address": "平蔵町", "city": "五島市", "postcode": "8530051", "prefecture": "長崎県", "id": 1517 },
        { "address": "福江町", "city": "五島市", "postcode": "8530007", "prefecture": "長崎県", "id": 1518 },
        { "address": "武家屋敷", "city": "五島市", "postcode": "8530017", "prefecture": "長崎県", "id": 1519 },
        { "address": "増田町", "city": "五島市", "postcode": "8530027", "prefecture": "長崎県", "id": 1520 },
        { "address": "松山町", "city": "五島市", "postcode": "8530052", "prefecture": "長崎県", "id": 1521 },
        { "address": "三井楽町丑ノ浦", "city": "五島市", "postcode": "8530606", "prefecture": "長崎県", "id": 1522 },
        { "address": "三井楽町大川", "city": "五島市", "postcode": "8530602", "prefecture": "長崎県", "id": 1523 },
        { "address": "三井楽町貝津", "city": "五島市", "postcode": "8530604", "prefecture": "長崎県", "id": 1524 },
        { "address": "三井楽町柏", "city": "五島市", "postcode": "8530603", "prefecture": "長崎県", "id": 1525 },
        { "address": "三井楽町嵯峨島", "city": "五島市", "postcode": "8530611", "prefecture": "長崎県", "id": 1526 },
        { "address": "三井楽町塩水", "city": "五島市", "postcode": "8530613", "prefecture": "長崎県", "id": 1527 },
        { "address": "三井楽町高崎", "city": "五島市", "postcode": "8530612", "prefecture": "長崎県", "id": 1528 },
        { "address": "三井楽町嶽", "city": "五島市", "postcode": "8530607", "prefecture": "長崎県", "id": 1529 },
        { "address": "三井楽町波砂間", "city": "五島市", "postcode": "8530608", "prefecture": "長崎県", "id": 1530 },
        { "address": "三井楽町濱窄", "city": "五島市", "postcode": "8530605", "prefecture": "長崎県", "id": 1531 },
        { "address": "三井楽町濱ノ畔", "city": "五島市", "postcode": "8530601", "prefecture": "長崎県", "id": 1532 },
        { "address": "三井楽町渕ノ元", "city": "五島市", "postcode": "8530609", "prefecture": "長崎県", "id": 1533 },
        { "address": "三尾野", "city": "五島市", "postcode": "8530064", "prefecture": "長崎県", "id": 1534 },
        { "address": "三尾野町", "city": "五島市", "postcode": "8530014", "prefecture": "長崎県", "id": 1535 },
        { "address": "向町", "city": "五島市", "postcode": "8530022", "prefecture": "長崎県", "id": 1536 },
        { "address": "本窯町", "city": "五島市", "postcode": "8532482", "prefecture": "長崎県", "id": 1537 },
        { "address": "吉久木町", "city": "五島市", "postcode": "8530031", "prefecture": "長崎県", "id": 1538 },
        { "address": "吉田町", "city": "五島市", "postcode": "8530042", "prefecture": "長崎県", "id": 1539 },
        { "address": "蕨町", "city": "五島市", "postcode": "8532172", "prefecture": "長崎県", "id": 1540 },
        { "city": "西海市", "postcode": "8513500", "prefecture": "長崎県", "id": 1541 },
        { "city": "西海市", "postcode": "8572427", "prefecture": "長崎県", "id": 1542 },
        { "address": "大島町内浦地区", "city": "西海市", "postcode": "8572402", "prefecture": "長崎県", "id": 1543 },
        { "address": "大島町大島", "city": "西海市", "postcode": "8572426", "prefecture": "長崎県", "id": 1544 },
        { "address": "大島町太田尾", "city": "西海市", "postcode": "8572422", "prefecture": "長崎県", "id": 1545 },
        { "address": "大島町黒瀬", "city": "西海市", "postcode": "8572401", "prefecture": "長崎県", "id": 1546 },
        { "address": "大島町塩田", "city": "西海市", "postcode": "8572424", "prefecture": "長崎県", "id": 1547 },
        { "address": "大島町田浦", "city": "西海市", "postcode": "8572425", "prefecture": "長崎県", "id": 1548 },
        { "address": "大島町中央地区", "city": "西海市", "postcode": "8572405", "prefecture": "長崎県", "id": 1549 },
        { "address": "大島町寺島", "city": "西海市", "postcode": "8572411", "prefecture": "長崎県", "id": 1550 },
        { "address": "大島町塔尾", "city": "西海市", "postcode": "8572423", "prefecture": "長崎県", "id": 1551 },
        { "address": "大島町徳万", "city": "西海市", "postcode": "8572418", "prefecture": "長崎県", "id": 1552 },
        { "address": "大島町中戸", "city": "西海市", "postcode": "8572421", "prefecture": "長崎県", "id": 1553 },
        { "address": "大島町蛤", "city": "西海市", "postcode": "8572419", "prefecture": "長崎県", "id": 1554 },
        { "address": "大島町馬込", "city": "西海市", "postcode": "8572403", "prefecture": "長崎県", "id": 1555 },
        { "address": "大島町真砂", "city": "西海市", "postcode": "8572412", "prefecture": "長崎県", "id": 1556 },
        { "address": "大島町間瀬", "city": "西海市", "postcode": "8572413", "prefecture": "長崎県", "id": 1557 },
        { "address": "大島町百合が丘", "city": "西海市", "postcode": "8572417", "prefecture": "長崎県", "id": 1558 },
        {
            "address": "大瀬戸町瀬戸板浦郷",
            "city": "西海市",
            "postcode": "8572301",
            "prefecture": "長崎県",
            "id": 1559
        },
        {
            "address": "大瀬戸町瀬戸樫浦郷",
            "city": "西海市",
            "postcode": "8572302",
            "prefecture": "長崎県",
            "id": 1560
        },
        {
            "address": "大瀬戸町瀬戸下山郷",
            "city": "西海市",
            "postcode": "8572304",
            "prefecture": "長崎県",
            "id": 1561
        },
        {
            "address": "大瀬戸町瀬戸西濱郷",
            "city": "西海市",
            "postcode": "8572303",
            "prefecture": "長崎県",
            "id": 1562
        },
        {
            "address": "大瀬戸町瀬戸羽出川郷",
            "city": "西海市",
            "postcode": "8572305",
            "prefecture": "長崎県",
            "id": 1563
        },
        {
            "address": "大瀬戸町瀬戸東濱郷",
            "city": "西海市",
            "postcode": "8572306",
            "prefecture": "長崎県",
            "id": 1564
        },
        {
            "address": "大瀬戸町瀬戸福島郷",
            "city": "西海市",
            "postcode": "8572307",
            "prefecture": "長崎県",
            "id": 1565
        },
        {
            "address": "大瀬戸町多以良内郷",
            "city": "西海市",
            "postcode": "8572312",
            "prefecture": "長崎県",
            "id": 1566
        },
        {
            "address": "大瀬戸町多以良外郷",
            "city": "西海市",
            "postcode": "8572311",
            "prefecture": "長崎県",
            "id": 1567
        },
        { "address": "大瀬戸町松島内郷", "city": "西海市", "postcode": "8572531", "prefecture": "長崎県", "id": 1568 },
        { "address": "大瀬戸町松島外郷", "city": "西海市", "postcode": "8572532", "prefecture": "長崎県", "id": 1569 },
        {
            "address": "大瀬戸町雪浦奥浦郷",
            "city": "西海市",
            "postcode": "8572324",
            "prefecture": "長崎県",
            "id": 1570
        },
        { "address": "大瀬戸町雪浦上郷", "city": "西海市", "postcode": "8572327", "prefecture": "長崎県", "id": 1571 },
        {
            "address": "大瀬戸町雪浦久良木郷",
            "city": "西海市",
            "postcode": "8572322",
            "prefecture": "長崎県",
            "id": 1572
        },
        {
            "address": "大瀬戸町雪浦河通郷",
            "city": "西海市",
            "postcode": "8572323",
            "prefecture": "長崎県",
            "id": 1573
        },
        {
            "address": "大瀬戸町雪浦幸物郷",
            "city": "西海市",
            "postcode": "8572321",
            "prefecture": "長崎県",
            "id": 1574
        },
        {
            "address": "大瀬戸町雪浦小松郷",
            "city": "西海市",
            "postcode": "8572325",
            "prefecture": "長崎県",
            "id": 1575
        },
        { "address": "大瀬戸町雪浦下郷", "city": "西海市", "postcode": "8572326", "prefecture": "長崎県", "id": 1576 },
        {
            "address": "大瀬戸町雪浦下釜郷",
            "city": "西海市",
            "postcode": "8572328",
            "prefecture": "長崎県",
            "id": 1577
        },
        { "address": "西海町天久保郷", "city": "西海市", "postcode": "8513507", "prefecture": "長崎県", "id": 1578 },
        { "address": "西海町太田原郷", "city": "西海市", "postcode": "8513503", "prefecture": "長崎県", "id": 1579 },
        { "address": "西海町太田和郷", "city": "西海市", "postcode": "8513505", "prefecture": "長崎県", "id": 1580 },
        { "address": "西海町面高郷", "city": "西海市", "postcode": "8513508", "prefecture": "長崎県", "id": 1581 },
        { "address": "西海町川内郷", "city": "西海市", "postcode": "8513502", "prefecture": "長崎県", "id": 1582 },
        { "address": "西海町黒口郷", "city": "西海市", "postcode": "8513506", "prefecture": "長崎県", "id": 1583 },
        { "address": "西海町木場郷", "city": "西海市", "postcode": "8513504", "prefecture": "長崎県", "id": 1584 },
        { "address": "西海町丹納郷", "city": "西海市", "postcode": "8513501", "prefecture": "長崎県", "id": 1585 },
        { "address": "西海町中浦北郷", "city": "西海市", "postcode": "8572222", "prefecture": "長崎県", "id": 1586 },
        { "address": "西海町中浦南郷", "city": "西海市", "postcode": "8572221", "prefecture": "長崎県", "id": 1587 },
        { "address": "西海町七釜郷", "city": "西海市", "postcode": "8572223", "prefecture": "長崎県", "id": 1588 },
        { "address": "西海町水浦郷", "city": "西海市", "postcode": "8513511", "prefecture": "長崎県", "id": 1589 },
        { "address": "西海町横瀬郷", "city": "西海市", "postcode": "8513509", "prefecture": "長崎県", "id": 1590 },
        { "address": "崎戸町江島", "city": "西海市", "postcode": "8573103", "prefecture": "長崎県", "id": 1591 },
        { "address": "崎戸町蠣浦郷", "city": "西海市", "postcode": "8573101", "prefecture": "長崎県", "id": 1592 },
        { "address": "崎戸町平島", "city": "西海市", "postcode": "8573311", "prefecture": "長崎県", "id": 1593 },
        { "address": "崎戸町本郷", "city": "西海市", "postcode": "8573102", "prefecture": "長崎県", "id": 1594 },
        { "address": "西彼町伊ノ浦郷", "city": "西海市", "postcode": "8513421", "prefecture": "長崎県", "id": 1595 },
        { "address": "西彼町大串郷", "city": "西海市", "postcode": "8513424", "prefecture": "長崎県", "id": 1596 },
        { "address": "西彼町風早郷", "city": "西海市", "postcode": "8513313", "prefecture": "長崎県", "id": 1597 },
        { "address": "西彼町上岳郷", "city": "西海市", "postcode": "8513304", "prefecture": "長崎県", "id": 1598 },
        { "address": "西彼町亀浦郷", "city": "西海市", "postcode": "8513303", "prefecture": "長崎県", "id": 1599 },
        { "address": "西彼町小迎郷", "city": "西海市", "postcode": "8513422", "prefecture": "長崎県", "id": 1600 },
        { "address": "西彼町喰場郷", "city": "西海市", "postcode": "8513305", "prefecture": "長崎県", "id": 1601 },
        { "address": "西彼町下岳郷", "city": "西海市", "postcode": "8513311", "prefecture": "長崎県", "id": 1602 },
        { "address": "西彼町白似田郷", "city": "西海市", "postcode": "8513314", "prefecture": "長崎県", "id": 1603 },
        { "address": "西彼町白崎郷", "city": "西海市", "postcode": "8513312", "prefecture": "長崎県", "id": 1604 },
        { "address": "西彼町鳥加郷", "city": "西海市", "postcode": "8513306", "prefecture": "長崎県", "id": 1605 },
        { "address": "西彼町鳥加郷", "city": "西海市", "postcode": "8513406", "prefecture": "長崎県", "id": 1606 },
        { "address": "西彼町中山郷", "city": "西海市", "postcode": "8513302", "prefecture": "長崎県", "id": 1607 },
        { "address": "西彼町平原郷", "city": "西海市", "postcode": "8513315", "prefecture": "長崎県", "id": 1608 },
        { "address": "西彼町平山郷", "city": "西海市", "postcode": "8513425", "prefecture": "長崎県", "id": 1609 },
        { "address": "西彼町宮浦郷", "city": "西海市", "postcode": "8513301", "prefecture": "長崎県", "id": 1610 },
        { "address": "西彼町八木原郷", "city": "西海市", "postcode": "8513423", "prefecture": "長崎県", "id": 1611 },
        { "city": "雲仙市", "postcode": "8540500", "prefecture": "長崎県", "id": 1612 },
        { "address": "愛野町乙", "city": "雲仙市", "postcode": "8540302", "prefecture": "長崎県", "id": 1613 },
        { "address": "愛野町甲", "city": "雲仙市", "postcode": "8540301", "prefecture": "長崎県", "id": 1614 },
        { "address": "吾妻町阿母名", "city": "雲仙市", "postcode": "8591116", "prefecture": "長崎県", "id": 1615 },
        { "address": "吾妻町牛口名", "city": "雲仙市", "postcode": "8591107", "prefecture": "長崎県", "id": 1616 },
        { "address": "吾妻町永中名", "city": "雲仙市", "postcode": "8591115", "prefecture": "長崎県", "id": 1617 },
        { "address": "吾妻町大木場名", "city": "雲仙市", "postcode": "8591106", "prefecture": "長崎県", "id": 1618 },
        { "address": "吾妻町川床名", "city": "雲仙市", "postcode": "8591114", "prefecture": "長崎県", "id": 1619 },
        { "address": "吾妻町栗林名", "city": "雲仙市", "postcode": "8591112", "prefecture": "長崎県", "id": 1620 },
        { "address": "吾妻町木場名", "city": "雲仙市", "postcode": "8591102", "prefecture": "長崎県", "id": 1621 },
        { "address": "吾妻町田之平名", "city": "雲仙市", "postcode": "8591105", "prefecture": "長崎県", "id": 1622 },
        { "address": "吾妻町布江名", "city": "雲仙市", "postcode": "8591113", "prefecture": "長崎県", "id": 1623 },
        { "address": "吾妻町馬場名", "city": "雲仙市", "postcode": "8591111", "prefecture": "長崎県", "id": 1624 },
        { "address": "吾妻町平江名", "city": "雲仙市", "postcode": "8591103", "prefecture": "長崎県", "id": 1625 },
        { "address": "吾妻町古城名", "city": "雲仙市", "postcode": "8591104", "prefecture": "長崎県", "id": 1626 },
        { "address": "吾妻町本村名", "city": "雲仙市", "postcode": "8591101", "prefecture": "長崎県", "id": 1627 },
        { "address": "小浜町雲仙", "city": "雲仙市", "postcode": "8540621", "prefecture": "長崎県", "id": 1628 },
        { "address": "小浜町大亀", "city": "雲仙市", "postcode": "8540501", "prefecture": "長崎県", "id": 1629 },
        { "address": "小浜町金浜", "city": "雲仙市", "postcode": "8540504", "prefecture": "長崎県", "id": 1630 },
        { "address": "小浜町北木指", "city": "雲仙市", "postcode": "8540512", "prefecture": "長崎県", "id": 1631 },
        { "address": "小浜町北野", "city": "雲仙市", "postcode": "8540515", "prefecture": "長崎県", "id": 1632 },
        { "address": "小浜町北本町", "city": "雲仙市", "postcode": "8540514", "prefecture": "長崎県", "id": 1633 },
        { "address": "小浜町木場", "city": "雲仙市", "postcode": "8540505", "prefecture": "長崎県", "id": 1634 },
        { "address": "小浜町飛子", "city": "雲仙市", "postcode": "8540503", "prefecture": "長崎県", "id": 1635 },
        { "address": "小浜町富津", "city": "雲仙市", "postcode": "8540516", "prefecture": "長崎県", "id": 1636 },
        { "address": "小浜町マリーナ", "city": "雲仙市", "postcode": "8540517", "prefecture": "長崎県", "id": 1637 },
        { "address": "小浜町南木指", "city": "雲仙市", "postcode": "8540511", "prefecture": "長崎県", "id": 1638 },
        { "address": "小浜町南本町", "city": "雲仙市", "postcode": "8540513", "prefecture": "長崎県", "id": 1639 },
        { "address": "小浜町山畑", "city": "雲仙市", "postcode": "8540502", "prefecture": "長崎県", "id": 1640 },
        { "address": "国見町神代乙", "city": "雲仙市", "postcode": "8591302", "prefecture": "長崎県", "id": 1641 },
        { "address": "国見町神代己", "city": "雲仙市", "postcode": "8591306", "prefecture": "長崎県", "id": 1642 },
        { "address": "国見町神代甲", "city": "雲仙市", "postcode": "8591301", "prefecture": "長崎県", "id": 1643 },
        { "address": "国見町神代庚", "city": "雲仙市", "postcode": "8591307", "prefecture": "長崎県", "id": 1644 },
        { "address": "国見町神代辛", "city": "雲仙市", "postcode": "8591308", "prefecture": "長崎県", "id": 1645 },
        { "address": "国見町神代丁", "city": "雲仙市", "postcode": "8591304", "prefecture": "長崎県", "id": 1646 },
        { "address": "国見町神代丙", "city": "雲仙市", "postcode": "8591303", "prefecture": "長崎県", "id": 1647 },
        { "address": "国見町神代戊", "city": "雲仙市", "postcode": "8591305", "prefecture": "長崎県", "id": 1648 },
        { "address": "国見町多比良乙", "city": "雲仙市", "postcode": "8591322", "prefecture": "長崎県", "id": 1649 },
        { "address": "国見町多比良甲", "city": "雲仙市", "postcode": "8591321", "prefecture": "長崎県", "id": 1650 },
        { "address": "国見町多比良丁", "city": "雲仙市", "postcode": "8591324", "prefecture": "長崎県", "id": 1651 },
        { "address": "国見町多比良丙", "city": "雲仙市", "postcode": "8591323", "prefecture": "長崎県", "id": 1652 },
        { "address": "国見町多比良戊", "city": "雲仙市", "postcode": "8591325", "prefecture": "長崎県", "id": 1653 },
        { "address": "国見町土黒乙", "city": "雲仙市", "postcode": "8591312", "prefecture": "長崎県", "id": 1654 },
        { "address": "国見町土黒己", "city": "雲仙市", "postcode": "8591316", "prefecture": "長崎県", "id": 1655 },
        { "address": "国見町土黒甲", "city": "雲仙市", "postcode": "8591311", "prefecture": "長崎県", "id": 1656 },
        { "address": "国見町土黒庚", "city": "雲仙市", "postcode": "8591317", "prefecture": "長崎県", "id": 1657 },
        { "address": "国見町土黒丁", "city": "雲仙市", "postcode": "8591314", "prefecture": "長崎県", "id": 1658 },
        { "address": "国見町土黒丙", "city": "雲仙市", "postcode": "8591313", "prefecture": "長崎県", "id": 1659 },
        { "address": "国見町土黒戊", "city": "雲仙市", "postcode": "8591315", "prefecture": "長崎県", "id": 1660 },
        { "address": "千々石町乙", "city": "雲仙市", "postcode": "8540402", "prefecture": "長崎県", "id": 1661 },
        { "address": "千々石町己", "city": "雲仙市", "postcode": "8540406", "prefecture": "長崎県", "id": 1662 },
        { "address": "千々石町甲", "city": "雲仙市", "postcode": "8540401", "prefecture": "長崎県", "id": 1663 },
        { "address": "千々石町庚", "city": "雲仙市", "postcode": "8540407", "prefecture": "長崎県", "id": 1664 },
        { "address": "千々石町丁", "city": "雲仙市", "postcode": "8540404", "prefecture": "長崎県", "id": 1665 },
        { "address": "千々石町丙", "city": "雲仙市", "postcode": "8540403", "prefecture": "長崎県", "id": 1666 },
        { "address": "千々石町戊", "city": "雲仙市", "postcode": "8540405", "prefecture": "長崎県", "id": 1667 },
        { "address": "瑞穂町伊福乙", "city": "雲仙市", "postcode": "8591214", "prefecture": "長崎県", "id": 1668 },
        { "address": "瑞穂町伊福甲", "city": "雲仙市", "postcode": "8591213", "prefecture": "長崎県", "id": 1669 },
        { "address": "瑞穂町古部乙", "city": "雲仙市", "postcode": "8591216", "prefecture": "長崎県", "id": 1670 },
        { "address": "瑞穂町古部甲", "city": "雲仙市", "postcode": "8591215", "prefecture": "長崎県", "id": 1671 },
        { "address": "瑞穂町西郷乙", "city": "雲仙市", "postcode": "8591203", "prefecture": "長崎県", "id": 1672 },
        { "address": "瑞穂町西郷己", "city": "雲仙市", "postcode": "8591212", "prefecture": "長崎県", "id": 1673 },
        { "address": "瑞穂町西郷甲", "city": "雲仙市", "postcode": "8591202", "prefecture": "長崎県", "id": 1674 },
        { "address": "瑞穂町西郷庚", "city": "雲仙市", "postcode": "8591201", "prefecture": "長崎県", "id": 1675 },
        { "address": "瑞穂町西郷辛", "city": "雲仙市", "postcode": "8591206", "prefecture": "長崎県", "id": 1676 },
        { "address": "瑞穂町西郷丁", "city": "雲仙市", "postcode": "8591205", "prefecture": "長崎県", "id": 1677 },
        { "address": "瑞穂町西郷丙", "city": "雲仙市", "postcode": "8591204", "prefecture": "長崎県", "id": 1678 },
        { "address": "瑞穂町西郷戊", "city": "雲仙市", "postcode": "8591211", "prefecture": "長崎県", "id": 1679 },
        { "address": "南串山町乙", "city": "雲仙市", "postcode": "8540702", "prefecture": "長崎県", "id": 1680 },
        { "address": "南串山町甲", "city": "雲仙市", "postcode": "8540701", "prefecture": "長崎県", "id": 1681 },
        { "address": "南串山町丙", "city": "雲仙市", "postcode": "8540703", "prefecture": "長崎県", "id": 1682 },
        { "city": "南島原市", "postcode": "8592600", "prefecture": "長崎県", "id": 1683 },
        { "address": "有家町石田", "city": "南島原市", "postcode": "8592121", "prefecture": "長崎県", "id": 1684 },
        { "address": "有家町大苑", "city": "南島原市", "postcode": "8592122", "prefecture": "長崎県", "id": 1685 },
        { "address": "有家町尾上", "city": "南島原市", "postcode": "8592203", "prefecture": "長崎県", "id": 1686 },
        { "address": "有家町蒲河", "city": "南島原市", "postcode": "8592204", "prefecture": "長崎県", "id": 1687 },
        { "address": "有家町久保", "city": "南島原市", "postcode": "8592201", "prefecture": "長崎県", "id": 1688 },
        { "address": "有家町小川", "city": "南島原市", "postcode": "8592205", "prefecture": "長崎県", "id": 1689 },
        { "address": "有家町中須川", "city": "南島原市", "postcode": "8592206", "prefecture": "長崎県", "id": 1690 },
        { "address": "有家町原尾", "city": "南島原市", "postcode": "8592123", "prefecture": "長崎県", "id": 1691 },
        { "address": "有家町山川", "city": "南島原市", "postcode": "8592202", "prefecture": "長崎県", "id": 1692 },
        { "address": "加津佐町乙", "city": "南島原市", "postcode": "8592605", "prefecture": "長崎県", "id": 1693 },
        { "address": "加津佐町己", "city": "南島原市", "postcode": "8592601", "prefecture": "長崎県", "id": 1694 },
        { "address": "加津佐町甲", "city": "南島原市", "postcode": "8592606", "prefecture": "長崎県", "id": 1695 },
        { "address": "加津佐町丁", "city": "南島原市", "postcode": "8592603", "prefecture": "長崎県", "id": 1696 },
        { "address": "加津佐町丙", "city": "南島原市", "postcode": "8592604", "prefecture": "長崎県", "id": 1697 },
        { "address": "加津佐町戊", "city": "南島原市", "postcode": "8592602", "prefecture": "長崎県", "id": 1698 },
        { "address": "北有馬町乙", "city": "南島原市", "postcode": "8592302", "prefecture": "長崎県", "id": 1699 },
        { "address": "北有馬町己", "city": "南島原市", "postcode": "8592306", "prefecture": "長崎県", "id": 1700 },
        { "address": "北有馬町甲", "city": "南島原市", "postcode": "8592301", "prefecture": "長崎県", "id": 1701 },
        { "address": "北有馬町丁", "city": "南島原市", "postcode": "8592304", "prefecture": "長崎県", "id": 1702 },
        { "address": "北有馬町丙", "city": "南島原市", "postcode": "8592303", "prefecture": "長崎県", "id": 1703 },
        { "address": "北有馬町戊", "city": "南島原市", "postcode": "8592305", "prefecture": "長崎県", "id": 1704 },
        { "address": "口之津町乙", "city": "南島原市", "postcode": "8592501", "prefecture": "長崎県", "id": 1705 },
        { "address": "口之津町甲", "city": "南島原市", "postcode": "8592502", "prefecture": "長崎県", "id": 1706 },
        { "address": "口之津町丁", "city": "南島原市", "postcode": "8592503", "prefecture": "長崎県", "id": 1707 },
        { "address": "口之津町丙", "city": "南島原市", "postcode": "8592504", "prefecture": "長崎県", "id": 1708 },
        { "address": "西有家町里坊", "city": "南島原市", "postcode": "8592211", "prefecture": "長崎県", "id": 1709 },
        { "address": "西有家町慈恩寺", "city": "南島原市", "postcode": "8592214", "prefecture": "長崎県", "id": 1710 },
        { "address": "西有家町須川", "city": "南島原市", "postcode": "8592212", "prefecture": "長崎県", "id": 1711 },
        { "address": "西有家町龍石", "city": "南島原市", "postcode": "8592216", "prefecture": "長崎県", "id": 1712 },
        { "address": "西有家町長野", "city": "南島原市", "postcode": "8592215", "prefecture": "長崎県", "id": 1713 },
        { "address": "西有家町見岳", "city": "南島原市", "postcode": "8592213", "prefecture": "長崎県", "id": 1714 },
        { "address": "深江町乙", "city": "南島原市", "postcode": "8591502", "prefecture": "長崎県", "id": 1715 },
        { "address": "深江町甲", "city": "南島原市", "postcode": "8591501", "prefecture": "長崎県", "id": 1716 },
        { "address": "深江町丁", "city": "南島原市", "postcode": "8591504", "prefecture": "長崎県", "id": 1717 },
        { "address": "深江町丙", "city": "南島原市", "postcode": "8591503", "prefecture": "長崎県", "id": 1718 },
        { "address": "深江町戊", "city": "南島原市", "postcode": "8591505", "prefecture": "長崎県", "id": 1719 },
        { "address": "布津町乙", "city": "南島原市", "postcode": "8592112", "prefecture": "長崎県", "id": 1720 },
        { "address": "布津町甲", "city": "南島原市", "postcode": "8592111", "prefecture": "長崎県", "id": 1721 },
        { "address": "布津町丙", "city": "南島原市", "postcode": "8592113", "prefecture": "長崎県", "id": 1722 },
        { "address": "南有馬町乙", "city": "南島原市", "postcode": "8592412", "prefecture": "長崎県", "id": 1723 },
        { "address": "南有馬町己", "city": "南島原市", "postcode": "8592316", "prefecture": "長崎県", "id": 1724 },
        { "address": "南有馬町己", "city": "南島原市", "postcode": "8592416", "prefecture": "長崎県", "id": 1725 },
        { "address": "南有馬町甲", "city": "南島原市", "postcode": "8592411", "prefecture": "長崎県", "id": 1726 },
        { "address": "南有馬町丁", "city": "南島原市", "postcode": "8592414", "prefecture": "長崎県", "id": 1727 },
        { "address": "南有馬町丙", "city": "南島原市", "postcode": "8592413", "prefecture": "長崎県", "id": 1728 },
        { "address": "南有馬町戊", "city": "南島原市", "postcode": "8592415", "prefecture": "長崎県", "id": 1729 },
        { "city": "西彼杵郡長与町", "postcode": "8512100", "prefecture": "長崎県", "id": 1730 },
        { "address": "嬉里郷", "city": "西彼杵郡長与町", "postcode": "8512128", "prefecture": "長崎県", "id": 1731 },
        { "address": "岡郷", "city": "西彼杵郡長与町", "postcode": "8512121", "prefecture": "長崎県", "id": 1732 },
        { "address": "高田郷", "city": "西彼杵郡長与町", "postcode": "8512127", "prefecture": "長崎県", "id": 1733 },
        { "address": "斉藤郷", "city": "西彼杵郡長与町", "postcode": "8512129", "prefecture": "長崎県", "id": 1734 },
        { "address": "平木場郷", "city": "西彼杵郡長与町", "postcode": "8512123", "prefecture": "長崎県", "id": 1735 },
        { "address": "北陽台", "city": "西彼杵郡長与町", "postcode": "8512131", "prefecture": "長崎県", "id": 1736 },
        { "address": "本川内郷", "city": "西彼杵郡長与町", "postcode": "8512122", "prefecture": "長崎県", "id": 1737 },
        { "address": "まなび野", "city": "西彼杵郡長与町", "postcode": "8512130", "prefecture": "長崎県", "id": 1738 },
        { "address": "丸田郷", "city": "西彼杵郡長与町", "postcode": "8512124", "prefecture": "長崎県", "id": 1739 },
        { "address": "三根郷", "city": "西彼杵郡長与町", "postcode": "8512125", "prefecture": "長崎県", "id": 1740 },
        { "address": "吉無田郷", "city": "西彼杵郡長与町", "postcode": "8512126", "prefecture": "長崎県", "id": 1741 },
        { "address": "浦郷", "city": "西彼杵郡時津町", "postcode": "8512105", "prefecture": "長崎県", "id": 1742 },
        { "address": "久留里郷", "city": "西彼杵郡時津町", "postcode": "8512107", "prefecture": "長崎県", "id": 1743 },
        { "address": "左底郷", "city": "西彼杵郡時津町", "postcode": "8512106", "prefecture": "長崎県", "id": 1744 },
        { "address": "子々川郷", "city": "西彼杵郡時津町", "postcode": "8512111", "prefecture": "長崎県", "id": 1745 },
        { "address": "西時津郷", "city": "西彼杵郡時津町", "postcode": "8512101", "prefecture": "長崎県", "id": 1746 },
        { "address": "野田郷", "city": "西彼杵郡時津町", "postcode": "8512104", "prefecture": "長崎県", "id": 1747 },
        { "address": "浜田郷", "city": "西彼杵郡時津町", "postcode": "8512102", "prefecture": "長崎県", "id": 1748 },
        { "address": "日並郷", "city": "西彼杵郡時津町", "postcode": "8512108", "prefecture": "長崎県", "id": 1749 },
        { "address": "元村郷", "city": "西彼杵郡時津町", "postcode": "8512103", "prefecture": "長崎県", "id": 1750 },
        { "city": "東彼杵郡東彼杵町", "postcode": "8593800", "prefecture": "長崎県", "id": 1751 },
        {
            "address": "大音琴郷",
            "city": "東彼杵郡東彼杵町",
            "postcode": "8593811",
            "prefecture": "長崎県",
            "id": 1752
        },
        { "address": "蕪郷", "city": "東彼杵郡東彼杵町", "postcode": "8593926", "prefecture": "長崎県", "id": 1753 },
        { "address": "川内郷", "city": "東彼杵郡東彼杵町", "postcode": "8593805", "prefecture": "長崎県", "id": 1754 },
        {
            "address": "口木田郷",
            "city": "東彼杵郡東彼杵町",
            "postcode": "8593809",
            "prefecture": "長崎県",
            "id": 1755
        },
        { "address": "蔵本郷", "city": "東彼杵郡東彼杵町", "postcode": "8593808", "prefecture": "長崎県", "id": 1756 },
        {
            "address": "小音琴郷",
            "city": "東彼杵郡東彼杵町",
            "postcode": "8593812",
            "prefecture": "長崎県",
            "id": 1757
        },
        { "address": "木場郷", "city": "東彼杵郡東彼杵町", "postcode": "8593931", "prefecture": "長崎県", "id": 1758 },
        { "address": "坂本郷", "city": "東彼杵郡東彼杵町", "postcode": "8593802", "prefecture": "長崎県", "id": 1759 },
        { "address": "里郷", "city": "東彼杵郡東彼杵町", "postcode": "8593929", "prefecture": "長崎県", "id": 1760 },
        {
            "address": "菅無田郷",
            "city": "東彼杵郡東彼杵町",
            "postcode": "8593803",
            "prefecture": "長崎県",
            "id": 1761
        },
        { "address": "瀬戸郷", "city": "東彼杵郡東彼杵町", "postcode": "8593923", "prefecture": "長崎県", "id": 1762 },
        {
            "address": "彼杵宿郷",
            "city": "東彼杵郡東彼杵町",
            "postcode": "8593807",
            "prefecture": "長崎県",
            "id": 1763
        },
        { "address": "駄地郷", "city": "東彼杵郡東彼杵町", "postcode": "8593927", "prefecture": "長崎県", "id": 1764 },
        {
            "address": "太ノ浦郷",
            "city": "東彼杵郡東彼杵町",
            "postcode": "8593924",
            "prefecture": "長崎県",
            "id": 1765
        },
        {
            "address": "千綿宿郷",
            "city": "東彼杵郡東彼杵町",
            "postcode": "8593921",
            "prefecture": "長崎県",
            "id": 1766
        },
        { "address": "遠目郷", "city": "東彼杵郡東彼杵町", "postcode": "8593932", "prefecture": "長崎県", "id": 1767 },
        { "address": "中尾郷", "city": "東彼杵郡東彼杵町", "postcode": "8593801", "prefecture": "長崎県", "id": 1768 },
        { "address": "中岳郷", "city": "東彼杵郡東彼杵町", "postcode": "8593925", "prefecture": "長崎県", "id": 1769 },
        {
            "address": "八反田郷",
            "city": "東彼杵郡東彼杵町",
            "postcode": "8593922",
            "prefecture": "長崎県",
            "id": 1770
        },
        {
            "address": "一ッ石郷",
            "city": "東彼杵郡東彼杵町",
            "postcode": "8593933",
            "prefecture": "長崎県",
            "id": 1771
        },
        {
            "address": "平似田郷",
            "city": "東彼杵郡東彼杵町",
            "postcode": "8593928",
            "prefecture": "長崎県",
            "id": 1772
        },
        {
            "address": "法音寺郷",
            "city": "東彼杵郡東彼杵町",
            "postcode": "8593804",
            "prefecture": "長崎県",
            "id": 1773
        },
        { "address": "三根郷", "city": "東彼杵郡東彼杵町", "postcode": "8593806", "prefecture": "長崎県", "id": 1774 },
        { "city": "東彼杵郡川棚町", "postcode": "8593600", "prefecture": "長崎県", "id": 1775 },
        { "address": "石木郷", "city": "東彼杵郡川棚町", "postcode": "8593604", "prefecture": "長崎県", "id": 1776 },
        {
            "address": "猪乗川内郷",
            "city": "東彼杵郡川棚町",
            "postcode": "8593601",
            "prefecture": "長崎県",
            "id": 1777
        },
        { "address": "岩屋郷", "city": "東彼杵郡川棚町", "postcode": "8593603", "prefecture": "長崎県", "id": 1778 },
        { "address": "小串郷", "city": "東彼杵郡川棚町", "postcode": "8593618", "prefecture": "長崎県", "id": 1779 },
        { "address": "上組郷", "city": "東彼杵郡川棚町", "postcode": "8593613", "prefecture": "長崎県", "id": 1780 },
        { "address": "五反田郷", "city": "東彼杵郡川棚町", "postcode": "8593612", "prefecture": "長崎県", "id": 1781 },
        { "address": "小音琴郷", "city": "東彼杵郡川棚町", "postcode": "8593606", "prefecture": "長崎県", "id": 1782 },
        { "address": "木場郷", "city": "東彼杵郡川棚町", "postcode": "8593602", "prefecture": "長崎県", "id": 1783 },
        { "address": "栄町", "city": "東彼杵郡川棚町", "postcode": "8593608", "prefecture": "長崎県", "id": 1784 },
        { "address": "下組郷", "city": "東彼杵郡川棚町", "postcode": "8593615", "prefecture": "長崎県", "id": 1785 },
        { "address": "白石郷", "city": "東彼杵郡川棚町", "postcode": "8593616", "prefecture": "長崎県", "id": 1786 },
        { "address": "城山町", "city": "東彼杵郡川棚町", "postcode": "8593607", "prefecture": "長崎県", "id": 1787 },
        { "address": "新谷郷", "city": "東彼杵郡川棚町", "postcode": "8593619", "prefecture": "長崎県", "id": 1788 },
        { "address": "中組郷", "city": "東彼杵郡川棚町", "postcode": "8593614", "prefecture": "長崎県", "id": 1789 },
        { "address": "中山郷", "city": "東彼杵郡川棚町", "postcode": "8593611", "prefecture": "長崎県", "id": 1790 },
        { "address": "三越郷", "city": "東彼杵郡川棚町", "postcode": "8593617", "prefecture": "長崎県", "id": 1791 },
        { "address": "百津郷", "city": "東彼杵郡川棚町", "postcode": "8593605", "prefecture": "長崎県", "id": 1792 },
        { "city": "東彼杵郡波佐見町", "postcode": "8593700", "prefecture": "長崎県", "id": 1793 },
        { "address": "井石郷", "city": "東彼杵郡波佐見町", "postcode": "8593711", "prefecture": "長崎県", "id": 1794 },
        { "address": "鬼木郷", "city": "東彼杵郡波佐見町", "postcode": "8593713", "prefecture": "長崎県", "id": 1795 },
        {
            "address": "折敷瀬郷",
            "city": "東彼杵郡波佐見町",
            "postcode": "8593701",
            "prefecture": "長崎県",
            "id": 1796
        },
        { "address": "金屋郷", "city": "東彼杵郡波佐見町", "postcode": "8593714", "prefecture": "長崎県", "id": 1797 },
        { "address": "川内郷", "city": "東彼杵郡波佐見町", "postcode": "8593721", "prefecture": "長崎県", "id": 1798 },
        { "address": "小樽郷", "city": "東彼杵郡波佐見町", "postcode": "8593704", "prefecture": "長崎県", "id": 1799 },
        { "address": "皿山郷", "city": "東彼杵郡波佐見町", "postcode": "8593727", "prefecture": "長崎県", "id": 1800 },
        { "address": "志折郷", "city": "東彼杵郡波佐見町", "postcode": "8593724", "prefecture": "長崎県", "id": 1801 },
        { "address": "宿郷", "city": "東彼杵郡波佐見町", "postcode": "8593715", "prefecture": "長崎県", "id": 1802 },
        {
            "address": "岳辺田郷",
            "city": "東彼杵郡波佐見町",
            "postcode": "8593722",
            "prefecture": "長崎県",
            "id": 1803
        },
        {
            "address": "田ノ頭郷",
            "city": "東彼杵郡波佐見町",
            "postcode": "8593716",
            "prefecture": "長崎県",
            "id": 1804
        },
        { "address": "中尾郷", "city": "東彼杵郡波佐見町", "postcode": "8593712", "prefecture": "長崎県", "id": 1805 },
        { "address": "永尾郷", "city": "東彼杵郡波佐見町", "postcode": "8593705", "prefecture": "長崎県", "id": 1806 },
        { "address": "長野郷", "city": "東彼杵郡波佐見町", "postcode": "8593725", "prefecture": "長崎県", "id": 1807 },
        {
            "address": "野々川郷",
            "city": "東彼杵郡波佐見町",
            "postcode": "8593703",
            "prefecture": "長崎県",
            "id": 1808
        },
        {
            "address": "稗木場郷",
            "city": "東彼杵郡波佐見町",
            "postcode": "8593726",
            "prefecture": "長崎県",
            "id": 1809
        },
        { "address": "平野郷", "city": "東彼杵郡波佐見町", "postcode": "8593723", "prefecture": "長崎県", "id": 1810 },
        { "address": "三股郷", "city": "東彼杵郡波佐見町", "postcode": "8593706", "prefecture": "長崎県", "id": 1811 },
        { "address": "村木郷", "city": "東彼杵郡波佐見町", "postcode": "8593728", "prefecture": "長崎県", "id": 1812 },
        {
            "address": "湯無田郷",
            "city": "東彼杵郡波佐見町",
            "postcode": "8593702",
            "prefecture": "長崎県",
            "id": 1813
        },
        { "city": "北松浦郡小値賀町", "postcode": "8574700", "prefecture": "長崎県", "id": 1814 },
        { "address": "大島郷", "city": "北松浦郡小値賀町", "postcode": "8574708", "prefecture": "長崎県", "id": 1815 },
        { "address": "黒島郷", "city": "北松浦郡小値賀町", "postcode": "8574706", "prefecture": "長崎県", "id": 1816 },
        { "address": "中村郷", "city": "北松浦郡小値賀町", "postcode": "8574703", "prefecture": "長崎県", "id": 1817 },
        { "address": "納島郷", "city": "北松浦郡小値賀町", "postcode": "8574711", "prefecture": "長崎県", "id": 1818 },
        { "address": "野崎郷", "city": "北松浦郡小値賀町", "postcode": "8574709", "prefecture": "長崎県", "id": 1819 },
        { "address": "浜津郷", "city": "北松浦郡小値賀町", "postcode": "8574705", "prefecture": "長崎県", "id": 1820 },
        { "address": "笛吹郷", "city": "北松浦郡小値賀町", "postcode": "8574701", "prefecture": "長崎県", "id": 1821 },
        { "address": "前方郷", "city": "北松浦郡小値賀町", "postcode": "8574702", "prefecture": "長崎県", "id": 1822 },
        { "address": "班島郷", "city": "北松浦郡小値賀町", "postcode": "8574707", "prefecture": "長崎県", "id": 1823 },
        { "address": "六島郷", "city": "北松浦郡小値賀町", "postcode": "8574712", "prefecture": "長崎県", "id": 1824 },
        { "address": "柳郷", "city": "北松浦郡小値賀町", "postcode": "8574704", "prefecture": "長崎県", "id": 1825 },
        { "city": "北松浦郡佐々町", "postcode": "8570300", "prefecture": "長崎県", "id": 1826 },
        { "address": "石木場免", "city": "北松浦郡佐々町", "postcode": "8570334", "prefecture": "長崎県", "id": 1827 },
        { "address": "市瀬免", "city": "北松浦郡佐々町", "postcode": "8570321", "prefecture": "長崎県", "id": 1828 },
        { "address": "市場免", "city": "北松浦郡佐々町", "postcode": "8570312", "prefecture": "長崎県", "id": 1829 },
        { "address": "江里免", "city": "北松浦郡佐々町", "postcode": "8570323", "prefecture": "長崎県", "id": 1830 },
        { "address": "大茂免", "city": "北松浦郡佐々町", "postcode": "8570324", "prefecture": "長崎県", "id": 1831 },
        { "address": "沖田免", "city": "北松浦郡佐々町", "postcode": "8570353", "prefecture": "長崎県", "id": 1832 },
        { "address": "皆瀬免", "city": "北松浦郡佐々町", "postcode": "8570335", "prefecture": "長崎県", "id": 1833 },
        { "address": "鴨川免", "city": "北松浦郡佐々町", "postcode": "8570313", "prefecture": "長崎県", "id": 1834 },
        { "address": "口石免", "city": "北松浦郡佐々町", "postcode": "8570352", "prefecture": "長崎県", "id": 1835 },
        { "address": "栗林免", "city": "北松浦郡佐々町", "postcode": "8570332", "prefecture": "長崎県", "id": 1836 },
        { "address": "神田免", "city": "北松浦郡佐々町", "postcode": "8570336", "prefecture": "長崎県", "id": 1837 },
        { "address": "小浦免", "city": "北松浦郡佐々町", "postcode": "8570361", "prefecture": "長崎県", "id": 1838 },
        { "address": "木場免", "city": "北松浦郡佐々町", "postcode": "8570343", "prefecture": "長崎県", "id": 1839 },
        { "address": "志方免", "city": "北松浦郡佐々町", "postcode": "8570315", "prefecture": "長崎県", "id": 1840 },
        { "address": "須崎免", "city": "北松浦郡佐々町", "postcode": "8570351", "prefecture": "長崎県", "id": 1841 },
        { "address": "角山免", "city": "北松浦郡佐々町", "postcode": "8570338", "prefecture": "長崎県", "id": 1842 },
        { "address": "中川原免", "city": "北松浦郡佐々町", "postcode": "8570333", "prefecture": "長崎県", "id": 1843 },
        { "address": "野寄免", "city": "北松浦郡佐々町", "postcode": "8570331", "prefecture": "長崎県", "id": 1844 },
        { "address": "羽須和免", "city": "北松浦郡佐々町", "postcode": "8570341", "prefecture": "長崎県", "id": 1845 },
        { "address": "平野免", "city": "北松浦郡佐々町", "postcode": "8570342", "prefecture": "長崎県", "id": 1846 },
        { "address": "古川免", "city": "北松浦郡佐々町", "postcode": "8570314", "prefecture": "長崎県", "id": 1847 },
        { "address": "本田原免", "city": "北松浦郡佐々町", "postcode": "8570311", "prefecture": "長崎県", "id": 1848 },
        { "address": "松瀬免", "city": "北松浦郡佐々町", "postcode": "8570322", "prefecture": "長崎県", "id": 1849 },
        { "address": "迎木場免", "city": "北松浦郡佐々町", "postcode": "8570344", "prefecture": "長崎県", "id": 1850 },
        { "address": "八口免", "city": "北松浦郡佐々町", "postcode": "8570337", "prefecture": "長崎県", "id": 1851 },
        { "city": "南松浦郡新上五島町", "postcode": "8574400", "prefecture": "長崎県", "id": 1852 },
        {
            "address": "相河郷",
            "city": "南松浦郡新上五島町",
            "postcode": "8574411",
            "prefecture": "長崎県",
            "id": 1853
        },
        {
            "address": "青方郷",
            "city": "南松浦郡新上五島町",
            "postcode": "8574404",
            "prefecture": "長崎県",
            "id": 1854
        },
        {
            "address": "赤尾郷",
            "city": "南松浦郡新上五島町",
            "postcode": "8574101",
            "prefecture": "長崎県",
            "id": 1855
        },
        {
            "address": "阿瀬津郷",
            "city": "南松浦郡新上五島町",
            "postcode": "8533322",
            "prefecture": "長崎県",
            "id": 1856
        },
        {
            "address": "網上郷",
            "city": "南松浦郡新上五島町",
            "postcode": "8574401",
            "prefecture": "長崎県",
            "id": 1857
        },
        {
            "address": "荒川郷",
            "city": "南松浦郡新上五島町",
            "postcode": "8532304",
            "prefecture": "長崎県",
            "id": 1858
        },
        {
            "address": "有川郷",
            "city": "南松浦郡新上五島町",
            "postcode": "8574211",
            "prefecture": "長崎県",
            "id": 1859
        },
        {
            "address": "有福郷",
            "city": "南松浦郡新上五島町",
            "postcode": "8532313",
            "prefecture": "長崎県",
            "id": 1860
        },
        {
            "address": "飯ノ瀬戸郷",
            "city": "南松浦郡新上五島町",
            "postcode": "8574414",
            "prefecture": "長崎県",
            "id": 1861
        },
        {
            "address": "今里郷",
            "city": "南松浦郡新上五島町",
            "postcode": "8574413",
            "prefecture": "長崎県",
            "id": 1862
        },
        {
            "address": "岩瀬浦郷",
            "city": "南松浦郡新上五島町",
            "postcode": "8533102",
            "prefecture": "長崎県",
            "id": 1863
        },
        {
            "address": "浦桑郷",
            "city": "南松浦郡新上五島町",
            "postcode": "8574511",
            "prefecture": "長崎県",
            "id": 1864
        },
        {
            "address": "榎津郷",
            "city": "南松浦郡新上五島町",
            "postcode": "8574512",
            "prefecture": "長崎県",
            "id": 1865
        },
        {
            "address": "江ノ浜郷",
            "city": "南松浦郡新上五島町",
            "postcode": "8574103",
            "prefecture": "長崎県",
            "id": 1866
        },
        {
            "address": "太田郷",
            "city": "南松浦郡新上五島町",
            "postcode": "8574213",
            "prefecture": "長崎県",
            "id": 1867
        },
        {
            "address": "小河原郷",
            "city": "南松浦郡新上五島町",
            "postcode": "8574212",
            "prefecture": "長崎県",
            "id": 1868
        },
        {
            "address": "桐古里郷",
            "city": "南松浦郡新上五島町",
            "postcode": "8532302",
            "prefecture": "長崎県",
            "id": 1869
        },
        {
            "address": "小串郷",
            "city": "南松浦郡新上五島町",
            "postcode": "8574601",
            "prefecture": "長崎県",
            "id": 1870
        },
        {
            "address": "榊ノ浦郷",
            "city": "南松浦郡新上五島町",
            "postcode": "8532311",
            "prefecture": "長崎県",
            "id": 1871
        },
        {
            "address": "宿ノ浦郷",
            "city": "南松浦郡新上五島町",
            "postcode": "8532303",
            "prefecture": "長崎県",
            "id": 1872
        },
        {
            "address": "曽根郷",
            "city": "南松浦郡新上五島町",
            "postcode": "8574602",
            "prefecture": "長崎県",
            "id": 1873
        },
        {
            "address": "鯛ノ浦郷",
            "city": "南松浦郡新上五島町",
            "postcode": "8533321",
            "prefecture": "長崎県",
            "id": 1874
        },
        {
            "address": "立串郷",
            "city": "南松浦郡新上五島町",
            "postcode": "8574603",
            "prefecture": "長崎県",
            "id": 1875
        },
        {
            "address": "続浜ノ浦郷",
            "city": "南松浦郡新上五島町",
            "postcode": "8574415",
            "prefecture": "長崎県",
            "id": 1876
        },
        {
            "address": "津和崎郷",
            "city": "南松浦郡新上五島町",
            "postcode": "8574604",
            "prefecture": "長崎県",
            "id": 1877
        },
        {
            "address": "友住郷",
            "city": "南松浦郡新上五島町",
            "postcode": "8574102",
            "prefecture": "長崎県",
            "id": 1878
        },
        {
            "address": "七目郷",
            "city": "南松浦郡新上五島町",
            "postcode": "8574214",
            "prefecture": "長崎県",
            "id": 1879
        },
        {
            "address": "奈摩郷",
            "city": "南松浦郡新上五島町",
            "postcode": "8574402",
            "prefecture": "長崎県",
            "id": 1880
        },
        {
            "address": "奈良尾郷",
            "city": "南松浦郡新上五島町",
            "postcode": "8533101",
            "prefecture": "長崎県",
            "id": 1881
        },
        {
            "address": "西神ノ浦郷",
            "city": "南松浦郡新上五島町",
            "postcode": "8532305",
            "prefecture": "長崎県",
            "id": 1882
        },
        {
            "address": "似首郷",
            "city": "南松浦郡新上五島町",
            "postcode": "8574514",
            "prefecture": "長崎県",
            "id": 1883
        },
        {
            "address": "東神ノ浦郷",
            "city": "南松浦郡新上五島町",
            "postcode": "8533323",
            "prefecture": "長崎県",
            "id": 1884
        },
        {
            "address": "日島郷",
            "city": "南松浦郡新上五島町",
            "postcode": "8532312",
            "prefecture": "長崎県",
            "id": 1885
        },
        {
            "address": "船崎郷",
            "city": "南松浦郡新上五島町",
            "postcode": "8574405",
            "prefecture": "長崎県",
            "id": 1886
        },
        {
            "address": "間伏郷",
            "city": "南松浦郡新上五島町",
            "postcode": "8532315",
            "prefecture": "長崎県",
            "id": 1887
        },
        {
            "address": "丸尾郷",
            "city": "南松浦郡新上五島町",
            "postcode": "8574513",
            "prefecture": "長崎県",
            "id": 1888
        },
        {
            "address": "三日ノ浦郷",
            "city": "南松浦郡新上五島町",
            "postcode": "8574412",
            "prefecture": "長崎県",
            "id": 1889
        },
        {
            "address": "道土井郷",
            "city": "南松浦郡新上五島町",
            "postcode": "8574416",
            "prefecture": "長崎県",
            "id": 1890
        },
        {
            "address": "漁生浦郷",
            "city": "南松浦郡新上五島町",
            "postcode": "8532314",
            "prefecture": "長崎県",
            "id": 1891
        },
        { "address": "若松郷", "city": "南松浦郡新上五島町", "postcode": "8532301", "prefecture": "長崎県", "id": 1892 }
    ]
}
