{
    "postcodes": [
        { "city": "長野市", "postcode": "381-0000", "prefecture": "長野県", "id": 3810000 },
        { "address": "アークス", "city": "長野市", "postcode": "380-0918", "prefecture": "長野県", "id": 3800918 },
        { "address": "青木島", "city": "長野市", "postcode": "381-2247", "prefecture": "長野県", "id": 3812247 },
        {
            "address": "青木島町青木島",
            "city": "長野市",
            "postcode": "381-2242",
            "prefecture": "長野県",
            "id": 3812242
        },
        {
            "address": "青木島町青木島乙",
            "city": "長野市",
            "postcode": "381-2241",
            "prefecture": "長野県",
            "id": 3812241
        },
        { "address": "青木島町大塚", "city": "長野市", "postcode": "381-2205", "prefecture": "長野県", "id": 3812205 },
        { "address": "青木島町綱島", "city": "長野市", "postcode": "381-2206", "prefecture": "長野県", "id": 3812206 },
        { "address": "赤沼", "city": "長野市", "postcode": "381-0001", "prefecture": "長野県", "id": 3810001 },
        { "address": "県町", "city": "長野市", "postcode": "380-0838", "prefecture": "長野県", "id": 3800838 },
        { "address": "上ケ屋", "city": "長野市", "postcode": "380-0888", "prefecture": "長野県", "id": 3800888 },
        { "address": "浅川", "city": "長野市", "postcode": "381-0054", "prefecture": "長野県", "id": 3810054 },
        { "address": "浅川押田", "city": "長野市", "postcode": "381-0056", "prefecture": "長野県", "id": 3810056 },
        { "address": "浅川清水", "city": "長野市", "postcode": "381-0072", "prefecture": "長野県", "id": 3810072 },
        { "address": "浅川西条", "city": "長野市", "postcode": "381-0057", "prefecture": "長野県", "id": 3810057 },
        { "address": "浅川西平", "city": "長野市", "postcode": "381-0066", "prefecture": "長野県", "id": 3810066 },
        { "address": "浅川畑山", "city": "長野市", "postcode": "381-0073", "prefecture": "長野県", "id": 3810073 },
        { "address": "浅川東条", "city": "長野市", "postcode": "381-0064", "prefecture": "長野県", "id": 3810064 },
        { "address": "浅川福岡", "city": "長野市", "postcode": "381-0062", "prefecture": "長野県", "id": 3810062 },
        { "address": "旭町", "city": "長野市", "postcode": "380-0846", "prefecture": "長野県", "id": 3800846 },
        { "address": "安茂里", "city": "長野市", "postcode": "380-0941", "prefecture": "長野県", "id": 3800941 },
        { "address": "安茂里杏花台", "city": "長野市", "postcode": "380-0945", "prefecture": "長野県", "id": 3800945 },
        { "address": "安茂里小市", "city": "長野市", "postcode": "380-0961", "prefecture": "長野県", "id": 3800961 },
        { "address": "安茂里小路", "city": "長野市", "postcode": "380-0956", "prefecture": "長野県", "id": 3800956 },
        { "address": "安茂里米村", "city": "長野市", "postcode": "380-0944", "prefecture": "長野県", "id": 3800944 },
        { "address": "安茂里犀北", "city": "長野市", "postcode": "380-0953", "prefecture": "長野県", "id": 3800953 },
        {
            "address": "安茂里犀北団地",
            "city": "長野市",
            "postcode": "380-0954",
            "prefecture": "長野県",
            "id": 3800954
        },
        { "address": "安茂里差出", "city": "長野市", "postcode": "380-0943", "prefecture": "長野県", "id": 3800943 },
        { "address": "安茂里大門", "city": "長野市", "postcode": "380-0957", "prefecture": "長野県", "id": 3800957 },
        { "address": "安茂里西河原", "city": "長野市", "postcode": "380-0955", "prefecture": "長野県", "id": 3800955 },
        { "address": "荒屋", "city": "長野市", "postcode": "380-0804", "prefecture": "長野県", "id": 3800804 },
        { "address": "石渡", "city": "長野市", "postcode": "381-0015", "prefecture": "長野県", "id": 3810015 },
        { "address": "泉平", "city": "長野市", "postcode": "380-0883", "prefecture": "長野県", "id": 3800883 },
        { "address": "伊勢町", "city": "長野市", "postcode": "380-0854", "prefecture": "長野県", "id": 3800854 },
        { "address": "伊勢宮", "city": "長野市", "postcode": "380-0958", "prefecture": "長野県", "id": 3800958 },
        { "address": "市場", "city": "長野市", "postcode": "381-2202", "prefecture": "長野県", "id": 3812202 },
        { "address": "稲里", "city": "長野市", "postcode": "381-2243", "prefecture": "長野県", "id": 3812243 },
        { "address": "稲里町下氷鉋", "city": "長野市", "postcode": "381-2211", "prefecture": "長野県", "id": 3812211 },
        { "address": "稲里町田牧", "city": "長野市", "postcode": "381-2214", "prefecture": "長野県", "id": 3812214 },
        { "address": "稲里町中央", "city": "長野市", "postcode": "381-2217", "prefecture": "長野県", "id": 3812217 },
        { "address": "稲里町中氷鉋", "city": "長野市", "postcode": "381-2215", "prefecture": "長野県", "id": 3812215 },
        { "address": "稲田", "city": "長野市", "postcode": "381-0042", "prefecture": "長野県", "id": 3810042 },
        { "address": "稲葉", "city": "長野市", "postcode": "380-0911", "prefecture": "長野県", "id": 3800911 },
        { "address": "稲葉上千田", "city": "長野市", "postcode": "380-0915", "prefecture": "長野県", "id": 3800915 },
        { "address": "稲葉中千田", "city": "長野市", "postcode": "380-0916", "prefecture": "長野県", "id": 3800916 },
        { "address": "稲葉日詰", "city": "長野市", "postcode": "380-0912", "prefecture": "長野県", "id": 3800912 },
        { "address": "稲葉南俣", "city": "長野市", "postcode": "380-0917", "prefecture": "長野県", "id": 3800917 },
        { "address": "稲葉母袋", "city": "長野市", "postcode": "380-0914", "prefecture": "長野県", "id": 3800914 },
        { "address": "居町", "city": "長野市", "postcode": "380-0901", "prefecture": "長野県", "id": 3800901 },
        { "address": "入山", "city": "長野市", "postcode": "380-0887", "prefecture": "長野県", "id": 3800887 },
        { "address": "上松", "city": "長野市", "postcode": "380-0802", "prefecture": "長野県", "id": 3800802 },
        { "address": "上野", "city": "長野市", "postcode": "381-0085", "prefecture": "長野県", "id": 3810085 },
        { "address": "往生地", "city": "長野市", "postcode": "380-0867", "prefecture": "長野県", "id": 3800867 },
        { "address": "大岡乙", "city": "長野市", "postcode": "381-2703", "prefecture": "長野県", "id": 3812703 },
        { "address": "大岡甲", "city": "長野市", "postcode": "381-2704", "prefecture": "長野県", "id": 3812704 },
        { "address": "大岡中牧", "city": "長野市", "postcode": "381-2701", "prefecture": "長野県", "id": 3812701 },
        { "address": "大岡弘崎", "city": "長野市", "postcode": "381-2705", "prefecture": "長野県", "id": 3812705 },
        { "address": "大岡丙", "city": "長野市", "postcode": "381-2702", "prefecture": "長野県", "id": 3812702 },
        { "address": "大橋南", "city": "長野市", "postcode": "381-2207", "prefecture": "長野県", "id": 3812207 },
        { "address": "大町", "city": "長野市", "postcode": "381-0004", "prefecture": "長野県", "id": 3810004 },
        { "address": "岡田町", "city": "長野市", "postcode": "380-0936", "prefecture": "長野県", "id": 3800936 },
        { "address": "小島田町", "city": "長野市", "postcode": "381-2212", "prefecture": "長野県", "id": 3812212 },
        { "address": "神楽橋", "city": "長野市", "postcode": "381-0053", "prefecture": "長野県", "id": 3810053 },
        { "address": "風間", "city": "長野市", "postcode": "381-0023", "prefecture": "長野県", "id": 3810023 },
        { "address": "合戦場", "city": "長野市", "postcode": "388-8008", "prefecture": "長野県", "id": 3888008 },
        { "address": "門沢", "city": "長野市", "postcode": "380-0881", "prefecture": "長野県", "id": 3800881 },
        { "address": "金井田", "city": "長野市", "postcode": "381-2222", "prefecture": "長野県", "id": 3812222 },
        { "address": "金箱", "city": "長野市", "postcode": "381-0007", "prefecture": "長野県", "id": 3810007 },
        { "address": "上駒沢", "city": "長野市", "postcode": "381-0082", "prefecture": "長野県", "id": 3810082 },
        { "address": "上千歳町", "city": "長野市", "postcode": "380-0821", "prefecture": "長野県", "id": 3800821 },
        { "address": "上西之門町", "city": "長野市", "postcode": "380-0858", "prefecture": "長野県", "id": 3800858 },
        { "address": "川合新田", "city": "長野市", "postcode": "380-0913", "prefecture": "長野県", "id": 3800913 },
        {
            "address": "川中島町若葉町",
            "city": "長野市",
            "postcode": "381-2232",
            "prefecture": "長野県",
            "id": 3812232
        },
        { "address": "川中島町今井", "city": "長野市", "postcode": "381-2226", "prefecture": "長野県", "id": 3812226 },
        {
            "address": "川中島町今井原",
            "city": "長野市",
            "postcode": "381-2227",
            "prefecture": "長野県",
            "id": 3812227
        },
        { "address": "川中島町今里", "city": "長野市", "postcode": "381-2234", "prefecture": "長野県", "id": 3812234 },
        {
            "address": "川中島町上氷鉋",
            "city": "長野市",
            "postcode": "381-2233",
            "prefecture": "長野県",
            "id": 3812233
        },
        { "address": "川中島町原", "city": "長野市", "postcode": "381-2224", "prefecture": "長野県", "id": 3812224 },
        { "address": "川中島町御厨", "city": "長野市", "postcode": "381-2221", "prefecture": "長野県", "id": 3812221 },
        {
            "address": "川中島町四ツ屋",
            "city": "長野市",
            "postcode": "381-2231",
            "prefecture": "長野県",
            "id": 3812231
        },
        { "address": "岩石町", "city": "長野市", "postcode": "380-0855", "prefecture": "長野県", "id": 3800855 },
        { "address": "北石堂町", "city": "長野市", "postcode": "380-0826", "prefecture": "長野県", "id": 3800826 },
        { "address": "北尾張部", "city": "長野市", "postcode": "381-0014", "prefecture": "長野県", "id": 3810014 },
        { "address": "北郷", "city": "長野市", "postcode": "381-0075", "prefecture": "長野県", "id": 3810075 },
        { "address": "北条町", "city": "長野市", "postcode": "381-0035", "prefecture": "長野県", "id": 3810035 },
        { "address": "北長池", "city": "長野市", "postcode": "381-0025", "prefecture": "長野県", "id": 3810025 },
        { "address": "北堀", "city": "長野市", "postcode": "381-0005", "prefecture": "長野県", "id": 3810005 },
        { "address": "狐池", "city": "長野市", "postcode": "380-0866", "prefecture": "長野県", "id": 3800866 },
        { "address": "鬼無里", "city": "長野市", "postcode": "381-4301", "prefecture": "長野県", "id": 3814301 },
        { "address": "鬼無里日下野", "city": "長野市", "postcode": "381-4303", "prefecture": "長野県", "id": 3814303 },
        { "address": "鬼無里日影", "city": "長野市", "postcode": "381-4302", "prefecture": "長野県", "id": 3814302 },
        { "address": "桐原", "city": "長野市", "postcode": "381-0045", "prefecture": "長野県", "id": 3810045 },
        { "address": "栗田", "city": "長野市", "postcode": "380-0921", "prefecture": "長野県", "id": 3800921 },
        { "address": "栗田北中", "city": "長野市", "postcode": "380-0927", "prefecture": "長野県", "id": 3800927 },
        { "address": "小柴見", "city": "長野市", "postcode": "380-0942", "prefecture": "長野県", "id": 3800942 },
        { "address": "小島", "city": "長野市", "postcode": "381-0017", "prefecture": "長野県", "id": 3810017 },
        { "address": "小鍋", "city": "長野市", "postcode": "380-0875", "prefecture": "長野県", "id": 3800875 },
        { "address": "権堂町", "city": "長野市", "postcode": "380-0833", "prefecture": "長野県", "id": 3800833 },
        { "address": "栄町", "city": "長野市", "postcode": "380-0863", "prefecture": "長野県", "id": 3800863 },
        { "address": "坂中", "city": "長野市", "postcode": "381-0061", "prefecture": "長野県", "id": 3810061 },
        { "address": "桜", "city": "長野市", "postcode": "380-0885", "prefecture": "長野県", "id": 3800885 },
        { "address": "桜枝町", "city": "長野市", "postcode": "380-0862", "prefecture": "長野県", "id": 3800862 },
        { "address": "桜新町", "city": "長野市", "postcode": "381-0013", "prefecture": "長野県", "id": 3810013 },
        { "address": "差出南", "city": "長野市", "postcode": "380-0948", "prefecture": "長野県", "id": 3800948 },
        { "address": "里島", "city": "長野市", "postcode": "381-2223", "prefecture": "長野県", "id": 3812223 },
        { "address": "早苗町", "city": "長野市", "postcode": "380-0812", "prefecture": "長野県", "id": 3800812 },
        { "address": "三才", "city": "長野市", "postcode": "381-0081", "prefecture": "長野県", "id": 3810081 },
        { "address": "三本柳西", "city": "長野市", "postcode": "381-2244", "prefecture": "長野県", "id": 3812244 },
        { "address": "三本柳東", "city": "長野市", "postcode": "381-2245", "prefecture": "長野県", "id": 3812245 },
        { "address": "篠ノ井会", "city": "長野市", "postcode": "388-8004", "prefecture": "長野県", "id": 3888004 },
        { "address": "篠ノ井石川", "city": "長野市", "postcode": "388-8015", "prefecture": "長野県", "id": 3888015 },
        { "address": "篠ノ井有旅", "city": "長野市", "postcode": "388-8016", "prefecture": "長野県", "id": 3888016 },
        { "address": "篠ノ井岡田", "city": "長野市", "postcode": "381-2225", "prefecture": "長野県", "id": 3812225 },
        { "address": "篠ノ井御幣川", "city": "長野市", "postcode": "388-8006", "prefecture": "長野県", "id": 3888006 },
        { "address": "篠ノ井杵淵", "city": "長野市", "postcode": "388-8019", "prefecture": "長野県", "id": 3888019 },
        { "address": "篠ノ井小松原", "city": "長野市", "postcode": "381-2235", "prefecture": "長野県", "id": 3812235 },
        { "address": "篠ノ井小森", "city": "長野市", "postcode": "388-8003", "prefecture": "長野県", "id": 3888003 },
        { "address": "篠ノ井塩崎", "city": "長野市", "postcode": "388-8014", "prefecture": "長野県", "id": 3888014 },
        { "address": "篠ノ井東福寺", "city": "長野市", "postcode": "388-8002", "prefecture": "長野県", "id": 3888002 },
        { "address": "篠ノ井西寺尾", "city": "長野市", "postcode": "388-8018", "prefecture": "長野県", "id": 3888018 },
        {
            "address": "篠ノ井布施五明",
            "city": "長野市",
            "postcode": "388-8011",
            "prefecture": "長野県",
            "id": 3888011
        },
        {
            "address": "篠ノ井布施高田",
            "city": "長野市",
            "postcode": "388-8007",
            "prefecture": "長野県",
            "id": 3888007
        },
        { "address": "篠ノ井二ツ柳", "city": "長野市", "postcode": "388-8012", "prefecture": "長野県", "id": 3888012 },
        { "address": "篠ノ井山布施", "city": "長野市", "postcode": "388-8017", "prefecture": "長野県", "id": 3888017 },
        { "address": "篠ノ井横田", "city": "長野市", "postcode": "388-8005", "prefecture": "長野県", "id": 3888005 },
        { "address": "下駒沢", "city": "長野市", "postcode": "381-0008", "prefecture": "長野県", "id": 3810008 },
        { "address": "下氷鉋", "city": "長野市", "postcode": "381-2216", "prefecture": "長野県", "id": 3812216 },
        { "address": "伺去", "city": "長野市", "postcode": "381-0063", "prefecture": "長野県", "id": 3810063 },
        { "address": "塩生", "city": "長野市", "postcode": "380-0877", "prefecture": "長野県", "id": 3800877 },
        { "address": "真光寺", "city": "長野市", "postcode": "381-0065", "prefecture": "長野県", "id": 3810065 },
        { "address": "信更町赤田", "city": "長野市", "postcode": "381-2352", "prefecture": "長野県", "id": 3812352 },
        { "address": "信更町上尾", "city": "長野市", "postcode": "381-2344", "prefecture": "長野県", "id": 3812344 },
        { "address": "信更町今泉", "city": "長野市", "postcode": "381-2358", "prefecture": "長野県", "id": 3812358 },
        { "address": "信更町桜井", "city": "長野市", "postcode": "381-2343", "prefecture": "長野県", "id": 3812343 },
        { "address": "信更町三水", "city": "長野市", "postcode": "381-2359", "prefecture": "長野県", "id": 3812359 },
        { "address": "信更町下平", "city": "長野市", "postcode": "381-2341", "prefecture": "長野県", "id": 3812341 },
        { "address": "信更町高野", "city": "長野市", "postcode": "381-2355", "prefecture": "長野県", "id": 3812355 },
        { "address": "信更町田沢", "city": "長野市", "postcode": "381-2354", "prefecture": "長野県", "id": 3812354 },
        { "address": "信更町田野口", "city": "長野市", "postcode": "381-2353", "prefecture": "長野県", "id": 3812353 },
        { "address": "信更町灰原", "city": "長野市", "postcode": "381-2357", "prefecture": "長野県", "id": 3812357 },
        { "address": "信更町氷ノ田", "city": "長野市", "postcode": "381-2351", "prefecture": "長野県", "id": 3812351 },
        { "address": "信更町古藤", "city": "長野市", "postcode": "381-2347", "prefecture": "長野県", "id": 3812347 },
        { "address": "信更町宮平", "city": "長野市", "postcode": "381-2342", "prefecture": "長野県", "id": 3812342 },
        { "address": "信更町安庭", "city": "長野市", "postcode": "381-2346", "prefecture": "長野県", "id": 3812346 },
        { "address": "信更町吉原", "city": "長野市", "postcode": "381-2356", "prefecture": "長野県", "id": 3812356 },
        { "address": "信更町涌池", "city": "長野市", "postcode": "381-2345", "prefecture": "長野県", "id": 3812345 },
        { "address": "信州新町上条", "city": "長野市", "postcode": "381-2404", "prefecture": "長野県", "id": 3812404 },
        { "address": "信州新町越道", "city": "長野市", "postcode": "381-2401", "prefecture": "長野県", "id": 3812401 },
        {
            "address": "信州新町里穂刈",
            "city": "長野市",
            "postcode": "381-2406",
            "prefecture": "長野県",
            "id": 3812406
        },
        {
            "address": "信州新町下市場",
            "city": "長野市",
            "postcode": "381-2413",
            "prefecture": "長野県",
            "id": 3812413
        },
        { "address": "信州新町新町", "city": "長野市", "postcode": "381-2405", "prefecture": "長野県", "id": 3812405 },
        { "address": "信州新町左右", "city": "長野市", "postcode": "381-2424", "prefecture": "長野県", "id": 3812424 },
        { "address": "信州新町竹房", "city": "長野市", "postcode": "381-2411", "prefecture": "長野県", "id": 3812411 },
        { "address": "信州新町中牧", "city": "長野市", "postcode": "381-2415", "prefecture": "長野県", "id": 3812415 },
        { "address": "信州新町信級", "city": "長野市", "postcode": "381-2421", "prefecture": "長野県", "id": 3812421 },
        {
            "address": "信州新町日原西",
            "city": "長野市",
            "postcode": "381-2423",
            "prefecture": "長野県",
            "id": 3812423
        },
        {
            "address": "信州新町日原東",
            "city": "長野市",
            "postcode": "381-2422",
            "prefecture": "長野県",
            "id": 3812422
        },
        { "address": "信州新町弘崎", "city": "長野市", "postcode": "381-2416", "prefecture": "長野県", "id": 3812416 },
        {
            "address": "信州新町牧田中",
            "city": "長野市",
            "postcode": "381-2414",
            "prefecture": "長野県",
            "id": 3812414
        },
        {
            "address": "信州新町牧野島",
            "city": "長野市",
            "postcode": "381-2412",
            "prefecture": "長野県",
            "id": 3812412
        },
        { "address": "信州新町水内", "city": "長野市", "postcode": "381-2403", "prefecture": "長野県", "id": 3812403 },
        {
            "address": "信州新町山上条",
            "city": "長野市",
            "postcode": "381-2402",
            "prefecture": "長野県",
            "id": 3812402
        },
        {
            "address": "信州新町山穂刈",
            "city": "長野市",
            "postcode": "381-2407",
            "prefecture": "長野県",
            "id": 3812407
        },
        { "address": "新諏訪", "city": "長野市", "postcode": "380-0873", "prefecture": "長野県", "id": 3800873 },
        { "address": "新田町", "city": "長野市", "postcode": "380-0835", "prefecture": "長野県", "id": 3800835 },
        { "address": "新町", "city": "長野市", "postcode": "380-0853", "prefecture": "長野県", "id": 3800853 },
        { "address": "神明", "city": "長野市", "postcode": "388-8020", "prefecture": "長野県", "id": 3888020 },
        { "address": "末広町", "city": "長野市", "postcode": "380-0825", "prefecture": "長野県", "id": 3800825 },
        { "address": "諏訪町", "city": "長野市", "postcode": "380-0844", "prefecture": "長野県", "id": 3800844 },
        { "address": "台ケ窪", "city": "長野市", "postcode": "381-0071", "prefecture": "長野県", "id": 3810071 },
        { "address": "大門町", "city": "長野市", "postcode": "380-0841", "prefecture": "長野県", "id": 3800841 },
        { "address": "高田", "city": "長野市", "postcode": "381-0034", "prefecture": "長野県", "id": 3810034 },
        { "address": "田子", "city": "長野市", "postcode": "381-0087", "prefecture": "長野県", "id": 3810087 },
        { "address": "鑪", "city": "長野市", "postcode": "380-0884", "prefecture": "長野県", "id": 3800884 },
        { "address": "立町", "city": "長野市", "postcode": "380-0864", "prefecture": "長野県", "id": 3800864 },
        { "address": "田中", "city": "長野市", "postcode": "381-0086", "prefecture": "長野県", "id": 3810086 },
        { "address": "田町", "city": "長野市", "postcode": "380-0815", "prefecture": "長野県", "id": 3800815 },
        { "address": "丹波島", "city": "長野市", "postcode": "381-2246", "prefecture": "長野県", "id": 3812246 },
        { "address": "津野", "city": "長野市", "postcode": "381-0002", "prefecture": "長野県", "id": 3810002 },
        { "address": "妻科", "city": "長野市", "postcode": "380-0872", "prefecture": "長野県", "id": 3800872 },
        { "address": "鶴賀", "city": "長野市", "postcode": "380-0907", "prefecture": "長野県", "id": 3800907 },
        { "address": "鶴賀", "city": "長野市", "postcode": "380-0834", "prefecture": "長野県", "id": 3800834 },
        { "address": "鶴賀", "city": "長野市", "postcode": "380-0902", "prefecture": "長野県", "id": 3800902 },
        { "address": "鶴賀", "city": "長野市", "postcode": "380-0906", "prefecture": "長野県", "id": 3800906 },
        { "address": "鶴賀", "city": "長野市", "postcode": "380-0904", "prefecture": "長野県", "id": 3800904 },
        { "address": "鶴賀", "city": "長野市", "postcode": "380-0905", "prefecture": "長野県", "id": 3800905 },
        { "address": "鶴賀", "city": "長野市", "postcode": "380-0814", "prefecture": "長野県", "id": 3800814 },
        { "address": "鶴賀", "city": "長野市", "postcode": "380-0811", "prefecture": "長野県", "id": 3800811 },
        { "address": "鶴賀", "city": "長野市", "postcode": "380-0813", "prefecture": "長野県", "id": 3800813 },
        { "address": "鶴賀", "city": "長野市", "postcode": "380-0822", "prefecture": "長野県", "id": 3800822 },
        { "address": "鶴賀", "city": "長野市", "postcode": "380-0903", "prefecture": "長野県", "id": 3800903 },
        { "address": "戸隠", "city": "長野市", "postcode": "381-4101", "prefecture": "長野県", "id": 3814101 },
        { "address": "戸隠祖山", "city": "長野市", "postcode": "381-4103", "prefecture": "長野県", "id": 3814103 },
        { "address": "戸隠栃原", "city": "長野市", "postcode": "381-4104", "prefecture": "長野県", "id": 3814104 },
        { "address": "戸隠豊岡", "city": "長野市", "postcode": "381-4102", "prefecture": "長野県", "id": 3814102 },
        { "address": "徳間", "city": "長野市", "postcode": "381-0041", "prefecture": "長野県", "id": 3810041 },
        { "address": "富田", "city": "長野市", "postcode": "380-0882", "prefecture": "長野県", "id": 3800882 },
        { "address": "富竹", "city": "長野市", "postcode": "381-0006", "prefecture": "長野県", "id": 3810006 },
        { "address": "豊野町浅野", "city": "長野市", "postcode": "389-1104", "prefecture": "長野県", "id": 3891104 },
        { "address": "豊野町石", "city": "長野市", "postcode": "389-1106", "prefecture": "長野県", "id": 3891106 },
        { "address": "豊野町大倉", "city": "長野市", "postcode": "389-1102", "prefecture": "長野県", "id": 3891102 },
        { "address": "豊野町蟹沢", "city": "長野市", "postcode": "389-1103", "prefecture": "長野県", "id": 3891103 },
        { "address": "豊野町川谷", "city": "長野市", "postcode": "389-1101", "prefecture": "長野県", "id": 3891101 },
        { "address": "豊野町豊野", "city": "長野市", "postcode": "389-1105", "prefecture": "長野県", "id": 3891105 },
        { "address": "豊野町南郷", "city": "長野市", "postcode": "389-1107", "prefecture": "長野県", "id": 3891107 },
        { "address": "中越", "city": "長野市", "postcode": "381-0044", "prefecture": "長野県", "id": 3810044 },
        { "address": "中御所", "city": "長野市", "postcode": "380-0935", "prefecture": "長野県", "id": 3800935 },
        { "address": "中御所町", "city": "長野市", "postcode": "380-0934", "prefecture": "長野県", "id": 3800934 },
        { "address": "中条", "city": "長野市", "postcode": "381-3203", "prefecture": "長野県", "id": 3813203 },
        { "address": "中条日下野", "city": "長野市", "postcode": "381-3202", "prefecture": "長野県", "id": 3813202 },
        { "address": "中条住良木", "city": "長野市", "postcode": "381-3205", "prefecture": "長野県", "id": 3813205 },
        { "address": "中条日高", "city": "長野市", "postcode": "381-3201", "prefecture": "長野県", "id": 3813201 },
        { "address": "中条御山里", "city": "長野市", "postcode": "381-3204", "prefecture": "長野県", "id": 3813204 },
        { "address": "中曽根", "city": "長野市", "postcode": "381-0074", "prefecture": "長野県", "id": 3810074 },
        { "address": "長門町", "city": "長野市", "postcode": "380-0843", "prefecture": "長野県", "id": 3800843 },
        { "address": "七瀬", "city": "長野市", "postcode": "380-0922", "prefecture": "長野県", "id": 3800922 },
        { "address": "七二会乙", "city": "長野市", "postcode": "381-3164", "prefecture": "長野県", "id": 3813164 },
        { "address": "七二会己", "city": "長野市", "postcode": "381-3163", "prefecture": "長野県", "id": 3813163 },
        { "address": "七二会甲", "city": "長野市", "postcode": "381-3165", "prefecture": "長野県", "id": 3813165 },
        { "address": "七二会丁", "city": "長野市", "postcode": "381-3161", "prefecture": "長野県", "id": 3813161 },
        { "address": "七二会丙", "city": "長野市", "postcode": "381-3166", "prefecture": "長野県", "id": 3813166 },
        { "address": "七二会戊", "city": "長野市", "postcode": "381-3162", "prefecture": "長野県", "id": 3813162 },
        { "address": "西尾張部", "city": "長野市", "postcode": "381-0031", "prefecture": "長野県", "id": 3810031 },
        { "address": "西後町", "city": "長野市", "postcode": "380-0845", "prefecture": "長野県", "id": 3800845 },
        { "address": "西三才", "city": "長野市", "postcode": "381-0083", "prefecture": "長野県", "id": 3810083 },
        { "address": "西長野", "city": "長野市", "postcode": "380-0871", "prefecture": "長野県", "id": 3800871 },
        { "address": "西之門町", "city": "長野市", "postcode": "380-0857", "prefecture": "長野県", "id": 3800857 },
        { "address": "西町", "city": "長野市", "postcode": "380-0842", "prefecture": "長野県", "id": 3800842 },
        { "address": "西和田", "city": "長野市", "postcode": "381-0037", "prefecture": "長野県", "id": 3810037 },
        { "address": "箱清水", "city": "長野市", "postcode": "380-0801", "prefecture": "長野県", "id": 3800801 },
        { "address": "花咲町", "city": "長野市", "postcode": "380-0865", "prefecture": "長野県", "id": 3800865 },
        { "address": "東後町", "city": "長野市", "postcode": "380-0832", "prefecture": "長野県", "id": 3800832 },
        { "address": "東犀南", "city": "長野市", "postcode": "388-8001", "prefecture": "長野県", "id": 3888001 },
        { "address": "東之門町", "city": "長野市", "postcode": "380-0852", "prefecture": "長野県", "id": 3800852 },
        { "address": "東町", "city": "長野市", "postcode": "380-0831", "prefecture": "長野県", "id": 3800831 },
        { "address": "東和田", "city": "長野市", "postcode": "381-0038", "prefecture": "長野県", "id": 3810038 },
        { "address": "平柴", "city": "長野市", "postcode": "380-0947", "prefecture": "長野県", "id": 3800947 },
        { "address": "平柴台", "city": "長野市", "postcode": "380-0946", "prefecture": "長野県", "id": 3800946 },
        { "address": "平林", "city": "長野市", "postcode": "381-0036", "prefecture": "長野県", "id": 3810036 },
        { "address": "広瀬", "city": "長野市", "postcode": "380-0886", "prefecture": "長野県", "id": 3800886 },
        { "address": "広田", "city": "長野市", "postcode": "381-2213", "prefecture": "長野県", "id": 3812213 },
        { "address": "穂保", "city": "長野市", "postcode": "381-0003", "prefecture": "長野県", "id": 3810003 },
        { "address": "真島町川合", "city": "長野市", "postcode": "381-2203", "prefecture": "長野県", "id": 3812203 },
        { "address": "真島町真島", "city": "長野市", "postcode": "381-2204", "prefecture": "長野県", "id": 3812204 },
        { "address": "松岡", "city": "長野市", "postcode": "381-0026", "prefecture": "長野県", "id": 3810026 },
        { "address": "松代温泉", "city": "長野市", "postcode": "381-1226", "prefecture": "長野県", "id": 3811226 },
        { "address": "松代町岩野", "city": "長野市", "postcode": "381-1234", "prefecture": "長野県", "id": 3811234 },
        { "address": "松代町大室", "city": "長野市", "postcode": "381-1211", "prefecture": "長野県", "id": 3811211 },
        { "address": "松代町小島田", "city": "長野市", "postcode": "381-1213", "prefecture": "長野県", "id": 3811213 },
        { "address": "松代町清野", "city": "長野市", "postcode": "381-1233", "prefecture": "長野県", "id": 3811233 },
        { "address": "松代町柴", "city": "長野市", "postcode": "381-1214", "prefecture": "長野県", "id": 3811214 },
        { "address": "松代町城東", "city": "長野市", "postcode": "381-1224", "prefecture": "長野県", "id": 3811224 },
        { "address": "松代町城北", "city": "長野市", "postcode": "381-1235", "prefecture": "長野県", "id": 3811235 },
        { "address": "松代町豊栄", "city": "長野市", "postcode": "381-1222", "prefecture": "長野県", "id": 3811222 },
        { "address": "松代町西条", "city": "長野市", "postcode": "381-1232", "prefecture": "長野県", "id": 3811232 },
        { "address": "松代町西寺尾", "city": "長野市", "postcode": "381-1215", "prefecture": "長野県", "id": 3811215 },
        { "address": "松代町東条", "city": "長野市", "postcode": "381-1221", "prefecture": "長野県", "id": 3811221 },
        { "address": "松代町東寺尾", "city": "長野市", "postcode": "381-1225", "prefecture": "長野県", "id": 3811225 },
        { "address": "松代町牧島", "city": "長野市", "postcode": "381-1212", "prefecture": "長野県", "id": 3811212 },
        { "address": "松代町松代", "city": "長野市", "postcode": "381-1231", "prefecture": "長野県", "id": 3811231 },
        { "address": "大豆島", "city": "長野市", "postcode": "381-0022", "prefecture": "長野県", "id": 3810022 },
        { "address": "檀田", "city": "長野市", "postcode": "381-0052", "prefecture": "長野県", "id": 3810052 },
        { "address": "みこと川", "city": "長野市", "postcode": "388-8013", "prefecture": "長野県", "id": 3888013 },
        { "address": "三ツ出", "city": "長野市", "postcode": "381-0076", "prefecture": "長野県", "id": 3810076 },
        { "address": "皆神台", "city": "長野市", "postcode": "381-1223", "prefecture": "長野県", "id": 3811223 },
        { "address": "南県町", "city": "長野市", "postcode": "380-0836", "prefecture": "長野県", "id": 3800836 },
        { "address": "南石堂町", "city": "長野市", "postcode": "380-0824", "prefecture": "長野県", "id": 3800824 },
        { "address": "南高田", "city": "長野市", "postcode": "381-0033", "prefecture": "長野県", "id": 3810033 },
        { "address": "南千歳", "city": "長野市", "postcode": "380-0823", "prefecture": "長野県", "id": 3800823 },
        { "address": "南長池", "city": "長野市", "postcode": "381-0024", "prefecture": "長野県", "id": 3810024 },
        { "address": "南長野", "city": "長野市", "postcode": "380-0837", "prefecture": "長野県", "id": 3800837 },
        { "address": "南堀", "city": "長野市", "postcode": "381-0016", "prefecture": "長野県", "id": 3810016 },
        { "address": "宮沖", "city": "長野市", "postcode": "380-0952", "prefecture": "長野県", "id": 3800952 },
        { "address": "三輪", "city": "長野市", "postcode": "380-0803", "prefecture": "長野県", "id": 3800803 },
        { "address": "三輪田町", "city": "長野市", "postcode": "380-0816", "prefecture": "長野県", "id": 3800816 },
        { "address": "村山", "city": "長野市", "postcode": "381-0011", "prefecture": "長野県", "id": 3810011 },
        { "address": "茂菅", "city": "長野市", "postcode": "380-0874", "prefecture": "長野県", "id": 3800874 },
        { "address": "元善町", "city": "長野市", "postcode": "380-0851", "prefecture": "長野県", "id": 3800851 },
        { "address": "屋敷田", "city": "長野市", "postcode": "381-0055", "prefecture": "長野県", "id": 3810055 },
        { "address": "屋島", "city": "長野市", "postcode": "381-0021", "prefecture": "長野県", "id": 3810021 },
        { "address": "柳原", "city": "長野市", "postcode": "381-0012", "prefecture": "長野県", "id": 3810012 },
        { "address": "柳町", "city": "長野市", "postcode": "380-0805", "prefecture": "長野県", "id": 3800805 },
        { "address": "山田中", "city": "長野市", "postcode": "380-0876", "prefecture": "長野県", "id": 3800876 },
        { "address": "横沢町", "city": "長野市", "postcode": "380-0861", "prefecture": "長野県", "id": 3800861 },
        { "address": "横町", "city": "長野市", "postcode": "380-0856", "prefecture": "長野県", "id": 3800856 },
        { "address": "横山", "city": "長野市", "postcode": "380-0807", "prefecture": "長野県", "id": 3800807 },
        { "address": "吉", "city": "長野市", "postcode": "381-0088", "prefecture": "長野県", "id": 3810088 },
        { "address": "吉田", "city": "長野市", "postcode": "381-0043", "prefecture": "長野県", "id": 3810043 },
        { "address": "淀ケ橋", "city": "長野市", "postcode": "380-0806", "prefecture": "長野県", "id": 3800806 },
        { "address": "若里", "city": "長野市", "postcode": "380-0928", "prefecture": "長野県", "id": 3800928 },
        { "address": "若槻東条", "city": "長野市", "postcode": "381-0084", "prefecture": "長野県", "id": 3810084 },
        { "address": "若槻団地", "city": "長野市", "postcode": "381-0051", "prefecture": "長野県", "id": 3810051 },
        { "address": "若槻西条", "city": "長野市", "postcode": "381-0089", "prefecture": "長野県", "id": 3810089 },
        { "address": "若穂川田", "city": "長野市", "postcode": "381-0103", "prefecture": "長野県", "id": 3810103 },
        { "address": "若穂保科", "city": "長野市", "postcode": "381-0102", "prefecture": "長野県", "id": 3810102 },
        { "address": "若穂綿内", "city": "長野市", "postcode": "381-0101", "prefecture": "長野県", "id": 3810101 },
        { "address": "若穂牛島", "city": "長野市", "postcode": "381-2201", "prefecture": "長野県", "id": 3812201 },
        { "address": "若穂牛島", "city": "長野市", "postcode": "381-0104", "prefecture": "長野県", "id": 3810104 },
        { "address": "若松町", "city": "長野市", "postcode": "380-0847", "prefecture": "長野県", "id": 3800847 },
        { "address": "若宮", "city": "長野市", "postcode": "381-0032", "prefecture": "長野県", "id": 3810032 },
        { "city": "松本市", "postcode": "399-0000", "prefecture": "長野県", "id": 3990000 },
        { "address": "会田", "city": "松本市", "postcode": "399-7402", "prefecture": "長野県", "id": 3997402 },
        { "address": "県", "city": "松本市", "postcode": "390-0812", "prefecture": "長野県", "id": 3900812 },
        { "address": "赤怒田", "city": "松本市", "postcode": "399-7415", "prefecture": "長野県", "id": 3997415 },
        { "address": "旭", "city": "松本市", "postcode": "390-0802", "prefecture": "長野県", "id": 3900802 },
        { "address": "浅間温泉", "city": "松本市", "postcode": "390-0303", "prefecture": "長野県", "id": 3900303 },
        { "address": "梓川梓", "city": "松本市", "postcode": "390-1702", "prefecture": "長野県", "id": 3901702 },
        { "address": "梓川上野", "city": "松本市", "postcode": "390-1703", "prefecture": "長野県", "id": 3901703 },
        { "address": "梓川倭", "city": "松本市", "postcode": "390-1701", "prefecture": "長野県", "id": 3901701 },
        { "address": "安曇", "city": "松本市", "postcode": "390-1504", "prefecture": "長野県", "id": 3901504 },
        { "address": "安曇", "city": "松本市", "postcode": "390-1501", "prefecture": "長野県", "id": 3901501 },
        { "address": "安曇", "city": "松本市", "postcode": "390-1516", "prefecture": "長野県", "id": 3901516 },
        { "address": "安曇", "city": "松本市", "postcode": "390-1514", "prefecture": "長野県", "id": 3901514 },
        { "address": "安曇", "city": "松本市", "postcode": "390-1502", "prefecture": "長野県", "id": 3901502 },
        { "address": "安曇", "city": "松本市", "postcode": "390-1515", "prefecture": "長野県", "id": 3901515 },
        { "address": "安曇", "city": "松本市", "postcode": "390-1513", "prefecture": "長野県", "id": 3901513 },
        { "address": "安曇", "city": "松本市", "postcode": "390-1511", "prefecture": "長野県", "id": 3901511 },
        { "address": "安曇", "city": "松本市", "postcode": "390-1512", "prefecture": "長野県", "id": 3901512 },
        { "address": "安曇", "city": "松本市", "postcode": "390-1503", "prefecture": "長野県", "id": 3901503 },
        { "address": "安曇", "city": "松本市", "postcode": "390-1506", "prefecture": "長野県", "id": 3901506 },
        { "address": "安曇", "city": "松本市", "postcode": "390-1507", "prefecture": "長野県", "id": 3901507 },
        { "address": "安曇", "city": "松本市", "postcode": "390-1520", "prefecture": "長野県", "id": 3901520 },
        { "address": "穴沢", "city": "松本市", "postcode": "399-7403", "prefecture": "長野県", "id": 3997403 },
        { "address": "蟻ケ崎", "city": "松本市", "postcode": "390-0861", "prefecture": "長野県", "id": 3900861 },
        { "address": "蟻ケ崎台", "city": "松本市", "postcode": "390-0867", "prefecture": "長野県", "id": 3900867 },
        { "address": "井川城", "city": "松本市", "postcode": "390-0831", "prefecture": "長野県", "id": 3900831 },
        { "address": "石芝", "city": "松本市", "postcode": "390-0845", "prefecture": "長野県", "id": 3900845 },
        { "address": "石芝", "city": "松本市", "postcode": "399-0007", "prefecture": "長野県", "id": 3990007 },
        { "address": "板場", "city": "松本市", "postcode": "399-7405", "prefecture": "長野県", "id": 3997405 },
        { "address": "市場", "city": "松本市", "postcode": "399-0004", "prefecture": "長野県", "id": 3990004 },
        { "address": "出川", "city": "松本市", "postcode": "390-0827", "prefecture": "長野県", "id": 3900827 },
        { "address": "出川町", "city": "松本市", "postcode": "390-0826", "prefecture": "長野県", "id": 3900826 },
        { "address": "今井", "city": "松本市", "postcode": "390-1131", "prefecture": "長野県", "id": 3901131 },
        { "address": "入山辺", "city": "松本市", "postcode": "390-0222", "prefecture": "長野県", "id": 3900222 },
        { "address": "埋橋", "city": "松本市", "postcode": "390-0813", "prefecture": "長野県", "id": 3900813 },
        { "address": "内田", "city": "松本市", "postcode": "399-0023", "prefecture": "長野県", "id": 3990023 },
        { "address": "大手", "city": "松本市", "postcode": "390-0874", "prefecture": "長野県", "id": 3900874 },
        { "address": "大村", "city": "松本市", "postcode": "390-0304", "prefecture": "長野県", "id": 3900304 },
        { "address": "岡田伊深", "city": "松本市", "postcode": "390-0314", "prefecture": "長野県", "id": 3900314 },
        { "address": "岡田下岡田", "city": "松本市", "postcode": "390-0313", "prefecture": "長野県", "id": 3900313 },
        { "address": "岡田町", "city": "松本市", "postcode": "390-0315", "prefecture": "長野県", "id": 3900315 },
        { "address": "岡田松岡", "city": "松本市", "postcode": "390-0312", "prefecture": "長野県", "id": 3900312 },
        { "address": "開智", "city": "松本市", "postcode": "390-0876", "prefecture": "長野県", "id": 3900876 },
        { "address": "金山町", "city": "松本市", "postcode": "399-7413", "prefecture": "長野県", "id": 3997413 },
        { "address": "鎌田", "city": "松本市", "postcode": "390-0837", "prefecture": "長野県", "id": 3900837 },
        { "address": "刈谷原町", "city": "松本市", "postcode": "399-7417", "prefecture": "長野県", "id": 3997417 },
        { "address": "神田", "city": "松本市", "postcode": "390-0822", "prefecture": "長野県", "id": 3900822 },
        { "address": "神林", "city": "松本市", "postcode": "390-1243", "prefecture": "長野県", "id": 3901243 },
        { "address": "北深志", "city": "松本市", "postcode": "390-0872", "prefecture": "長野県", "id": 3900872 },
        { "address": "桐", "city": "松本市", "postcode": "390-0871", "prefecture": "長野県", "id": 3900871 },
        { "address": "空港東", "city": "松本市", "postcode": "390-1132", "prefecture": "長野県", "id": 3901132 },
        { "address": "五常", "city": "松本市", "postcode": "399-7401", "prefecture": "長野県", "id": 3997401 },
        { "address": "寿小赤", "city": "松本市", "postcode": "399-0024", "prefecture": "長野県", "id": 3990024 },
        { "address": "寿白瀬渕", "city": "松本市", "postcode": "399-0012", "prefecture": "長野県", "id": 3990012 },
        { "address": "寿台", "city": "松本市", "postcode": "399-0025", "prefecture": "長野県", "id": 3990025 },
        { "address": "寿豊丘", "city": "松本市", "postcode": "399-0021", "prefecture": "長野県", "id": 3990021 },
        { "address": "寿北", "city": "松本市", "postcode": "399-0011", "prefecture": "長野県", "id": 3990011 },
        { "address": "寿中", "city": "松本市", "postcode": "399-0026", "prefecture": "長野県", "id": 3990026 },
        { "address": "寿南", "city": "松本市", "postcode": "399-0027", "prefecture": "長野県", "id": 3990027 },
        { "address": "小屋北", "city": "松本市", "postcode": "399-0039", "prefecture": "長野県", "id": 3990039 },
        { "address": "小屋南", "city": "松本市", "postcode": "399-0038", "prefecture": "長野県", "id": 3990038 },
        { "address": "笹賀", "city": "松本市", "postcode": "399-0033", "prefecture": "長野県", "id": 3990033 },
        { "address": "笹部", "city": "松本市", "postcode": "390-0847", "prefecture": "長野県", "id": 3900847 },
        { "address": "里山辺", "city": "松本市", "postcode": "390-0221", "prefecture": "長野県", "id": 3900221 },
        { "address": "沢村", "city": "松本市", "postcode": "390-0877", "prefecture": "長野県", "id": 3900877 },
        { "address": "稲倉", "city": "松本市", "postcode": "390-0301", "prefecture": "長野県", "id": 3900301 },
        { "address": "島内", "city": "松本市", "postcode": "390-0851", "prefecture": "長野県", "id": 3900851 },
        { "address": "島内", "city": "松本市", "postcode": "399-8251", "prefecture": "長野県", "id": 3998251 },
        { "address": "島立", "city": "松本市", "postcode": "390-0852", "prefecture": "長野県", "id": 3900852 },
        { "address": "清水", "city": "松本市", "postcode": "390-0805", "prefecture": "長野県", "id": 3900805 },
        { "address": "城西", "city": "松本市", "postcode": "390-0875", "prefecture": "長野県", "id": 3900875 },
        { "address": "城東", "city": "松本市", "postcode": "390-0807", "prefecture": "長野県", "id": 3900807 },
        { "address": "庄内", "city": "松本市", "postcode": "390-0828", "prefecture": "長野県", "id": 3900828 },
        { "address": "城山", "city": "松本市", "postcode": "390-0866", "prefecture": "長野県", "id": 3900866 },
        { "address": "白板", "city": "松本市", "postcode": "390-0863", "prefecture": "長野県", "id": 3900863 },
        { "address": "新橋", "city": "松本市", "postcode": "390-0865", "prefecture": "長野県", "id": 3900865 },
        { "address": "惣社", "city": "松本市", "postcode": "390-0305", "prefecture": "長野県", "id": 3900305 },
        { "address": "征矢野", "city": "松本市", "postcode": "390-0842", "prefecture": "長野県", "id": 3900842 },
        { "address": "反町", "city": "松本市", "postcode": "399-7418", "prefecture": "長野県", "id": 3997418 },
        { "address": "高宮中", "city": "松本市", "postcode": "390-0834", "prefecture": "長野県", "id": 3900834 },
        { "address": "高宮東", "city": "松本市", "postcode": "390-0835", "prefecture": "長野県", "id": 3900835 },
        { "address": "高宮西", "city": "松本市", "postcode": "390-0844", "prefecture": "長野県", "id": 3900844 },
        { "address": "高宮南", "city": "松本市", "postcode": "390-0843", "prefecture": "長野県", "id": 3900843 },
        { "address": "高宮北", "city": "松本市", "postcode": "390-0836", "prefecture": "長野県", "id": 3900836 },
        { "address": "中央", "city": "松本市", "postcode": "390-0811", "prefecture": "長野県", "id": 3900811 },
        { "address": "筑摩", "city": "松本市", "postcode": "390-0821", "prefecture": "長野県", "id": 3900821 },
        { "address": "殿野入", "city": "松本市", "postcode": "399-7414", "prefecture": "長野県", "id": 3997414 },
        { "address": "取出", "city": "松本市", "postcode": "399-7404", "prefecture": "長野県", "id": 3997404 },
        { "address": "中川", "city": "松本市", "postcode": "399-7411", "prefecture": "長野県", "id": 3997411 },
        { "address": "中条", "city": "松本市", "postcode": "390-0816", "prefecture": "長野県", "id": 3900816 },
        { "address": "中山", "city": "松本市", "postcode": "390-0823", "prefecture": "長野県", "id": 3900823 },
        { "address": "中山台", "city": "松本市", "postcode": "390-0824", "prefecture": "長野県", "id": 3900824 },
        { "address": "奈川", "city": "松本市", "postcode": "390-1611", "prefecture": "長野県", "id": 3901611 },
        { "address": "渚", "city": "松本市", "postcode": "390-0841", "prefecture": "長野県", "id": 3900841 },
        { "address": "七嵐", "city": "松本市", "postcode": "399-7416", "prefecture": "長野県", "id": 3997416 },
        { "address": "並柳", "city": "松本市", "postcode": "390-0825", "prefecture": "長野県", "id": 3900825 },
        { "address": "新村", "city": "松本市", "postcode": "390-1241", "prefecture": "長野県", "id": 3901241 },
        { "address": "野溝西", "city": "松本市", "postcode": "399-0006", "prefecture": "長野県", "id": 3990006 },
        { "address": "野溝東", "city": "松本市", "postcode": "399-0034", "prefecture": "長野県", "id": 3990034 },
        { "address": "野溝木工", "city": "松本市", "postcode": "399-0005", "prefecture": "長野県", "id": 3990005 },
        { "address": "波田", "city": "松本市", "postcode": "390-1401", "prefecture": "長野県", "id": 3901401 },
        { "address": "巾上", "city": "松本市", "postcode": "390-0817", "prefecture": "長野県", "id": 3900817 },
        { "address": "原", "city": "松本市", "postcode": "390-0316", "prefecture": "長野県", "id": 3900316 },
        { "address": "平田東", "city": "松本市", "postcode": "399-0014", "prefecture": "長野県", "id": 3990014 },
        { "address": "平田西", "city": "松本市", "postcode": "399-0015", "prefecture": "長野県", "id": 3990015 },
        { "address": "深志", "city": "松本市", "postcode": "390-0815", "prefecture": "長野県", "id": 3900815 },
        { "address": "双葉", "city": "松本市", "postcode": "390-0833", "prefecture": "長野県", "id": 3900833 },
        { "address": "保福寺町", "city": "松本市", "postcode": "399-7412", "prefecture": "長野県", "id": 3997412 },
        { "address": "洞", "city": "松本市", "postcode": "390-0317", "prefecture": "長野県", "id": 3900317 },
        { "address": "本庄", "city": "松本市", "postcode": "390-0814", "prefecture": "長野県", "id": 3900814 },
        { "address": "松原", "city": "松本市", "postcode": "399-0022", "prefecture": "長野県", "id": 3990022 },
        { "address": "丸の内", "city": "松本市", "postcode": "390-0873", "prefecture": "長野県", "id": 3900873 },
        { "address": "三才山", "city": "松本市", "postcode": "390-0302", "prefecture": "長野県", "id": 3900302 },
        { "address": "美須々", "city": "松本市", "postcode": "390-0801", "prefecture": "長野県", "id": 3900801 },
        { "address": "水汲", "city": "松本市", "postcode": "390-0311", "prefecture": "長野県", "id": 3900311 },
        { "address": "南浅間", "city": "松本市", "postcode": "390-0306", "prefecture": "長野県", "id": 3900306 },
        { "address": "南原", "city": "松本市", "postcode": "390-0846", "prefecture": "長野県", "id": 3900846 },
        { "address": "南松本", "city": "松本市", "postcode": "390-0832", "prefecture": "長野県", "id": 3900832 },
        { "address": "宮田", "city": "松本市", "postcode": "399-0001", "prefecture": "長野県", "id": 3990001 },
        { "address": "宮渕", "city": "松本市", "postcode": "390-0862", "prefecture": "長野県", "id": 3900862 },
        { "address": "宮渕本村", "city": "松本市", "postcode": "390-0864", "prefecture": "長野県", "id": 3900864 },
        { "address": "村井町北", "city": "松本市", "postcode": "399-0035", "prefecture": "長野県", "id": 3990035 },
        { "address": "村井町西", "city": "松本市", "postcode": "399-0037", "prefecture": "長野県", "id": 3990037 },
        { "address": "村井町南", "city": "松本市", "postcode": "399-0036", "prefecture": "長野県", "id": 3990036 },
        { "address": "女鳥羽", "city": "松本市", "postcode": "390-0806", "prefecture": "長野県", "id": 3900806 },
        { "address": "元町", "city": "松本市", "postcode": "390-0803", "prefecture": "長野県", "id": 3900803 },
        { "address": "横田", "city": "松本市", "postcode": "390-0804", "prefecture": "長野県", "id": 3900804 },
        { "address": "芳野", "city": "松本市", "postcode": "399-0002", "prefecture": "長野県", "id": 3990002 },
        { "address": "両島", "city": "松本市", "postcode": "390-0848", "prefecture": "長野県", "id": 3900848 },
        { "address": "和田", "city": "松本市", "postcode": "390-1242", "prefecture": "長野県", "id": 3901242 },
        { "city": "上田市", "postcode": "386-0000", "prefecture": "長野県", "id": 3860000 },
        { "address": "蒼久保", "city": "上田市", "postcode": "386-0155", "prefecture": "長野県", "id": 3860155 },
        { "address": "秋和", "city": "上田市", "postcode": "386-0041", "prefecture": "長野県", "id": 3860041 },
        { "address": "生田", "city": "上田市", "postcode": "386-0411", "prefecture": "長野県", "id": 3860411 },
        { "address": "岩下", "city": "上田市", "postcode": "386-0153", "prefecture": "長野県", "id": 3860153 },
        { "address": "上田", "city": "上田市", "postcode": "386-0001", "prefecture": "長野県", "id": 3860001 },
        { "address": "上田原", "city": "上田市", "postcode": "386-1102", "prefecture": "長野県", "id": 3861102 },
        { "address": "上野", "city": "上田市", "postcode": "386-0003", "prefecture": "長野県", "id": 3860003 },
        { "address": "浦野", "city": "上田市", "postcode": "386-1546", "prefecture": "長野県", "id": 3861546 },
        { "address": "漆戸", "city": "上田市", "postcode": "386-0006", "prefecture": "長野県", "id": 3860006 },
        { "address": "大手", "city": "上田市", "postcode": "386-0024", "prefecture": "長野県", "id": 3860024 },
        { "address": "大屋", "city": "上田市", "postcode": "386-0152", "prefecture": "長野県", "id": 3860152 },
        { "address": "岡", "city": "上田市", "postcode": "386-1543", "prefecture": "長野県", "id": 3861543 },
        { "address": "鹿教湯温泉", "city": "上田市", "postcode": "386-0323", "prefecture": "長野県", "id": 3860323 },
        { "address": "神畑", "city": "上田市", "postcode": "386-1103", "prefecture": "長野県", "id": 3861103 },
        { "address": "神畑乙", "city": "上田市", "postcode": "386-1108", "prefecture": "長野県", "id": 3861108 },
        { "address": "上塩尻", "city": "上田市", "postcode": "386-0042", "prefecture": "長野県", "id": 3860042 },
        { "address": "上武石", "city": "上田市", "postcode": "386-0508", "prefecture": "長野県", "id": 3860508 },
        { "address": "上丸子", "city": "上田市", "postcode": "386-0404", "prefecture": "長野県", "id": 3860404 },
        { "address": "上室賀", "city": "上田市", "postcode": "386-1541", "prefecture": "長野県", "id": 3861541 },
        { "address": "古安曽", "city": "上田市", "postcode": "386-1213", "prefecture": "長野県", "id": 3861213 },
        { "address": "小泉", "city": "上田市", "postcode": "386-1106", "prefecture": "長野県", "id": 3861106 },
        { "address": "越戸", "city": "上田市", "postcode": "386-1545", "prefecture": "長野県", "id": 3861545 },
        { "address": "五加", "city": "上田市", "postcode": "386-1324", "prefecture": "長野県", "id": 3861324 },
        { "address": "国分", "city": "上田市", "postcode": "386-0016", "prefecture": "長野県", "id": 3860016 },
        { "address": "古里", "city": "上田市", "postcode": "386-0005", "prefecture": "長野県", "id": 3860005 },
        { "address": "腰越", "city": "上田市", "postcode": "386-0403", "prefecture": "長野県", "id": 3860403 },
        { "address": "小島", "city": "上田市", "postcode": "386-1322", "prefecture": "長野県", "id": 3861322 },
        { "address": "御所", "city": "上田市", "postcode": "386-0033", "prefecture": "長野県", "id": 3860033 },
        { "address": "小牧", "city": "上田市", "postcode": "386-0031", "prefecture": "長野県", "id": 3860031 },
        { "address": "材木町", "city": "上田市", "postcode": "386-0014", "prefecture": "長野県", "id": 3860014 },
        { "address": "真田町長", "city": "上田市", "postcode": "386-2201", "prefecture": "長野県", "id": 3862201 },
        { "address": "真田町傍陽", "city": "上田市", "postcode": "386-2203", "prefecture": "長野県", "id": 3862203 },
        { "address": "真田町本原", "city": "上田市", "postcode": "386-2202", "prefecture": "長野県", "id": 3862202 },
        { "address": "塩川", "city": "上田市", "postcode": "386-0401", "prefecture": "長野県", "id": 3860401 },
        { "address": "下塩尻", "city": "上田市", "postcode": "386-0043", "prefecture": "長野県", "id": 3860043 },
        { "address": "下武石", "city": "上田市", "postcode": "386-0503", "prefecture": "長野県", "id": 3860503 },
        { "address": "下之郷", "city": "上田市", "postcode": "386-1211", "prefecture": "長野県", "id": 3861211 },
        { "address": "下之郷乙", "city": "上田市", "postcode": "386-1214", "prefecture": "長野県", "id": 3861214 },
        { "address": "下之条", "city": "上田市", "postcode": "386-1101", "prefecture": "長野県", "id": 3861101 },
        { "address": "下丸子", "city": "上田市", "postcode": "386-0406", "prefecture": "長野県", "id": 3860406 },
        { "address": "下室賀", "city": "上田市", "postcode": "386-1542", "prefecture": "長野県", "id": 3861542 },
        { "address": "十人", "city": "上田市", "postcode": "386-1435", "prefecture": "長野県", "id": 3861435 },
        { "address": "新町", "city": "上田市", "postcode": "386-1434", "prefecture": "長野県", "id": 3861434 },
        { "address": "菅平高原", "city": "上田市", "postcode": "386-2204", "prefecture": "長野県", "id": 3862204 },
        { "address": "住吉", "city": "上田市", "postcode": "386-0002", "prefecture": "長野県", "id": 3860002 },
        { "address": "諏訪形", "city": "上田市", "postcode": "386-0032", "prefecture": "長野県", "id": 3860032 },
        { "address": "武石沖", "city": "上田市", "postcode": "386-0502", "prefecture": "長野県", "id": 3860502 },
        { "address": "武石小沢根", "city": "上田市", "postcode": "386-0504", "prefecture": "長野県", "id": 3860504 },
        { "address": "武石上本入", "city": "上田市", "postcode": "386-0507", "prefecture": "長野県", "id": 3860507 },
        { "address": "武石下本入", "city": "上田市", "postcode": "386-0506", "prefecture": "長野県", "id": 3860506 },
        { "address": "武石鳥屋", "city": "上田市", "postcode": "386-0501", "prefecture": "長野県", "id": 3860501 },
        { "address": "武石余里", "city": "上田市", "postcode": "386-0505", "prefecture": "長野県", "id": 3860505 },
        { "address": "中央", "city": "上田市", "postcode": "386-0012", "prefecture": "長野県", "id": 3860012 },
        { "address": "中央東", "city": "上田市", "postcode": "386-0013", "prefecture": "長野県", "id": 3860013 },
        { "address": "中央西", "city": "上田市", "postcode": "386-0023", "prefecture": "長野県", "id": 3860023 },
        { "address": "中央北", "city": "上田市", "postcode": "386-0011", "prefecture": "長野県", "id": 3860011 },
        { "address": "築地", "city": "上田市", "postcode": "386-1107", "prefecture": "長野県", "id": 3861107 },
        { "address": "手塚", "city": "上田市", "postcode": "386-1433", "prefecture": "長野県", "id": 3861433 },
        { "address": "天神", "city": "上田市", "postcode": "386-0025", "prefecture": "長野県", "id": 3860025 },
        { "address": "常入", "city": "上田市", "postcode": "386-0015", "prefecture": "長野県", "id": 3860015 },
        { "address": "常田", "city": "上田市", "postcode": "386-0018", "prefecture": "長野県", "id": 3860018 },
        { "address": "常磐城", "city": "上田市", "postcode": "386-0027", "prefecture": "長野県", "id": 3860027 },
        { "address": "殿城", "city": "上田市", "postcode": "386-0004", "prefecture": "長野県", "id": 3860004 },
        { "address": "長瀬", "city": "上田市", "postcode": "386-0407", "prefecture": "長野県", "id": 3860407 },
        { "address": "中野", "city": "上田市", "postcode": "386-1325", "prefecture": "長野県", "id": 3861325 },
        { "address": "中之条", "city": "上田市", "postcode": "386-0034", "prefecture": "長野県", "id": 3860034 },
        { "address": "中丸子", "city": "上田市", "postcode": "386-0405", "prefecture": "長野県", "id": 3860405 },
        { "address": "仁古田", "city": "上田市", "postcode": "386-1544", "prefecture": "長野県", "id": 3861544 },
        { "address": "西内", "city": "上田市", "postcode": "386-0322", "prefecture": "長野県", "id": 3860322 },
        { "address": "二の丸", "city": "上田市", "postcode": "386-0026", "prefecture": "長野県", "id": 3860026 },
        { "address": "野倉", "city": "上田市", "postcode": "386-1437", "prefecture": "長野県", "id": 3861437 },
        { "address": "林之郷", "city": "上田市", "postcode": "386-0156", "prefecture": "長野県", "id": 3860156 },
        { "address": "東内", "city": "上田市", "postcode": "386-0413", "prefecture": "長野県", "id": 3860413 },
        { "address": "平井", "city": "上田市", "postcode": "386-0321", "prefecture": "長野県", "id": 3860321 },
        { "address": "福田", "city": "上田市", "postcode": "386-1104", "prefecture": "長野県", "id": 3861104 },
        { "address": "富士山", "city": "上田市", "postcode": "386-1212", "prefecture": "長野県", "id": 3861212 },
        { "address": "藤原田", "city": "上田市", "postcode": "386-0402", "prefecture": "長野県", "id": 3860402 },
        { "address": "踏入", "city": "上田市", "postcode": "386-0017", "prefecture": "長野県", "id": 3860017 },
        { "address": "別所温泉", "city": "上田市", "postcode": "386-1431", "prefecture": "長野県", "id": 3861431 },
        { "address": "保野", "city": "上田市", "postcode": "386-1321", "prefecture": "長野県", "id": 3861321 },
        { "address": "本郷", "city": "上田市", "postcode": "386-1323", "prefecture": "長野県", "id": 3861323 },
        { "address": "舞田", "city": "上田市", "postcode": "386-1326", "prefecture": "長野県", "id": 3861326 },
        { "address": "前山", "city": "上田市", "postcode": "386-1436", "prefecture": "長野県", "id": 3861436 },
        { "address": "御嶽堂", "city": "上田市", "postcode": "386-0412", "prefecture": "長野県", "id": 3860412 },
        { "address": "緑が丘", "city": "上田市", "postcode": "386-0022", "prefecture": "長野県", "id": 3860022 },
        { "address": "本海野", "city": "上田市", "postcode": "386-0408", "prefecture": "長野県", "id": 3860408 },
        { "address": "八木沢", "city": "上田市", "postcode": "386-1327", "prefecture": "長野県", "id": 3861327 },
        { "address": "山田", "city": "上田市", "postcode": "386-1432", "prefecture": "長野県", "id": 3861432 },
        { "address": "芳田", "city": "上田市", "postcode": "386-0151", "prefecture": "長野県", "id": 3860151 },
        { "address": "吉田", "city": "上田市", "postcode": "386-1105", "prefecture": "長野県", "id": 3861105 },
        { "city": "岡谷市", "postcode": "394-0000", "prefecture": "長野県", "id": 3940000 },
        { "city": "岡谷市", "postcode": "394-0091", "prefecture": "長野県", "id": 3940091 },
        { "address": "赤羽", "city": "岡谷市", "postcode": "394-0002", "prefecture": "長野県", "id": 3940002 },
        { "address": "芦ノ沢", "city": "岡谷市", "postcode": "394-0053", "prefecture": "長野県", "id": 3940053 },
        { "address": "今井", "city": "岡谷市", "postcode": "394-0001", "prefecture": "長野県", "id": 3940001 },
        { "address": "内山", "city": "岡谷市", "postcode": "394-0055", "prefecture": "長野県", "id": 3940055 },
        { "address": "塩嶺", "city": "岡谷市", "postcode": "394-0051", "prefecture": "長野県", "id": 3940051 },
        { "address": "御倉町", "city": "岡谷市", "postcode": "394-0043", "prefecture": "長野県", "id": 3940043 },
        { "address": "長地", "city": "岡谷市", "postcode": "394-0011", "prefecture": "長野県", "id": 3940011 },
        { "address": "長地出早", "city": "岡谷市", "postcode": "394-0089", "prefecture": "長野県", "id": 3940089 },
        { "address": "長地片間町", "city": "岡谷市", "postcode": "394-0084", "prefecture": "長野県", "id": 3940084 },
        { "address": "長地御所", "city": "岡谷市", "postcode": "394-0082", "prefecture": "長野県", "id": 3940082 },
        { "address": "長地小萩", "city": "岡谷市", "postcode": "394-0085", "prefecture": "長野県", "id": 3940085 },
        { "address": "長地権現町", "city": "岡谷市", "postcode": "394-0081", "prefecture": "長野県", "id": 3940081 },
        { "address": "長地鎮", "city": "岡谷市", "postcode": "394-0087", "prefecture": "長野県", "id": 3940087 },
        { "address": "長地柴宮", "city": "岡谷市", "postcode": "394-0083", "prefecture": "長野県", "id": 3940083 },
        { "address": "長地梨久保", "city": "岡谷市", "postcode": "394-0088", "prefecture": "長野県", "id": 3940088 },
        { "address": "長地源", "city": "岡谷市", "postcode": "394-0086", "prefecture": "長野県", "id": 3940086 },
        { "address": "加茂町", "city": "岡谷市", "postcode": "394-0003", "prefecture": "長野県", "id": 3940003 },
        { "address": "川岸上", "city": "岡谷市", "postcode": "394-0048", "prefecture": "長野県", "id": 3940048 },
        { "address": "川岸中", "city": "岡谷市", "postcode": "394-0047", "prefecture": "長野県", "id": 3940047 },
        { "address": "川岸東", "city": "岡谷市", "postcode": "394-0045", "prefecture": "長野県", "id": 3940045 },
        { "address": "川岸西", "city": "岡谷市", "postcode": "394-0046", "prefecture": "長野県", "id": 3940046 },
        { "address": "銀座", "city": "岡谷市", "postcode": "394-0022", "prefecture": "長野県", "id": 3940022 },
        { "address": "郷田", "city": "岡谷市", "postcode": "394-0021", "prefecture": "長野県", "id": 3940021 },
        { "address": "湖畔", "city": "岡谷市", "postcode": "394-0034", "prefecture": "長野県", "id": 3940034 },
        { "address": "幸町", "city": "岡谷市", "postcode": "394-0029", "prefecture": "長野県", "id": 3940029 },
        { "address": "神明町", "city": "岡谷市", "postcode": "394-0004", "prefecture": "長野県", "id": 3940004 },
        { "address": "大栄町", "city": "岡谷市", "postcode": "394-0025", "prefecture": "長野県", "id": 3940025 },
        { "address": "田中町", "city": "岡谷市", "postcode": "394-0031", "prefecture": "長野県", "id": 3940031 },
        { "address": "中央町", "city": "岡谷市", "postcode": "394-0027", "prefecture": "長野県", "id": 3940027 },
        { "address": "塚間町", "city": "岡谷市", "postcode": "394-0026", "prefecture": "長野県", "id": 3940026 },
        { "address": "天竜町", "city": "岡谷市", "postcode": "394-0035", "prefecture": "長野県", "id": 3940035 },
        { "address": "成田町", "city": "岡谷市", "postcode": "394-0042", "prefecture": "長野県", "id": 3940042 },
        { "address": "南宮", "city": "岡谷市", "postcode": "394-0033", "prefecture": "長野県", "id": 3940033 },
        { "address": "西林", "city": "岡谷市", "postcode": "394-0052", "prefecture": "長野県", "id": 3940052 },
        { "address": "半ノ木", "city": "岡谷市", "postcode": "394-0054", "prefecture": "長野県", "id": 3940054 },
        { "address": "東銀座", "city": "岡谷市", "postcode": "394-0023", "prefecture": "長野県", "id": 3940023 },
        { "address": "樋沢", "city": "岡谷市", "postcode": "394-0056", "prefecture": "長野県", "id": 3940056 },
        { "address": "堀ノ内", "city": "岡谷市", "postcode": "394-0024", "prefecture": "長野県", "id": 3940024 },
        { "address": "本町", "city": "岡谷市", "postcode": "394-0028", "prefecture": "長野県", "id": 3940028 },
        { "address": "湊", "city": "岡谷市", "postcode": "394-0044", "prefecture": "長野県", "id": 3940044 },
        { "address": "山下町", "city": "岡谷市", "postcode": "394-0005", "prefecture": "長野県", "id": 3940005 },
        { "address": "山手町", "city": "岡谷市", "postcode": "394-0041", "prefecture": "長野県", "id": 3940041 },
        { "address": "若宮", "city": "岡谷市", "postcode": "394-0032", "prefecture": "長野県", "id": 3940032 },
        { "city": "飯田市", "postcode": "395-0000", "prefecture": "長野県", "id": 3950000 },
        { "address": "曙町", "city": "飯田市", "postcode": "395-0072", "prefecture": "長野県", "id": 3950072 },
        { "address": "旭町", "city": "飯田市", "postcode": "395-0055", "prefecture": "長野県", "id": 3950055 },
        { "address": "吾妻町", "city": "飯田市", "postcode": "395-0085", "prefecture": "長野県", "id": 3950085 },
        { "address": "愛宕町", "city": "飯田市", "postcode": "395-0036", "prefecture": "長野県", "id": 3950036 },
        { "address": "育良町", "city": "飯田市", "postcode": "395-0152", "prefecture": "長野県", "id": 3950152 },
        { "address": "伊豆木", "city": "飯田市", "postcode": "399-2434", "prefecture": "長野県", "id": 3992434 },
        { "address": "今宮町", "city": "飯田市", "postcode": "395-0071", "prefecture": "長野県", "id": 3950071 },
        { "address": "江戸浜町", "city": "飯田市", "postcode": "395-0023", "prefecture": "長野県", "id": 3950023 },
        { "address": "江戸町", "city": "飯田市", "postcode": "395-0015", "prefecture": "長野県", "id": 3950015 },
        { "address": "扇町", "city": "飯田市", "postcode": "395-0046", "prefecture": "長野県", "id": 3950046 },
        { "address": "追手町", "city": "飯田市", "postcode": "395-0034", "prefecture": "長野県", "id": 3950034 },
        { "address": "大久保町", "city": "飯田市", "postcode": "395-0053", "prefecture": "長野県", "id": 3950053 },
        { "address": "大瀬木", "city": "飯田市", "postcode": "395-0157", "prefecture": "長野県", "id": 3950157 },
        { "address": "大通", "city": "飯田市", "postcode": "395-0056", "prefecture": "長野県", "id": 3950056 },
        { "address": "大休", "city": "飯田市", "postcode": "395-0068", "prefecture": "長野県", "id": 3950068 },
        { "address": "長姫町", "city": "飯田市", "postcode": "395-0028", "prefecture": "長野県", "id": 3950028 },
        { "address": "鼎一色", "city": "飯田市", "postcode": "395-0805", "prefecture": "長野県", "id": 3950805 },
        { "address": "鼎上茶屋", "city": "飯田市", "postcode": "395-0808", "prefecture": "長野県", "id": 3950808 },
        { "address": "鼎下茶屋", "city": "飯田市", "postcode": "395-0802", "prefecture": "長野県", "id": 3950802 },
        { "address": "鼎上山", "city": "飯田市", "postcode": "395-0806", "prefecture": "長野県", "id": 3950806 },
        { "address": "鼎下山", "city": "飯田市", "postcode": "395-0803", "prefecture": "長野県", "id": 3950803 },
        { "address": "鼎切石", "city": "飯田市", "postcode": "395-0807", "prefecture": "長野県", "id": 3950807 },
        { "address": "鼎中平", "city": "飯田市", "postcode": "395-0801", "prefecture": "長野県", "id": 3950801 },
        { "address": "鼎名古熊", "city": "飯田市", "postcode": "395-0804", "prefecture": "長野県", "id": 3950804 },
        { "address": "鼎東鼎", "city": "飯田市", "postcode": "395-0817", "prefecture": "長野県", "id": 3950817 },
        { "address": "鼎西鼎", "city": "飯田市", "postcode": "395-0026", "prefecture": "長野県", "id": 3950026 },
        { "address": "上川路", "city": "飯田市", "postcode": "399-2564", "prefecture": "長野県", "id": 3992564 },
        { "address": "上郷飯沼", "city": "飯田市", "postcode": "395-0002", "prefecture": "長野県", "id": 3950002 },
        { "address": "上郷別府", "city": "飯田市", "postcode": "395-0003", "prefecture": "長野県", "id": 3950003 },
        { "address": "上郷黒田", "city": "飯田市", "postcode": "395-0004", "prefecture": "長野県", "id": 3950004 },
        { "address": "上殿岡", "city": "飯田市", "postcode": "395-0153", "prefecture": "長野県", "id": 3950153 },
        { "address": "上久堅", "city": "飯田市", "postcode": "399-2611", "prefecture": "長野県", "id": 3992611 },
        { "address": "上久堅戊", "city": "飯田市", "postcode": "399-2612", "prefecture": "長野県", "id": 3992612 },
        { "address": "上村", "city": "飯田市", "postcode": "399-1403", "prefecture": "長野県", "id": 3991403 },
        { "address": "川路", "city": "飯田市", "postcode": "399-2431", "prefecture": "長野県", "id": 3992431 },
        { "address": "北方", "city": "飯田市", "postcode": "395-0151", "prefecture": "長野県", "id": 3950151 },
        { "address": "桐林", "city": "飯田市", "postcode": "399-2565", "prefecture": "長野県", "id": 3992565 },
        { "address": "銀座", "city": "飯田市", "postcode": "395-0031", "prefecture": "長野県", "id": 3950031 },
        { "address": "久米", "city": "飯田市", "postcode": "395-0241", "prefecture": "長野県", "id": 3950241 },
        { "address": "毛賀", "city": "飯田市", "postcode": "395-0813", "prefecture": "長野県", "id": 3950813 },
        { "address": "小伝馬町", "city": "飯田市", "postcode": "395-0013", "prefecture": "長野県", "id": 3950013 },
        { "address": "桜町", "city": "飯田市", "postcode": "395-0014", "prefecture": "長野県", "id": 3950014 },
        { "address": "座光寺", "city": "飯田市", "postcode": "395-0001", "prefecture": "長野県", "id": 3950001 },
        { "address": "嶋", "city": "飯田市", "postcode": "399-2566", "prefecture": "長野県", "id": 3992566 },
        { "address": "下瀬", "city": "飯田市", "postcode": "399-2432", "prefecture": "長野県", "id": 3992432 },
        { "address": "下殿岡", "city": "飯田市", "postcode": "395-0154", "prefecture": "長野県", "id": 3950154 },
        { "address": "下久堅稲葉", "city": "飯田市", "postcode": "399-2606", "prefecture": "長野県", "id": 3992606 },
        { "address": "下久堅柿野沢", "city": "飯田市", "postcode": "399-2604", "prefecture": "長野県", "id": 3992604 },
        { "address": "下久堅小林", "city": "飯田市", "postcode": "399-2605", "prefecture": "長野県", "id": 3992605 },
        { "address": "下久堅下虎岩", "city": "飯田市", "postcode": "399-2602", "prefecture": "長野県", "id": 3992602 },
        { "address": "下久堅知久平", "city": "飯田市", "postcode": "399-2603", "prefecture": "長野県", "id": 3992603 },
        { "address": "下久堅南原", "city": "飯田市", "postcode": "399-2607", "prefecture": "長野県", "id": 3992607 },
        { "address": "正永町", "city": "飯田市", "postcode": "395-0061", "prefecture": "長野県", "id": 3950061 },
        { "address": "鈴加町", "city": "飯田市", "postcode": "395-0084", "prefecture": "長野県", "id": 3950084 },
        { "address": "砂払町", "city": "飯田市", "postcode": "395-0062", "prefecture": "長野県", "id": 3950062 },
        { "address": "諏訪町", "city": "飯田市", "postcode": "395-0018", "prefecture": "長野県", "id": 3950018 },
        { "address": "大王路", "city": "飯田市", "postcode": "395-0012", "prefecture": "長野県", "id": 3950012 },
        { "address": "大門町", "city": "飯田市", "postcode": "395-0011", "prefecture": "長野県", "id": 3950011 },
        { "address": "高羽町", "city": "飯田市", "postcode": "395-0051", "prefecture": "長野県", "id": 3950051 },
        { "address": "滝の沢", "city": "飯田市", "postcode": "395-0048", "prefecture": "長野県", "id": 3950048 },
        { "address": "竹佐", "city": "飯田市", "postcode": "395-0242", "prefecture": "長野県", "id": 3950242 },
        { "address": "駄科", "city": "飯田市", "postcode": "399-2561", "prefecture": "長野県", "id": 3992561 },
        { "address": "龍江", "city": "飯田市", "postcode": "399-2221", "prefecture": "長野県", "id": 3992221 },
        { "address": "立石", "city": "飯田市", "postcode": "399-2433", "prefecture": "長野県", "id": 3992433 },
        { "address": "主税町", "city": "飯田市", "postcode": "395-0032", "prefecture": "長野県", "id": 3950032 },
        { "address": "知久町", "city": "飯田市", "postcode": "395-0045", "prefecture": "長野県", "id": 3950045 },
        { "address": "千栄", "city": "飯田市", "postcode": "399-2223", "prefecture": "長野県", "id": 3992223 },
        { "address": "中央通り", "city": "飯田市", "postcode": "395-0041", "prefecture": "長野県", "id": 3950041 },
        { "address": "千代", "city": "飯田市", "postcode": "399-2222", "prefecture": "長野県", "id": 3992222 },
        { "address": "伝馬町", "city": "飯田市", "postcode": "395-0016", "prefecture": "長野県", "id": 3950016 },
        { "address": "東栄町", "city": "飯田市", "postcode": "395-0024", "prefecture": "長野県", "id": 3950024 },
        { "address": "東新町", "city": "飯田市", "postcode": "395-0017", "prefecture": "長野県", "id": 3950017 },
        { "address": "東和町", "city": "飯田市", "postcode": "395-0086", "prefecture": "長野県", "id": 3950086 },
        { "address": "通り町", "city": "飯田市", "postcode": "395-0043", "prefecture": "長野県", "id": 3950043 },
        { "address": "時又", "city": "飯田市", "postcode": "399-2563", "prefecture": "長野県", "id": 3992563 },
        { "address": "常盤町", "city": "飯田市", "postcode": "395-0033", "prefecture": "長野県", "id": 3950033 },
        { "address": "虎岩", "city": "飯田市", "postcode": "399-2601", "prefecture": "長野県", "id": 3992601 },
        { "address": "仲ノ町", "city": "飯田市", "postcode": "395-0021", "prefecture": "長野県", "id": 3950021 },
        { "address": "中村", "city": "飯田市", "postcode": "395-0156", "prefecture": "長野県", "id": 3950156 },
        { "address": "長野原", "city": "飯田市", "postcode": "399-2562", "prefecture": "長野県", "id": 3992562 },
        { "address": "錦町", "city": "飯田市", "postcode": "395-0083", "prefecture": "長野県", "id": 3950083 },
        { "address": "二本松", "city": "飯田市", "postcode": "395-0029", "prefecture": "長野県", "id": 3950029 },
        { "address": "白山町", "city": "飯田市", "postcode": "395-0076", "prefecture": "長野県", "id": 3950076 },
        { "address": "白山通り", "city": "飯田市", "postcode": "395-0075", "prefecture": "長野県", "id": 3950075 },
        { "address": "箱川", "city": "飯田市", "postcode": "395-0243", "prefecture": "長野県", "id": 3950243 },
        { "address": "羽場赤坂", "city": "飯田市", "postcode": "395-0066", "prefecture": "長野県", "id": 3950066 },
        { "address": "羽場上河原", "city": "飯田市", "postcode": "395-0065", "prefecture": "長野県", "id": 3950065 },
        { "address": "羽場権現", "city": "飯田市", "postcode": "395-0067", "prefecture": "長野県", "id": 3950067 },
        { "address": "羽場坂町", "city": "飯田市", "postcode": "395-0073", "prefecture": "長野県", "id": 3950073 },
        { "address": "羽場町", "city": "飯田市", "postcode": "395-0063", "prefecture": "長野県", "id": 3950063 },
        { "address": "羽場仲畑", "city": "飯田市", "postcode": "395-0064", "prefecture": "長野県", "id": 3950064 },
        { "address": "馬場町", "city": "飯田市", "postcode": "395-0027", "prefecture": "長野県", "id": 3950027 },
        { "address": "浜井町", "city": "飯田市", "postcode": "395-0022", "prefecture": "長野県", "id": 3950022 },
        { "address": "東中央通り", "city": "飯田市", "postcode": "395-0025", "prefecture": "長野県", "id": 3950025 },
        { "address": "本町", "city": "飯田市", "postcode": "395-0044", "prefecture": "長野県", "id": 3950044 },
        { "address": "松尾上溝", "city": "飯田市", "postcode": "395-0811", "prefecture": "長野県", "id": 3950811 },
        { "address": "松尾新井", "city": "飯田市", "postcode": "395-0821", "prefecture": "長野県", "id": 3950821 },
        { "address": "松尾清水", "city": "飯田市", "postcode": "395-0824", "prefecture": "長野県", "id": 3950824 },
        { "address": "松尾代田", "city": "飯田市", "postcode": "395-0812", "prefecture": "長野県", "id": 3950812 },
        { "address": "松尾城", "city": "飯田市", "postcode": "395-0825", "prefecture": "長野県", "id": 3950825 },
        { "address": "松尾寺所", "city": "飯田市", "postcode": "395-0822", "prefecture": "長野県", "id": 3950822 },
        { "address": "松尾常盤台", "city": "飯田市", "postcode": "395-0815", "prefecture": "長野県", "id": 3950815 },
        { "address": "松尾久井", "city": "飯田市", "postcode": "395-0816", "prefecture": "長野県", "id": 3950816 },
        { "address": "松尾町", "city": "飯田市", "postcode": "395-0042", "prefecture": "長野県", "id": 3950042 },
        { "address": "松尾水城", "city": "飯田市", "postcode": "395-0826", "prefecture": "長野県", "id": 3950826 },
        { "address": "松尾明", "city": "飯田市", "postcode": "395-0823", "prefecture": "長野県", "id": 3950823 },
        { "address": "松川町", "city": "飯田市", "postcode": "395-0074", "prefecture": "長野県", "id": 3950074 },
        { "address": "丸山町", "city": "飯田市", "postcode": "395-0077", "prefecture": "長野県", "id": 3950077 },
        { "address": "水の手町", "city": "飯田市", "postcode": "395-0035", "prefecture": "長野県", "id": 3950035 },
        { "address": "三日市場", "city": "飯田市", "postcode": "395-0155", "prefecture": "長野県", "id": 3950155 },
        { "address": "南信濃木沢", "city": "飯田市", "postcode": "399-1401", "prefecture": "長野県", "id": 3991401 },
        { "address": "南信濃南和田", "city": "飯田市", "postcode": "399-1221", "prefecture": "長野県", "id": 3991221 },
        { "address": "南信濃南和田", "city": "飯田市", "postcode": "399-1313", "prefecture": "長野県", "id": 3991313 },
        {
            "address": "南信濃八重河内",
            "city": "飯田市",
            "postcode": "399-1312",
            "prefecture": "長野県",
            "id": 3991312
        },
        { "address": "南信濃和田", "city": "飯田市", "postcode": "399-1311", "prefecture": "長野県", "id": 3991311 },
        { "address": "南常盤町", "city": "飯田市", "postcode": "395-0037", "prefecture": "長野県", "id": 3950037 },
        { "address": "箕瀬町", "city": "飯田市", "postcode": "395-0054", "prefecture": "長野県", "id": 3950054 },
        { "address": "宮ノ上", "city": "飯田市", "postcode": "395-0081", "prefecture": "長野県", "id": 3950081 },
        { "address": "宮の前", "city": "飯田市", "postcode": "395-0082", "prefecture": "長野県", "id": 3950082 },
        { "address": "元町", "city": "飯田市", "postcode": "395-0052", "prefecture": "長野県", "id": 3950052 },
        { "address": "山本", "city": "飯田市", "postcode": "395-0244", "prefecture": "長野県", "id": 3950244 },
        {
            "address": "山本二ツ山団地",
            "city": "飯田市",
            "postcode": "395-0245",
            "prefecture": "長野県",
            "id": 3950245
        },
        { "address": "八幡町", "city": "飯田市", "postcode": "395-0814", "prefecture": "長野県", "id": 3950814 },
        { "city": "諏訪市", "postcode": "392-0000", "prefecture": "長野県", "id": 3920000 },
        { "address": "赤羽根", "city": "諏訪市", "postcode": "392-0011", "prefecture": "長野県", "id": 3920011 },
        { "address": "大手", "city": "諏訪市", "postcode": "392-0026", "prefecture": "長野県", "id": 3920026 },
        { "address": "岡村", "city": "諏訪市", "postcode": "392-0005", "prefecture": "長野県", "id": 3920005 },
        { "address": "沖田町", "city": "諏訪市", "postcode": "392-0013", "prefecture": "長野県", "id": 3920013 },
        { "address": "大和", "city": "諏訪市", "postcode": "392-0001", "prefecture": "長野県", "id": 3920001 },
        { "address": "上川", "city": "諏訪市", "postcode": "392-0021", "prefecture": "長野県", "id": 3920021 },
        { "address": "上諏訪", "city": "諏訪市", "postcode": "392-0003", "prefecture": "長野県", "id": 3920003 },
        { "address": "霧ケ峰", "city": "諏訪市", "postcode": "392-0008", "prefecture": "長野県", "id": 3920008 },
        { "address": "湖岸通り", "city": "諏訪市", "postcode": "392-0027", "prefecture": "長野県", "id": 3920027 },
        { "address": "湖南", "city": "諏訪市", "postcode": "392-0131", "prefecture": "長野県", "id": 3920131 },
        { "address": "小和田", "city": "諏訪市", "postcode": "392-0024", "prefecture": "長野県", "id": 3920024 },
        { "address": "小和田南", "city": "諏訪市", "postcode": "392-0023", "prefecture": "長野県", "id": 3920023 },
        { "address": "四賀", "city": "諏訪市", "postcode": "392-0012", "prefecture": "長野県", "id": 3920012 },
        { "address": "渋崎", "city": "諏訪市", "postcode": "392-0010", "prefecture": "長野県", "id": 3920010 },
        { "address": "清水", "city": "諏訪市", "postcode": "392-0007", "prefecture": "長野県", "id": 3920007 },
        { "address": "城南", "city": "諏訪市", "postcode": "392-0017", "prefecture": "長野県", "id": 3920017 },
        { "address": "末広", "city": "諏訪市", "postcode": "392-0025", "prefecture": "長野県", "id": 3920025 },
        { "address": "杉菜池", "city": "諏訪市", "postcode": "392-0009", "prefecture": "長野県", "id": 3920009 },
        { "address": "諏訪", "city": "諏訪市", "postcode": "392-0004", "prefecture": "長野県", "id": 3920004 },
        { "address": "高島", "city": "諏訪市", "postcode": "392-0022", "prefecture": "長野県", "id": 3920022 },
        { "address": "豊田", "city": "諏訪市", "postcode": "392-0016", "prefecture": "長野県", "id": 3920016 },
        { "address": "中洲", "city": "諏訪市", "postcode": "392-0015", "prefecture": "長野県", "id": 3920015 },
        { "address": "南町", "city": "諏訪市", "postcode": "392-0014", "prefecture": "長野県", "id": 3920014 },
        { "address": "元町", "city": "諏訪市", "postcode": "392-0006", "prefecture": "長野県", "id": 3920006 },
        { "address": "湯の脇", "city": "諏訪市", "postcode": "392-0002", "prefecture": "長野県", "id": 3920002 },
        { "city": "須坂市", "postcode": "382-0000", "prefecture": "長野県", "id": 3820000 },
        { "address": "相之島", "city": "須坂市", "postcode": "382-0065", "prefecture": "長野県", "id": 3820065 },
        { "address": "旭ケ丘", "city": "須坂市", "postcode": "382-0003", "prefecture": "長野県", "id": 3820003 },
        { "address": "井上", "city": "須坂市", "postcode": "382-0045", "prefecture": "長野県", "id": 3820045 },
        { "address": "相森町", "city": "須坂市", "postcode": "382-0017", "prefecture": "長野県", "id": 3820017 },
        { "address": "大谷町", "city": "須坂市", "postcode": "382-0012", "prefecture": "長野県", "id": 3820012 },
        { "address": "小河原町", "city": "須坂市", "postcode": "382-0071", "prefecture": "長野県", "id": 3820071 },
        { "address": "大日向町", "city": "須坂市", "postcode": "382-0025", "prefecture": "長野県", "id": 3820025 },
        { "address": "上中町", "city": "須坂市", "postcode": "382-0083", "prefecture": "長野県", "id": 3820083 },
        { "address": "上八町", "city": "須坂市", "postcode": "382-0044", "prefecture": "長野県", "id": 3820044 },
        { "address": "亀倉町", "city": "須坂市", "postcode": "382-0033", "prefecture": "長野県", "id": 3820033 },
        { "address": "臥竜", "city": "須坂市", "postcode": "382-0028", "prefecture": "長野県", "id": 3820028 },
        { "address": "上町", "city": "須坂市", "postcode": "382-0084", "prefecture": "長野県", "id": 3820084 },
        { "address": "北相之島町", "city": "須坂市", "postcode": "382-0061", "prefecture": "長野県", "id": 3820061 },
        { "address": "北旭ケ丘町", "city": "須坂市", "postcode": "382-0002", "prefecture": "長野県", "id": 3820002 },
        { "address": "北原町", "city": "須坂市", "postcode": "382-0092", "prefecture": "長野県", "id": 3820092 },
        { "address": "北横町", "city": "須坂市", "postcode": "382-0077", "prefecture": "長野県", "id": 3820077 },
        { "address": "九反田町", "city": "須坂市", "postcode": "382-0048", "prefecture": "長野県", "id": 3820048 },
        { "address": "幸高町", "city": "須坂市", "postcode": "382-0047", "prefecture": "長野県", "id": 3820047 },
        { "address": "五閑町", "city": "須坂市", "postcode": "382-0053", "prefecture": "長野県", "id": 3820053 },
        { "address": "穀町", "city": "須坂市", "postcode": "382-0085", "prefecture": "長野県", "id": 3820085 },
        { "address": "小島町", "city": "須坂市", "postcode": "382-0062", "prefecture": "長野県", "id": 3820062 },
        { "address": "坂田町", "city": "須坂市", "postcode": "382-0026", "prefecture": "長野県", "id": 3820026 },
        { "address": "塩川町", "city": "須坂市", "postcode": "382-0052", "prefecture": "長野県", "id": 3820052 },
        { "address": "塩野町", "city": "須坂市", "postcode": "382-0024", "prefecture": "長野県", "id": 3820024 },
        { "address": "下八町", "city": "須坂市", "postcode": "382-0043", "prefecture": "長野県", "id": 3820043 },
        { "address": "新田町", "city": "須坂市", "postcode": "382-0005", "prefecture": "長野県", "id": 3820005 },
        { "address": "新町", "city": "須坂市", "postcode": "382-0014", "prefecture": "長野県", "id": 3820014 },
        {
            "address": "須坂ハイランド町",
            "city": "須坂市",
            "postcode": "382-0075",
            "prefecture": "長野県",
            "id": 3820075
        },
        { "address": "墨坂", "city": "須坂市", "postcode": "382-0099", "prefecture": "長野県", "id": 3820099 },
        { "address": "墨坂南", "city": "須坂市", "postcode": "382-0098", "prefecture": "長野県", "id": 3820098 },
        { "address": "太子町", "city": "須坂市", "postcode": "382-0015", "prefecture": "長野県", "id": 3820015 },
        { "address": "高梨町", "city": "須坂市", "postcode": "382-0054", "prefecture": "長野県", "id": 3820054 },
        { "address": "高橋町", "city": "須坂市", "postcode": "382-0016", "prefecture": "長野県", "id": 3820016 },
        { "address": "高畑町", "city": "須坂市", "postcode": "382-0004", "prefecture": "長野県", "id": 3820004 },
        { "address": "立町", "city": "須坂市", "postcode": "382-0091", "prefecture": "長野県", "id": 3820091 },
        { "address": "田の神町", "city": "須坂市", "postcode": "382-0073", "prefecture": "長野県", "id": 3820073 },
        { "address": "常盤町", "city": "須坂市", "postcode": "382-0013", "prefecture": "長野県", "id": 3820013 },
        { "address": "豊丘上町", "city": "須坂市", "postcode": "382-0022", "prefecture": "長野県", "id": 3820022 },
        { "address": "豊丘町", "city": "須坂市", "postcode": "382-0021", "prefecture": "長野県", "id": 3820021 },
        { "address": "豊島町", "city": "須坂市", "postcode": "382-0066", "prefecture": "長野県", "id": 3820066 },
        { "address": "中島町", "city": "須坂市", "postcode": "382-0055", "prefecture": "長野県", "id": 3820055 },
        { "address": "中町", "city": "須坂市", "postcode": "382-0082", "prefecture": "長野県", "id": 3820082 },
        { "address": "夏端町", "city": "須坂市", "postcode": "382-0032", "prefecture": "長野県", "id": 3820032 },
        { "address": "西町", "city": "須坂市", "postcode": "382-0063", "prefecture": "長野県", "id": 3820063 },
        { "address": "二睦町", "city": "須坂市", "postcode": "382-0046", "prefecture": "長野県", "id": 3820046 },
        { "address": "仁礼町", "city": "須坂市", "postcode": "386-2211", "prefecture": "長野県", "id": 3862211 },
        { "address": "仁礼町", "city": "須坂市", "postcode": "382-0034", "prefecture": "長野県", "id": 3820034 },
        { "address": "沼目町", "city": "須坂市", "postcode": "382-0064", "prefecture": "長野県", "id": 3820064 },
        { "address": "野辺町", "city": "須坂市", "postcode": "382-0037", "prefecture": "長野県", "id": 3820037 },
        { "address": "馬場町", "city": "須坂市", "postcode": "382-0076", "prefecture": "長野県", "id": 3820076 },
        { "address": "春木町", "city": "須坂市", "postcode": "382-0074", "prefecture": "長野県", "id": 3820074 },
        {
            "address": "光ケ丘ニュータウン",
            "city": "須坂市",
            "postcode": "382-0006",
            "prefecture": "長野県",
            "id": 3820006
        },
        { "address": "東横町", "city": "須坂市", "postcode": "382-0087", "prefecture": "長野県", "id": 3820087 },
        { "address": "福島町", "city": "須坂市", "postcode": "382-0056", "prefecture": "長野県", "id": 3820056 },
        { "address": "望岳台", "city": "須坂市", "postcode": "382-0042", "prefecture": "長野県", "id": 3820042 },
        { "address": "本上町", "city": "須坂市", "postcode": "382-0086", "prefecture": "長野県", "id": 3820086 },
        { "address": "本郷町", "city": "須坂市", "postcode": "382-0011", "prefecture": "長野県", "id": 3820011 },
        { "address": "松川町", "city": "須坂市", "postcode": "382-0001", "prefecture": "長野県", "id": 3820001 },
        { "address": "南小河原町", "city": "須坂市", "postcode": "382-0072", "prefecture": "長野県", "id": 3820072 },
        { "address": "南原町", "city": "須坂市", "postcode": "382-0027", "prefecture": "長野県", "id": 3820027 },
        { "address": "南横町", "city": "須坂市", "postcode": "382-0097", "prefecture": "長野県", "id": 3820097 },
        { "address": "明徳町", "city": "須坂市", "postcode": "382-0036", "prefecture": "長野県", "id": 3820036 },
        { "address": "村石町", "city": "須坂市", "postcode": "382-0031", "prefecture": "長野県", "id": 3820031 },
        { "address": "村山町", "city": "須坂市", "postcode": "382-0057", "prefecture": "長野県", "id": 3820057 },
        { "address": "八重森町", "city": "須坂市", "postcode": "382-0051", "prefecture": "長野県", "id": 3820051 },
        { "address": "屋部町", "city": "須坂市", "postcode": "382-0094", "prefecture": "長野県", "id": 3820094 },
        { "address": "横町", "city": "須坂市", "postcode": "382-0081", "prefecture": "長野県", "id": 3820081 },
        { "address": "米子町", "city": "須坂市", "postcode": "382-0023", "prefecture": "長野県", "id": 3820023 },
        { "address": "米持町", "city": "須坂市", "postcode": "382-0041", "prefecture": "長野県", "id": 3820041 },
        { "city": "小諸市", "postcode": "384-0000", "prefecture": "長野県", "id": 3840000 },
        { "address": "相生町", "city": "小諸市", "postcode": "384-0025", "prefecture": "長野県", "id": 3840025 },
        { "address": "赤坂", "city": "小諸市", "postcode": "384-0011", "prefecture": "長野県", "id": 3840011 },
        { "address": "天池", "city": "小諸市", "postcode": "384-0021", "prefecture": "長野県", "id": 3840021 },
        { "address": "荒堀", "city": "小諸市", "postcode": "384-0062", "prefecture": "長野県", "id": 3840062 },
        { "address": "荒町", "city": "小諸市", "postcode": "384-0014", "prefecture": "長野県", "id": 3840014 },
        { "address": "池ノ前", "city": "小諸市", "postcode": "384-0096", "prefecture": "長野県", "id": 3840096 },
        { "address": "井子", "city": "小諸市", "postcode": "384-0047", "prefecture": "長野県", "id": 3840047 },
        { "address": "石峠", "city": "小諸市", "postcode": "384-0054", "prefecture": "長野県", "id": 3840054 },
        { "address": "市", "city": "小諸市", "postcode": "384-0083", "prefecture": "長野県", "id": 3840083 },
        { "address": "市町", "city": "小諸市", "postcode": "384-0033", "prefecture": "長野県", "id": 3840033 },
        { "address": "上ノ平", "city": "小諸市", "postcode": "384-0075", "prefecture": "長野県", "id": 3840075 },
        { "address": "後平", "city": "小諸市", "postcode": "384-0042", "prefecture": "長野県", "id": 3840042 },
        { "address": "大杭", "city": "小諸市", "postcode": "384-0077", "prefecture": "長野県", "id": 3840077 },
        { "address": "大久保", "city": "小諸市", "postcode": "384-0071", "prefecture": "長野県", "id": 3840071 },
        { "address": "大手", "city": "小諸市", "postcode": "384-0031", "prefecture": "長野県", "id": 3840031 },
        { "address": "押出", "city": "小諸市", "postcode": "384-0037", "prefecture": "長野県", "id": 3840037 },
        { "address": "乙", "city": "小諸市", "postcode": "384-0802", "prefecture": "長野県", "id": 3840802 },
        { "address": "乙女", "city": "小諸市", "postcode": "384-0004", "prefecture": "長野県", "id": 3840004 },
        { "address": "柏木", "city": "小諸市", "postcode": "384-0055", "prefecture": "長野県", "id": 3840055 },
        { "address": "加増", "city": "小諸市", "postcode": "384-0061", "prefecture": "長野県", "id": 3840061 },
        { "address": "唐松", "city": "小諸市", "postcode": "384-0002", "prefecture": "長野県", "id": 3840002 },
        { "address": "己", "city": "小諸市", "postcode": "384-0805", "prefecture": "長野県", "id": 3840805 },
        { "address": "久保", "city": "小諸市", "postcode": "384-0076", "prefecture": "長野県", "id": 3840076 },
        { "address": "熊ノ堂", "city": "小諸市", "postcode": "384-0024", "prefecture": "長野県", "id": 3840024 },
        { "address": "甲", "city": "小諸市", "postcode": "384-0801", "prefecture": "長野県", "id": 3840801 },
        { "address": "古城", "city": "小諸市", "postcode": "384-0032", "prefecture": "長野県", "id": 3840032 },
        { "address": "小原", "city": "小諸市", "postcode": "384-0001", "prefecture": "長野県", "id": 3840001 },
        { "address": "紺屋町", "city": "小諸市", "postcode": "384-0015", "prefecture": "長野県", "id": 3840015 },
        { "address": "坂ノ上", "city": "小諸市", "postcode": "384-0018", "prefecture": "長野県", "id": 3840018 },
        { "address": "塩野", "city": "小諸市", "postcode": "384-0806", "prefecture": "長野県", "id": 3840806 },
        { "address": "滋野甲", "city": "小諸市", "postcode": "384-0809", "prefecture": "長野県", "id": 3840809 },
        { "address": "東雲", "city": "小諸市", "postcode": "384-0023", "prefecture": "長野県", "id": 3840023 },
        { "address": "芝生田", "city": "小諸市", "postcode": "384-0046", "prefecture": "長野県", "id": 3840046 },
        { "address": "新町", "city": "小諸市", "postcode": "384-0034", "prefecture": "長野県", "id": 3840034 },
        { "address": "諏訪山", "city": "小諸市", "postcode": "384-0082", "prefecture": "長野県", "id": 3840082 },
        { "address": "滝原", "city": "小諸市", "postcode": "384-0045", "prefecture": "長野県", "id": 3840045 },
        { "address": "田町", "city": "小諸市", "postcode": "384-0028", "prefecture": "長野県", "id": 3840028 },
        { "address": "鶴巻", "city": "小諸市", "postcode": "384-0007", "prefecture": "長野県", "id": 3840007 },
        { "address": "丁", "city": "小諸市", "postcode": "384-0804", "prefecture": "長野県", "id": 3840804 },
        { "address": "鴇久保", "city": "小諸市", "postcode": "384-0072", "prefecture": "長野県", "id": 3840072 },
        { "address": "栃木", "city": "小諸市", "postcode": "384-0038", "prefecture": "長野県", "id": 3840038 },
        { "address": "西浦", "city": "小諸市", "postcode": "384-0074", "prefecture": "長野県", "id": 3840074 },
        { "address": "西原", "city": "小諸市", "postcode": "384-0044", "prefecture": "長野県", "id": 3840044 },
        { "address": "糠地", "city": "小諸市", "postcode": "384-0048", "prefecture": "長野県", "id": 3840048 },
        { "address": "乗瀬", "city": "小諸市", "postcode": "384-0064", "prefecture": "長野県", "id": 3840064 },
        { "address": "八満", "city": "小諸市", "postcode": "384-0051", "prefecture": "長野県", "id": 3840051 },
        { "address": "八幡町", "city": "小諸市", "postcode": "384-0016", "prefecture": "長野県", "id": 3840016 },
        { "address": "東区", "city": "小諸市", "postcode": "384-0052", "prefecture": "長野県", "id": 3840052 },
        { "address": "東小諸", "city": "小諸市", "postcode": "384-0008", "prefecture": "長野県", "id": 3840008 },
        { "address": "東山", "city": "小諸市", "postcode": "384-0003", "prefecture": "長野県", "id": 3840003 },
        { "address": "菱平", "city": "小諸市", "postcode": "384-0041", "prefecture": "長野県", "id": 3840041 },
        { "address": "一ツ谷", "city": "小諸市", "postcode": "384-0094", "prefecture": "長野県", "id": 3840094 },
        { "address": "ひばりケ丘", "city": "小諸市", "postcode": "384-0065", "prefecture": "長野県", "id": 3840065 },
        { "address": "平原", "city": "小諸市", "postcode": "384-0092", "prefecture": "長野県", "id": 3840092 },
        { "address": "藤塚", "city": "小諸市", "postcode": "384-0053", "prefecture": "長野県", "id": 3840053 },
        { "address": "富士見平", "city": "小諸市", "postcode": "384-0036", "prefecture": "長野県", "id": 3840036 },
        { "address": "丙", "city": "小諸市", "postcode": "384-0803", "prefecture": "長野県", "id": 3840803 },
        { "address": "本町", "city": "小諸市", "postcode": "384-0026", "prefecture": "長野県", "id": 3840026 },
        { "address": "松井", "city": "小諸市", "postcode": "384-0022", "prefecture": "長野県", "id": 3840022 },
        { "address": "御影", "city": "小諸市", "postcode": "384-0091", "prefecture": "長野県", "id": 3840091 },
        { "address": "御影新田", "city": "小諸市", "postcode": "384-0808", "prefecture": "長野県", "id": 3840808 },
        { "address": "三和", "city": "小諸市", "postcode": "384-0017", "prefecture": "長野県", "id": 3840017 },
        { "address": "緑ケ丘", "city": "小諸市", "postcode": "384-0013", "prefecture": "長野県", "id": 3840013 },
        { "address": "南ケ原", "city": "小諸市", "postcode": "384-0063", "prefecture": "長野県", "id": 3840063 },
        { "address": "南町", "city": "小諸市", "postcode": "384-0012", "prefecture": "長野県", "id": 3840012 },
        { "address": "御牧ケ原", "city": "小諸市", "postcode": "384-0081", "prefecture": "長野県", "id": 3840081 },
        { "address": "耳取", "city": "小諸市", "postcode": "384-0084", "prefecture": "長野県", "id": 3840084 },
        { "address": "宮沢", "city": "小諸市", "postcode": "384-0078", "prefecture": "長野県", "id": 3840078 },
        { "address": "御幸町", "city": "小諸市", "postcode": "384-0005", "prefecture": "長野県", "id": 3840005 },
        { "address": "森山", "city": "小諸市", "postcode": "384-0085", "prefecture": "長野県", "id": 3840085 },
        { "address": "諸", "city": "小諸市", "postcode": "384-0043", "prefecture": "長野県", "id": 3840043 },
        { "address": "谷地原", "city": "小諸市", "postcode": "384-0095", "prefecture": "長野県", "id": 3840095 },
        { "address": "山浦", "city": "小諸市", "postcode": "384-0807", "prefecture": "長野県", "id": 3840807 },
        { "address": "四ツ谷", "city": "小諸市", "postcode": "384-0056", "prefecture": "長野県", "id": 3840056 },
        { "address": "与良町", "city": "小諸市", "postcode": "384-0006", "prefecture": "長野県", "id": 3840006 },
        { "address": "両神", "city": "小諸市", "postcode": "384-0035", "prefecture": "長野県", "id": 3840035 },
        { "address": "六供", "city": "小諸市", "postcode": "384-0027", "prefecture": "長野県", "id": 3840027 },
        { "address": "和田", "city": "小諸市", "postcode": "384-0093", "prefecture": "長野県", "id": 3840093 },
        { "city": "伊那市", "postcode": "396-0000", "prefecture": "長野県", "id": 3960000 },
        { "address": "荒井", "city": "伊那市", "postcode": "396-0025", "prefecture": "長野県", "id": 3960025 },
        { "address": "荒井内の萱", "city": "伊那市", "postcode": "396-0028", "prefecture": "長野県", "id": 3960028 },
        { "address": "伊那", "city": "伊那市", "postcode": "396-0021", "prefecture": "長野県", "id": 3960021 },
        { "address": "伊那部", "city": "伊那市", "postcode": "396-0011", "prefecture": "長野県", "id": 3960011 },
        { "address": "上の原", "city": "伊那市", "postcode": "396-0008", "prefecture": "長野県", "id": 3960008 },
        { "address": "小沢", "city": "伊那市", "postcode": "396-0032", "prefecture": "長野県", "id": 3960032 },
        { "address": "上新田", "city": "伊那市", "postcode": "396-0012", "prefecture": "長野県", "id": 3960012 },
        { "address": "上牧", "city": "伊那市", "postcode": "396-0006", "prefecture": "長野県", "id": 3960006 },
        { "address": "狐島", "city": "伊那市", "postcode": "396-0014", "prefecture": "長野県", "id": 3960014 },
        { "address": "小四郎久保", "city": "伊那市", "postcode": "396-0033", "prefecture": "長野県", "id": 3960033 },
        { "address": "境", "city": "伊那市", "postcode": "396-0010", "prefecture": "長野県", "id": 3960010 },
        { "address": "坂下", "city": "伊那市", "postcode": "396-0024", "prefecture": "長野県", "id": 3960024 },
        { "address": "下新田", "city": "伊那市", "postcode": "396-0013", "prefecture": "長野県", "id": 3960013 },
        { "address": "仙美", "city": "伊那市", "postcode": "396-0114", "prefecture": "長野県", "id": 3960114 },
        { "address": "高遠町長藤", "city": "伊那市", "postcode": "396-0212", "prefecture": "長野県", "id": 3960212 },
        { "address": "高遠町長藤", "city": "伊那市", "postcode": "396-0305", "prefecture": "長野県", "id": 3960305 },
        { "address": "高遠町小原", "city": "伊那市", "postcode": "396-0215", "prefecture": "長野県", "id": 3960215 },
        { "address": "高遠町勝間", "city": "伊那市", "postcode": "396-0214", "prefecture": "長野県", "id": 3960214 },
        { "address": "高遠町上山田", "city": "伊那市", "postcode": "396-0217", "prefecture": "長野県", "id": 3960217 },
        { "address": "高遠町芝平", "city": "伊那市", "postcode": "396-0302", "prefecture": "長野県", "id": 3960302 },
        { "address": "高遠町下山田", "city": "伊那市", "postcode": "396-0216", "prefecture": "長野県", "id": 3960216 },
        { "address": "高遠町西高遠", "city": "伊那市", "postcode": "396-0211", "prefecture": "長野県", "id": 3960211 },
        { "address": "高遠町荊口", "city": "伊那市", "postcode": "396-0303", "prefecture": "長野県", "id": 3960303 },
        { "address": "高遠町東高遠", "city": "伊那市", "postcode": "396-0213", "prefecture": "長野県", "id": 3960213 },
        { "address": "高遠町藤沢", "city": "伊那市", "postcode": "396-0301", "prefecture": "長野県", "id": 3960301 },
        { "address": "高遠町山室", "city": "伊那市", "postcode": "396-0304", "prefecture": "長野県", "id": 3960304 },
        { "address": "中央", "city": "伊那市", "postcode": "396-0015", "prefecture": "長野県", "id": 3960015 },
        { "address": "手良沢岡", "city": "伊那市", "postcode": "396-0002", "prefecture": "長野県", "id": 3960002 },
        { "address": "手良中坪", "city": "伊那市", "postcode": "396-0004", "prefecture": "長野県", "id": 3960004 },
        { "address": "手良野口", "city": "伊那市", "postcode": "396-0003", "prefecture": "長野県", "id": 3960003 },
        { "address": "富県", "city": "伊那市", "postcode": "396-0621", "prefecture": "長野県", "id": 3960621 },
        { "address": "中の原", "city": "伊那市", "postcode": "396-0031", "prefecture": "長野県", "id": 3960031 },
        { "address": "西春近", "city": "伊那市", "postcode": "399-4431", "prefecture": "長野県", "id": 3994431 },
        { "address": "西町", "city": "伊那市", "postcode": "396-0026", "prefecture": "長野県", "id": 3960026 },
        { "address": "西箕輪", "city": "伊那市", "postcode": "399-4501", "prefecture": "長野県", "id": 3994501 },
        { "address": "野底", "city": "伊那市", "postcode": "396-0005", "prefecture": "長野県", "id": 3960005 },
        { "address": "長谷市野瀬", "city": "伊那市", "postcode": "396-0405", "prefecture": "長野県", "id": 3960405 },
        { "address": "長谷浦", "city": "伊那市", "postcode": "396-0407", "prefecture": "長野県", "id": 3960407 },
        { "address": "長谷黒河内", "city": "伊那市", "postcode": "396-0403", "prefecture": "長野県", "id": 3960403 },
        { "address": "長谷杉島", "city": "伊那市", "postcode": "396-0406", "prefecture": "長野県", "id": 3960406 },
        { "address": "長谷中尾", "city": "伊那市", "postcode": "396-0404", "prefecture": "長野県", "id": 3960404 },
        { "address": "長谷非持", "city": "伊那市", "postcode": "396-0401", "prefecture": "長野県", "id": 3960401 },
        { "address": "長谷溝口", "city": "伊那市", "postcode": "396-0402", "prefecture": "長野県", "id": 3960402 },
        { "address": "日影", "city": "伊那市", "postcode": "396-0009", "prefecture": "長野県", "id": 3960009 },
        { "address": "東春近", "city": "伊那市", "postcode": "399-4432", "prefecture": "長野県", "id": 3994432 },
        { "address": "平沢", "city": "伊那市", "postcode": "396-0030", "prefecture": "長野県", "id": 3960030 },
        { "address": "福島", "city": "伊那市", "postcode": "396-0001", "prefecture": "長野県", "id": 3960001 },
        { "address": "前原", "city": "伊那市", "postcode": "396-0112", "prefecture": "長野県", "id": 3960112 },
        { "address": "ますみヶ丘", "city": "伊那市", "postcode": "396-0027", "prefecture": "長野県", "id": 3960027 },
        { "address": "美篶", "city": "伊那市", "postcode": "396-0111", "prefecture": "長野県", "id": 3960111 },
        { "address": "御園", "city": "伊那市", "postcode": "396-0022", "prefecture": "長野県", "id": 3960022 },
        { "address": "美原", "city": "伊那市", "postcode": "396-0113", "prefecture": "長野県", "id": 3960113 },
        { "address": "山寺", "city": "伊那市", "postcode": "396-0023", "prefecture": "長野県", "id": 3960023 },
        { "address": "横山", "city": "伊那市", "postcode": "396-0029", "prefecture": "長野県", "id": 3960029 },
        { "address": "若宮", "city": "伊那市", "postcode": "396-0007", "prefecture": "長野県", "id": 3960007 },
        { "city": "駒ヶ根市", "postcode": "399-4100", "prefecture": "長野県", "id": 3994100 },
        { "address": "赤須町", "city": "駒ヶ根市", "postcode": "399-4113", "prefecture": "長野県", "id": 3994113 },
        { "address": "赤須東", "city": "駒ヶ根市", "postcode": "399-4105", "prefecture": "長野県", "id": 3994105 },
        { "address": "赤穂", "city": "駒ヶ根市", "postcode": "399-4117", "prefecture": "長野県", "id": 3994117 },
        { "address": "飯坂", "city": "駒ヶ根市", "postcode": "399-4102", "prefecture": "長野県", "id": 3994102 },
        { "address": "上穂栄町", "city": "駒ヶ根市", "postcode": "399-4115", "prefecture": "長野県", "id": 3994115 },
        { "address": "上穂南", "city": "駒ヶ根市", "postcode": "399-4114", "prefecture": "長野県", "id": 3994114 },
        { "address": "上穂北", "city": "駒ヶ根市", "postcode": "399-4116", "prefecture": "長野県", "id": 3994116 },
        { "address": "北町", "city": "駒ヶ根市", "postcode": "399-4111", "prefecture": "長野県", "id": 3994111 },
        { "address": "経塚", "city": "駒ヶ根市", "postcode": "399-4104", "prefecture": "長野県", "id": 3994104 },
        { "address": "下市場", "city": "駒ヶ根市", "postcode": "399-4108", "prefecture": "長野県", "id": 3994108 },
        { "address": "下平", "city": "駒ヶ根市", "postcode": "399-4232", "prefecture": "長野県", "id": 3994232 },
        { "address": "下平", "city": "駒ヶ根市", "postcode": "399-4101", "prefecture": "長野県", "id": 3994101 },
        { "address": "中央", "city": "駒ヶ根市", "postcode": "399-4112", "prefecture": "長野県", "id": 3994112 },
        { "address": "中沢", "city": "駒ヶ根市", "postcode": "399-4231", "prefecture": "長野県", "id": 3994231 },
        { "address": "梨の木", "city": "駒ヶ根市", "postcode": "399-4103", "prefecture": "長野県", "id": 3994103 },
        { "address": "東伊那", "city": "駒ヶ根市", "postcode": "399-4321", "prefecture": "長野県", "id": 3994321 },
        { "address": "東町", "city": "駒ヶ根市", "postcode": "399-4106", "prefecture": "長野県", "id": 3994106 },
        { "address": "南田", "city": "駒ヶ根市", "postcode": "399-4107", "prefecture": "長野県", "id": 3994107 },
        { "city": "中野市", "postcode": "383-0000", "prefecture": "長野県", "id": 3830000 },
        { "address": "赤岩", "city": "中野市", "postcode": "383-0004", "prefecture": "長野県", "id": 3830004 },
        { "address": "厚貝", "city": "中野市", "postcode": "383-0066", "prefecture": "長野県", "id": 3830066 },
        { "address": "穴田", "city": "中野市", "postcode": "389-2103", "prefecture": "長野県", "id": 3892103 },
        { "address": "新井", "city": "中野市", "postcode": "383-0064", "prefecture": "長野県", "id": 3830064 },
        { "address": "安源寺", "city": "中野市", "postcode": "383-0052", "prefecture": "長野県", "id": 3830052 },
        { "address": "一本木", "city": "中野市", "postcode": "383-0012", "prefecture": "長野県", "id": 3830012 },
        { "address": "岩井", "city": "中野市", "postcode": "383-0001", "prefecture": "長野県", "id": 3830001 },
        { "address": "岩船", "city": "中野市", "postcode": "383-0041", "prefecture": "長野県", "id": 3830041 },
        { "address": "牛出", "city": "中野市", "postcode": "383-0055", "prefecture": "長野県", "id": 3830055 },
        { "address": "江部", "city": "中野市", "postcode": "383-0045", "prefecture": "長野県", "id": 3830045 },
        { "address": "大俣", "city": "中野市", "postcode": "383-0057", "prefecture": "長野県", "id": 3830057 },
        { "address": "小舘", "city": "中野市", "postcode": "383-0023", "prefecture": "長野県", "id": 3830023 },
        { "address": "笠原", "city": "中野市", "postcode": "383-0062", "prefecture": "長野県", "id": 3830062 },
        { "address": "片塩", "city": "中野市", "postcode": "383-0046", "prefecture": "長野県", "id": 3830046 },
        { "address": "金井", "city": "中野市", "postcode": "383-0008", "prefecture": "長野県", "id": 3830008 },
        { "address": "上今井", "city": "中野市", "postcode": "389-2102", "prefecture": "長野県", "id": 3892102 },
        { "address": "草間", "city": "中野市", "postcode": "383-0053", "prefecture": "長野県", "id": 3830053 },
        { "address": "栗林", "city": "中野市", "postcode": "383-0056", "prefecture": "長野県", "id": 3830056 },
        { "address": "越", "city": "中野市", "postcode": "383-0005", "prefecture": "長野県", "id": 3830005 },
        { "address": "小田中", "city": "中野市", "postcode": "383-0037", "prefecture": "長野県", "id": 3830037 },
        { "address": "桜沢", "city": "中野市", "postcode": "383-0044", "prefecture": "長野県", "id": 3830044 },
        { "address": "更科", "city": "中野市", "postcode": "383-0032", "prefecture": "長野県", "id": 3830032 },
        { "address": "篠井", "city": "中野市", "postcode": "383-0035", "prefecture": "長野県", "id": 3830035 },
        { "address": "新野", "city": "中野市", "postcode": "383-0034", "prefecture": "長野県", "id": 3830034 },
        { "address": "新保", "city": "中野市", "postcode": "383-0036", "prefecture": "長野県", "id": 3830036 },
        { "address": "諏訪町", "city": "中野市", "postcode": "383-0014", "prefecture": "長野県", "id": 3830014 },
        { "address": "田上", "city": "中野市", "postcode": "389-2371", "prefecture": "長野県", "id": 3892371 },
        { "address": "田上", "city": "中野市", "postcode": "383-0002", "prefecture": "長野県", "id": 3830002 },
        { "address": "竹原", "city": "中野市", "postcode": "383-0007", "prefecture": "長野県", "id": 3830007 },
        { "address": "立ケ花", "city": "中野市", "postcode": "383-0054", "prefecture": "長野県", "id": 3830054 },
        { "address": "田麦", "city": "中野市", "postcode": "383-0065", "prefecture": "長野県", "id": 3830065 },
        { "address": "中央", "city": "中野市", "postcode": "383-0022", "prefecture": "長野県", "id": 3830022 },
        { "address": "豊津", "city": "中野市", "postcode": "389-2101", "prefecture": "長野県", "id": 3892101 },
        { "address": "永江", "city": "中野市", "postcode": "389-2104", "prefecture": "長野県", "id": 3892104 },
        { "address": "中野", "city": "中野市", "postcode": "383-0013", "prefecture": "長野県", "id": 3830013 },
        { "address": "七瀬", "city": "中野市", "postcode": "383-0051", "prefecture": "長野県", "id": 3830051 },
        { "address": "南宮", "city": "中野市", "postcode": "383-0031", "prefecture": "長野県", "id": 3830031 },
        { "address": "西", "city": "中野市", "postcode": "383-0021", "prefecture": "長野県", "id": 3830021 },
        { "address": "西条", "city": "中野市", "postcode": "383-0042", "prefecture": "長野県", "id": 3830042 },
        { "address": "東山", "city": "中野市", "postcode": "383-0024", "prefecture": "長野県", "id": 3830024 },
        { "address": "深沢", "city": "中野市", "postcode": "383-0006", "prefecture": "長野県", "id": 3830006 },
        { "address": "壁田", "city": "中野市", "postcode": "383-0061", "prefecture": "長野県", "id": 3830061 },
        { "address": "間長瀬", "city": "中野市", "postcode": "383-0063", "prefecture": "長野県", "id": 3830063 },
        { "address": "間山", "city": "中野市", "postcode": "383-0033", "prefecture": "長野県", "id": 3830033 },
        { "address": "三ツ和", "city": "中野市", "postcode": "383-0043", "prefecture": "長野県", "id": 3830043 },
        { "address": "三好町", "city": "中野市", "postcode": "383-0025", "prefecture": "長野県", "id": 3830025 },
        { "address": "柳沢", "city": "中野市", "postcode": "383-0003", "prefecture": "長野県", "id": 3830003 },
        { "address": "吉田", "city": "中野市", "postcode": "383-0015", "prefecture": "長野県", "id": 3830015 },
        { "address": "若宮", "city": "中野市", "postcode": "383-0011", "prefecture": "長野県", "id": 3830011 },
        { "city": "大町市", "postcode": "398-0000", "prefecture": "長野県", "id": 3980000 },
        { "address": "大町", "city": "大町市", "postcode": "398-0002", "prefecture": "長野県", "id": 3980002 },
        { "address": "平", "city": "大町市", "postcode": "398-0001", "prefecture": "長野県", "id": 3980001 },
        { "address": "常盤", "city": "大町市", "postcode": "398-0004", "prefecture": "長野県", "id": 3980004 },
        { "address": "美麻", "city": "大町市", "postcode": "399-9101", "prefecture": "長野県", "id": 3999101 },
        { "address": "八坂", "city": "大町市", "postcode": "399-7301", "prefecture": "長野県", "id": 3997301 },
        { "address": "八坂菖蒲", "city": "大町市", "postcode": "399-7302", "prefecture": "長野県", "id": 3997302 },
        { "address": "社", "city": "大町市", "postcode": "398-0003", "prefecture": "長野県", "id": 3980003 },
        { "city": "飯山市", "postcode": "389-2200", "prefecture": "長野県", "id": 3892200 },
        { "address": "旭", "city": "飯山市", "postcode": "389-2251", "prefecture": "長野県", "id": 3892251 },
        { "address": "飯山", "city": "飯山市", "postcode": "389-2253", "prefecture": "長野県", "id": 3892253 },
        { "address": "一山", "city": "飯山市", "postcode": "389-2602", "prefecture": "長野県", "id": 3892602 },
        { "address": "大池", "city": "飯山市", "postcode": "389-2415", "prefecture": "長野県", "id": 3892415 },
        { "address": "木島", "city": "飯山市", "postcode": "389-2234", "prefecture": "長野県", "id": 3892234 },
        { "address": "小佐原", "city": "飯山市", "postcode": "389-2252", "prefecture": "長野県", "id": 3892252 },
        { "address": "寿", "city": "飯山市", "postcode": "389-2418", "prefecture": "長野県", "id": 3892418 },
        { "address": "坂井", "city": "飯山市", "postcode": "389-2235", "prefecture": "長野県", "id": 3892235 },
        { "address": "静間", "city": "飯山市", "postcode": "389-2255", "prefecture": "長野県", "id": 3892255 },
        { "address": "下木島", "city": "飯山市", "postcode": "389-2232", "prefecture": "長野県", "id": 3892232 },
        { "address": "其綿", "city": "飯山市", "postcode": "389-2242", "prefecture": "長野県", "id": 3892242 },
        { "address": "照岡", "city": "飯山市", "postcode": "389-2601", "prefecture": "長野県", "id": 3892601 },
        { "address": "照里", "city": "飯山市", "postcode": "389-2413", "prefecture": "長野県", "id": 3892413 },
        { "address": "天神堂", "city": "飯山市", "postcode": "389-2231", "prefecture": "長野県", "id": 3892231 },
        { "address": "常郷", "city": "飯山市", "postcode": "389-2412", "prefecture": "長野県", "id": 3892412 },
        { "address": "常盤", "city": "飯山市", "postcode": "389-2414", "prefecture": "長野県", "id": 3892414 },
        { "address": "富倉", "city": "飯山市", "postcode": "389-2258", "prefecture": "長野県", "id": 3892258 },
        { "address": "豊田", "city": "飯山市", "postcode": "389-2411", "prefecture": "長野県", "id": 3892411 },
        { "address": "中曽根", "city": "飯山市", "postcode": "389-2417", "prefecture": "長野県", "id": 3892417 },
        { "address": "野坂田", "city": "飯山市", "postcode": "389-2233", "prefecture": "長野県", "id": 3892233 },
        { "address": "蓮", "city": "飯山市", "postcode": "389-2256", "prefecture": "長野県", "id": 3892256 },
        { "address": "斑尾高原", "city": "飯山市", "postcode": "389-2257", "prefecture": "長野県", "id": 3892257 },
        { "address": "瑞穂", "city": "飯山市", "postcode": "389-2322", "prefecture": "長野県", "id": 3892322 },
        { "address": "瑞穂豊", "city": "飯山市", "postcode": "389-2321", "prefecture": "長野県", "id": 3892321 },
        { "address": "緑", "city": "飯山市", "postcode": "389-2416", "prefecture": "長野県", "id": 3892416 },
        { "address": "南町", "city": "飯山市", "postcode": "389-2254", "prefecture": "長野県", "id": 3892254 },
        { "address": "安田", "city": "飯山市", "postcode": "389-2244", "prefecture": "長野県", "id": 3892244 },
        { "address": "山岸", "city": "飯山市", "postcode": "389-2241", "prefecture": "長野県", "id": 3892241 },
        { "address": "吉", "city": "飯山市", "postcode": "389-2243", "prefecture": "長野県", "id": 3892243 },
        { "city": "茅野市", "postcode": "391-0000", "prefecture": "長野県", "id": 3910000 },
        { "address": "泉野", "city": "茅野市", "postcode": "391-0214", "prefecture": "長野県", "id": 3910214 },
        { "address": "金沢", "city": "茅野市", "postcode": "391-0012", "prefecture": "長野県", "id": 3910012 },
        { "address": "北山", "city": "茅野市", "postcode": "391-0212", "prefecture": "長野県", "id": 3910212 },
        { "address": "北山", "city": "茅野市", "postcode": "391-0301", "prefecture": "長野県", "id": 3910301 },
        { "address": "湖東", "city": "茅野市", "postcode": "391-0211", "prefecture": "長野県", "id": 3910211 },
        { "address": "城山", "city": "茅野市", "postcode": "391-0004", "prefecture": "長野県", "id": 3910004 },
        { "address": "玉川", "city": "茅野市", "postcode": "391-0011", "prefecture": "長野県", "id": 3910011 },
        { "address": "ちの", "city": "茅野市", "postcode": "391-0001", "prefecture": "長野県", "id": 3910001 },
        { "address": "塚原", "city": "茅野市", "postcode": "391-0002", "prefecture": "長野県", "id": 3910002 },
        { "address": "豊平", "city": "茅野市", "postcode": "391-0213", "prefecture": "長野県", "id": 3910213 },
        { "address": "中大塩", "city": "茅野市", "postcode": "391-0215", "prefecture": "長野県", "id": 3910215 },
        { "address": "仲町", "city": "茅野市", "postcode": "391-0005", "prefecture": "長野県", "id": 3910005 },
        { "address": "本町", "city": "茅野市", "postcode": "391-0003", "prefecture": "長野県", "id": 3910003 },
        { "address": "宮川", "city": "茅野市", "postcode": "391-0013", "prefecture": "長野県", "id": 3910013 },
        { "address": "米沢", "city": "茅野市", "postcode": "391-0216", "prefecture": "長野県", "id": 3910216 },
        { "city": "塩尻市", "postcode": "399-0700", "prefecture": "長野県", "id": 3990700 },
        { "address": "大小屋", "city": "塩尻市", "postcode": "399-0713", "prefecture": "長野県", "id": 3990713 },
        { "address": "柿沢", "city": "塩尻市", "postcode": "399-0722", "prefecture": "長野県", "id": 3990722 },
        { "address": "片丘", "city": "塩尻市", "postcode": "399-0071", "prefecture": "長野県", "id": 3990071 },
        { "address": "片丘", "city": "塩尻市", "postcode": "399-0711", "prefecture": "長野県", "id": 3990711 },
        { "address": "金井", "city": "塩尻市", "postcode": "399-0721", "prefecture": "長野県", "id": 3990721 },
        { "address": "上西条", "city": "塩尻市", "postcode": "399-0724", "prefecture": "長野県", "id": 3990724 },
        { "address": "木曽平沢", "city": "塩尻市", "postcode": "399-6302", "prefecture": "長野県", "id": 3996302 },
        { "address": "北小野", "city": "塩尻市", "postcode": "399-0651", "prefecture": "長野県", "id": 3990651 },
        { "address": "旧塩尻", "city": "塩尻市", "postcode": "399-0723", "prefecture": "長野県", "id": 3990723 },
        { "address": "桟敷", "city": "塩尻市", "postcode": "399-0716", "prefecture": "長野県", "id": 3990716 },
        { "address": "塩尻町", "city": "塩尻市", "postcode": "399-0712", "prefecture": "長野県", "id": 3990712 },
        { "address": "下西条", "city": "塩尻市", "postcode": "399-0726", "prefecture": "長野県", "id": 3990726 },
        { "address": "洗馬", "city": "塩尻市", "postcode": "399-6462", "prefecture": "長野県", "id": 3996462 },
        { "address": "宗賀", "city": "塩尻市", "postcode": "399-6461", "prefecture": "長野県", "id": 3996461 },
        { "address": "大門七区", "city": "塩尻市", "postcode": "399-0744", "prefecture": "長野県", "id": 3990744 },
        { "address": "大門泉町", "city": "塩尻市", "postcode": "399-0742", "prefecture": "長野県", "id": 3990742 },
        { "address": "大門桔梗町", "city": "塩尻市", "postcode": "399-0745", "prefecture": "長野県", "id": 3990745 },
        { "address": "大門幸町", "city": "塩尻市", "postcode": "399-0741", "prefecture": "長野県", "id": 3990741 },
        { "address": "大門田川町", "city": "塩尻市", "postcode": "399-0743", "prefecture": "長野県", "id": 3990743 },
        { "address": "大門並木町", "city": "塩尻市", "postcode": "399-0746", "prefecture": "長野県", "id": 3990746 },
        { "address": "大門一番町", "city": "塩尻市", "postcode": "399-0736", "prefecture": "長野県", "id": 3990736 },
        { "address": "大門二番町", "city": "塩尻市", "postcode": "399-0735", "prefecture": "長野県", "id": 3990735 },
        { "address": "大門三番町", "city": "塩尻市", "postcode": "399-0733", "prefecture": "長野県", "id": 3990733 },
        { "address": "大門四番町", "city": "塩尻市", "postcode": "399-0734", "prefecture": "長野県", "id": 3990734 },
        { "address": "大門五番町", "city": "塩尻市", "postcode": "399-0732", "prefecture": "長野県", "id": 3990732 },
        { "address": "大門六番町", "city": "塩尻市", "postcode": "399-0731", "prefecture": "長野県", "id": 3990731 },
        { "address": "大門七番町", "city": "塩尻市", "postcode": "399-0738", "prefecture": "長野県", "id": 3990738 },
        { "address": "大門八番町", "city": "塩尻市", "postcode": "399-0737", "prefecture": "長野県", "id": 3990737 },
        { "address": "中西条", "city": "塩尻市", "postcode": "399-0725", "prefecture": "長野県", "id": 3990725 },
        { "address": "長畝", "city": "塩尻市", "postcode": "399-0715", "prefecture": "長野県", "id": 3990715 },
        { "address": "奈良井", "city": "塩尻市", "postcode": "399-6303", "prefecture": "長野県", "id": 3996303 },
        { "address": "贄川", "city": "塩尻市", "postcode": "399-6301", "prefecture": "長野県", "id": 3996301 },
        { "address": "広丘堅石", "city": "塩尻市", "postcode": "399-0705", "prefecture": "長野県", "id": 3990705 },
        { "address": "広丘郷原", "city": "塩尻市", "postcode": "399-0704", "prefecture": "長野県", "id": 3990704 },
        { "address": "広丘高出", "city": "塩尻市", "postcode": "399-0703", "prefecture": "長野県", "id": 3990703 },
        { "address": "広丘野村", "city": "塩尻市", "postcode": "399-0702", "prefecture": "長野県", "id": 3990702 },
        { "address": "広丘原新田", "city": "塩尻市", "postcode": "399-0706", "prefecture": "長野県", "id": 3990706 },
        { "address": "広丘吉田", "city": "塩尻市", "postcode": "399-0701", "prefecture": "長野県", "id": 3990701 },
        { "address": "堀ノ内", "city": "塩尻市", "postcode": "399-0714", "prefecture": "長野県", "id": 3990714 },
        { "address": "みどり湖", "city": "塩尻市", "postcode": "399-0727", "prefecture": "長野県", "id": 3990727 },
        { "address": "峰原", "city": "塩尻市", "postcode": "399-0728", "prefecture": "長野県", "id": 3990728 },
        { "city": "佐久市", "postcode": "385-0000", "prefecture": "長野県", "id": 3850000 },
        { "address": "跡部", "city": "佐久市", "postcode": "385-0054", "prefecture": "長野県", "id": 3850054 },
        { "address": "新子田", "city": "佐久市", "postcode": "385-0007", "prefecture": "長野県", "id": 3850007 },
        { "address": "今井", "city": "佐久市", "postcode": "385-0015", "prefecture": "長野県", "id": 3850015 },
        { "address": "入澤", "city": "佐久市", "postcode": "384-0621", "prefecture": "長野県", "id": 3840621 },
        { "address": "岩村田", "city": "佐久市", "postcode": "385-0022", "prefecture": "長野県", "id": 3850022 },
        { "address": "岩村田北", "city": "佐久市", "postcode": "385-0023", "prefecture": "長野県", "id": 3850023 },
        { "address": "印内", "city": "佐久市", "postcode": "384-2201", "prefecture": "長野県", "id": 3842201 },
        { "address": "臼田", "city": "佐久市", "postcode": "384-0301", "prefecture": "長野県", "id": 3840301 },
        { "address": "内山", "city": "佐久市", "postcode": "385-0031", "prefecture": "長野県", "id": 3850031 },
        { "address": "大沢", "city": "佐久市", "postcode": "385-0045", "prefecture": "長野県", "id": 3850045 },
        { "address": "太田部", "city": "佐久市", "postcode": "385-0033", "prefecture": "長野県", "id": 3850033 },
        { "address": "小田井", "city": "佐久市", "postcode": "385-0009", "prefecture": "長野県", "id": 3850009 },
        { "address": "鍛冶屋", "city": "佐久市", "postcode": "385-0041", "prefecture": "長野県", "id": 3850041 },
        { "address": "春日", "city": "佐久市", "postcode": "384-2205", "prefecture": "長野県", "id": 3842205 },
        { "address": "勝間", "city": "佐久市", "postcode": "384-0302", "prefecture": "長野県", "id": 3840302 },
        { "address": "上小田切", "city": "佐久市", "postcode": "384-0306", "prefecture": "長野県", "id": 3840306 },
        { "address": "上平尾", "city": "佐久市", "postcode": "385-0002", "prefecture": "長野県", "id": 3850002 },
        { "address": "北川", "city": "佐久市", "postcode": "384-0304", "prefecture": "長野県", "id": 3840304 },
        { "address": "協和", "city": "佐久市", "postcode": "384-2204", "prefecture": "長野県", "id": 3842204 },
        { "address": "清川", "city": "佐久市", "postcode": "384-0411", "prefecture": "長野県", "id": 3840411 },
        { "address": "桑山", "city": "佐久市", "postcode": "384-2101", "prefecture": "長野県", "id": 3842101 },
        { "address": "甲", "city": "佐久市", "postcode": "384-2104", "prefecture": "長野県", "id": 3842104 },
        { "address": "香坂", "city": "佐久市", "postcode": "385-0005", "prefecture": "長野県", "id": 3850005 },
        { "address": "小宮山", "city": "佐久市", "postcode": "385-0047", "prefecture": "長野県", "id": 3850047 },
        { "address": "佐久平駅東", "city": "佐久市", "postcode": "385-0028", "prefecture": "長野県", "id": 3850028 },
        { "address": "佐久平駅南", "city": "佐久市", "postcode": "385-0029", "prefecture": "長野県", "id": 3850029 },
        { "address": "佐久平駅北", "city": "佐久市", "postcode": "385-0027", "prefecture": "長野県", "id": 3850027 },
        { "address": "桜井", "city": "佐久市", "postcode": "385-0056", "prefecture": "長野県", "id": 3850056 },
        { "address": "猿久保", "city": "佐久市", "postcode": "385-0011", "prefecture": "長野県", "id": 3850011 },
        { "address": "塩名田", "city": "佐久市", "postcode": "384-2102", "prefecture": "長野県", "id": 3842102 },
        { "address": "志賀", "city": "佐久市", "postcode": "385-0006", "prefecture": "長野県", "id": 3850006 },
        { "address": "下小田切", "city": "佐久市", "postcode": "384-0303", "prefecture": "長野県", "id": 3840303 },
        { "address": "下越", "city": "佐久市", "postcode": "384-0414", "prefecture": "長野県", "id": 3840414 },
        { "address": "下平尾", "city": "佐久市", "postcode": "385-0003", "prefecture": "長野県", "id": 3850003 },
        { "address": "瀬戸", "city": "佐久市", "postcode": "385-0035", "prefecture": "長野県", "id": 3850035 },
        { "address": "高柳", "city": "佐久市", "postcode": "385-0042", "prefecture": "長野県", "id": 3850042 },
        { "address": "田口", "city": "佐久市", "postcode": "384-0412", "prefecture": "長野県", "id": 3840412 },
        { "address": "塚原", "city": "佐久市", "postcode": "385-0025", "prefecture": "長野県", "id": 3850025 },
        { "address": "常田", "city": "佐久市", "postcode": "385-0026", "prefecture": "長野県", "id": 3850026 },
        { "address": "常和", "city": "佐久市", "postcode": "385-0032", "prefecture": "長野県", "id": 3850032 },
        { "address": "伴野", "city": "佐久市", "postcode": "385-0061", "prefecture": "長野県", "id": 3850061 },
        { "address": "取出町", "city": "佐久市", "postcode": "385-0043", "prefecture": "長野県", "id": 3850043 },
        { "address": "中小田切", "city": "佐久市", "postcode": "384-0305", "prefecture": "長野県", "id": 3840305 },
        { "address": "中込", "city": "佐久市", "postcode": "385-0051", "prefecture": "長野県", "id": 3850051 },
        { "address": "長土呂", "city": "佐久市", "postcode": "385-0021", "prefecture": "長野県", "id": 3850021 },
        { "address": "鳴瀬", "city": "佐久市", "postcode": "385-0016", "prefecture": "長野県", "id": 3850016 },
        { "address": "根岸", "city": "佐久市", "postcode": "385-0062", "prefecture": "長野県", "id": 3850062 },
        { "address": "根々井", "city": "佐久市", "postcode": "385-0012", "prefecture": "長野県", "id": 3850012 },
        { "address": "野沢", "city": "佐久市", "postcode": "385-0053", "prefecture": "長野県", "id": 3850053 },
        { "address": "原", "city": "佐久市", "postcode": "385-0052", "prefecture": "長野県", "id": 3850052 },
        { "address": "東立科", "city": "佐久市", "postcode": "385-0063", "prefecture": "長野県", "id": 3850063 },
        { "address": "平賀", "city": "佐久市", "postcode": "385-0034", "prefecture": "長野県", "id": 3850034 },
        { "address": "平塚", "city": "佐久市", "postcode": "385-0024", "prefecture": "長野県", "id": 3850024 },
        { "address": "平林", "city": "佐久市", "postcode": "384-0622", "prefecture": "長野県", "id": 3840622 },
        { "address": "布施", "city": "佐久市", "postcode": "384-2203", "prefecture": "長野県", "id": 3842203 },
        { "address": "本新町", "city": "佐久市", "postcode": "385-0044", "prefecture": "長野県", "id": 3850044 },
        { "address": "前山", "city": "佐久市", "postcode": "385-0046", "prefecture": "長野県", "id": 3850046 },
        { "address": "三河田", "city": "佐久市", "postcode": "385-0014", "prefecture": "長野県", "id": 3850014 },
        { "address": "三塚", "city": "佐久市", "postcode": "385-0055", "prefecture": "長野県", "id": 3850055 },
        { "address": "三分", "city": "佐久市", "postcode": "384-0413", "prefecture": "長野県", "id": 3840413 },
        { "address": "御馬寄", "city": "佐久市", "postcode": "384-2103", "prefecture": "長野県", "id": 3842103 },
        { "address": "茂田井", "city": "佐久市", "postcode": "384-2206", "prefecture": "長野県", "id": 3842206 },
        { "address": "望月", "city": "佐久市", "postcode": "384-2202", "prefecture": "長野県", "id": 3842202 },
        { "address": "矢嶋", "city": "佐久市", "postcode": "384-2105", "prefecture": "長野県", "id": 3842105 },
        { "address": "安原", "city": "佐久市", "postcode": "385-0004", "prefecture": "長野県", "id": 3850004 },
        { "address": "八幡", "city": "佐久市", "postcode": "384-2106", "prefecture": "長野県", "id": 3842106 },
        { "address": "湯原", "city": "佐久市", "postcode": "384-0307", "prefecture": "長野県", "id": 3840307 },
        { "address": "横根", "city": "佐久市", "postcode": "385-0001", "prefecture": "長野県", "id": 3850001 },
        { "address": "横和", "city": "佐久市", "postcode": "385-0013", "prefecture": "長野県", "id": 3850013 },
        { "address": "蓬田", "city": "佐久市", "postcode": "384-2107", "prefecture": "長野県", "id": 3842107 },
        { "city": "千曲市", "postcode": "387-0000", "prefecture": "長野県", "id": 3870000 },
        { "address": "雨宮", "city": "千曲市", "postcode": "387-0001", "prefecture": "長野県", "id": 3870001 },
        { "address": "新山", "city": "千曲市", "postcode": "389-0823", "prefecture": "長野県", "id": 3890823 },
        { "address": "粟佐", "city": "千曲市", "postcode": "387-0006", "prefecture": "長野県", "id": 3870006 },
        { "address": "生萱", "city": "千曲市", "postcode": "387-0003", "prefecture": "長野県", "id": 3870003 },
        { "address": "磯部", "city": "千曲市", "postcode": "389-0806", "prefecture": "長野県", "id": 3890806 },
        { "address": "稲荷山", "city": "千曲市", "postcode": "387-0021", "prefecture": "長野県", "id": 3870021 },
        { "address": "鋳物師屋", "city": "千曲市", "postcode": "387-0015", "prefecture": "長野県", "id": 3870015 },
        { "address": "内川", "city": "千曲市", "postcode": "389-0802", "prefecture": "長野県", "id": 3890802 },
        { "address": "打沢", "city": "千曲市", "postcode": "387-0014", "prefecture": "長野県", "id": 3870014 },
        { "address": "小島", "city": "千曲市", "postcode": "387-0013", "prefecture": "長野県", "id": 3870013 },
        { "address": "上徳間", "city": "千曲市", "postcode": "389-0805", "prefecture": "長野県", "id": 3890805 },
        { "address": "上山田", "city": "千曲市", "postcode": "389-0822", "prefecture": "長野県", "id": 3890822 },
        { "address": "上山田温泉", "city": "千曲市", "postcode": "389-0821", "prefecture": "長野県", "id": 3890821 },
        { "address": "杭瀬下", "city": "千曲市", "postcode": "387-0011", "prefecture": "長野県", "id": 3870011 },
        { "address": "倉科", "city": "千曲市", "postcode": "387-0004", "prefecture": "長野県", "id": 3870004 },
        { "address": "桑原", "city": "千曲市", "postcode": "387-0024", "prefecture": "長野県", "id": 3870024 },
        { "address": "小船山", "city": "千曲市", "postcode": "389-0801", "prefecture": "長野県", "id": 3890801 },
        { "address": "桜堂", "city": "千曲市", "postcode": "387-0012", "prefecture": "長野県", "id": 3870012 },
        { "address": "寂蒔", "city": "千曲市", "postcode": "387-0016", "prefecture": "長野県", "id": 3870016 },
        { "address": "新田", "city": "千曲市", "postcode": "387-0018", "prefecture": "長野県", "id": 3870018 },
        { "address": "須坂", "city": "千曲市", "postcode": "389-0811", "prefecture": "長野県", "id": 3890811 },
        { "address": "千本柳", "city": "千曲市", "postcode": "389-0803", "prefecture": "長野県", "id": 3890803 },
        { "address": "力石", "city": "千曲市", "postcode": "389-0824", "prefecture": "長野県", "id": 3890824 },
        { "address": "土口", "city": "千曲市", "postcode": "387-0002", "prefecture": "長野県", "id": 3870002 },
        { "address": "戸倉", "city": "千曲市", "postcode": "389-0804", "prefecture": "長野県", "id": 3890804 },
        { "address": "戸倉温泉", "city": "千曲市", "postcode": "389-0807", "prefecture": "長野県", "id": 3890807 },
        { "address": "中", "city": "千曲市", "postcode": "387-0017", "prefecture": "長野県", "id": 3870017 },
        { "address": "野高場", "city": "千曲市", "postcode": "387-0022", "prefecture": "長野県", "id": 3870022 },
        { "address": "羽尾", "city": "千曲市", "postcode": "389-0812", "prefecture": "長野県", "id": 3890812 },
        { "address": "森", "city": "千曲市", "postcode": "387-0005", "prefecture": "長野県", "id": 3870005 },
        { "address": "屋代", "city": "千曲市", "postcode": "387-0007", "prefecture": "長野県", "id": 3870007 },
        { "address": "八幡", "city": "千曲市", "postcode": "387-0023", "prefecture": "長野県", "id": 3870023 },
        { "address": "若宮", "city": "千曲市", "postcode": "389-0813", "prefecture": "長野県", "id": 3890813 },
        { "city": "東御市", "postcode": "389-0500", "prefecture": "長野県", "id": 3890500 },
        { "address": "県", "city": "東御市", "postcode": "389-0517", "prefecture": "長野県", "id": 3890517 },
        { "address": "新屋", "city": "東御市", "postcode": "389-0503", "prefecture": "長野県", "id": 3890503 },
        { "address": "大日向", "city": "東御市", "postcode": "389-0404", "prefecture": "長野県", "id": 3890404 },
        { "address": "海善寺", "city": "東御市", "postcode": "389-0504", "prefecture": "長野県", "id": 3890504 },
        { "address": "加沢", "city": "東御市", "postcode": "389-0514", "prefecture": "長野県", "id": 3890514 },
        { "address": "和", "city": "東御市", "postcode": "389-0505", "prefecture": "長野県", "id": 3890505 },
        { "address": "鞍掛", "city": "東御市", "postcode": "389-0502", "prefecture": "長野県", "id": 3890502 },
        { "address": "塩川", "city": "東御市", "postcode": "389-0519", "prefecture": "長野県", "id": 3890519 },
        { "address": "滋野", "city": "東御市", "postcode": "389-0513", "prefecture": "長野県", "id": 3890513 },
        { "address": "滋野", "city": "東御市", "postcode": "389-0512", "prefecture": "長野県", "id": 3890512 },
        { "address": "滋野", "city": "東御市", "postcode": "389-0511", "prefecture": "長野県", "id": 3890511 },
        { "address": "島川原", "city": "東御市", "postcode": "389-0401", "prefecture": "長野県", "id": 3890401 },
        { "address": "下之城", "city": "東御市", "postcode": "389-0405", "prefecture": "長野県", "id": 3890405 },
        { "address": "田中", "city": "東御市", "postcode": "389-0516", "prefecture": "長野県", "id": 3890516 },
        { "address": "常田", "city": "東御市", "postcode": "389-0515", "prefecture": "長野県", "id": 3890515 },
        { "address": "布下", "city": "東御市", "postcode": "389-0402", "prefecture": "長野県", "id": 3890402 },
        { "address": "祢津", "city": "東御市", "postcode": "389-0506", "prefecture": "長野県", "id": 3890506 },
        { "address": "羽毛山", "city": "東御市", "postcode": "389-0407", "prefecture": "長野県", "id": 3890407 },
        { "address": "新張", "city": "東御市", "postcode": "389-0501", "prefecture": "長野県", "id": 3890501 },
        { "address": "御牧原", "city": "東御市", "postcode": "389-0403", "prefecture": "長野県", "id": 3890403 },
        { "address": "本海野", "city": "東御市", "postcode": "389-0518", "prefecture": "長野県", "id": 3890518 },
        { "address": "八重原", "city": "東御市", "postcode": "389-0406", "prefecture": "長野県", "id": 3890406 },
        { "city": "安曇野市", "postcode": "399-8200", "prefecture": "長野県", "id": 3998200 },
        { "address": "明科中川手", "city": "安曇野市", "postcode": "399-7102", "prefecture": "長野県", "id": 3997102 },
        { "address": "明科七貴", "city": "安曇野市", "postcode": "399-7104", "prefecture": "長野県", "id": 3997104 },
        { "address": "明科東川手", "city": "安曇野市", "postcode": "399-7101", "prefecture": "長野県", "id": 3997101 },
        { "address": "明科光", "city": "安曇野市", "postcode": "399-7103", "prefecture": "長野県", "id": 3997103 },
        { "address": "明科南陸郷", "city": "安曇野市", "postcode": "399-7105", "prefecture": "長野県", "id": 3997105 },
        { "address": "豊科", "city": "安曇野市", "postcode": "399-8205", "prefecture": "長野県", "id": 3998205 },
        { "address": "豊科高家", "city": "安曇野市", "postcode": "399-8204", "prefecture": "長野県", "id": 3998204 },
        { "address": "豊科田沢", "city": "安曇野市", "postcode": "399-8203", "prefecture": "長野県", "id": 3998203 },
        { "address": "豊科光", "city": "安曇野市", "postcode": "399-8202", "prefecture": "長野県", "id": 3998202 },
        { "address": "豊科南穂高", "city": "安曇野市", "postcode": "399-8201", "prefecture": "長野県", "id": 3998201 },
        { "address": "穂高", "city": "安曇野市", "postcode": "399-8303", "prefecture": "長野県", "id": 3998303 },
        { "address": "穂高有明", "city": "安曇野市", "postcode": "399-8301", "prefecture": "長野県", "id": 3998301 },
        { "address": "穂高柏原", "city": "安曇野市", "postcode": "399-8304", "prefecture": "長野県", "id": 3998304 },
        { "address": "穂高北穂高", "city": "安曇野市", "postcode": "399-8302", "prefecture": "長野県", "id": 3998302 },
        { "address": "穂高牧", "city": "安曇野市", "postcode": "399-8305", "prefecture": "長野県", "id": 3998305 },
        { "address": "堀金烏川", "city": "安曇野市", "postcode": "399-8211", "prefecture": "長野県", "id": 3998211 },
        { "address": "堀金三田", "city": "安曇野市", "postcode": "399-8212", "prefecture": "長野県", "id": 3998212 },
        { "address": "三郷小倉", "city": "安曇野市", "postcode": "399-8103", "prefecture": "長野県", "id": 3998103 },
        { "address": "三郷明盛", "city": "安曇野市", "postcode": "399-8101", "prefecture": "長野県", "id": 3998101 },
        { "address": "三郷温", "city": "安曇野市", "postcode": "399-8102", "prefecture": "長野県", "id": 3998102 },
        { "city": "南佐久郡小海町", "postcode": "384-1100", "prefecture": "長野県", "id": 3841100 },
        { "address": "稲子", "city": "南佐久郡小海町", "postcode": "384-1104", "prefecture": "長野県", "id": 3841104 },
        { "address": "小海", "city": "南佐久郡小海町", "postcode": "384-1102", "prefecture": "長野県", "id": 3841102 },
        {
            "address": "千代里",
            "city": "南佐久郡小海町",
            "postcode": "384-1105",
            "prefecture": "長野県",
            "id": 3841105
        },
        { "address": "豊里", "city": "南佐久郡小海町", "postcode": "384-1103", "prefecture": "長野県", "id": 3841103 },
        {
            "address": "東馬流",
            "city": "南佐久郡小海町",
            "postcode": "384-1101",
            "prefecture": "長野県",
            "id": 3841101
        },
        { "city": "南佐久郡川上村", "postcode": "384-1400", "prefecture": "長野県", "id": 3841400 },
        { "address": "秋山", "city": "南佐久郡川上村", "postcode": "384-1403", "prefecture": "長野県", "id": 3841403 },
        { "address": "梓山", "city": "南佐久郡川上村", "postcode": "384-1402", "prefecture": "長野県", "id": 3841402 },
        { "address": "居倉", "city": "南佐久郡川上村", "postcode": "384-1404", "prefecture": "長野県", "id": 3841404 },
        {
            "address": "大深山",
            "city": "南佐久郡川上村",
            "postcode": "384-1405",
            "prefecture": "長野県",
            "id": 3841405
        },
        {
            "address": "川端下",
            "city": "南佐久郡川上村",
            "postcode": "384-1401",
            "prefecture": "長野県",
            "id": 3841401
        },
        {
            "address": "御所平",
            "city": "南佐久郡川上村",
            "postcode": "384-1407",
            "prefecture": "長野県",
            "id": 3841407
        },
        { "address": "原", "city": "南佐久郡川上村", "postcode": "384-1406", "prefecture": "長野県", "id": 3841406 },
        { "address": "樋沢", "city": "南佐久郡川上村", "postcode": "384-1408", "prefecture": "長野県", "id": 3841408 },
        { "city": "南佐久郡南牧村", "postcode": "384-1300", "prefecture": "長野県", "id": 3841300 },
        { "address": "板橋", "city": "南佐久郡南牧村", "postcode": "384-1304", "prefecture": "長野県", "id": 3841304 },
        { "address": "海尻", "city": "南佐久郡南牧村", "postcode": "384-1301", "prefecture": "長野県", "id": 3841301 },
        {
            "address": "海ノ口",
            "city": "南佐久郡南牧村",
            "postcode": "384-1302",
            "prefecture": "長野県",
            "id": 3841302
        },
        {
            "address": "野辺山",
            "city": "南佐久郡南牧村",
            "postcode": "384-1305",
            "prefecture": "長野県",
            "id": 3841305
        },
        { "address": "平沢", "city": "南佐久郡南牧村", "postcode": "384-1306", "prefecture": "長野県", "id": 3841306 },
        { "address": "広瀬", "city": "南佐久郡南牧村", "postcode": "384-1303", "prefecture": "長野県", "id": 3841303 },
        { "city": "南佐久郡南相木村", "postcode": "384-1211", "prefecture": "長野県", "id": 3841211 },
        { "city": "南佐久郡北相木村", "postcode": "384-1201", "prefecture": "長野県", "id": 3841201 },
        { "city": "南佐久郡佐久穂町", "postcode": "384-0600", "prefecture": "長野県", "id": 3840600 },
        {
            "address": "大日向",
            "city": "南佐久郡佐久穂町",
            "postcode": "384-0502",
            "prefecture": "長野県",
            "id": 3840502
        },
        {
            "address": "海瀬",
            "city": "南佐久郡佐久穂町",
            "postcode": "384-0503",
            "prefecture": "長野県",
            "id": 3840503
        },
        { "address": "上", "city": "南佐久郡佐久穂町", "postcode": "384-0614", "prefecture": "長野県", "id": 3840614 },
        {
            "address": "高野町",
            "city": "南佐久郡佐久穂町",
            "postcode": "384-0613",
            "prefecture": "長野県",
            "id": 3840613
        },
        {
            "address": "千代里",
            "city": "南佐久郡佐久穂町",
            "postcode": "384-0703",
            "prefecture": "長野県",
            "id": 3840703
        },
        { "address": "畑", "city": "南佐久郡佐久穂町", "postcode": "384-0701", "prefecture": "長野県", "id": 3840701 },
        {
            "address": "平林",
            "city": "南佐久郡佐久穂町",
            "postcode": "384-0611",
            "prefecture": "長野県",
            "id": 3840611
        },
        {
            "address": "穂積",
            "city": "南佐久郡佐久穂町",
            "postcode": "384-0702",
            "prefecture": "長野県",
            "id": 3840702
        },
        {
            "address": "八郡",
            "city": "南佐久郡佐久穂町",
            "postcode": "384-0704",
            "prefecture": "長野県",
            "id": 3840704
        },
        {
            "address": "宿岩",
            "city": "南佐久郡佐久穂町",
            "postcode": "384-0612",
            "prefecture": "長野県",
            "id": 3840612
        },
        {
            "address": "余地",
            "city": "南佐久郡佐久穂町",
            "postcode": "384-0501",
            "prefecture": "長野県",
            "id": 3840501
        },
        { "city": "北佐久郡軽井沢町", "postcode": "389-0100", "prefecture": "長野県", "id": 3890100 },
        {
            "address": "追分",
            "city": "北佐久郡軽井沢町",
            "postcode": "389-0115",
            "prefecture": "長野県",
            "id": 3890115
        },
        {
            "address": "軽井沢",
            "city": "北佐久郡軽井沢町",
            "postcode": "389-0102",
            "prefecture": "長野県",
            "id": 3890102
        },
        {
            "address": "軽井沢",
            "city": "北佐久郡軽井沢町",
            "postcode": "389-0103",
            "prefecture": "長野県",
            "id": 3890103
        },
        {
            "address": "軽井沢東",
            "city": "北佐久郡軽井沢町",
            "postcode": "389-0104",
            "prefecture": "長野県",
            "id": 3890104
        },
        {
            "address": "峠町",
            "city": "北佐久郡軽井沢町",
            "postcode": "389-0101",
            "prefecture": "長野県",
            "id": 3890101
        },
        {
            "address": "中軽井沢",
            "city": "北佐久郡軽井沢町",
            "postcode": "389-0112",
            "prefecture": "長野県",
            "id": 3890112
        },
        {
            "address": "長倉",
            "city": "北佐久郡軽井沢町",
            "postcode": "389-0111",
            "prefecture": "長野県",
            "id": 3890111
        },
        {
            "address": "発地",
            "city": "北佐久郡軽井沢町",
            "postcode": "389-0113",
            "prefecture": "長野県",
            "id": 3890113
        },
        {
            "address": "茂沢",
            "city": "北佐久郡軽井沢町",
            "postcode": "389-0114",
            "prefecture": "長野県",
            "id": 3890114
        },
        { "city": "北佐久郡御代田町", "postcode": "389-0200", "prefecture": "長野県", "id": 3890200 },
        {
            "address": "面替",
            "city": "北佐久郡御代田町",
            "postcode": "389-0205",
            "prefecture": "長野県",
            "id": 3890205
        },
        {
            "address": "草越",
            "city": "北佐久郡御代田町",
            "postcode": "389-0202",
            "prefecture": "長野県",
            "id": 3890202
        },
        {
            "address": "塩野",
            "city": "北佐久郡御代田町",
            "postcode": "389-0201",
            "prefecture": "長野県",
            "id": 3890201
        },
        {
            "address": "広戸",
            "city": "北佐久郡御代田町",
            "postcode": "389-0203",
            "prefecture": "長野県",
            "id": 3890203
        },
        {
            "address": "豊昇",
            "city": "北佐久郡御代田町",
            "postcode": "389-0204",
            "prefecture": "長野県",
            "id": 3890204
        },
        {
            "address": "馬瀬口",
            "city": "北佐久郡御代田町",
            "postcode": "389-0207",
            "prefecture": "長野県",
            "id": 3890207
        },
        {
            "address": "御代田",
            "city": "北佐久郡御代田町",
            "postcode": "389-0206",
            "prefecture": "長野県",
            "id": 3890206
        },
        {
            "address": "茂沢",
            "city": "北佐久郡御代田町",
            "postcode": "389-0208",
            "prefecture": "長野県",
            "id": 3890208
        },
        { "city": "北佐久郡立科町", "postcode": "384-2300", "prefecture": "長野県", "id": 3842300 },
        { "address": "芦田", "city": "北佐久郡立科町", "postcode": "384-2305", "prefecture": "長野県", "id": 3842305 },
        {
            "address": "芦田八ケ野",
            "city": "北佐久郡立科町",
            "postcode": "391-0321",
            "prefecture": "長野県",
            "id": 3910321
        },
        {
            "address": "芦田八ケ野",
            "city": "北佐久郡立科町",
            "postcode": "384-2309",
            "prefecture": "長野県",
            "id": 3842309
        },
        { "address": "牛鹿", "city": "北佐久郡立科町", "postcode": "384-2308", "prefecture": "長野県", "id": 3842308 },
        { "address": "宇山", "city": "北佐久郡立科町", "postcode": "384-2306", "prefecture": "長野県", "id": 3842306 },
        { "address": "桐原", "city": "北佐久郡立科町", "postcode": "384-2301", "prefecture": "長野県", "id": 3842301 },
        { "address": "塩沢", "city": "北佐久郡立科町", "postcode": "384-2303", "prefecture": "長野県", "id": 3842303 },
        { "address": "藤沢", "city": "北佐久郡立科町", "postcode": "384-2302", "prefecture": "長野県", "id": 3842302 },
        {
            "address": "茂田井",
            "city": "北佐久郡立科町",
            "postcode": "384-2304",
            "prefecture": "長野県",
            "id": 3842304
        },
        {
            "address": "茂田井",
            "city": "北佐久郡立科町",
            "postcode": "384-2211",
            "prefecture": "長野県",
            "id": 3842211
        },
        { "address": "山部", "city": "北佐久郡立科町", "postcode": "384-2307", "prefecture": "長野県", "id": 3842307 },
        { "city": "小県郡青木村", "postcode": "386-1600", "prefecture": "長野県", "id": 3861600 },
        { "address": "夫神", "city": "小県郡青木村", "postcode": "386-1605", "prefecture": "長野県", "id": 3861605 },
        { "address": "沓掛", "city": "小県郡青木村", "postcode": "386-1606", "prefecture": "長野県", "id": 3861606 },
        { "address": "田沢", "city": "小県郡青木村", "postcode": "386-1601", "prefecture": "長野県", "id": 3861601 },
        { "address": "当郷", "city": "小県郡青木村", "postcode": "386-1603", "prefecture": "長野県", "id": 3861603 },
        { "address": "殿戸", "city": "小県郡青木村", "postcode": "386-1604", "prefecture": "長野県", "id": 3861604 },
        { "address": "奈良本", "city": "小県郡青木村", "postcode": "386-1607", "prefecture": "長野県", "id": 3861607 },
        { "address": "村松", "city": "小県郡青木村", "postcode": "386-1602", "prefecture": "長野県", "id": 3861602 },
        { "city": "小県郡長和町", "postcode": "386-0600", "prefecture": "長野県", "id": 3860600 },
        { "address": "大門", "city": "小県郡長和町", "postcode": "386-0601", "prefecture": "長野県", "id": 3860601 },
        { "address": "長久保", "city": "小県郡長和町", "postcode": "386-0602", "prefecture": "長野県", "id": 3860602 },
        { "address": "古町", "city": "小県郡長和町", "postcode": "386-0603", "prefecture": "長野県", "id": 3860603 },
        { "address": "和田", "city": "小県郡長和町", "postcode": "386-0701", "prefecture": "長野県", "id": 3860701 },
        { "city": "諏訪郡下諏訪町", "postcode": "393-0000", "prefecture": "長野県", "id": 3930000 },
        { "address": "曙町", "city": "諏訪郡下諏訪町", "postcode": "393-0066", "prefecture": "長野県", "id": 3930066 },
        {
            "address": "春日町",
            "city": "諏訪郡下諏訪町",
            "postcode": "393-0068",
            "prefecture": "長野県",
            "id": 3930068
        },
        {
            "address": "上久保",
            "city": "諏訪郡下諏訪町",
            "postcode": "393-0052",
            "prefecture": "長野県",
            "id": 3930052
        },
        {
            "address": "上馬場",
            "city": "諏訪郡下諏訪町",
            "postcode": "393-0053",
            "prefecture": "長野県",
            "id": 3930053
        },
        {
            "address": "北四王",
            "city": "諏訪郡下諏訪町",
            "postcode": "393-0042",
            "prefecture": "長野県",
            "id": 3930042
        },
        {
            "address": "木の下",
            "city": "諏訪郡下諏訪町",
            "postcode": "393-0014",
            "prefecture": "長野県",
            "id": 3930014
        },
        {
            "address": "久保海道",
            "city": "諏訪郡下諏訪町",
            "postcode": "393-0026",
            "prefecture": "長野県",
            "id": 3930026
        },
        { "address": "五官", "city": "諏訪郡下諏訪町", "postcode": "393-0024", "prefecture": "長野県", "id": 3930024 },
        {
            "address": "湖畔町",
            "city": "諏訪郡下諏訪町",
            "postcode": "393-0044",
            "prefecture": "長野県",
            "id": 3930044
        },
        {
            "address": "小湯の上",
            "city": "諏訪郡下諏訪町",
            "postcode": "393-0013",
            "prefecture": "長野県",
            "id": 3930013
        },
        { "address": "栄町", "city": "諏訪郡下諏訪町", "postcode": "393-0084", "prefecture": "長野県", "id": 3930084 },
        { "address": "魁町", "city": "諏訪郡下諏訪町", "postcode": "393-0065", "prefecture": "長野県", "id": 3930065 },
        { "address": "桜町", "city": "諏訪郡下諏訪町", "postcode": "393-0072", "prefecture": "長野県", "id": 3930072 },
        {
            "address": "清水町",
            "city": "諏訪郡下諏訪町",
            "postcode": "393-0086",
            "prefecture": "長野県",
            "id": 3930086
        },
        {
            "address": "下屋敷",
            "city": "諏訪郡下諏訪町",
            "postcode": "393-0007",
            "prefecture": "長野県",
            "id": 3930007
        },
        {
            "address": "新町上",
            "city": "諏訪郡下諏訪町",
            "postcode": "393-0011",
            "prefecture": "長野県",
            "id": 3930011
        },
        {
            "address": "新町下",
            "city": "諏訪郡下諏訪町",
            "postcode": "393-0018",
            "prefecture": "長野県",
            "id": 3930018
        },
        {
            "address": "菅野町",
            "city": "諏訪郡下諏訪町",
            "postcode": "393-0054",
            "prefecture": "長野県",
            "id": 3930054
        },
        { "address": "関屋", "city": "諏訪郡下諏訪町", "postcode": "393-0022", "prefecture": "長野県", "id": 3930022 },
        {
            "address": "大社通",
            "city": "諏訪郡下諏訪町",
            "postcode": "393-0051",
            "prefecture": "長野県",
            "id": 3930051
        },
        { "address": "大門", "city": "諏訪郡下諏訪町", "postcode": "393-0092", "prefecture": "長野県", "id": 3930092 },
        { "address": "高木", "city": "諏訪郡下諏訪町", "postcode": "393-0033", "prefecture": "長野県", "id": 3930033 },
        { "address": "高浜", "city": "諏訪郡下諏訪町", "postcode": "393-0034", "prefecture": "長野県", "id": 3930034 },
        { "address": "武居", "city": "諏訪郡下諏訪町", "postcode": "393-0021", "prefecture": "長野県", "id": 3930021 },
        { "address": "立町", "city": "諏訪郡下諏訪町", "postcode": "393-0015", "prefecture": "長野県", "id": 3930015 },
        {
            "address": "田中町",
            "city": "諏訪郡下諏訪町",
            "postcode": "393-0078",
            "prefecture": "長野県",
            "id": 3930078
        },
        {
            "address": "中央通",
            "city": "諏訪郡下諏訪町",
            "postcode": "393-0075",
            "prefecture": "長野県",
            "id": 3930075
        },
        {
            "address": "塚田町",
            "city": "諏訪郡下諏訪町",
            "postcode": "393-0073",
            "prefecture": "長野県",
            "id": 3930073
        },
        {
            "address": "富ケ丘",
            "city": "諏訪郡下諏訪町",
            "postcode": "393-0023",
            "prefecture": "長野県",
            "id": 3930023
        },
        {
            "address": "友之町",
            "city": "諏訪郡下諏訪町",
            "postcode": "393-0057",
            "prefecture": "長野県",
            "id": 3930057
        },
        { "address": "樋橋", "city": "諏訪郡下諏訪町", "postcode": "393-0001", "prefecture": "長野県", "id": 3930001 },
        {
            "address": "中汐町",
            "city": "諏訪郡下諏訪町",
            "postcode": "393-0064",
            "prefecture": "長野県",
            "id": 3930064
        },
        { "address": "仲町", "city": "諏訪郡下諏訪町", "postcode": "393-0071", "prefecture": "長野県", "id": 3930071 },
        {
            "address": "西赤砂",
            "city": "諏訪郡下諏訪町",
            "postcode": "393-0047",
            "prefecture": "長野県",
            "id": 3930047
        },
        {
            "address": "西四王",
            "city": "諏訪郡下諏訪町",
            "postcode": "393-0041",
            "prefecture": "長野県",
            "id": 3930041
        },
        {
            "address": "西鷹野町",
            "city": "諏訪郡下諏訪町",
            "postcode": "393-0087",
            "prefecture": "長野県",
            "id": 3930087
        },
        { "address": "西浜", "city": "諏訪郡下諏訪町", "postcode": "393-0032", "prefecture": "長野県", "id": 3930032 },
        {
            "address": "西弥生町",
            "city": "諏訪郡下諏訪町",
            "postcode": "393-0082",
            "prefecture": "長野県",
            "id": 3930082
        },
        { "address": "西豊", "city": "諏訪郡下諏訪町", "postcode": "393-0035", "prefecture": "長野県", "id": 3930035 },
        { "address": "萩倉", "city": "諏訪郡下諏訪町", "postcode": "393-0003", "prefecture": "長野県", "id": 3930003 },
        {
            "address": "花咲町",
            "city": "諏訪郡下諏訪町",
            "postcode": "393-0063",
            "prefecture": "長野県",
            "id": 3930063
        },
        {
            "address": "東赤砂",
            "city": "諏訪郡下諏訪町",
            "postcode": "393-0046",
            "prefecture": "長野県",
            "id": 3930046
        },
        {
            "address": "東四王",
            "city": "諏訪郡下諏訪町",
            "postcode": "393-0043",
            "prefecture": "長野県",
            "id": 3930043
        },
        {
            "address": "東鷹野町",
            "city": "諏訪郡下諏訪町",
            "postcode": "393-0085",
            "prefecture": "長野県",
            "id": 3930085
        },
        { "address": "東俣", "city": "諏訪郡下諏訪町", "postcode": "393-0002", "prefecture": "長野県", "id": 3930002 },
        {
            "address": "東町上",
            "city": "諏訪郡下諏訪町",
            "postcode": "393-0006",
            "prefecture": "長野県",
            "id": 3930006
        },
        {
            "address": "東町中",
            "city": "諏訪郡下諏訪町",
            "postcode": "393-0005",
            "prefecture": "長野県",
            "id": 3930005
        },
        {
            "address": "東町下",
            "city": "諏訪郡下諏訪町",
            "postcode": "393-0004",
            "prefecture": "長野県",
            "id": 3930004
        },
        {
            "address": "東山田",
            "city": "諏訪郡下諏訪町",
            "postcode": "393-0093",
            "prefecture": "長野県",
            "id": 3930093
        },
        {
            "address": "東弥生町",
            "city": "諏訪郡下諏訪町",
            "postcode": "393-0083",
            "prefecture": "長野県",
            "id": 3930083
        },
        { "address": "東豊", "city": "諏訪郡下諏訪町", "postcode": "393-0031", "prefecture": "長野県", "id": 3930031 },
        {
            "address": "平沢町",
            "city": "諏訪郡下諏訪町",
            "postcode": "393-0062",
            "prefecture": "長野県",
            "id": 3930062
        },
        {
            "address": "広瀬町",
            "city": "諏訪郡下諏訪町",
            "postcode": "393-0056",
            "prefecture": "長野県",
            "id": 3930056
        },
        {
            "address": "富士見町",
            "city": "諏訪郡下諏訪町",
            "postcode": "393-0055",
            "prefecture": "長野県",
            "id": 3930055
        },
        {
            "address": "星が丘",
            "city": "諏訪郡下諏訪町",
            "postcode": "393-0091",
            "prefecture": "長野県",
            "id": 3930091
        },
        { "address": "本郷", "city": "諏訪郡下諏訪町", "postcode": "393-0025", "prefecture": "長野県", "id": 3930025 },
        {
            "address": "町屋敷",
            "city": "諏訪郡下諏訪町",
            "postcode": "393-0008",
            "prefecture": "長野県",
            "id": 3930008
        },
        {
            "address": "御田町",
            "city": "諏訪郡下諏訪町",
            "postcode": "393-0061",
            "prefecture": "長野県",
            "id": 3930061
        },
        { "address": "緑町", "city": "諏訪郡下諏訪町", "postcode": "393-0074", "prefecture": "長野県", "id": 3930074 },
        {
            "address": "南四王",
            "city": "諏訪郡下諏訪町",
            "postcode": "393-0045",
            "prefecture": "長野県",
            "id": 3930045
        },
        {
            "address": "矢木東",
            "city": "諏訪郡下諏訪町",
            "postcode": "393-0067",
            "prefecture": "長野県",
            "id": 3930067
        },
        {
            "address": "矢木西",
            "city": "諏訪郡下諏訪町",
            "postcode": "393-0076",
            "prefecture": "長野県",
            "id": 3930076
        },
        {
            "address": "矢木町",
            "city": "諏訪郡下諏訪町",
            "postcode": "393-0077",
            "prefecture": "長野県",
            "id": 3930077
        },
        {
            "address": "社東町",
            "city": "諏訪郡下諏訪町",
            "postcode": "393-0081",
            "prefecture": "長野県",
            "id": 3930081
        },
        {
            "address": "湯田仲町",
            "city": "諏訪郡下諏訪町",
            "postcode": "393-0017",
            "prefecture": "長野県",
            "id": 3930017
        },
        {
            "address": "湯田町",
            "city": "諏訪郡下諏訪町",
            "postcode": "393-0016",
            "prefecture": "長野県",
            "id": 3930016
        },
        { "address": "横町", "city": "諏訪郡下諏訪町", "postcode": "393-0012", "prefecture": "長野県", "id": 3930012 },
        {
            "address": "横町木の下",
            "city": "諏訪郡下諏訪町",
            "postcode": "393-0019",
            "prefecture": "長野県",
            "id": 3930019
        },
        { "city": "諏訪郡富士見町", "postcode": "399-0200", "prefecture": "長野県", "id": 3990200 },
        { "address": "落合", "city": "諏訪郡富士見町", "postcode": "399-0102", "prefecture": "長野県", "id": 3990102 },
        { "address": "落合", "city": "諏訪郡富士見町", "postcode": "399-0214", "prefecture": "長野県", "id": 3990214 },
        { "address": "乙事", "city": "諏訪郡富士見町", "postcode": "399-0213", "prefecture": "長野県", "id": 3990213 },
        { "address": "境", "city": "諏訪郡富士見町", "postcode": "399-0101", "prefecture": "長野県", "id": 3990101 },
        { "address": "立沢", "city": "諏訪郡富士見町", "postcode": "399-0212", "prefecture": "長野県", "id": 3990212 },
        {
            "address": "富士見",
            "city": "諏訪郡富士見町",
            "postcode": "391-0021",
            "prefecture": "長野県",
            "id": 3910021
        },
        {
            "address": "富士見",
            "city": "諏訪郡富士見町",
            "postcode": "399-0211",
            "prefecture": "長野県",
            "id": 3990211
        },
        { "city": "諏訪郡原村", "postcode": "391-0100", "prefecture": "長野県", "id": 3910100 },
        { "address": "大久保", "city": "諏訪郡原村", "postcode": "391-0101", "prefecture": "長野県", "id": 3910101 },
        { "address": "柏木", "city": "諏訪郡原村", "postcode": "391-0105", "prefecture": "長野県", "id": 3910105 },
        { "address": "上里", "city": "諏訪郡原村", "postcode": "391-0111", "prefecture": "長野県", "id": 3910111 },
        { "address": "菖蒲沢", "city": "諏訪郡原村", "postcode": "391-0106", "prefecture": "長野県", "id": 3910106 },
        { "address": "中新田", "city": "諏訪郡原村", "postcode": "391-0108", "prefecture": "長野県", "id": 3910108 },
        { "address": "農場", "city": "諏訪郡原村", "postcode": "391-0112", "prefecture": "長野県", "id": 3910112 },
        { "address": "払沢", "city": "諏訪郡原村", "postcode": "391-0104", "prefecture": "長野県", "id": 3910104 },
        { "address": "原山", "city": "諏訪郡原村", "postcode": "391-0115", "prefecture": "長野県", "id": 3910115 },
        { "address": "判の木", "city": "諏訪郡原村", "postcode": "391-0116", "prefecture": "長野県", "id": 3910116 },
        {
            "address": "ペンション",
            "city": "諏訪郡原村",
            "postcode": "391-0114",
            "prefecture": "長野県",
            "id": 3910114
        },
        { "address": "南原", "city": "諏訪郡原村", "postcode": "391-0109", "prefecture": "長野県", "id": 3910109 },
        { "address": "室内", "city": "諏訪郡原村", "postcode": "391-0107", "prefecture": "長野県", "id": 3910107 },
        { "address": "やつがね", "city": "諏訪郡原村", "postcode": "391-0113", "prefecture": "長野県", "id": 3910113 },
        { "address": "八ツ手", "city": "諏訪郡原村", "postcode": "391-0103", "prefecture": "長野県", "id": 3910103 },
        { "address": "柳沢", "city": "諏訪郡原村", "postcode": "391-0102", "prefecture": "長野県", "id": 3910102 },
        { "city": "上伊那郡辰野町", "postcode": "399-0400", "prefecture": "長野県", "id": 3990400 },
        { "address": "赤羽", "city": "上伊那郡辰野町", "postcode": "399-0424", "prefecture": "長野県", "id": 3990424 },
        {
            "address": "伊那富",
            "city": "上伊那郡辰野町",
            "postcode": "399-0428",
            "prefecture": "長野県",
            "id": 3990428
        },
        { "address": "小野", "city": "上伊那郡辰野町", "postcode": "399-0601", "prefecture": "長野県", "id": 3990601 },
        { "address": "上島", "city": "上伊那郡辰野町", "postcode": "399-0512", "prefecture": "長野県", "id": 3990512 },
        { "address": "沢底", "city": "上伊那郡辰野町", "postcode": "399-0423", "prefecture": "長野県", "id": 3990423 },
        { "address": "辰野", "city": "上伊那郡辰野町", "postcode": "399-0421", "prefecture": "長野県", "id": 3990421 },
        { "address": "中央", "city": "上伊那郡辰野町", "postcode": "399-0427", "prefecture": "長野県", "id": 3990427 },
        { "address": "樋口", "city": "上伊那郡辰野町", "postcode": "399-0425", "prefecture": "長野県", "id": 3990425 },
        { "address": "平出", "city": "上伊那郡辰野町", "postcode": "399-0422", "prefecture": "長野県", "id": 3990422 },
        { "address": "宮木", "city": "上伊那郡辰野町", "postcode": "399-0426", "prefecture": "長野県", "id": 3990426 },
        { "address": "横川", "city": "上伊那郡辰野町", "postcode": "399-0511", "prefecture": "長野県", "id": 3990511 },
        { "city": "上伊那郡箕輪町", "postcode": "399-4600", "prefecture": "長野県", "id": 3994600 },
        {
            "address": "中曽根",
            "city": "上伊那郡箕輪町",
            "postcode": "399-4605",
            "prefecture": "長野県",
            "id": 3994605
        },
        {
            "address": "中箕輪",
            "city": "上伊那郡箕輪町",
            "postcode": "399-4601",
            "prefecture": "長野県",
            "id": 3994601
        },
        {
            "address": "東箕輪",
            "city": "上伊那郡箕輪町",
            "postcode": "399-4602",
            "prefecture": "長野県",
            "id": 3994602
        },
        { "address": "福与", "city": "上伊那郡箕輪町", "postcode": "399-4604", "prefecture": "長野県", "id": 3994604 },
        {
            "address": "三日町",
            "city": "上伊那郡箕輪町",
            "postcode": "399-4603",
            "prefecture": "長野県",
            "id": 3994603
        },
        { "city": "上伊那郡飯島町", "postcode": "399-3700", "prefecture": "長野県", "id": 3993700 },
        { "address": "飯島", "city": "上伊那郡飯島町", "postcode": "399-3702", "prefecture": "長野県", "id": 3993702 },
        { "address": "田切", "city": "上伊那郡飯島町", "postcode": "399-3701", "prefecture": "長野県", "id": 3993701 },
        {
            "address": "七久保",
            "city": "上伊那郡飯島町",
            "postcode": "399-3705",
            "prefecture": "長野県",
            "id": 3993705
        },
        {
            "address": "日曽利",
            "city": "上伊那郡飯島町",
            "postcode": "399-3703",
            "prefecture": "長野県",
            "id": 3993703
        },
        { "address": "本郷", "city": "上伊那郡飯島町", "postcode": "399-3704", "prefecture": "長野県", "id": 3993704 },
        { "city": "上伊那郡南箕輪村", "postcode": "399-4511", "prefecture": "長野県", "id": 3994511 },
        { "city": "上伊那郡中川村", "postcode": "399-3800", "prefecture": "長野県", "id": 3993800 },
        { "address": "大草", "city": "上伊那郡中川村", "postcode": "399-3801", "prefecture": "長野県", "id": 3993801 },
        { "address": "片桐", "city": "上伊那郡中川村", "postcode": "399-3802", "prefecture": "長野県", "id": 3993802 },
        { "address": "葛島", "city": "上伊那郡中川村", "postcode": "399-3803", "prefecture": "長野県", "id": 3993803 },
        { "address": "四徳", "city": "上伊那郡中川村", "postcode": "399-3804", "prefecture": "長野県", "id": 3993804 },
        { "city": "上伊那郡宮田村", "postcode": "399-4301", "prefecture": "長野県", "id": 3994301 },
        { "city": "下伊那郡松川町", "postcode": "399-3300", "prefecture": "長野県", "id": 3993300 },
        { "address": "生田", "city": "下伊那郡松川町", "postcode": "399-3302", "prefecture": "長野県", "id": 3993302 },
        { "address": "大島", "city": "下伊那郡松川町", "postcode": "399-3304", "prefecture": "長野県", "id": 3993304 },
        {
            "address": "上片桐",
            "city": "下伊那郡松川町",
            "postcode": "399-3301",
            "prefecture": "長野県",
            "id": 3993301
        },
        {
            "address": "元大島",
            "city": "下伊那郡松川町",
            "postcode": "399-3303",
            "prefecture": "長野県",
            "id": 3993303
        },
        { "city": "下伊那郡高森町", "postcode": "399-3100", "prefecture": "長野県", "id": 3993100 },
        { "address": "出原", "city": "下伊那郡高森町", "postcode": "399-3107", "prefecture": "長野県", "id": 3993107 },
        { "address": "牛牧", "city": "下伊那郡高森町", "postcode": "399-3105", "prefecture": "長野県", "id": 3993105 },
        {
            "address": "大島山",
            "city": "下伊那郡高森町",
            "postcode": "399-3106",
            "prefecture": "長野県",
            "id": 3993106
        },
        {
            "address": "上市田",
            "city": "下伊那郡高森町",
            "postcode": "399-3104",
            "prefecture": "長野県",
            "id": 3993104
        },
        {
            "address": "下市田",
            "city": "下伊那郡高森町",
            "postcode": "399-3103",
            "prefecture": "長野県",
            "id": 3993103
        },
        { "address": "山吹", "city": "下伊那郡高森町", "postcode": "399-3101", "prefecture": "長野県", "id": 3993101 },
        { "address": "吉田", "city": "下伊那郡高森町", "postcode": "399-3102", "prefecture": "長野県", "id": 3993102 },
        { "city": "下伊那郡阿南町", "postcode": "399-1500", "prefecture": "長野県", "id": 3991500 },
        { "address": "北條", "city": "下伊那郡阿南町", "postcode": "399-1501", "prefecture": "長野県", "id": 3991501 },
        { "address": "富草", "city": "下伊那郡阿南町", "postcode": "399-1505", "prefecture": "長野県", "id": 3991505 },
        { "address": "新野", "city": "下伊那郡阿南町", "postcode": "399-1612", "prefecture": "長野県", "id": 3991612 },
        { "address": "西條", "city": "下伊那郡阿南町", "postcode": "399-1504", "prefecture": "長野県", "id": 3991504 },
        { "address": "東條", "city": "下伊那郡阿南町", "postcode": "399-1502", "prefecture": "長野県", "id": 3991502 },
        { "address": "南條", "city": "下伊那郡阿南町", "postcode": "399-1503", "prefecture": "長野県", "id": 3991503 },
        { "address": "和合", "city": "下伊那郡阿南町", "postcode": "399-1611", "prefecture": "長野県", "id": 3991611 },
        { "city": "下伊那郡阿智村", "postcode": "395-0300", "prefecture": "長野県", "id": 3950300 },
        { "address": "春日", "city": "下伊那郡阿智村", "postcode": "395-0301", "prefecture": "長野県", "id": 3950301 },
        { "address": "伍和", "city": "下伊那郡阿智村", "postcode": "395-0302", "prefecture": "長野県", "id": 3950302 },
        { "address": "駒", "city": "下伊那郡阿智村", "postcode": "395-0305", "prefecture": "長野県", "id": 3950305 },
        { "address": "駒場", "city": "下伊那郡阿智村", "postcode": "395-0303", "prefecture": "長野県", "id": 3950303 },
        {
            "address": "清内路",
            "city": "下伊那郡阿智村",
            "postcode": "395-0401",
            "prefecture": "長野県",
            "id": 3950401
        },
        { "address": "智里", "city": "下伊那郡阿智村", "postcode": "395-0304", "prefecture": "長野県", "id": 3950304 },
        { "address": "浪合", "city": "下伊那郡阿智村", "postcode": "395-0501", "prefecture": "長野県", "id": 3950501 },
        { "city": "下伊那郡平谷村", "postcode": "395-0601", "prefecture": "長野県", "id": 3950601 },
        { "city": "下伊那郡根羽村", "postcode": "395-0701", "prefecture": "長野県", "id": 3950701 },
        { "city": "下伊那郡下條村", "postcode": "399-2100", "prefecture": "長野県", "id": 3992100 },
        { "address": "陽皐", "city": "下伊那郡下條村", "postcode": "399-2102", "prefecture": "長野県", "id": 3992102 },
        { "address": "睦沢", "city": "下伊那郡下條村", "postcode": "399-2101", "prefecture": "長野県", "id": 3992101 },
        { "city": "下伊那郡売木村", "postcode": "399-1601", "prefecture": "長野県", "id": 3991601 },
        { "city": "下伊那郡天龍村", "postcode": "399-1200", "prefecture": "長野県", "id": 3991200 },
        { "address": "神原", "city": "下伊那郡天龍村", "postcode": "399-1202", "prefecture": "長野県", "id": 3991202 },
        { "address": "長島", "city": "下伊那郡天龍村", "postcode": "399-1203", "prefecture": "長野県", "id": 3991203 },
        { "address": "平岡", "city": "下伊那郡天龍村", "postcode": "399-1201", "prefecture": "長野県", "id": 3991201 },
        { "city": "下伊那郡泰阜村", "postcode": "399-1801", "prefecture": "長野県", "id": 3991801 },
        { "city": "下伊那郡喬木村", "postcode": "395-1100", "prefecture": "長野県", "id": 3951100 },
        { "address": "阿島", "city": "下伊那郡喬木村", "postcode": "395-1101", "prefecture": "長野県", "id": 3951101 },
        {
            "address": "伊久間",
            "city": "下伊那郡喬木村",
            "postcode": "395-1108",
            "prefecture": "長野県",
            "id": 3951108
        },
        { "address": "氏乗", "city": "下伊那郡喬木村", "postcode": "395-1104", "prefecture": "長野県", "id": 3951104 },
        { "address": "大島", "city": "下伊那郡喬木村", "postcode": "395-1103", "prefecture": "長野県", "id": 3951103 },
        {
            "address": "大和知",
            "city": "下伊那郡喬木村",
            "postcode": "395-1105",
            "prefecture": "長野県",
            "id": 3951105
        },
        { "address": "小川", "city": "下伊那郡喬木村", "postcode": "395-1107", "prefecture": "長野県", "id": 3951107 },
        {
            "address": "加々須",
            "city": "下伊那郡喬木村",
            "postcode": "395-1102",
            "prefecture": "長野県",
            "id": 3951102
        },
        { "address": "富田", "city": "下伊那郡喬木村", "postcode": "395-1106", "prefecture": "長野県", "id": 3951106 },
        { "city": "下伊那郡豊丘村", "postcode": "399-3200", "prefecture": "長野県", "id": 3993200 },
        { "address": "河野", "city": "下伊那郡豊丘村", "postcode": "399-3311", "prefecture": "長野県", "id": 3993311 },
        { "address": "河野", "city": "下伊那郡豊丘村", "postcode": "399-3201", "prefecture": "長野県", "id": 3993201 },
        { "address": "神稲", "city": "下伊那郡豊丘村", "postcode": "399-3202", "prefecture": "長野県", "id": 3993202 },
        { "city": "下伊那郡大鹿村", "postcode": "399-3500", "prefecture": "長野県", "id": 3993500 },
        {
            "address": "大河原",
            "city": "下伊那郡大鹿村",
            "postcode": "399-3502",
            "prefecture": "長野県",
            "id": 3993502
        },
        { "address": "鹿塩", "city": "下伊那郡大鹿村", "postcode": "399-3501", "prefecture": "長野県", "id": 3993501 },
        { "city": "木曽郡上松町", "postcode": "399-5600", "prefecture": "長野県", "id": 3995600 },
        { "address": "上松", "city": "木曽郡上松町", "postcode": "399-5601", "prefecture": "長野県", "id": 3995601 },
        { "address": "旭町", "city": "木曽郡上松町", "postcode": "399-5609", "prefecture": "長野県", "id": 3995609 },
        {
            "address": "駅前通り",
            "city": "木曽郡上松町",
            "postcode": "399-5603",
            "prefecture": "長野県",
            "id": 3995603
        },
        { "address": "小川", "city": "木曽郡上松町", "postcode": "399-5607", "prefecture": "長野県", "id": 3995607 },
        { "address": "荻原", "city": "木曽郡上松町", "postcode": "399-5608", "prefecture": "長野県", "id": 3995608 },
        { "address": "栄町", "city": "木曽郡上松町", "postcode": "399-5605", "prefecture": "長野県", "id": 3995605 },
        { "address": "正島町", "city": "木曽郡上松町", "postcode": "399-5604", "prefecture": "長野県", "id": 3995604 },
        {
            "address": "本町通り",
            "city": "木曽郡上松町",
            "postcode": "399-5602",
            "prefecture": "長野県",
            "id": 3995602
        },
        { "address": "緑町", "city": "木曽郡上松町", "postcode": "399-5606", "prefecture": "長野県", "id": 3995606 },
        { "city": "木曽郡南木曽町", "postcode": "399-5300", "prefecture": "長野県", "id": 3995300 },
        { "address": "吾妻", "city": "木曽郡南木曽町", "postcode": "399-5302", "prefecture": "長野県", "id": 3995302 },
        { "address": "田立", "city": "木曽郡南木曽町", "postcode": "399-5303", "prefecture": "長野県", "id": 3995303 },
        { "address": "読書", "city": "木曽郡南木曽町", "postcode": "399-5301", "prefecture": "長野県", "id": 3995301 },
        { "city": "木曽郡木祖村", "postcode": "399-6200", "prefecture": "長野県", "id": 3996200 },
        { "address": "小木曽", "city": "木曽郡木祖村", "postcode": "399-6203", "prefecture": "長野県", "id": 3996203 },
        { "address": "菅", "city": "木曽郡木祖村", "postcode": "399-6202", "prefecture": "長野県", "id": 3996202 },
        { "address": "薮原", "city": "木曽郡木祖村", "postcode": "399-6201", "prefecture": "長野県", "id": 3996201 },
        { "city": "木曽郡王滝村", "postcode": "397-0201", "prefecture": "長野県", "id": 3970201 },
        { "city": "木曽郡大桑村", "postcode": "399-5500", "prefecture": "長野県", "id": 3995500 },
        { "address": "須原", "city": "木曽郡大桑村", "postcode": "399-5502", "prefecture": "長野県", "id": 3995502 },
        { "address": "殿", "city": "木曽郡大桑村", "postcode": "399-5501", "prefecture": "長野県", "id": 3995501 },
        { "address": "長野", "city": "木曽郡大桑村", "postcode": "399-5503", "prefecture": "長野県", "id": 3995503 },
        { "address": "野尻", "city": "木曽郡大桑村", "postcode": "399-5504", "prefecture": "長野県", "id": 3995504 },
        { "city": "木曽郡木曽町", "postcode": "397-0000", "prefecture": "長野県", "id": 3970000 },
        {
            "address": "開田高原末川",
            "city": "木曽郡木曽町",
            "postcode": "397-0301",
            "prefecture": "長野県",
            "id": 3970301
        },
        {
            "address": "開田高原西野",
            "city": "木曽郡木曽町",
            "postcode": "397-0302",
            "prefecture": "長野県",
            "id": 3970302
        },
        { "address": "新開", "city": "木曽郡木曽町", "postcode": "397-0002", "prefecture": "長野県", "id": 3970002 },
        { "address": "新開福", "city": "木曽郡木曽町", "postcode": "397-0003", "prefecture": "長野県", "id": 3970003 },
        { "address": "日義", "city": "木曽郡木曽町", "postcode": "399-6101", "prefecture": "長野県", "id": 3996101 },
        { "address": "福島", "city": "木曽郡木曽町", "postcode": "397-0001", "prefecture": "長野県", "id": 3970001 },
        { "address": "三岳", "city": "木曽郡木曽町", "postcode": "397-0101", "prefecture": "長野県", "id": 3970101 },
        { "city": "東筑摩郡麻績村", "postcode": "399-7700", "prefecture": "長野県", "id": 3997700 },
        { "address": "麻", "city": "東筑摩郡麻績村", "postcode": "399-7701", "prefecture": "長野県", "id": 3997701 },
        { "address": "日", "city": "東筑摩郡麻績村", "postcode": "399-7702", "prefecture": "長野県", "id": 3997702 },
        { "city": "東筑摩郡生坂村", "postcode": "399-7200", "prefecture": "長野県", "id": 3997200 },
        { "city": "東筑摩郡生坂村", "postcode": "399-7201", "prefecture": "長野県", "id": 3997201 },
        {
            "address": "北陸郷",
            "city": "東筑摩郡生坂村",
            "postcode": "399-7202",
            "prefecture": "長野県",
            "id": 3997202
        },
        {
            "address": "東広津",
            "city": "東筑摩郡生坂村",
            "postcode": "399-7311",
            "prefecture": "長野県",
            "id": 3997311
        },
        { "city": "東筑摩郡山形村", "postcode": "390-1301", "prefecture": "長野県", "id": 3901301 },
        { "city": "東筑摩郡朝日村", "postcode": "390-1100", "prefecture": "長野県", "id": 3901100 },
        {
            "address": "小野沢",
            "city": "東筑摩郡朝日村",
            "postcode": "390-1102",
            "prefecture": "長野県",
            "id": 3901102
        },
        { "address": "古見", "city": "東筑摩郡朝日村", "postcode": "390-1104", "prefecture": "長野県", "id": 3901104 },
        {
            "address": "西洗馬",
            "city": "東筑摩郡朝日村",
            "postcode": "390-1101",
            "prefecture": "長野県",
            "id": 3901101
        },
        { "address": "針尾", "city": "東筑摩郡朝日村", "postcode": "390-1103", "prefecture": "長野県", "id": 3901103 },
        { "city": "東筑摩郡筑北村", "postcode": "399-7500", "prefecture": "長野県", "id": 3997500 },
        {
            "address": "大沢新田",
            "city": "東筑摩郡筑北村",
            "postcode": "399-7503",
            "prefecture": "長野県",
            "id": 3997503
        },
        { "address": "坂井", "city": "東筑摩郡筑北村", "postcode": "399-7711", "prefecture": "長野県", "id": 3997711 },
        { "address": "坂北", "city": "東筑摩郡筑北村", "postcode": "399-7601", "prefecture": "長野県", "id": 3997601 },
        { "address": "西条", "city": "東筑摩郡筑北村", "postcode": "399-7501", "prefecture": "長野県", "id": 3997501 },
        { "address": "東条", "city": "東筑摩郡筑北村", "postcode": "399-7502", "prefecture": "長野県", "id": 3997502 },
        { "address": "乱橋", "city": "東筑摩郡筑北村", "postcode": "399-7504", "prefecture": "長野県", "id": 3997504 },
        { "city": "北安曇郡池田町", "postcode": "399-8600", "prefecture": "長野県", "id": 3998600 },
        { "address": "会染", "city": "北安曇郡池田町", "postcode": "399-8602", "prefecture": "長野県", "id": 3998602 },
        { "address": "池田", "city": "北安曇郡池田町", "postcode": "399-8601", "prefecture": "長野県", "id": 3998601 },
        { "address": "中鵜", "city": "北安曇郡池田町", "postcode": "399-8603", "prefecture": "長野県", "id": 3998603 },
        { "address": "広津", "city": "北安曇郡池田町", "postcode": "399-8604", "prefecture": "長野県", "id": 3998604 },
        { "address": "陸郷", "city": "北安曇郡池田町", "postcode": "399-8605", "prefecture": "長野県", "id": 3998605 },
        { "city": "北安曇郡松川村", "postcode": "399-8501", "prefecture": "長野県", "id": 3998501 },
        { "city": "北安曇郡白馬村", "postcode": "399-9300", "prefecture": "長野県", "id": 3999300 },
        { "address": "神城", "city": "北安曇郡白馬村", "postcode": "399-9211", "prefecture": "長野県", "id": 3999211 },
        { "address": "北城", "city": "北安曇郡白馬村", "postcode": "399-9301", "prefecture": "長野県", "id": 3999301 },
        { "city": "北安曇郡小谷村", "postcode": "399-9400", "prefecture": "長野県", "id": 3999400 },
        {
            "address": "北小谷",
            "city": "北安曇郡小谷村",
            "postcode": "399-9601",
            "prefecture": "長野県",
            "id": 3999601
        },
        { "address": "千国", "city": "北安曇郡小谷村", "postcode": "399-9422", "prefecture": "長野県", "id": 3999422 },
        {
            "address": "中小谷",
            "city": "北安曇郡小谷村",
            "postcode": "399-9421",
            "prefecture": "長野県",
            "id": 3999421
        },
        { "address": "中土", "city": "北安曇郡小谷村", "postcode": "399-9511", "prefecture": "長野県", "id": 3999511 },
        { "city": "埴科郡坂城町", "postcode": "389-0600", "prefecture": "長野県", "id": 3890600 },
        { "address": "網掛", "city": "埴科郡坂城町", "postcode": "389-0604", "prefecture": "長野県", "id": 3890604 },
        { "address": "上平", "city": "埴科郡坂城町", "postcode": "389-0605", "prefecture": "長野県", "id": 3890605 },
        { "address": "上五明", "city": "埴科郡坂城町", "postcode": "389-0606", "prefecture": "長野県", "id": 3890606 },
        { "address": "坂城", "city": "埴科郡坂城町", "postcode": "389-0601", "prefecture": "長野県", "id": 3890601 },
        { "address": "中之条", "city": "埴科郡坂城町", "postcode": "389-0602", "prefecture": "長野県", "id": 3890602 },
        { "address": "南条", "city": "埴科郡坂城町", "postcode": "389-0603", "prefecture": "長野県", "id": 3890603 },
        { "city": "上高井郡小布施町", "postcode": "381-0200", "prefecture": "長野県", "id": 3810200 },
        {
            "address": "飯田",
            "city": "上高井郡小布施町",
            "postcode": "381-0204",
            "prefecture": "長野県",
            "id": 3810204
        },
        {
            "address": "大島",
            "city": "上高井郡小布施町",
            "postcode": "381-0203",
            "prefecture": "長野県",
            "id": 3810203
        },
        {
            "address": "押羽",
            "city": "上高井郡小布施町",
            "postcode": "381-0207",
            "prefecture": "長野県",
            "id": 3810207
        },
        {
            "address": "小布施",
            "city": "上高井郡小布施町",
            "postcode": "381-0201",
            "prefecture": "長野県",
            "id": 3810201
        },
        {
            "address": "雁田",
            "city": "上高井郡小布施町",
            "postcode": "381-0211",
            "prefecture": "長野県",
            "id": 3810211
        },
        {
            "address": "北岡",
            "city": "上高井郡小布施町",
            "postcode": "381-0206",
            "prefecture": "長野県",
            "id": 3810206
        },
        {
            "address": "山王島",
            "city": "上高井郡小布施町",
            "postcode": "381-0205",
            "prefecture": "長野県",
            "id": 3810205
        },
        {
            "address": "都住",
            "city": "上高井郡小布施町",
            "postcode": "381-0208",
            "prefecture": "長野県",
            "id": 3810208
        },
        {
            "address": "中松",
            "city": "上高井郡小布施町",
            "postcode": "381-0209",
            "prefecture": "長野県",
            "id": 3810209
        },
        {
            "address": "福原",
            "city": "上高井郡小布施町",
            "postcode": "381-0202",
            "prefecture": "長野県",
            "id": 3810202
        },
        {
            "address": "吉島",
            "city": "上高井郡小布施町",
            "postcode": "381-0212",
            "prefecture": "長野県",
            "id": 3810212
        },
        { "city": "上高井郡高山村", "postcode": "382-0800", "prefecture": "長野県", "id": 3820800 },
        { "address": "赤和", "city": "上高井郡高山村", "postcode": "382-0832", "prefecture": "長野県", "id": 3820832 },
        {
            "address": "荒井原",
            "city": "上高井郡高山村",
            "postcode": "382-0831",
            "prefecture": "長野県",
            "id": 3820831
        },
        {
            "address": "荻久保",
            "city": "上高井郡高山村",
            "postcode": "382-0815",
            "prefecture": "長野県",
            "id": 3820815
        },
        { "address": "久保", "city": "上高井郡高山村", "postcode": "382-0833", "prefecture": "長野県", "id": 3820833 },
        { "address": "黒部", "city": "上高井郡高山村", "postcode": "382-0823", "prefecture": "長野県", "id": 3820823 },
        { "address": "駒場", "city": "上高井郡高山村", "postcode": "382-0801", "prefecture": "長野県", "id": 3820801 },
        { "address": "新堀", "city": "上高井郡高山村", "postcode": "382-0836", "prefecture": "長野県", "id": 3820836 },
        {
            "address": "千本松",
            "city": "上高井郡高山村",
            "postcode": "382-0835",
            "prefecture": "長野県",
            "id": 3820835
        },
        {
            "address": "天神原",
            "city": "上高井郡高山村",
            "postcode": "382-0814",
            "prefecture": "長野県",
            "id": 3820814
        },
        { "address": "中原", "city": "上高井郡高山村", "postcode": "382-0804", "prefecture": "長野県", "id": 3820804 },
        {
            "address": "なかひら",
            "city": "上高井郡高山村",
            "postcode": "382-0806",
            "prefecture": "長野県",
            "id": 3820806
        },
        {
            "address": "福井原",
            "city": "上高井郡高山村",
            "postcode": "382-0822",
            "prefecture": "長野県",
            "id": 3820822
        },
        {
            "address": "二ツ石",
            "city": "上高井郡高山村",
            "postcode": "382-0826",
            "prefecture": "長野県",
            "id": 3820826
        },
        {
            "address": "堀之内",
            "city": "上高井郡高山村",
            "postcode": "382-0837",
            "prefecture": "長野県",
            "id": 3820837
        },
        { "address": "牧", "city": "上高井郡高山村", "postcode": "382-0821", "prefecture": "長野県", "id": 3820821 },
        { "address": "桝形", "city": "上高井郡高山村", "postcode": "382-0803", "prefecture": "長野県", "id": 3820803 },
        { "address": "松南", "city": "上高井郡高山村", "postcode": "382-0827", "prefecture": "長野県", "id": 3820827 },
        { "address": "松原", "city": "上高井郡高山村", "postcode": "382-0802", "prefecture": "長野県", "id": 3820802 },
        { "address": "三郷", "city": "上高井郡高山村", "postcode": "382-0805", "prefecture": "長野県", "id": 3820805 },
        { "address": "水中", "city": "上高井郡高山村", "postcode": "382-0834", "prefecture": "長野県", "id": 3820834 },
        {
            "address": "緑ケ丘",
            "city": "上高井郡高山村",
            "postcode": "382-0824",
            "prefecture": "長野県",
            "id": 3820824
        },
        { "address": "宮関", "city": "上高井郡高山村", "postcode": "382-0811", "prefecture": "長野県", "id": 3820811 },
        { "address": "紫", "city": "上高井郡高山村", "postcode": "382-0825", "prefecture": "長野県", "id": 3820825 },
        {
            "address": "山田温泉",
            "city": "上高井郡高山村",
            "postcode": "382-0816",
            "prefecture": "長野県",
            "id": 3820816
        },
        {
            "address": "山田牧場",
            "city": "上高井郡高山村",
            "postcode": "382-0817",
            "prefecture": "長野県",
            "id": 3820817
        },
        { "address": "蕨平", "city": "上高井郡高山村", "postcode": "382-0813", "prefecture": "長野県", "id": 3820813 },
        { "city": "下高井郡山ノ内町", "postcode": "381-0400", "prefecture": "長野県", "id": 3810400 },
        {
            "address": "佐野",
            "city": "下高井郡山ノ内町",
            "postcode": "381-0402",
            "prefecture": "長野県",
            "id": 3810402
        },
        {
            "address": "寒沢",
            "city": "下高井郡山ノ内町",
            "postcode": "381-0403",
            "prefecture": "長野県",
            "id": 3810403
        },
        {
            "address": "戸狩",
            "city": "下高井郡山ノ内町",
            "postcode": "381-0404",
            "prefecture": "長野県",
            "id": 3810404
        },
        {
            "address": "平穏",
            "city": "下高井郡山ノ内町",
            "postcode": "381-0401",
            "prefecture": "長野県",
            "id": 3810401
        },
        {
            "address": "夜間瀬",
            "city": "下高井郡山ノ内町",
            "postcode": "381-0405",
            "prefecture": "長野県",
            "id": 3810405
        },
        { "city": "下高井郡木島平村", "postcode": "389-2300", "prefecture": "長野県", "id": 3892300 },
        {
            "address": "往郷",
            "city": "下高井郡木島平村",
            "postcode": "389-2302",
            "prefecture": "長野県",
            "id": 3892302
        },
        {
            "address": "上木島",
            "city": "下高井郡木島平村",
            "postcode": "389-2303",
            "prefecture": "長野県",
            "id": 3892303
        },
        {
            "address": "穂高",
            "city": "下高井郡木島平村",
            "postcode": "389-2301",
            "prefecture": "長野県",
            "id": 3892301
        },
        { "city": "下高井郡野沢温泉村", "postcode": "389-2500", "prefecture": "長野県", "id": 3892500 },
        {
            "address": "坪山",
            "city": "下高井郡野沢温泉村",
            "postcode": "389-2501",
            "prefecture": "長野県",
            "id": 3892501
        },
        {
            "address": "豊郷",
            "city": "下高井郡野沢温泉村",
            "postcode": "389-2502",
            "prefecture": "長野県",
            "id": 3892502
        },
        {
            "address": "七ケ巻",
            "city": "下高井郡野沢温泉村",
            "postcode": "389-2612",
            "prefecture": "長野県",
            "id": 3892612
        },
        {
            "address": "東大滝",
            "city": "下高井郡野沢温泉村",
            "postcode": "389-2611",
            "prefecture": "長野県",
            "id": 3892611
        },
        {
            "address": "平林",
            "city": "下高井郡野沢温泉村",
            "postcode": "389-2614",
            "prefecture": "長野県",
            "id": 3892614
        },
        {
            "address": "前坂",
            "city": "下高井郡野沢温泉村",
            "postcode": "389-2503",
            "prefecture": "長野県",
            "id": 3892503
        },
        {
            "address": "虫生",
            "city": "下高井郡野沢温泉村",
            "postcode": "389-2613",
            "prefecture": "長野県",
            "id": 3892613
        },
        { "city": "上水内郡信濃町", "postcode": "389-1300", "prefecture": "長野県", "id": 3891300 },
        {
            "address": "荒瀬原",
            "city": "上水内郡信濃町",
            "postcode": "389-1311",
            "prefecture": "長野県",
            "id": 3891311
        },
        { "address": "大井", "city": "上水内郡信濃町", "postcode": "389-1316", "prefecture": "長野県", "id": 3891316 },
        { "address": "柏原", "city": "上水内郡信濃町", "postcode": "389-1305", "prefecture": "長野県", "id": 3891305 },
        {
            "address": "神山国際村",
            "city": "上水内郡信濃町",
            "postcode": "389-1304",
            "prefecture": "長野県",
            "id": 3891304
        },
        { "address": "熊坂", "city": "上水内郡信濃町", "postcode": "389-1301", "prefecture": "長野県", "id": 3891301 },
        { "address": "富濃", "city": "上水内郡信濃町", "postcode": "389-1312", "prefecture": "長野県", "id": 3891312 },
        { "address": "野尻", "city": "上水内郡信濃町", "postcode": "389-1303", "prefecture": "長野県", "id": 3891303 },
        { "address": "野尻", "city": "上水内郡信濃町", "postcode": "389-1306", "prefecture": "長野県", "id": 3891306 },
        { "address": "平岡", "city": "上水内郡信濃町", "postcode": "389-1315", "prefecture": "長野県", "id": 3891315 },
        { "address": "古間", "city": "上水内郡信濃町", "postcode": "389-1313", "prefecture": "長野県", "id": 3891313 },
        { "address": "古海", "city": "上水内郡信濃町", "postcode": "389-1302", "prefecture": "長野県", "id": 3891302 },
        { "address": "穂波", "city": "上水内郡信濃町", "postcode": "389-1314", "prefecture": "長野県", "id": 3891314 },
        { "city": "上水内郡小川村", "postcode": "381-3300", "prefecture": "長野県", "id": 3813300 },
        { "address": "稲丘", "city": "上水内郡小川村", "postcode": "381-3301", "prefecture": "長野県", "id": 3813301 },
        {
            "address": "小根山",
            "city": "上水内郡小川村",
            "postcode": "381-3303",
            "prefecture": "長野県",
            "id": 3813303
        },
        {
            "address": "瀬戸川",
            "city": "上水内郡小川村",
            "postcode": "381-3304",
            "prefecture": "長野県",
            "id": 3813304
        },
        { "address": "高府", "city": "上水内郡小川村", "postcode": "381-3302", "prefecture": "長野県", "id": 3813302 },
        { "city": "上水内郡飯綱町", "postcode": "389-1200", "prefecture": "長野県", "id": 3891200 },
        { "address": "赤塩", "city": "上水内郡飯綱町", "postcode": "389-1203", "prefecture": "長野県", "id": 3891203 },
        { "address": "芋川", "city": "上水内郡飯綱町", "postcode": "389-1201", "prefecture": "長野県", "id": 3891201 },
        { "address": "川上", "city": "上水内郡飯綱町", "postcode": "389-1226", "prefecture": "長野県", "id": 3891226 },
        { "address": "川谷", "city": "上水内郡飯綱町", "postcode": "389-1205", "prefecture": "長野県", "id": 3891205 },
        { "address": "倉井", "city": "上水内郡飯綱町", "postcode": "389-1204", "prefecture": "長野県", "id": 3891204 },
        { "address": "黒川", "city": "上水内郡飯綱町", "postcode": "389-1214", "prefecture": "長野県", "id": 3891214 },
        { "address": "高坂", "city": "上水内郡飯綱町", "postcode": "389-1227", "prefecture": "長野県", "id": 3891227 },
        { "address": "小玉", "city": "上水内郡飯綱町", "postcode": "389-1215", "prefecture": "長野県", "id": 3891215 },
        { "address": "坂口", "city": "上水内郡飯綱町", "postcode": "389-1225", "prefecture": "長野県", "id": 3891225 },
        {
            "address": "地蔵久保",
            "city": "上水内郡飯綱町",
            "postcode": "389-1224",
            "prefecture": "長野県",
            "id": 3891224
        },
        {
            "address": "袖之山",
            "city": "上水内郡飯綱町",
            "postcode": "389-1223",
            "prefecture": "長野県",
            "id": 3891223
        },
        { "address": "豊野", "city": "上水内郡飯綱町", "postcode": "389-1212", "prefecture": "長野県", "id": 3891212 },
        {
            "address": "東柏原",
            "city": "上水内郡飯綱町",
            "postcode": "389-1202",
            "prefecture": "長野県",
            "id": 3891202
        },
        { "address": "平出", "city": "上水内郡飯綱町", "postcode": "389-1213", "prefecture": "長野県", "id": 3891213 },
        {
            "address": "普光寺",
            "city": "上水内郡飯綱町",
            "postcode": "389-1206",
            "prefecture": "長野県",
            "id": 3891206
        },
        { "address": "古町", "city": "上水内郡飯綱町", "postcode": "389-1221", "prefecture": "長野県", "id": 3891221 },
        { "address": "牟礼", "city": "上水内郡飯綱町", "postcode": "389-1211", "prefecture": "長野県", "id": 3891211 },
        { "address": "柳里", "city": "上水内郡飯綱町", "postcode": "389-1222", "prefecture": "長野県", "id": 3891222 },
        { "city": "下水内郡栄村", "postcode": "389-2700", "prefecture": "長野県", "id": 3892700 },
        { "address": "堺", "city": "下水内郡栄村", "postcode": "949-8321", "prefecture": "長野県", "id": 9498321 },
        { "address": "堺", "city": "下水内郡栄村", "postcode": "389-2703", "prefecture": "長野県", "id": 3892703 },
        { "address": "豊栄", "city": "下水内郡栄村", "postcode": "389-2701", "prefecture": "長野県", "id": 3892701 },
        { "address": "北信", "city": "下水内郡栄村", "postcode": "389-2702", "prefecture": "長野県", "id": 3892702 }
    ]
}
