{
    "postcodes": [
        { "city": "高松市", "postcode": "760-0000", "prefecture": "香川県", "id": 7600000 },
        { "address": "茜町", "city": "高松市", "postcode": "760-0002", "prefecture": "香川県", "id": 7600002 },
        { "address": "朝日新町", "city": "高松市", "postcode": "760-0064", "prefecture": "香川県", "id": 7600064 },
        { "address": "朝日町", "city": "高松市", "postcode": "760-0065", "prefecture": "香川県", "id": 7600065 },
        { "address": "庵治町", "city": "高松市", "postcode": "761-0130", "prefecture": "香川県", "id": 7610130 },
        { "address": "飯田町", "city": "高松市", "postcode": "761-8033", "prefecture": "香川県", "id": 7618033 },
        { "address": "生島町", "city": "高松市", "postcode": "761-8002", "prefecture": "香川県", "id": 7618002 },
        { "address": "井口町", "city": "高松市", "postcode": "760-0038", "prefecture": "香川県", "id": 7600038 },
        { "address": "池田町", "city": "高松市", "postcode": "761-0444", "prefecture": "香川県", "id": 7610444 },
        { "address": "一宮町", "city": "高松市", "postcode": "761-8084", "prefecture": "香川県", "id": 7618084 },
        { "address": "今里町", "city": "高松市", "postcode": "760-0078", "prefecture": "香川県", "id": 7600078 },
        { "address": "今新町", "city": "高松市", "postcode": "760-0043", "prefecture": "香川県", "id": 7600043 },
        { "address": "植松町", "city": "高松市", "postcode": "761-8005", "prefecture": "香川県", "id": 7618005 },
        { "address": "内町", "city": "高松市", "postcode": "760-0034", "prefecture": "香川県", "id": 7600034 },
        { "address": "円座町", "city": "高松市", "postcode": "761-8044", "prefecture": "香川県", "id": 7618044 },
        { "address": "扇町", "city": "高松市", "postcode": "760-0013", "prefecture": "香川県", "id": 7600013 },
        { "address": "太田上町", "city": "高松市", "postcode": "761-8074", "prefecture": "香川県", "id": 7618074 },
        { "address": "太田下町", "city": "高松市", "postcode": "761-8073", "prefecture": "香川県", "id": 7618073 },
        { "address": "岡本町", "city": "高松市", "postcode": "761-8047", "prefecture": "香川県", "id": 7618047 },
        { "address": "男木町", "city": "高松市", "postcode": "760-0091", "prefecture": "香川県", "id": 7600091 },
        { "address": "小村町", "city": "高松市", "postcode": "761-0431", "prefecture": "香川県", "id": 7610431 },
        { "address": "香川町浅野", "city": "高松市", "postcode": "761-1703", "prefecture": "香川県", "id": 7611703 },
        { "address": "香川町大野", "city": "高松市", "postcode": "761-1701", "prefecture": "香川県", "id": 7611701 },
        { "address": "香川町川内原", "city": "高松市", "postcode": "761-1704", "prefecture": "香川県", "id": 7611704 },
        { "address": "香川町川東上", "city": "高松市", "postcode": "761-1706", "prefecture": "香川県", "id": 7611706 },
        { "address": "香川町川東下", "city": "高松市", "postcode": "761-1705", "prefecture": "香川県", "id": 7611705 },
        { "address": "香川町寺井", "city": "高松市", "postcode": "761-1702", "prefecture": "香川県", "id": 7611702 },
        { "address": "香川町東谷", "city": "高松市", "postcode": "761-1707", "prefecture": "香川県", "id": 7611707 },
        { "address": "香川町安原下", "city": "高松市", "postcode": "761-1708", "prefecture": "香川県", "id": 7611708 },
        { "address": "鍛冶屋町", "city": "高松市", "postcode": "760-0028", "prefecture": "香川県", "id": 7600028 },
        { "address": "春日町", "city": "高松市", "postcode": "761-0101", "prefecture": "香川県", "id": 7610101 },
        { "address": "片原町", "city": "高松市", "postcode": "760-0040", "prefecture": "香川県", "id": 7600040 },
        { "address": "鹿角町", "city": "高松市", "postcode": "761-8082", "prefecture": "香川県", "id": 7618082 },
        { "address": "上天神町", "city": "高松市", "postcode": "761-8056", "prefecture": "香川県", "id": 7618056 },
        { "address": "上之町", "city": "高松市", "postcode": "761-8064", "prefecture": "香川県", "id": 7618064 },
        { "address": "上林町", "city": "高松市", "postcode": "761-0302", "prefecture": "香川県", "id": 7610302 },
        { "address": "上福岡町", "city": "高松市", "postcode": "760-0077", "prefecture": "香川県", "id": 7600077 },
        { "address": "紙町", "city": "高松市", "postcode": "761-8055", "prefecture": "香川県", "id": 7618055 },
        { "address": "亀井町", "city": "高松市", "postcode": "760-0050", "prefecture": "香川県", "id": 7600050 },
        { "address": "亀岡町", "city": "高松市", "postcode": "760-0006", "prefecture": "香川県", "id": 7600006 },
        { "address": "亀田町", "city": "高松市", "postcode": "761-0323", "prefecture": "香川県", "id": 7610323 },
        { "address": "亀田南町", "city": "高松市", "postcode": "761-0432", "prefecture": "香川県", "id": 7610432 },
        { "address": "川島東町", "city": "高松市", "postcode": "761-0443", "prefecture": "香川県", "id": 7610443 },
        { "address": "川島本町", "city": "高松市", "postcode": "761-0442", "prefecture": "香川県", "id": 7610442 },
        { "address": "川部町", "city": "高松市", "postcode": "761-8046", "prefecture": "香川県", "id": 7618046 },
        { "address": "瓦町", "city": "高松市", "postcode": "760-0052", "prefecture": "香川県", "id": 7600052 },
        { "address": "観光町", "city": "高松市", "postcode": "760-0076", "prefecture": "香川県", "id": 7600076 },
        { "address": "観光通", "city": "高松市", "postcode": "760-0055", "prefecture": "香川県", "id": 7600055 },
        { "address": "木太町", "city": "高松市", "postcode": "760-0080", "prefecture": "香川県", "id": 7600080 },
        { "address": "北浜町", "city": "高松市", "postcode": "760-0031", "prefecture": "香川県", "id": 7600031 },
        { "address": "鬼無町鬼無", "city": "高松市", "postcode": "761-8026", "prefecture": "香川県", "id": 7618026 },
        { "address": "鬼無町是竹", "city": "高松市", "postcode": "761-8021", "prefecture": "香川県", "id": 7618021 },
        { "address": "鬼無町佐藤", "city": "高松市", "postcode": "761-8023", "prefecture": "香川県", "id": 7618023 },
        { "address": "鬼無町佐料", "city": "高松市", "postcode": "761-8022", "prefecture": "香川県", "id": 7618022 },
        { "address": "鬼無町藤井", "city": "高松市", "postcode": "761-8024", "prefecture": "香川県", "id": 7618024 },
        { "address": "鬼無町山口", "city": "高松市", "postcode": "761-8025", "prefecture": "香川県", "id": 7618025 },
        { "address": "楠上町", "city": "高松市", "postcode": "760-0075", "prefecture": "香川県", "id": 7600075 },
        { "address": "香西東町", "city": "高松市", "postcode": "761-8013", "prefecture": "香川県", "id": 7618013 },
        { "address": "香西西町", "city": "高松市", "postcode": "761-8015", "prefecture": "香川県", "id": 7618015 },
        { "address": "香西南町", "city": "高松市", "postcode": "761-8014", "prefecture": "香川県", "id": 7618014 },
        { "address": "香西北町", "city": "高松市", "postcode": "761-8011", "prefecture": "香川県", "id": 7618011 },
        { "address": "香西本町", "city": "高松市", "postcode": "761-8012", "prefecture": "香川県", "id": 7618012 },
        { "address": "郷東町", "city": "高松市", "postcode": "761-8031", "prefecture": "香川県", "id": 7618031 },
        { "address": "香南町池内", "city": "高松市", "postcode": "761-1405", "prefecture": "香川県", "id": 7611405 },
        { "address": "香南町岡", "city": "高松市", "postcode": "761-1401", "prefecture": "香川県", "id": 7611401 },
        { "address": "香南町西庄", "city": "高松市", "postcode": "761-1406", "prefecture": "香川県", "id": 7611406 },
        { "address": "香南町由佐", "city": "高松市", "postcode": "761-1402", "prefecture": "香川県", "id": 7611402 },
        { "address": "香南町横井", "city": "高松市", "postcode": "761-1404", "prefecture": "香川県", "id": 7611404 },
        { "address": "香南町吉光", "city": "高松市", "postcode": "761-1403", "prefecture": "香川県", "id": 7611403 },
        { "address": "国分寺町柏原", "city": "高松市", "postcode": "769-0105", "prefecture": "香川県", "id": 7690105 },
        { "address": "国分寺町国分", "city": "高松市", "postcode": "769-0102", "prefecture": "香川県", "id": 7690102 },
        { "address": "国分寺町新名", "city": "高松市", "postcode": "769-0104", "prefecture": "香川県", "id": 7690104 },
        { "address": "国分寺町新居", "city": "高松市", "postcode": "769-0101", "prefecture": "香川県", "id": 7690101 },
        { "address": "国分寺町福家", "city": "高松市", "postcode": "769-0103", "prefecture": "香川県", "id": 7690103 },
        { "address": "寿町", "city": "高松市", "postcode": "760-0023", "prefecture": "香川県", "id": 7600023 },
        { "address": "御坊町", "city": "高松市", "postcode": "760-0044", "prefecture": "香川県", "id": 7600044 },
        { "address": "紺屋町", "city": "高松市", "postcode": "760-0027", "prefecture": "香川県", "id": 7600027 },
        { "address": "西宝町", "city": "高松市", "postcode": "760-0004", "prefecture": "香川県", "id": 7600004 },
        { "address": "幸町", "city": "高松市", "postcode": "760-0016", "prefecture": "香川県", "id": 7600016 },
        { "address": "桜町", "city": "高松市", "postcode": "760-0074", "prefecture": "香川県", "id": 7600074 },
        { "address": "三条町", "city": "高松市", "postcode": "761-8072", "prefecture": "香川県", "id": 7618072 },
        { "address": "サンポート", "city": "高松市", "postcode": "760-0019", "prefecture": "香川県", "id": 7600019 },
        { "address": "三名町", "city": "高松市", "postcode": "761-8083", "prefecture": "香川県", "id": 7618083 },
        { "address": "紫雲町", "city": "高松市", "postcode": "760-0015", "prefecture": "香川県", "id": 7600015 },
        { "address": "塩上町", "city": "高松市", "postcode": "760-0062", "prefecture": "香川県", "id": 7600062 },
        { "address": "塩江町上西乙", "city": "高松市", "postcode": "761-1614", "prefecture": "香川県", "id": 7611614 },
        { "address": "塩江町上西甲", "city": "高松市", "postcode": "761-1613", "prefecture": "香川県", "id": 7611613 },
        { "address": "塩江町安原上", "city": "高松市", "postcode": "761-1611", "prefecture": "香川県", "id": 7611611 },
        {
            "address": "塩江町安原上東",
            "city": "高松市",
            "postcode": "761-1612",
            "prefecture": "香川県",
            "id": 7611612
        },
        { "address": "塩江町安原下", "city": "高松市", "postcode": "761-1615", "prefecture": "香川県", "id": 7611615 },
        { "address": "塩江町安原下", "city": "高松市", "postcode": "761-1501", "prefecture": "香川県", "id": 7611501 },
        { "address": "塩江町安原下", "city": "高松市", "postcode": "761-1502", "prefecture": "香川県", "id": 7611502 },
        { "address": "塩江町安原下", "city": "高松市", "postcode": "761-1503", "prefecture": "香川県", "id": 7611503 },
        { "address": "塩江町安原下", "city": "高松市", "postcode": "761-1504", "prefecture": "香川県", "id": 7611504 },
        { "address": "塩屋町", "city": "高松市", "postcode": "760-0047", "prefecture": "香川県", "id": 7600047 },
        { "address": "下田井町", "city": "高松市", "postcode": "761-0313", "prefecture": "香川県", "id": 7610313 },
        { "address": "出作町", "city": "高松市", "postcode": "761-8077", "prefecture": "香川県", "id": 7618077 },
        { "address": "城東町", "city": "高松市", "postcode": "760-0036", "prefecture": "香川県", "id": 7600036 },
        { "address": "昭和町", "city": "高松市", "postcode": "760-0014", "prefecture": "香川県", "id": 7600014 },
        { "address": "新北町", "city": "高松市", "postcode": "760-0001", "prefecture": "香川県", "id": 7600001 },
        { "address": "神在川窪町", "city": "高松市", "postcode": "761-8003", "prefecture": "香川県", "id": 7618003 },
        { "address": "新田町甲", "city": "高松市", "postcode": "761-0102", "prefecture": "香川県", "id": 7610102 },
        { "address": "新田町乙", "city": "高松市", "postcode": "761-0103", "prefecture": "香川県", "id": 7610103 },
        { "address": "末広町", "city": "高松市", "postcode": "760-0060", "prefecture": "香川県", "id": 7600060 },
        { "address": "菅沢町", "city": "高松市", "postcode": "761-1616", "prefecture": "香川県", "id": 7611616 },
        { "address": "瀬戸内町", "city": "高松市", "postcode": "760-0012", "prefecture": "香川県", "id": 7600012 },
        { "address": "十川東町", "city": "高松市", "postcode": "761-0434", "prefecture": "香川県", "id": 7610434 },
        { "address": "十川西町", "city": "高松市", "postcode": "761-0433", "prefecture": "香川県", "id": 7610433 },
        { "address": "高松町", "city": "高松市", "postcode": "761-0104", "prefecture": "香川県", "id": 7610104 },
        { "address": "多賀町", "city": "高松市", "postcode": "760-0063", "prefecture": "香川県", "id": 7600063 },
        { "address": "多肥上町", "city": "高松市", "postcode": "761-8076", "prefecture": "香川県", "id": 7618076 },
        { "address": "多肥下町", "city": "高松市", "postcode": "761-8075", "prefecture": "香川県", "id": 7618075 },
        { "address": "田町", "city": "高松市", "postcode": "760-0053", "prefecture": "香川県", "id": 7600053 },
        { "address": "玉藻町", "city": "高松市", "postcode": "760-0030", "prefecture": "香川県", "id": 7600030 },
        { "address": "田村町", "city": "高松市", "postcode": "761-8057", "prefecture": "香川県", "id": 7618057 },
        { "address": "亀水町", "city": "高松市", "postcode": "761-8001", "prefecture": "香川県", "id": 7618001 },
        { "address": "大工町", "city": "高松市", "postcode": "760-0042", "prefecture": "香川県", "id": 7600042 },
        { "address": "檀紙町", "city": "高松市", "postcode": "761-8041", "prefecture": "香川県", "id": 7618041 },
        { "address": "中央町", "city": "高松市", "postcode": "760-0007", "prefecture": "香川県", "id": 7600007 },
        { "address": "勅使町", "city": "高松市", "postcode": "761-8058", "prefecture": "香川県", "id": 7618058 },
        { "address": "築地町", "city": "高松市", "postcode": "760-0061", "prefecture": "香川県", "id": 7600061 },
        { "address": "鶴市町", "city": "高松市", "postcode": "760-0093", "prefecture": "香川県", "id": 7600093 },
        { "address": "鶴市町", "city": "高松市", "postcode": "761-8032", "prefecture": "香川県", "id": 7618032 },
        { "address": "鶴屋町", "city": "高松市", "postcode": "760-0035", "prefecture": "香川県", "id": 7600035 },
        { "address": "寺井町", "city": "高松市", "postcode": "761-8085", "prefecture": "香川県", "id": 7618085 },
        { "address": "天神前", "city": "高松市", "postcode": "760-0018", "prefecture": "香川県", "id": 7600018 },
        { "address": "通町", "city": "高松市", "postcode": "760-0046", "prefecture": "香川県", "id": 7600046 },
        { "address": "常磐町", "city": "高松市", "postcode": "760-0054", "prefecture": "香川県", "id": 7600054 },
        { "address": "磨屋町", "city": "高松市", "postcode": "760-0026", "prefecture": "香川県", "id": 7600026 },
        { "address": "中新町", "city": "高松市", "postcode": "760-0056", "prefecture": "香川県", "id": 7600056 },
        { "address": "中間町", "city": "高松市", "postcode": "761-8043", "prefecture": "香川県", "id": 7618043 },
        { "address": "中野町", "city": "高松市", "postcode": "760-0008", "prefecture": "香川県", "id": 7600008 },
        { "address": "中山町", "city": "高松市", "postcode": "761-8004", "prefecture": "香川県", "id": 7618004 },
        { "address": "成合町", "city": "高松市", "postcode": "761-8081", "prefecture": "香川県", "id": 7618081 },
        { "address": "西植田町", "city": "高松市", "postcode": "761-0445", "prefecture": "香川県", "id": 7610445 },
        { "address": "西内町", "city": "高松市", "postcode": "760-0022", "prefecture": "香川県", "id": 7600022 },
        { "address": "西春日町", "city": "高松市", "postcode": "761-8051", "prefecture": "香川県", "id": 7618051 },
        { "address": "錦町", "city": "高松市", "postcode": "760-0020", "prefecture": "香川県", "id": 7600020 },
        { "address": "西の丸町", "city": "高松市", "postcode": "760-0021", "prefecture": "香川県", "id": 7600021 },
        { "address": "西ハゼ町", "city": "高松市", "postcode": "761-8053", "prefecture": "香川県", "id": 7618053 },
        { "address": "西町", "city": "高松市", "postcode": "760-0003", "prefecture": "香川県", "id": 7600003 },
        { "address": "西山崎町", "city": "高松市", "postcode": "761-8045", "prefecture": "香川県", "id": 7618045 },
        { "address": "旅籠町", "city": "高松市", "postcode": "760-0057", "prefecture": "香川県", "id": 7600057 },
        { "address": "花園町", "city": "高松市", "postcode": "760-0072", "prefecture": "香川県", "id": 7600072 },
        { "address": "花ノ宮町", "city": "高松市", "postcode": "761-8063", "prefecture": "香川県", "id": 7618063 },
        { "address": "浜ノ町", "city": "高松市", "postcode": "760-0011", "prefecture": "香川県", "id": 7600011 },
        { "address": "林町", "city": "高松市", "postcode": "761-0301", "prefecture": "香川県", "id": 7610301 },
        { "address": "番町", "city": "高松市", "postcode": "760-0017", "prefecture": "香川県", "id": 7600017 },
        { "address": "東植田町", "city": "高松市", "postcode": "761-0446", "prefecture": "香川県", "id": 7610446 },
        { "address": "東田町", "city": "高松市", "postcode": "760-0058", "prefecture": "香川県", "id": 7600058 },
        { "address": "東ハゼ町", "city": "高松市", "postcode": "761-8054", "prefecture": "香川県", "id": 7618054 },
        { "address": "東浜町", "city": "高松市", "postcode": "760-0037", "prefecture": "香川県", "id": 7600037 },
        { "address": "東山崎町", "city": "高松市", "postcode": "761-0312", "prefecture": "香川県", "id": 7610312 },
        { "address": "百間町", "city": "高松市", "postcode": "760-0041", "prefecture": "香川県", "id": 7600041 },
        { "address": "兵庫町", "city": "高松市", "postcode": "760-0024", "prefecture": "香川県", "id": 7600024 },
        { "address": "福岡町", "city": "高松市", "postcode": "760-0066", "prefecture": "香川県", "id": 7600066 },
        { "address": "福田町", "city": "高松市", "postcode": "760-0048", "prefecture": "香川県", "id": 7600048 },
        { "address": "藤塚町", "city": "高松市", "postcode": "760-0071", "prefecture": "香川県", "id": 7600071 },
        { "address": "伏石町", "city": "高松市", "postcode": "761-8071", "prefecture": "香川県", "id": 7618071 },
        { "address": "古新町", "city": "高松市", "postcode": "760-0025", "prefecture": "香川県", "id": 7600025 },
        { "address": "古馬場町", "city": "高松市", "postcode": "760-0045", "prefecture": "香川県", "id": 7600045 },
        { "address": "仏生山町甲", "city": "高松市", "postcode": "761-8078", "prefecture": "香川県", "id": 7618078 },
        { "address": "仏生山町乙", "city": "高松市", "postcode": "761-8079", "prefecture": "香川県", "id": 7618079 },
        { "address": "本町", "city": "高松市", "postcode": "760-0032", "prefecture": "香川県", "id": 7600032 },
        { "address": "前田東町", "city": "高松市", "postcode": "761-0322", "prefecture": "香川県", "id": 7610322 },
        { "address": "前田西町", "city": "高松市", "postcode": "761-0321", "prefecture": "香川県", "id": 7610321 },
        { "address": "松島町", "city": "高松市", "postcode": "760-0068", "prefecture": "香川県", "id": 7600068 },
        { "address": "松並町", "city": "高松市", "postcode": "761-8052", "prefecture": "香川県", "id": 7618052 },
        { "address": "松縄町", "city": "高松市", "postcode": "760-0079", "prefecture": "香川県", "id": 7600079 },
        { "address": "松福町", "city": "高松市", "postcode": "760-0067", "prefecture": "香川県", "id": 7600067 },
        { "address": "丸亀町", "city": "高松市", "postcode": "760-0029", "prefecture": "香川県", "id": 7600029 },
        { "address": "丸の内", "city": "高松市", "postcode": "760-0033", "prefecture": "香川県", "id": 7600033 },
        { "address": "三谷町", "city": "高松市", "postcode": "761-0450", "prefecture": "香川県", "id": 7610450 },
        { "address": "南新町", "city": "高松市", "postcode": "760-0051", "prefecture": "香川県", "id": 7600051 },
        { "address": "峰山町", "city": "高松市", "postcode": "760-0009", "prefecture": "香川県", "id": 7600009 },
        { "address": "御厩町", "city": "高松市", "postcode": "761-8042", "prefecture": "香川県", "id": 7618042 },
        { "address": "宮脇町", "city": "高松市", "postcode": "760-0005", "prefecture": "香川県", "id": 7600005 },
        { "address": "牟礼町大町", "city": "高松市", "postcode": "761-0122", "prefecture": "香川県", "id": 7610122 },
        { "address": "牟礼町原", "city": "高松市", "postcode": "761-0123", "prefecture": "香川県", "id": 7610123 },
        { "address": "牟礼町牟礼", "city": "高松市", "postcode": "761-0121", "prefecture": "香川県", "id": 7610121 },
        { "address": "室新町", "city": "高松市", "postcode": "761-8062", "prefecture": "香川県", "id": 7618062 },
        { "address": "室町", "city": "高松市", "postcode": "761-8061", "prefecture": "香川県", "id": 7618061 },
        { "address": "女木町", "city": "高松市", "postcode": "760-0092", "prefecture": "香川県", "id": 7600092 },
        { "address": "元山町", "city": "高松市", "postcode": "761-0311", "prefecture": "香川県", "id": 7610311 },
        { "address": "八坂町", "city": "高松市", "postcode": "760-0049", "prefecture": "香川県", "id": 7600049 },
        { "address": "屋島中町", "city": "高松市", "postcode": "761-0112", "prefecture": "香川県", "id": 7610112 },
        { "address": "屋島東町", "city": "高松市", "postcode": "761-0111", "prefecture": "香川県", "id": 7610111 },
        { "address": "屋島西町", "city": "高松市", "postcode": "761-0113", "prefecture": "香川県", "id": 7610113 },
        { "address": "由良町", "city": "高松市", "postcode": "761-0441", "prefecture": "香川県", "id": 7610441 },
        { "address": "栗林町", "city": "高松市", "postcode": "760-0073", "prefecture": "香川県", "id": 7600073 },
        { "address": "六条町", "city": "高松市", "postcode": "761-0303", "prefecture": "香川県", "id": 7610303 },
        { "city": "丸亀市", "postcode": "763-0000", "prefecture": "香川県", "id": 7630000 },
        { "address": "綾歌町岡田上", "city": "丸亀市", "postcode": "761-2401", "prefecture": "香川県", "id": 7612401 },
        { "address": "綾歌町岡田下", "city": "丸亀市", "postcode": "761-2402", "prefecture": "香川県", "id": 7612402 },
        { "address": "綾歌町岡田東", "city": "丸亀市", "postcode": "761-2404", "prefecture": "香川県", "id": 7612404 },
        { "address": "綾歌町岡田西", "city": "丸亀市", "postcode": "761-2403", "prefecture": "香川県", "id": 7612403 },
        { "address": "綾歌町栗熊東", "city": "丸亀市", "postcode": "761-2406", "prefecture": "香川県", "id": 7612406 },
        { "address": "綾歌町栗熊西", "city": "丸亀市", "postcode": "761-2405", "prefecture": "香川県", "id": 7612405 },
        { "address": "綾歌町富熊", "city": "丸亀市", "postcode": "761-2408", "prefecture": "香川県", "id": 7612408 },
        { "address": "綾歌町富熊", "city": "丸亀市", "postcode": "761-2407", "prefecture": "香川県", "id": 7612407 },
        { "address": "飯野町東二", "city": "丸亀市", "postcode": "763-0084", "prefecture": "香川県", "id": 7630084 },
        { "address": "飯野町東分", "city": "丸亀市", "postcode": "763-0085", "prefecture": "香川県", "id": 7630085 },
        { "address": "飯野町西分", "city": "丸亀市", "postcode": "763-0086", "prefecture": "香川県", "id": 7630086 },
        { "address": "一番丁", "city": "丸亀市", "postcode": "763-0025", "prefecture": "香川県", "id": 7630025 },
        { "address": "今津町", "city": "丸亀市", "postcode": "763-0051", "prefecture": "香川県", "id": 7630051 },
        { "address": "魚屋町", "city": "丸亀市", "postcode": "763-0006", "prefecture": "香川県", "id": 7630006 },
        { "address": "牛島", "city": "丸亀市", "postcode": "763-0231", "prefecture": "香川県", "id": 7630231 },
        { "address": "大手町", "city": "丸亀市", "postcode": "763-0034", "prefecture": "香川県", "id": 7630034 },
        { "address": "金倉町", "city": "丸亀市", "postcode": "763-0053", "prefecture": "香川県", "id": 7630053 },
        { "address": "葭町", "city": "丸亀市", "postcode": "763-0003", "prefecture": "香川県", "id": 7630003 },
        { "address": "川西町南", "city": "丸亀市", "postcode": "763-0092", "prefecture": "香川県", "id": 7630092 },
        { "address": "川西町北", "city": "丸亀市", "postcode": "763-0091", "prefecture": "香川県", "id": 7630091 },
        { "address": "瓦町", "city": "丸亀市", "postcode": "763-0002", "prefecture": "香川県", "id": 7630002 },
        { "address": "北平山町", "city": "丸亀市", "postcode": "763-0015", "prefecture": "香川県", "id": 7630015 },
        { "address": "柞原町", "city": "丸亀市", "postcode": "763-0073", "prefecture": "香川県", "id": 7630073 },
        { "address": "九番丁", "city": "丸亀市", "postcode": "763-0029", "prefecture": "香川県", "id": 7630029 },
        { "address": "郡家町", "city": "丸亀市", "postcode": "763-0093", "prefecture": "香川県", "id": 7630093 },
        { "address": "御供所町", "city": "丸亀市", "postcode": "763-0014", "prefecture": "香川県", "id": 7630014 },
        { "address": "米屋町", "city": "丸亀市", "postcode": "763-0004", "prefecture": "香川県", "id": 7630004 },
        { "address": "幸町", "city": "丸亀市", "postcode": "763-0048", "prefecture": "香川県", "id": 7630048 },
        { "address": "三条町", "city": "丸亀市", "postcode": "763-0094", "prefecture": "香川県", "id": 7630094 },
        { "address": "塩屋町", "city": "丸亀市", "postcode": "763-0065", "prefecture": "香川県", "id": 7630065 },
        { "address": "七番丁", "city": "丸亀市", "postcode": "763-0027", "prefecture": "香川県", "id": 7630027 },
        { "address": "十番丁", "city": "丸亀市", "postcode": "763-0030", "prefecture": "香川県", "id": 7630030 },
        { "address": "城東町", "city": "丸亀市", "postcode": "763-0013", "prefecture": "香川県", "id": 7630013 },
        { "address": "城南町", "city": "丸亀市", "postcode": "763-0031", "prefecture": "香川県", "id": 7630031 },
        { "address": "城西町", "city": "丸亀市", "postcode": "763-0032", "prefecture": "香川県", "id": 7630032 },
        { "address": "昭和町", "city": "丸亀市", "postcode": "763-0061", "prefecture": "香川県", "id": 7630061 },
        { "address": "塩飽町", "city": "丸亀市", "postcode": "763-0024", "prefecture": "香川県", "id": 7630024 },
        { "address": "新田町", "city": "丸亀市", "postcode": "763-0055", "prefecture": "香川県", "id": 7630055 },
        { "address": "新浜町", "city": "丸亀市", "postcode": "763-0063", "prefecture": "香川県", "id": 7630063 },
        { "address": "新町", "city": "丸亀市", "postcode": "763-0045", "prefecture": "香川県", "id": 7630045 },
        { "address": "宗古町", "city": "丸亀市", "postcode": "763-0007", "prefecture": "香川県", "id": 7630007 },
        { "address": "田村町", "city": "丸亀市", "postcode": "763-0071", "prefecture": "香川県", "id": 7630071 },
        { "address": "垂水町", "city": "丸亀市", "postcode": "763-0095", "prefecture": "香川県", "id": 7630095 },
        { "address": "津森町", "city": "丸亀市", "postcode": "763-0052", "prefecture": "香川県", "id": 7630052 },
        { "address": "手島町", "city": "丸亀市", "postcode": "763-0111", "prefecture": "香川県", "id": 7630111 },
        { "address": "天満町", "city": "丸亀市", "postcode": "763-0066", "prefecture": "香川県", "id": 7630066 },
        { "address": "通町", "city": "丸亀市", "postcode": "763-0043", "prefecture": "香川県", "id": 7630043 },
        { "address": "富屋町", "city": "丸亀市", "postcode": "763-0021", "prefecture": "香川県", "id": 7630021 },
        { "address": "土居町", "city": "丸亀市", "postcode": "763-0012", "prefecture": "香川県", "id": 7630012 },
        { "address": "土器町東", "city": "丸亀市", "postcode": "763-0082", "prefecture": "香川県", "id": 7630082 },
        { "address": "土器町西", "city": "丸亀市", "postcode": "763-0081", "prefecture": "香川県", "id": 7630081 },
        { "address": "土器町北", "city": "丸亀市", "postcode": "763-0083", "prefecture": "香川県", "id": 7630083 },
        { "address": "中津町", "city": "丸亀市", "postcode": "763-0054", "prefecture": "香川県", "id": 7630054 },
        { "address": "中府町", "city": "丸亀市", "postcode": "763-0033", "prefecture": "香川県", "id": 7630033 },
        { "address": "南条町", "city": "丸亀市", "postcode": "763-0046", "prefecture": "香川県", "id": 7630046 },
        { "address": "西平山町", "city": "丸亀市", "postcode": "763-0041", "prefecture": "香川県", "id": 7630041 },
        { "address": "西本町", "city": "丸亀市", "postcode": "763-0047", "prefecture": "香川県", "id": 7630047 },
        { "address": "八番丁", "city": "丸亀市", "postcode": "763-0028", "prefecture": "香川県", "id": 7630028 },
        { "address": "浜町", "city": "丸亀市", "postcode": "763-0022", "prefecture": "香川県", "id": 7630022 },
        { "address": "原田団地", "city": "丸亀市", "postcode": "763-0075", "prefecture": "香川県", "id": 7630075 },
        { "address": "原田町", "city": "丸亀市", "postcode": "763-0074", "prefecture": "香川県", "id": 7630074 },
        {
            "address": "飯山町上法軍寺",
            "city": "丸亀市",
            "postcode": "762-0084",
            "prefecture": "香川県",
            "id": 7620084
        },
        { "address": "飯山町川原", "city": "丸亀市", "postcode": "762-0082", "prefecture": "香川県", "id": 7620082 },
        { "address": "飯山町真時", "city": "丸亀市", "postcode": "762-0086", "prefecture": "香川県", "id": 7620086 },
        {
            "address": "飯山町下法軍寺",
            "city": "丸亀市",
            "postcode": "762-0083",
            "prefecture": "香川県",
            "id": 7620083
        },
        { "address": "飯山町西坂元", "city": "丸亀市", "postcode": "762-0087", "prefecture": "香川県", "id": 7620087 },
        { "address": "飯山町東小川", "city": "丸亀市", "postcode": "762-0085", "prefecture": "香川県", "id": 7620085 },
        { "address": "飯山町東坂元", "city": "丸亀市", "postcode": "762-0081", "prefecture": "香川県", "id": 7620081 },
        { "address": "広島町青木", "city": "丸亀市", "postcode": "763-0105", "prefecture": "香川県", "id": 7630105 },
        { "address": "広島町市井", "city": "丸亀市", "postcode": "763-0106", "prefecture": "香川県", "id": 7630106 },
        { "address": "広島町江の浦", "city": "丸亀市", "postcode": "763-0102", "prefecture": "香川県", "id": 7630102 },
        { "address": "広島町小手島", "city": "丸亀市", "postcode": "763-0108", "prefecture": "香川県", "id": 7630108 },
        { "address": "広島町釜の越", "city": "丸亀市", "postcode": "763-0103", "prefecture": "香川県", "id": 7630103 },
        { "address": "広島町甲路", "city": "丸亀市", "postcode": "763-0104", "prefecture": "香川県", "id": 7630104 },
        { "address": "広島町立石", "city": "丸亀市", "postcode": "763-0101", "prefecture": "香川県", "id": 7630101 },
        { "address": "広島町茂浦", "city": "丸亀市", "postcode": "763-0107", "prefecture": "香川県", "id": 7630107 },
        { "address": "福島町", "city": "丸亀市", "postcode": "763-0044", "prefecture": "香川県", "id": 7630044 },
        { "address": "富士見町", "city": "丸亀市", "postcode": "763-0011", "prefecture": "香川県", "id": 7630011 },
        { "address": "風袋町", "city": "丸亀市", "postcode": "763-0001", "prefecture": "香川県", "id": 7630001 },
        { "address": "蓬莱町", "city": "丸亀市", "postcode": "763-0062", "prefecture": "香川県", "id": 7630062 },
        { "address": "本島町生ノ浜", "city": "丸亀市", "postcode": "763-0225", "prefecture": "香川県", "id": 7630225 },
        { "address": "本島町大浦", "city": "丸亀市", "postcode": "763-0228", "prefecture": "香川県", "id": 7630228 },
        { "address": "本島町笠島", "city": "丸亀市", "postcode": "763-0221", "prefecture": "香川県", "id": 7630221 },
        { "address": "本島町甲生", "city": "丸亀市", "postcode": "763-0222", "prefecture": "香川県", "id": 7630222 },
        { "address": "本島町小阪", "city": "丸亀市", "postcode": "763-0224", "prefecture": "香川県", "id": 7630224 },
        { "address": "本島町尻浜", "city": "丸亀市", "postcode": "763-0226", "prefecture": "香川県", "id": 7630226 },
        { "address": "本島町泊", "city": "丸亀市", "postcode": "763-0223", "prefecture": "香川県", "id": 7630223 },
        { "address": "本島町福田", "city": "丸亀市", "postcode": "763-0227", "prefecture": "香川県", "id": 7630227 },
        { "address": "本町", "city": "丸亀市", "postcode": "763-0023", "prefecture": "香川県", "id": 7630023 },
        { "address": "前塩屋町", "city": "丸亀市", "postcode": "763-0064", "prefecture": "香川県", "id": 7630064 },
        { "address": "松屋町", "city": "丸亀市", "postcode": "763-0005", "prefecture": "香川県", "id": 7630005 },
        { "address": "港町", "city": "丸亀市", "postcode": "763-0042", "prefecture": "香川県", "id": 7630042 },
        { "address": "山北町", "city": "丸亀市", "postcode": "763-0072", "prefecture": "香川県", "id": 7630072 },
        { "address": "六番丁", "city": "丸亀市", "postcode": "763-0026", "prefecture": "香川県", "id": 7630026 },
        { "city": "坂出市", "postcode": "762-0000", "prefecture": "香川県", "id": 7620000 },
        { "address": "青葉町", "city": "坂出市", "postcode": "762-0037", "prefecture": "香川県", "id": 7620037 },
        { "address": "旭町", "city": "坂出市", "postcode": "762-0006", "prefecture": "香川県", "id": 7620006 },
        { "address": "池園町", "city": "坂出市", "postcode": "762-0035", "prefecture": "香川県", "id": 7620035 },
        { "address": "入船町", "city": "坂出市", "postcode": "762-0002", "prefecture": "香川県", "id": 7620002 },
        { "address": "岩黒", "city": "坂出市", "postcode": "762-0072", "prefecture": "香川県", "id": 7620072 },
        { "address": "江尻町", "city": "坂出市", "postcode": "762-0011", "prefecture": "香川県", "id": 7620011 },
        { "address": "王越町木沢", "city": "坂出市", "postcode": "762-0014", "prefecture": "香川県", "id": 7620014 },
        { "address": "王越町乃生", "city": "坂出市", "postcode": "762-0013", "prefecture": "香川県", "id": 7620013 },
        { "address": "青海町", "city": "坂出市", "postcode": "762-0016", "prefecture": "香川県", "id": 7620016 },
        { "address": "大池町", "city": "坂出市", "postcode": "762-0027", "prefecture": "香川県", "id": 7620027 },
        { "address": "大屋冨町", "city": "坂出市", "postcode": "762-0015", "prefecture": "香川県", "id": 7620015 },
        { "address": "沖の浜", "city": "坂出市", "postcode": "762-0052", "prefecture": "香川県", "id": 7620052 },
        { "address": "笠指町", "city": "坂出市", "postcode": "762-0038", "prefecture": "香川県", "id": 7620038 },
        { "address": "加茂町甲", "city": "坂出市", "postcode": "762-0022", "prefecture": "香川県", "id": 7620022 },
        { "address": "加茂町", "city": "坂出市", "postcode": "762-0023", "prefecture": "香川県", "id": 7620023 },
        { "address": "川崎町", "city": "坂出市", "postcode": "762-0062", "prefecture": "香川県", "id": 7620062 },
        { "address": "川津町", "city": "坂出市", "postcode": "762-0025", "prefecture": "香川県", "id": 7620025 },
        { "address": "神谷町", "city": "坂出市", "postcode": "762-0018", "prefecture": "香川県", "id": 7620018 },
        { "address": "京町", "city": "坂出市", "postcode": "762-0001", "prefecture": "香川県", "id": 7620001 },
        { "address": "久米町", "city": "坂出市", "postcode": "762-0003", "prefecture": "香川県", "id": 7620003 },
        { "address": "寿町", "city": "坂出市", "postcode": "762-0043", "prefecture": "香川県", "id": 7620043 },
        { "address": "御供所町", "city": "坂出市", "postcode": "762-0051", "prefecture": "香川県", "id": 7620051 },
        { "address": "駒止町", "city": "坂出市", "postcode": "762-0032", "prefecture": "香川県", "id": 7620032 },
        { "address": "小山町", "city": "坂出市", "postcode": "762-0026", "prefecture": "香川県", "id": 7620026 },
        { "address": "坂出町", "city": "坂出市", "postcode": "762-0061", "prefecture": "香川県", "id": 7620061 },
        { "address": "沙弥島", "city": "坂出市", "postcode": "762-0066", "prefecture": "香川県", "id": 7620066 },
        { "address": "昭和町", "city": "坂出市", "postcode": "762-0004", "prefecture": "香川県", "id": 7620004 },
        { "address": "白金町", "city": "坂出市", "postcode": "762-0042", "prefecture": "香川県", "id": 7620042 },
        { "address": "新浜町", "city": "坂出市", "postcode": "762-0047", "prefecture": "香川県", "id": 7620047 },
        { "address": "瀬居町", "city": "坂出市", "postcode": "762-0067", "prefecture": "香川県", "id": 7620067 },
        { "address": "高屋町", "city": "坂出市", "postcode": "762-0017", "prefecture": "香川県", "id": 7620017 },
        { "address": "谷町", "city": "坂出市", "postcode": "762-0033", "prefecture": "香川県", "id": 7620033 },
        { "address": "築港町", "city": "坂出市", "postcode": "762-0055", "prefecture": "香川県", "id": 7620055 },
        { "address": "中央町", "city": "坂出市", "postcode": "762-0056", "prefecture": "香川県", "id": 7620056 },
        { "address": "常盤町", "city": "坂出市", "postcode": "762-0058", "prefecture": "香川県", "id": 7620058 },
        { "address": "西大浜南", "city": "坂出市", "postcode": "762-0054", "prefecture": "香川県", "id": 7620054 },
        { "address": "西大浜北", "city": "坂出市", "postcode": "762-0053", "prefecture": "香川県", "id": 7620053 },
        { "address": "西庄町", "city": "坂出市", "postcode": "762-0021", "prefecture": "香川県", "id": 7620021 },
        { "address": "八幡町", "city": "坂出市", "postcode": "762-0041", "prefecture": "香川県", "id": 7620041 },
        { "address": "花町", "city": "坂出市", "postcode": "762-0036", "prefecture": "香川県", "id": 7620036 },
        { "address": "林田町", "city": "坂出市", "postcode": "762-0012", "prefecture": "香川県", "id": 7620012 },
        { "address": "番の州公園", "city": "坂出市", "postcode": "762-0063", "prefecture": "香川県", "id": 7620063 },
        { "address": "番の州町", "city": "坂出市", "postcode": "762-0064", "prefecture": "香川県", "id": 7620064 },
        { "address": "番の州緑町", "city": "坂出市", "postcode": "762-0065", "prefecture": "香川県", "id": 7620065 },
        { "address": "櫃石", "city": "坂出市", "postcode": "762-0073", "prefecture": "香川県", "id": 7620073 },
        { "address": "福江町", "city": "坂出市", "postcode": "762-0034", "prefecture": "香川県", "id": 7620034 },
        { "address": "富士見町", "city": "坂出市", "postcode": "762-0046", "prefecture": "香川県", "id": 7620046 },
        { "address": "府中町", "city": "坂出市", "postcode": "762-0024", "prefecture": "香川県", "id": 7620024 },
        { "address": "文京町", "city": "坂出市", "postcode": "762-0031", "prefecture": "香川県", "id": 7620031 },
        { "address": "本町", "city": "坂出市", "postcode": "762-0044", "prefecture": "香川県", "id": 7620044 },
        { "address": "宮下町", "city": "坂出市", "postcode": "762-0057", "prefecture": "香川県", "id": 7620057 },
        { "address": "室町", "city": "坂出市", "postcode": "762-0007", "prefecture": "香川県", "id": 7620007 },
        { "address": "元町", "city": "坂出市", "postcode": "762-0045", "prefecture": "香川県", "id": 7620045 },
        { "address": "横津町", "city": "坂出市", "postcode": "762-0005", "prefecture": "香川県", "id": 7620005 },
        { "address": "与島町", "city": "坂出市", "postcode": "762-0071", "prefecture": "香川県", "id": 7620071 },
        { "city": "善通寺市", "postcode": "765-0000", "prefecture": "香川県", "id": 7650000 },
        { "address": "生野町", "city": "善通寺市", "postcode": "765-0053", "prefecture": "香川県", "id": 7650053 },
        { "address": "生野本町", "city": "善通寺市", "postcode": "765-0014", "prefecture": "香川県", "id": 7650014 },
        { "address": "稲木町", "city": "善通寺市", "postcode": "765-0022", "prefecture": "香川県", "id": 7650022 },
        { "address": "大麻町", "city": "善通寺市", "postcode": "765-0052", "prefecture": "香川県", "id": 7650052 },
        { "address": "上吉田町", "city": "善通寺市", "postcode": "765-0011", "prefecture": "香川県", "id": 7650011 },
        { "address": "上吉田町", "city": "善通寺市", "postcode": "765-0012", "prefecture": "香川県", "id": 7650012 },
        { "address": "木徳町", "city": "善通寺市", "postcode": "765-0033", "prefecture": "香川県", "id": 7650033 },
        { "address": "櫛梨町", "city": "善通寺市", "postcode": "765-0051", "prefecture": "香川県", "id": 7650051 },
        { "address": "金蔵寺町", "city": "善通寺市", "postcode": "765-0031", "prefecture": "香川県", "id": 7650031 },
        { "address": "下吉田町", "city": "善通寺市", "postcode": "765-0021", "prefecture": "香川県", "id": 7650021 },
        { "address": "善通寺町", "city": "善通寺市", "postcode": "765-0003", "prefecture": "香川県", "id": 7650003 },
        { "address": "善通寺町", "city": "善通寺市", "postcode": "765-0004", "prefecture": "香川県", "id": 7650004 },
        { "address": "仙遊町", "city": "善通寺市", "postcode": "765-0001", "prefecture": "香川県", "id": 7650001 },
        { "address": "中村町", "city": "善通寺市", "postcode": "765-0072", "prefecture": "香川県", "id": 7650072 },
        { "address": "中村町", "city": "善通寺市", "postcode": "765-0073", "prefecture": "香川県", "id": 7650073 },
        { "address": "原田町", "city": "善通寺市", "postcode": "765-0032", "prefecture": "香川県", "id": 7650032 },
        { "address": "碑殿町", "city": "善通寺市", "postcode": "765-0062", "prefecture": "香川県", "id": 7650062 },
        { "address": "弘田町", "city": "善通寺市", "postcode": "765-0071", "prefecture": "香川県", "id": 7650071 },
        { "address": "文京町", "city": "善通寺市", "postcode": "765-0013", "prefecture": "香川県", "id": 7650013 },
        { "address": "南町", "city": "善通寺市", "postcode": "765-0002", "prefecture": "香川県", "id": 7650002 },
        { "address": "与北町", "city": "善通寺市", "postcode": "765-0040", "prefecture": "香川県", "id": 7650040 },
        { "address": "吉原町", "city": "善通寺市", "postcode": "765-0061", "prefecture": "香川県", "id": 7650061 },
        { "city": "観音寺市", "postcode": "768-0000", "prefecture": "香川県", "id": 7680000 },
        { "address": "有明町", "city": "観音寺市", "postcode": "768-0062", "prefecture": "香川県", "id": 7680062 },
        { "address": "粟井町", "city": "観音寺市", "postcode": "768-0052", "prefecture": "香川県", "id": 7680052 },
        { "address": "池之尻町", "city": "観音寺市", "postcode": "768-0031", "prefecture": "香川県", "id": 7680031 },
        { "address": "伊吹町", "city": "観音寺市", "postcode": "768-0071", "prefecture": "香川県", "id": 7680071 },
        { "address": "植田町", "city": "観音寺市", "postcode": "768-0012", "prefecture": "香川県", "id": 7680012 },
        {
            "address": "大野原町青岡",
            "city": "観音寺市",
            "postcode": "769-1617",
            "prefecture": "香川県",
            "id": 7691617
        },
        {
            "address": "大野原町有木",
            "city": "観音寺市",
            "postcode": "769-1624",
            "prefecture": "香川県",
            "id": 7691624
        },
        {
            "address": "大野原町井関",
            "city": "観音寺市",
            "postcode": "769-1621",
            "prefecture": "香川県",
            "id": 7691621
        },
        {
            "address": "大野原町内野々",
            "city": "観音寺市",
            "postcode": "769-1622",
            "prefecture": "香川県",
            "id": 7691622
        },
        {
            "address": "大野原町海老済",
            "city": "観音寺市",
            "postcode": "769-1625",
            "prefecture": "香川県",
            "id": 7691625
        },
        {
            "address": "大野原町大野原",
            "city": "観音寺市",
            "postcode": "769-1611",
            "prefecture": "香川県",
            "id": 7691611
        },
        {
            "address": "大野原町田野々",
            "city": "観音寺市",
            "postcode": "769-1623",
            "prefecture": "香川県",
            "id": 7691623
        },
        {
            "address": "大野原町中姫",
            "city": "観音寺市",
            "postcode": "769-1612",
            "prefecture": "香川県",
            "id": 7691612
        },
        {
            "address": "大野原町萩原",
            "city": "観音寺市",
            "postcode": "769-1614",
            "prefecture": "香川県",
            "id": 7691614
        },
        {
            "address": "大野原町花稲",
            "city": "観音寺市",
            "postcode": "769-1613",
            "prefecture": "香川県",
            "id": 7691613
        },
        {
            "address": "大野原町福田原",
            "city": "観音寺市",
            "postcode": "769-1616",
            "prefecture": "香川県",
            "id": 7691616
        },
        {
            "address": "大野原町丸井",
            "city": "観音寺市",
            "postcode": "769-1615",
            "prefecture": "香川県",
            "id": 7691615
        },
        { "address": "観音寺町", "city": "観音寺市", "postcode": "768-0060", "prefecture": "香川県", "id": 7680060 },
        { "address": "木之郷町", "city": "観音寺市", "postcode": "768-0051", "prefecture": "香川県", "id": 7680051 },
        { "address": "柞田町", "city": "観音寺市", "postcode": "768-0040", "prefecture": "香川県", "id": 7680040 },
        { "address": "琴浪町", "city": "観音寺市", "postcode": "768-0064", "prefecture": "香川県", "id": 7680064 },
        { "address": "幸町", "city": "観音寺市", "postcode": "768-0074", "prefecture": "香川県", "id": 7680074 },
        { "address": "栄町", "city": "観音寺市", "postcode": "768-0072", "prefecture": "香川県", "id": 7680072 },
        { "address": "坂本町", "city": "観音寺市", "postcode": "768-0067", "prefecture": "香川県", "id": 7680067 },
        { "address": "三本松町", "city": "観音寺市", "postcode": "768-0063", "prefecture": "香川県", "id": 7680063 },
        { "address": "茂木町", "city": "観音寺市", "postcode": "768-0069", "prefecture": "香川県", "id": 7680069 },
        { "address": "茂西町", "city": "観音寺市", "postcode": "768-0073", "prefecture": "香川県", "id": 7680073 },
        { "address": "出作町", "city": "観音寺市", "postcode": "768-0011", "prefecture": "香川県", "id": 7680011 },
        { "address": "昭和町", "city": "観音寺市", "postcode": "768-0066", "prefecture": "香川県", "id": 7680066 },
        { "address": "新田町", "city": "観音寺市", "postcode": "768-0033", "prefecture": "香川県", "id": 7680033 },
        { "address": "瀬戸町", "city": "観音寺市", "postcode": "768-0065", "prefecture": "香川県", "id": 7680065 },
        { "address": "高屋町", "city": "観音寺市", "postcode": "768-0002", "prefecture": "香川県", "id": 7680002 },
        { "address": "天神町", "city": "観音寺市", "postcode": "768-0068", "prefecture": "香川県", "id": 7680068 },
        { "address": "豊浜町姫浜", "city": "観音寺市", "postcode": "769-1601", "prefecture": "香川県", "id": 7691601 },
        { "address": "豊浜町箕浦", "city": "観音寺市", "postcode": "769-1604", "prefecture": "香川県", "id": 7691604 },
        { "address": "豊浜町和田", "city": "観音寺市", "postcode": "769-1603", "prefecture": "香川県", "id": 7691603 },
        {
            "address": "豊浜町和田浜",
            "city": "観音寺市",
            "postcode": "769-1602",
            "prefecture": "香川県",
            "id": 7691602
        },
        { "address": "中田井町", "city": "観音寺市", "postcode": "768-0024", "prefecture": "香川県", "id": 7680024 },
        { "address": "流岡町", "city": "観音寺市", "postcode": "768-0014", "prefecture": "香川県", "id": 7680014 },
        { "address": "凪瀬町", "city": "観音寺市", "postcode": "768-0077", "prefecture": "香川県", "id": 7680077 },
        { "address": "西本町", "city": "観音寺市", "postcode": "768-0075", "prefecture": "香川県", "id": 7680075 },
        { "address": "原町", "city": "観音寺市", "postcode": "768-0032", "prefecture": "香川県", "id": 7680032 },
        { "address": "古川町", "city": "観音寺市", "postcode": "768-0023", "prefecture": "香川県", "id": 7680023 },
        { "address": "港町", "city": "観音寺市", "postcode": "768-0076", "prefecture": "香川県", "id": 7680076 },
        { "address": "南町", "city": "観音寺市", "postcode": "768-0070", "prefecture": "香川県", "id": 7680070 },
        { "address": "村黒町", "city": "観音寺市", "postcode": "768-0013", "prefecture": "香川県", "id": 7680013 },
        { "address": "室本町", "city": "観音寺市", "postcode": "768-0001", "prefecture": "香川県", "id": 7680001 },
        { "address": "本大町", "city": "観音寺市", "postcode": "768-0022", "prefecture": "香川県", "id": 7680022 },
        { "address": "八幡町", "city": "観音寺市", "postcode": "768-0061", "prefecture": "香川県", "id": 7680061 },
        { "address": "吉岡町", "city": "観音寺市", "postcode": "768-0021", "prefecture": "香川県", "id": 7680021 },
        { "city": "さぬき市", "postcode": "769-2300", "prefecture": "香川県", "id": 7692300 },
        { "address": "大川町田面", "city": "さぬき市", "postcode": "761-0904", "prefecture": "香川県", "id": 7610904 },
        {
            "address": "大川町富田中",
            "city": "さぬき市",
            "postcode": "761-0902",
            "prefecture": "香川県",
            "id": 7610902
        },
        {
            "address": "大川町富田西",
            "city": "さぬき市",
            "postcode": "761-0901",
            "prefecture": "香川県",
            "id": 7610901
        },
        {
            "address": "大川町富田東",
            "city": "さぬき市",
            "postcode": "761-0903",
            "prefecture": "香川県",
            "id": 7610903
        },
        { "address": "大川町南川", "city": "さぬき市", "postcode": "761-0905", "prefecture": "香川県", "id": 7610905 },
        { "address": "小田", "city": "さぬき市", "postcode": "769-2103", "prefecture": "香川県", "id": 7692103 },
        { "address": "鴨部", "city": "さぬき市", "postcode": "769-2104", "prefecture": "香川県", "id": 7692104 },
        { "address": "鴨庄", "city": "さぬき市", "postcode": "769-2102", "prefecture": "香川県", "id": 7692102 },
        {
            "address": "寒川町石田西",
            "city": "さぬき市",
            "postcode": "769-2322",
            "prefecture": "香川県",
            "id": 7692322
        },
        {
            "address": "寒川町石田東",
            "city": "さぬき市",
            "postcode": "769-2321",
            "prefecture": "香川県",
            "id": 7692321
        },
        { "address": "寒川町神前", "city": "さぬき市", "postcode": "769-2323", "prefecture": "香川県", "id": 7692323 },
        { "address": "志度", "city": "さぬき市", "postcode": "769-2101", "prefecture": "香川県", "id": 7692101 },
        { "address": "昭和", "city": "さぬき市", "postcode": "769-2304", "prefecture": "香川県", "id": 7692304 },
        { "address": "末", "city": "さぬき市", "postcode": "769-2105", "prefecture": "香川県", "id": 7692105 },
        { "address": "造田", "city": "さぬき市", "postcode": "769-2315", "prefecture": "香川県", "id": 7692315 },
        { "address": "造田乙井", "city": "さぬき市", "postcode": "769-2314", "prefecture": "香川県", "id": 7692314 },
        { "address": "造田是弘", "city": "さぬき市", "postcode": "769-2312", "prefecture": "香川県", "id": 7692312 },
        { "address": "造田野間田", "city": "さぬき市", "postcode": "769-2313", "prefecture": "香川県", "id": 7692313 },
        { "address": "造田宮西", "city": "さぬき市", "postcode": "769-2311", "prefecture": "香川県", "id": 7692311 },
        { "address": "多和", "city": "さぬき市", "postcode": "769-2306", "prefecture": "香川県", "id": 7692306 },
        { "address": "津田町津田", "city": "さぬき市", "postcode": "769-2401", "prefecture": "香川県", "id": 7692401 },
        { "address": "津田町鶴羽", "city": "さぬき市", "postcode": "769-2402", "prefecture": "香川県", "id": 7692402 },
        { "address": "長尾西", "city": "さぬき市", "postcode": "769-2302", "prefecture": "香川県", "id": 7692302 },
        { "address": "長尾東", "city": "さぬき市", "postcode": "769-2301", "prefecture": "香川県", "id": 7692301 },
        { "address": "長尾名", "city": "さぬき市", "postcode": "769-2303", "prefecture": "香川県", "id": 7692303 },
        { "address": "前山", "city": "さぬき市", "postcode": "769-2305", "prefecture": "香川県", "id": 7692305 },
        { "city": "東かがわ市", "postcode": "769-2700", "prefecture": "香川県", "id": 7692700 },
        { "address": "伊座", "city": "東かがわ市", "postcode": "769-2703", "prefecture": "香川県", "id": 7692703 },
        { "address": "馬篠", "city": "東かがわ市", "postcode": "769-2520", "prefecture": "香川県", "id": 7692520 },
        { "address": "馬宿", "city": "東かがわ市", "postcode": "769-2902", "prefecture": "香川県", "id": 7692902 },
        { "address": "小海", "city": "東かがわ市", "postcode": "769-2908", "prefecture": "香川県", "id": 7692908 },
        { "address": "大谷", "city": "東かがわ市", "postcode": "769-2513", "prefecture": "香川県", "id": 7692513 },
        { "address": "大内", "city": "東かがわ市", "postcode": "769-2521", "prefecture": "香川県", "id": 7692521 },
        { "address": "落合", "city": "東かがわ市", "postcode": "769-2512", "prefecture": "香川県", "id": 7692512 },
        { "address": "川東", "city": "東かがわ市", "postcode": "769-2602", "prefecture": "香川県", "id": 7692602 },
        { "address": "川股", "city": "東かがわ市", "postcode": "769-2906", "prefecture": "香川県", "id": 7692906 },
        { "address": "帰来", "city": "東かがわ市", "postcode": "769-2704", "prefecture": "香川県", "id": 7692704 },
        { "address": "黒羽", "city": "東かがわ市", "postcode": "769-2905", "prefecture": "香川県", "id": 7692905 },
        { "address": "小磯", "city": "東かがわ市", "postcode": "769-2511", "prefecture": "香川県", "id": 7692511 },
        { "address": "小砂", "city": "東かがわ市", "postcode": "769-2519", "prefecture": "香川県", "id": 7692519 },
        { "address": "五名", "city": "東かがわ市", "postcode": "769-2715", "prefecture": "香川県", "id": 7692715 },
        { "address": "坂元", "city": "東かがわ市", "postcode": "769-2904", "prefecture": "香川県", "id": 7692904 },
        { "address": "三本松", "city": "東かがわ市", "postcode": "769-2601", "prefecture": "香川県", "id": 7692601 },
        { "address": "白鳥", "city": "東かがわ市", "postcode": "769-2705", "prefecture": "香川県", "id": 7692705 },
        { "address": "土居", "city": "東かがわ市", "postcode": "769-2516", "prefecture": "香川県", "id": 7692516 },
        { "address": "中筋", "city": "東かがわ市", "postcode": "769-2605", "prefecture": "香川県", "id": 7692605 },
        { "address": "中山", "city": "東かがわ市", "postcode": "769-2518", "prefecture": "香川県", "id": 7692518 },
        { "address": "西村", "city": "東かがわ市", "postcode": "769-2604", "prefecture": "香川県", "id": 7692604 },
        { "address": "西山", "city": "東かがわ市", "postcode": "769-2712", "prefecture": "香川県", "id": 7692712 },
        { "address": "入野山", "city": "東かがわ市", "postcode": "769-2714", "prefecture": "香川県", "id": 7692714 },
        { "address": "東山", "city": "東かがわ市", "postcode": "769-2711", "prefecture": "香川県", "id": 7692711 },
        { "address": "引田", "city": "東かがわ市", "postcode": "769-2901", "prefecture": "香川県", "id": 7692901 },
        { "address": "町田", "city": "東かがわ市", "postcode": "769-2515", "prefecture": "香川県", "id": 7692515 },
        { "address": "松崎", "city": "東かがわ市", "postcode": "769-2514", "prefecture": "香川県", "id": 7692514 },
        { "address": "松原", "city": "東かがわ市", "postcode": "769-2702", "prefecture": "香川県", "id": 7692702 },
        { "address": "水主", "city": "東かがわ市", "postcode": "769-2606", "prefecture": "香川県", "id": 7692606 },
        { "address": "三殿", "city": "東かがわ市", "postcode": "769-2517", "prefecture": "香川県", "id": 7692517 },
        { "address": "湊", "city": "東かがわ市", "postcode": "769-2701", "prefecture": "香川県", "id": 7692701 },
        { "address": "南野", "city": "東かがわ市", "postcode": "769-2903", "prefecture": "香川県", "id": 7692903 },
        { "address": "横内", "city": "東かがわ市", "postcode": "769-2603", "prefecture": "香川県", "id": 7692603 },
        { "address": "吉田", "city": "東かがわ市", "postcode": "769-2907", "prefecture": "香川県", "id": 7692907 },
        { "address": "与田山", "city": "東かがわ市", "postcode": "769-2713", "prefecture": "香川県", "id": 7692713 },
        { "city": "三豊市", "postcode": "767-0000", "prefecture": "香川県", "id": 7670000 },
        { "address": "財田町財田上", "city": "三豊市", "postcode": "769-0401", "prefecture": "香川県", "id": 7690401 },
        { "address": "財田町財田中", "city": "三豊市", "postcode": "769-0402", "prefecture": "香川県", "id": 7690402 },
        { "address": "高瀬町上麻", "city": "三豊市", "postcode": "767-0014", "prefecture": "香川県", "id": 7670014 },
        { "address": "高瀬町上勝間", "city": "三豊市", "postcode": "767-0012", "prefecture": "香川県", "id": 7670012 },
        { "address": "高瀬町上高瀬", "city": "三豊市", "postcode": "767-0001", "prefecture": "香川県", "id": 7670001 },
        { "address": "高瀬町佐股", "city": "三豊市", "postcode": "767-0021", "prefecture": "香川県", "id": 7670021 },
        { "address": "高瀬町下麻", "city": "三豊市", "postcode": "767-0013", "prefecture": "香川県", "id": 7670013 },
        { "address": "高瀬町下勝間", "city": "三豊市", "postcode": "767-0011", "prefecture": "香川県", "id": 7670011 },
        { "address": "高瀬町新名", "city": "三豊市", "postcode": "767-0002", "prefecture": "香川県", "id": 7670002 },
        { "address": "高瀬町羽方", "city": "三豊市", "postcode": "767-0022", "prefecture": "香川県", "id": 7670022 },
        { "address": "高瀬町比地", "city": "三豊市", "postcode": "767-0004", "prefecture": "香川県", "id": 7670004 },
        { "address": "高瀬町比地中", "city": "三豊市", "postcode": "767-0003", "prefecture": "香川県", "id": 7670003 },
        { "address": "詫間町粟島", "city": "三豊市", "postcode": "769-1108", "prefecture": "香川県", "id": 7691108 },
        { "address": "詫間町大浜", "city": "三豊市", "postcode": "769-1104", "prefecture": "香川県", "id": 7691104 },
        { "address": "詫間町香田", "city": "三豊市", "postcode": "769-1103", "prefecture": "香川県", "id": 7691103 },
        { "address": "詫間町志々島", "city": "三豊市", "postcode": "769-1109", "prefecture": "香川県", "id": 7691109 },
        { "address": "詫間町詫間", "city": "三豊市", "postcode": "769-1101", "prefecture": "香川県", "id": 7691101 },
        { "address": "詫間町積", "city": "三豊市", "postcode": "769-1105", "prefecture": "香川県", "id": 7691105 },
        { "address": "詫間町生里", "city": "三豊市", "postcode": "769-1107", "prefecture": "香川県", "id": 7691107 },
        { "address": "詫間町箱", "city": "三豊市", "postcode": "769-1106", "prefecture": "香川県", "id": 7691106 },
        { "address": "詫間町松崎", "city": "三豊市", "postcode": "769-1102", "prefecture": "香川県", "id": 7691102 },
        { "address": "豊中町岡本", "city": "三豊市", "postcode": "769-1507", "prefecture": "香川県", "id": 7691507 },
        {
            "address": "豊中町笠田笠岡",
            "city": "三豊市",
            "postcode": "769-1502",
            "prefecture": "香川県",
            "id": 7691502
        },
        {
            "address": "豊中町笠田竹田",
            "city": "三豊市",
            "postcode": "769-1503",
            "prefecture": "香川県",
            "id": 7691503
        },
        { "address": "豊中町上高野", "city": "三豊市", "postcode": "769-1504", "prefecture": "香川県", "id": 7691504 },
        { "address": "豊中町下高野", "city": "三豊市", "postcode": "769-1508", "prefecture": "香川県", "id": 7691508 },
        { "address": "豊中町比地大", "city": "三豊市", "postcode": "769-1501", "prefecture": "香川県", "id": 7691501 },
        { "address": "豊中町本山乙", "city": "三豊市", "postcode": "769-1505", "prefecture": "香川県", "id": 7691505 },
        { "address": "豊中町本山甲", "city": "三豊市", "postcode": "769-1506", "prefecture": "香川県", "id": 7691506 },
        { "address": "仁尾町家の浦", "city": "三豊市", "postcode": "769-1410", "prefecture": "香川県", "id": 7691410 },
        { "address": "仁尾町仁尾乙", "city": "三豊市", "postcode": "769-1404", "prefecture": "香川県", "id": 7691404 },
        { "address": "仁尾町仁尾己", "city": "三豊市", "postcode": "769-1401", "prefecture": "香川県", "id": 7691401 },
        { "address": "仁尾町仁尾甲", "city": "三豊市", "postcode": "769-1408", "prefecture": "香川県", "id": 7691408 },
        { "address": "仁尾町仁尾庚", "city": "三豊市", "postcode": "769-1405", "prefecture": "香川県", "id": 7691405 },
        { "address": "仁尾町仁尾辛", "city": "三豊市", "postcode": "769-1406", "prefecture": "香川県", "id": 7691406 },
        { "address": "仁尾町仁尾丁", "city": "三豊市", "postcode": "769-1407", "prefecture": "香川県", "id": 7691407 },
        { "address": "仁尾町仁尾丙", "city": "三豊市", "postcode": "769-1403", "prefecture": "香川県", "id": 7691403 },
        { "address": "仁尾町仁尾戊", "city": "三豊市", "postcode": "769-1402", "prefecture": "香川県", "id": 7691402 },
        { "address": "三野町大見", "city": "三豊市", "postcode": "767-0031", "prefecture": "香川県", "id": 7670031 },
        { "address": "三野町下高瀬", "city": "三豊市", "postcode": "767-0032", "prefecture": "香川県", "id": 7670032 },
        { "address": "三野町吉津", "city": "三豊市", "postcode": "767-0033", "prefecture": "香川県", "id": 7670033 },
        { "address": "山本町大野", "city": "三豊市", "postcode": "768-0102", "prefecture": "香川県", "id": 7680102 },
        { "address": "山本町神田", "city": "三豊市", "postcode": "768-0104", "prefecture": "香川県", "id": 7680104 },
        { "address": "山本町河内", "city": "三豊市", "postcode": "768-0105", "prefecture": "香川県", "id": 7680105 },
        { "address": "山本町財田西", "city": "三豊市", "postcode": "768-0103", "prefecture": "香川県", "id": 7680103 },
        { "address": "山本町辻", "city": "三豊市", "postcode": "768-0101", "prefecture": "香川県", "id": 7680101 },
        { "city": "小豆郡土庄町", "postcode": "761-4100", "prefecture": "香川県", "id": 7614100 },
        { "address": "伊喜末", "city": "小豆郡土庄町", "postcode": "761-4664", "prefecture": "香川県", "id": 7614664 },
        { "address": "伊喜末", "city": "小豆郡土庄町", "postcode": "761-4131", "prefecture": "香川県", "id": 7614131 },
        { "address": "馬越", "city": "小豆郡土庄町", "postcode": "761-4141", "prefecture": "香川県", "id": 7614141 },
        { "address": "小江", "city": "小豆郡土庄町", "postcode": "761-4132", "prefecture": "香川県", "id": 7614132 },
        { "address": "大部", "city": "小豆郡土庄町", "postcode": "761-4145", "prefecture": "香川県", "id": 7614145 },
        { "address": "小海", "city": "小豆郡土庄町", "postcode": "761-4144", "prefecture": "香川県", "id": 7614144 },
        { "address": "笠滝", "city": "小豆郡土庄町", "postcode": "761-4154", "prefecture": "香川県", "id": 7614154 },
        { "address": "上庄", "city": "小豆郡土庄町", "postcode": "761-4122", "prefecture": "香川県", "id": 7614122 },
        { "address": "黒岩", "city": "小豆郡土庄町", "postcode": "761-4152", "prefecture": "香川県", "id": 7614152 },
        { "address": "小馬越", "city": "小豆郡土庄町", "postcode": "761-4153", "prefecture": "香川県", "id": 7614153 },
        { "address": "小部", "city": "小豆郡土庄町", "postcode": "761-4146", "prefecture": "香川県", "id": 7614146 },
        { "address": "滝宮", "city": "小豆郡土庄町", "postcode": "761-4134", "prefecture": "香川県", "id": 7614134 },
        {
            "address": "豊島家浦",
            "city": "小豆郡土庄町",
            "postcode": "761-4661",
            "prefecture": "香川県",
            "id": 7614661
        },
        {
            "address": "豊島唐櫃",
            "city": "小豆郡土庄町",
            "postcode": "761-4662",
            "prefecture": "香川県",
            "id": 7614662
        },
        {
            "address": "豊島甲生",
            "city": "小豆郡土庄町",
            "postcode": "761-4663",
            "prefecture": "香川県",
            "id": 7614663
        },
        { "address": "長浜", "city": "小豆郡土庄町", "postcode": "761-4133", "prefecture": "香川県", "id": 7614133 },
        { "address": "肥土山", "city": "小豆郡土庄町", "postcode": "761-4151", "prefecture": "香川県", "id": 7614151 },
        { "address": "渕崎", "city": "小豆郡土庄町", "postcode": "761-4121", "prefecture": "香川県", "id": 7614121 },
        { "address": "見目", "city": "小豆郡土庄町", "postcode": "761-4143", "prefecture": "香川県", "id": 7614143 },
        { "address": "屋形崎", "city": "小豆郡土庄町", "postcode": "761-4142", "prefecture": "香川県", "id": 7614142 },
        { "city": "小豆郡土庄町", "postcode": "761-4103", "prefecture": "香川県", "id": 7614103 },
        { "city": "小豆郡土庄町", "postcode": "761-4112", "prefecture": "香川県", "id": 7614112 },
        { "city": "小豆郡土庄町", "postcode": "761-4115", "prefecture": "香川県", "id": 7614115 },
        { "city": "小豆郡土庄町", "postcode": "761-4114", "prefecture": "香川県", "id": 7614114 },
        { "city": "小豆郡土庄町", "postcode": "761-4105", "prefecture": "香川県", "id": 7614105 },
        { "city": "小豆郡土庄町", "postcode": "761-4111", "prefecture": "香川県", "id": 7614111 },
        { "city": "小豆郡土庄町", "postcode": "761-4106", "prefecture": "香川県", "id": 7614106 },
        { "city": "小豆郡土庄町", "postcode": "761-4102", "prefecture": "香川県", "id": 7614102 },
        { "city": "小豆郡土庄町", "postcode": "761-4113", "prefecture": "香川県", "id": 7614113 },
        { "city": "小豆郡土庄町", "postcode": "761-4104", "prefecture": "香川県", "id": 7614104 },
        { "city": "小豆郡土庄町", "postcode": "761-4101", "prefecture": "香川県", "id": 7614101 },
        { "city": "小豆郡小豆島町", "postcode": "761-4300", "prefecture": "香川県", "id": 7614300 },
        { "address": "当浜", "city": "小豆郡小豆島町", "postcode": "761-4403", "prefecture": "香川県", "id": 7614403 },
        { "address": "池田", "city": "小豆郡小豆島町", "postcode": "761-4301", "prefecture": "香川県", "id": 7614301 },
        { "address": "岩谷", "city": "小豆郡小豆島町", "postcode": "761-4404", "prefecture": "香川県", "id": 7614404 },
        { "address": "馬木", "city": "小豆郡小豆島町", "postcode": "761-4426", "prefecture": "香川県", "id": 7614426 },
        { "address": "片城", "city": "小豆郡小豆島町", "postcode": "761-4431", "prefecture": "香川県", "id": 7614431 },
        { "address": "蒲野", "city": "小豆郡小豆島町", "postcode": "761-4307", "prefecture": "香川県", "id": 7614307 },
        { "address": "蒲生", "city": "小豆郡小豆島町", "postcode": "761-4302", "prefecture": "香川県", "id": 7614302 },
        {
            "address": "神懸通",
            "city": "小豆郡小豆島町",
            "postcode": "761-4433",
            "prefecture": "香川県",
            "id": 7614433
        },
        { "address": "木庄", "city": "小豆郡小豆島町", "postcode": "761-4412", "prefecture": "香川県", "id": 7614412 },
        {
            "address": "草壁本町",
            "city": "小豆郡小豆島町",
            "postcode": "761-4432",
            "prefecture": "香川県",
            "id": 7614432
        },
        { "address": "神浦", "city": "小豆郡小豆島町", "postcode": "761-4308", "prefecture": "香川県", "id": 7614308 },
        { "address": "坂手", "city": "小豆郡小豆島町", "postcode": "761-4425", "prefecture": "香川県", "id": 7614425 },
        { "address": "橘", "city": "小豆郡小豆島町", "postcode": "761-4405", "prefecture": "香川県", "id": 7614405 },
        { "address": "田浦", "city": "小豆郡小豆島町", "postcode": "761-4424", "prefecture": "香川県", "id": 7614424 },
        { "address": "中山", "city": "小豆郡小豆島町", "postcode": "761-4155", "prefecture": "香川県", "id": 7614155 },
        { "address": "中山", "city": "小豆郡小豆島町", "postcode": "761-4303", "prefecture": "香川県", "id": 7614303 },
        { "address": "西村", "city": "小豆郡小豆島町", "postcode": "761-4434", "prefecture": "香川県", "id": 7614434 },
        { "address": "苗羽", "city": "小豆郡小豆島町", "postcode": "761-4421", "prefecture": "香川県", "id": 7614421 },
        { "address": "福田", "city": "小豆郡小豆島町", "postcode": "761-4402", "prefecture": "香川県", "id": 7614402 },
        { "address": "二面", "city": "小豆郡小豆島町", "postcode": "761-4305", "prefecture": "香川県", "id": 7614305 },
        { "address": "古江", "city": "小豆郡小豆島町", "postcode": "761-4422", "prefecture": "香川県", "id": 7614422 },
        { "address": "堀越", "city": "小豆郡小豆島町", "postcode": "761-4423", "prefecture": "香川県", "id": 7614423 },
        { "address": "室生", "city": "小豆郡小豆島町", "postcode": "761-4304", "prefecture": "香川県", "id": 7614304 },
        { "address": "安田", "city": "小豆郡小豆島町", "postcode": "761-4411", "prefecture": "香川県", "id": 7614411 },
        { "address": "吉田", "city": "小豆郡小豆島町", "postcode": "761-4401", "prefecture": "香川県", "id": 7614401 },
        { "address": "吉野", "city": "小豆郡小豆島町", "postcode": "761-4306", "prefecture": "香川県", "id": 7614306 },
        { "city": "木田郡三木町", "postcode": "761-0700", "prefecture": "香川県", "id": 7610700 },
        { "address": "朝倉", "city": "木田郡三木町", "postcode": "761-0614", "prefecture": "香川県", "id": 7610614 },
        { "address": "池戸", "city": "木田郡三木町", "postcode": "761-0701", "prefecture": "香川県", "id": 7610701 },
        { "address": "井戸", "city": "木田郡三木町", "postcode": "761-0823", "prefecture": "香川県", "id": 7610823 },
        { "address": "井上", "city": "木田郡三木町", "postcode": "761-0705", "prefecture": "香川県", "id": 7610705 },
        { "address": "奥山", "city": "木田郡三木町", "postcode": "761-0822", "prefecture": "香川県", "id": 7610822 },
        { "address": "鹿庭", "city": "木田郡三木町", "postcode": "761-0821", "prefecture": "香川県", "id": 7610821 },
        { "address": "上高岡", "city": "木田郡三木町", "postcode": "761-0613", "prefecture": "香川県", "id": 7610613 },
        { "address": "小蓑", "city": "木田郡三木町", "postcode": "761-0615", "prefecture": "香川県", "id": 7610615 },
        { "address": "鹿伏", "city": "木田郡三木町", "postcode": "761-0703", "prefecture": "香川県", "id": 7610703 },
        { "address": "下高岡", "city": "木田郡三木町", "postcode": "761-0704", "prefecture": "香川県", "id": 7610704 },
        { "address": "田中", "city": "木田郡三木町", "postcode": "761-0611", "prefecture": "香川県", "id": 7610611 },
        { "address": "氷上", "city": "木田郡三木町", "postcode": "761-0612", "prefecture": "香川県", "id": 7610612 },
        { "address": "平木", "city": "木田郡三木町", "postcode": "761-0702", "prefecture": "香川県", "id": 7610702 },
        { "city": "香川郡直島町", "postcode": "761-3110", "prefecture": "香川県", "id": 7613110 },
        { "city": "綾歌郡宇多津町", "postcode": "769-0200", "prefecture": "香川県", "id": 7690200 },
        { "city": "綾歌郡宇多津町", "postcode": "769-0210", "prefecture": "香川県", "id": 7690210 },
        { "address": "岩屋", "city": "綾歌郡宇多津町", "postcode": "769-0227", "prefecture": "香川県", "id": 7690227 },
        { "address": "大橋", "city": "綾歌郡宇多津町", "postcode": "769-0222", "prefecture": "香川県", "id": 7690222 },
        { "address": "坂下", "city": "綾歌郡宇多津町", "postcode": "769-0226", "prefecture": "香川県", "id": 7690226 },
        { "address": "新開", "city": "綾歌郡宇多津町", "postcode": "769-0223", "prefecture": "香川県", "id": 7690223 },
        { "address": "新町", "city": "綾歌郡宇多津町", "postcode": "769-0225", "prefecture": "香川県", "id": 7690225 },
        {
            "address": "十楽寺",
            "city": "綾歌郡宇多津町",
            "postcode": "769-0211",
            "prefecture": "香川県",
            "id": 7690211
        },
        {
            "address": "沼ノ池",
            "city": "綾歌郡宇多津町",
            "postcode": "769-0212",
            "prefecture": "香川県",
            "id": 7690212
        },
        {
            "address": "浜一番丁",
            "city": "綾歌郡宇多津町",
            "postcode": "769-0201",
            "prefecture": "香川県",
            "id": 7690201
        },
        {
            "address": "浜二番丁",
            "city": "綾歌郡宇多津町",
            "postcode": "769-0202",
            "prefecture": "香川県",
            "id": 7690202
        },
        {
            "address": "浜三番丁",
            "city": "綾歌郡宇多津町",
            "postcode": "769-0203",
            "prefecture": "香川県",
            "id": 7690203
        },
        {
            "address": "浜四番丁",
            "city": "綾歌郡宇多津町",
            "postcode": "769-0204",
            "prefecture": "香川県",
            "id": 7690204
        },
        {
            "address": "浜五番丁",
            "city": "綾歌郡宇多津町",
            "postcode": "769-0205",
            "prefecture": "香川県",
            "id": 7690205
        },
        {
            "address": "浜六番丁",
            "city": "綾歌郡宇多津町",
            "postcode": "769-0206",
            "prefecture": "香川県",
            "id": 7690206
        },
        {
            "address": "浜七番丁",
            "city": "綾歌郡宇多津町",
            "postcode": "769-0207",
            "prefecture": "香川県",
            "id": 7690207
        },
        {
            "address": "浜八番丁",
            "city": "綾歌郡宇多津町",
            "postcode": "769-0208",
            "prefecture": "香川県",
            "id": 7690208
        },
        {
            "address": "浜九番丁",
            "city": "綾歌郡宇多津町",
            "postcode": "769-0209",
            "prefecture": "香川県",
            "id": 7690209
        },
        { "address": "東分", "city": "綾歌郡宇多津町", "postcode": "769-0213", "prefecture": "香川県", "id": 7690213 },
        { "address": "平山", "city": "綾歌郡宇多津町", "postcode": "769-0224", "prefecture": "香川県", "id": 7690224 },
        { "address": "向山", "city": "綾歌郡宇多津町", "postcode": "769-0228", "prefecture": "香川県", "id": 7690228 },
        { "address": "吉田", "city": "綾歌郡宇多津町", "postcode": "769-0221", "prefecture": "香川県", "id": 7690221 },
        { "city": "綾歌郡綾川町", "postcode": "761-2300", "prefecture": "香川県", "id": 7612300 },
        { "address": "牛川", "city": "綾歌郡綾川町", "postcode": "761-2208", "prefecture": "香川県", "id": 7612208 },
        { "address": "小野", "city": "綾歌郡綾川町", "postcode": "761-2307", "prefecture": "香川県", "id": 7612307 },
        { "address": "萱原", "city": "綾歌郡綾川町", "postcode": "761-2304", "prefecture": "香川県", "id": 7612304 },
        { "address": "北", "city": "綾歌郡綾川町", "postcode": "761-2306", "prefecture": "香川県", "id": 7612306 },
        { "address": "陶", "city": "綾歌郡綾川町", "postcode": "761-2103", "prefecture": "香川県", "id": 7612103 },
        { "address": "千疋", "city": "綾歌郡綾川町", "postcode": "761-2102", "prefecture": "香川県", "id": 7612102 },
        { "address": "枌所西", "city": "綾歌郡綾川町", "postcode": "761-2202", "prefecture": "香川県", "id": 7612202 },
        { "address": "枌所東", "city": "綾歌郡綾川町", "postcode": "761-2201", "prefecture": "香川県", "id": 7612201 },
        { "address": "滝宮", "city": "綾歌郡綾川町", "postcode": "761-2305", "prefecture": "香川県", "id": 7612305 },
        { "address": "西分", "city": "綾歌郡綾川町", "postcode": "761-2206", "prefecture": "香川県", "id": 7612206 },
        { "address": "畑田", "city": "綾歌郡綾川町", "postcode": "761-2101", "prefecture": "香川県", "id": 7612101 },
        { "address": "羽床上", "city": "綾歌郡綾川町", "postcode": "761-2207", "prefecture": "香川県", "id": 7612207 },
        { "address": "羽床下", "city": "綾歌郡綾川町", "postcode": "761-2308", "prefecture": "香川県", "id": 7612308 },
        { "address": "東分", "city": "綾歌郡綾川町", "postcode": "761-2205", "prefecture": "香川県", "id": 7612205 },
        { "address": "山田上", "city": "綾歌郡綾川町", "postcode": "761-2203", "prefecture": "香川県", "id": 7612203 },
        { "address": "山田下", "city": "綾歌郡綾川町", "postcode": "761-2204", "prefecture": "香川県", "id": 7612204 },
        { "city": "仲多度郡琴平町", "postcode": "766-0000", "prefecture": "香川県", "id": 7660000 },
        { "address": "榎井", "city": "仲多度郡琴平町", "postcode": "766-0004", "prefecture": "香川県", "id": 7660004 },
        {
            "address": "上櫛梨",
            "city": "仲多度郡琴平町",
            "postcode": "766-0006",
            "prefecture": "香川県",
            "id": 7660006
        },
        { "city": "仲多度郡琴平町", "postcode": "766-0002", "prefecture": "香川県", "id": 7660002 },
        { "city": "仲多度郡琴平町", "postcode": "766-0001", "prefecture": "香川県", "id": 7660001 },
        { "address": "五條", "city": "仲多度郡琴平町", "postcode": "766-0003", "prefecture": "香川県", "id": 7660003 },
        {
            "address": "下櫛梨",
            "city": "仲多度郡琴平町",
            "postcode": "766-0007",
            "prefecture": "香川県",
            "id": 7660007
        },
        { "address": "苗田", "city": "仲多度郡琴平町", "postcode": "766-0005", "prefecture": "香川県", "id": 7660005 },
        { "city": "仲多度郡多度津町", "postcode": "764-0000", "prefecture": "香川県", "id": 7640000 },
        {
            "address": "青木",
            "city": "仲多度郡多度津町",
            "postcode": "764-0033",
            "prefecture": "香川県",
            "id": 7640033
        },
        {
            "address": "大通り",
            "city": "仲多度郡多度津町",
            "postcode": "764-0005",
            "prefecture": "香川県",
            "id": 7640005
        },
        {
            "address": "奥白方",
            "city": "仲多度郡多度津町",
            "postcode": "764-0035",
            "prefecture": "香川県",
            "id": 7640035
        },
        {
            "address": "葛原",
            "city": "仲多度郡多度津町",
            "postcode": "764-0028",
            "prefecture": "香川県",
            "id": 7640028
        },
        {
            "address": "家中",
            "city": "仲多度郡多度津町",
            "postcode": "764-0002",
            "prefecture": "香川県",
            "id": 7640002
        },
        {
            "address": "北鴨",
            "city": "仲多度郡多度津町",
            "postcode": "764-0022",
            "prefecture": "香川県",
            "id": 7640022
        },
        {
            "address": "京町",
            "city": "仲多度郡多度津町",
            "postcode": "764-0013",
            "prefecture": "香川県",
            "id": 7640013
        },
        {
            "address": "寿町",
            "city": "仲多度郡多度津町",
            "postcode": "764-0025",
            "prefecture": "香川県",
            "id": 7640025
        },
        {
            "address": "幸町",
            "city": "仲多度郡多度津町",
            "postcode": "764-0024",
            "prefecture": "香川県",
            "id": 7640024
        },
        {
            "address": "栄町",
            "city": "仲多度郡多度津町",
            "postcode": "764-0011",
            "prefecture": "香川県",
            "id": 7640011
        },
        {
            "address": "桜川",
            "city": "仲多度郡多度津町",
            "postcode": "764-0012",
            "prefecture": "香川県",
            "id": 7640012
        },
        {
            "address": "佐柳",
            "city": "仲多度郡多度津町",
            "postcode": "764-0040",
            "prefecture": "香川県",
            "id": 7640040
        },
        { "address": "庄", "city": "仲多度郡多度津町", "postcode": "764-0031", "prefecture": "香川県", "id": 7640031 },
        {
            "address": "高見",
            "city": "仲多度郡多度津町",
            "postcode": "764-0050",
            "prefecture": "香川県",
            "id": 7640050
        },
        {
            "address": "道福寺",
            "city": "仲多度郡多度津町",
            "postcode": "764-0027",
            "prefecture": "香川県",
            "id": 7640027
        },
        {
            "address": "仲ノ町",
            "city": "仲多度郡多度津町",
            "postcode": "764-0004",
            "prefecture": "香川県",
            "id": 7640004
        },
        {
            "address": "西白方",
            "city": "仲多度郡多度津町",
            "postcode": "764-0037",
            "prefecture": "香川県",
            "id": 7640037
        },
        {
            "address": "西浜",
            "city": "仲多度郡多度津町",
            "postcode": "764-0015",
            "prefecture": "香川県",
            "id": 7640015
        },
        {
            "address": "西港町",
            "city": "仲多度郡多度津町",
            "postcode": "764-0017",
            "prefecture": "香川県",
            "id": 7640017
        },
        {
            "address": "東白方",
            "city": "仲多度郡多度津町",
            "postcode": "764-0038",
            "prefecture": "香川県",
            "id": 7640038
        },
        {
            "address": "東新町",
            "city": "仲多度郡多度津町",
            "postcode": "764-0001",
            "prefecture": "香川県",
            "id": 7640001
        },
        {
            "address": "東浜",
            "city": "仲多度郡多度津町",
            "postcode": "764-0016",
            "prefecture": "香川県",
            "id": 7640016
        },
        {
            "address": "東港町",
            "city": "仲多度郡多度津町",
            "postcode": "764-0018",
            "prefecture": "香川県",
            "id": 7640018
        },
        {
            "address": "日の出町",
            "city": "仲多度郡多度津町",
            "postcode": "764-0006",
            "prefecture": "香川県",
            "id": 7640006
        },
        {
            "address": "堀江",
            "city": "仲多度郡多度津町",
            "postcode": "764-0021",
            "prefecture": "香川県",
            "id": 7640021
        },
        {
            "address": "本通",
            "city": "仲多度郡多度津町",
            "postcode": "764-0014",
            "prefecture": "香川県",
            "id": 7640014
        },
        {
            "address": "三井",
            "city": "仲多度郡多度津町",
            "postcode": "764-0032",
            "prefecture": "香川県",
            "id": 7640032
        },
        {
            "address": "見立",
            "city": "仲多度郡多度津町",
            "postcode": "764-0036",
            "prefecture": "香川県",
            "id": 7640036
        },
        {
            "address": "南鴨",
            "city": "仲多度郡多度津町",
            "postcode": "764-0026",
            "prefecture": "香川県",
            "id": 7640026
        },
        {
            "address": "元町",
            "city": "仲多度郡多度津町",
            "postcode": "764-0003",
            "prefecture": "香川県",
            "id": 7640003
        },
        {
            "address": "山階",
            "city": "仲多度郡多度津町",
            "postcode": "764-0034",
            "prefecture": "香川県",
            "id": 7640034
        },
        {
            "address": "若葉町",
            "city": "仲多度郡多度津町",
            "postcode": "764-0023",
            "prefecture": "香川県",
            "id": 7640023
        },
        {
            "address": "生間",
            "city": "仲多度郡まんのう町",
            "postcode": "769-0313",
            "prefecture": "香川県",
            "id": 7690313
        },
        {
            "address": "後山",
            "city": "仲多度郡まんのう町",
            "postcode": "769-0315",
            "prefecture": "香川県",
            "id": 7690315
        },
        {
            "address": "追上",
            "city": "仲多度郡まんのう町",
            "postcode": "769-0319",
            "prefecture": "香川県",
            "id": 7690319
        },
        {
            "address": "大口",
            "city": "仲多度郡まんのう町",
            "postcode": "769-0316",
            "prefecture": "香川県",
            "id": 7690316
        },
        {
            "address": "買田",
            "city": "仲多度郡まんのう町",
            "postcode": "769-0311",
            "prefecture": "香川県",
            "id": 7690311
        },
        {
            "address": "勝浦",
            "city": "仲多度郡まんのう町",
            "postcode": "766-0204",
            "prefecture": "香川県",
            "id": 7660204
        },
        {
            "address": "川東",
            "city": "仲多度郡まんのう町",
            "postcode": "766-0203",
            "prefecture": "香川県",
            "id": 7660203
        },
        {
            "address": "神野",
            "city": "仲多度郡まんのう町",
            "postcode": "766-0024",
            "prefecture": "香川県",
            "id": 7660024
        },
        {
            "address": "岸上",
            "city": "仲多度郡まんのう町",
            "postcode": "766-0026",
            "prefecture": "香川県",
            "id": 7660026
        },
        {
            "address": "公文",
            "city": "仲多度郡まんのう町",
            "postcode": "766-0011",
            "prefecture": "香川県",
            "id": 7660011
        },
        {
            "address": "五條",
            "city": "仲多度郡まんのう町",
            "postcode": "766-0027",
            "prefecture": "香川県",
            "id": 7660027
        },
        {
            "address": "佐文",
            "city": "仲多度郡まんのう町",
            "postcode": "769-0301",
            "prefecture": "香川県",
            "id": 7690301
        },
        {
            "address": "塩入",
            "city": "仲多度郡まんのう町",
            "postcode": "769-0302",
            "prefecture": "香川県",
            "id": 7690302
        },
        {
            "address": "四條",
            "city": "仲多度郡まんのう町",
            "postcode": "766-0021",
            "prefecture": "香川県",
            "id": 7660021
        },
        {
            "address": "七箇",
            "city": "仲多度郡まんのう町",
            "postcode": "769-0303",
            "prefecture": "香川県",
            "id": 7690303
        },
        {
            "address": "新目",
            "city": "仲多度郡まんのう町",
            "postcode": "769-0317",
            "prefecture": "香川県",
            "id": 7690317
        },
        {
            "address": "炭所西",
            "city": "仲多度郡まんのう町",
            "postcode": "766-0017",
            "prefecture": "香川県",
            "id": 7660017
        },
        {
            "address": "炭所東",
            "city": "仲多度郡まんのう町",
            "postcode": "766-0016",
            "prefecture": "香川県",
            "id": 7660016
        },
        {
            "address": "造田",
            "city": "仲多度郡まんのう町",
            "postcode": "766-0201",
            "prefecture": "香川県",
            "id": 7660201
        },
        {
            "address": "長尾",
            "city": "仲多度郡まんのう町",
            "postcode": "766-0015",
            "prefecture": "香川県",
            "id": 7660015
        },
        {
            "address": "中通",
            "city": "仲多度郡まんのう町",
            "postcode": "766-0202",
            "prefecture": "香川県",
            "id": 7660202
        },
        {
            "address": "西高篠",
            "city": "仲多度郡まんのう町",
            "postcode": "766-0012",
            "prefecture": "香川県",
            "id": 7660012
        },
        {
            "address": "羽間",
            "city": "仲多度郡まんのう町",
            "postcode": "766-0014",
            "prefecture": "香川県",
            "id": 7660014
        },
        {
            "address": "東高篠",
            "city": "仲多度郡まんのう町",
            "postcode": "766-0013",
            "prefecture": "香川県",
            "id": 7660013
        },
        {
            "address": "帆山",
            "city": "仲多度郡まんのう町",
            "postcode": "769-0314",
            "prefecture": "香川県",
            "id": 7690314
        },
        {
            "address": "真野",
            "city": "仲多度郡まんのう町",
            "postcode": "766-0025",
            "prefecture": "香川県",
            "id": 7660025
        },
        {
            "address": "宮田",
            "city": "仲多度郡まんのう町",
            "postcode": "769-0312",
            "prefecture": "香川県",
            "id": 7690312
        },
        {
            "address": "山脇",
            "city": "仲多度郡まんのう町",
            "postcode": "769-0318",
            "prefecture": "香川県",
            "id": 7690318
        },
        {
            "address": "吉野",
            "city": "仲多度郡まんのう町",
            "postcode": "766-0023",
            "prefecture": "香川県",
            "id": 7660023
        },
        {
            "address": "吉野下",
            "city": "仲多度郡まんのう町",
            "postcode": "766-0022",
            "prefecture": "香川県",
            "id": 7660022
        }
    ]
}
