{
    "postcodes": [
        { "city": "鳥取市", "postcode": "6800000", "prefecture": "鳥取県", "id": 0 },
        { "address": "相生町", "city": "鳥取市", "postcode": "6800805", "prefecture": "鳥取県", "id": 1 },
        { "address": "青葉町", "city": "鳥取市", "postcode": "6800802", "prefecture": "鳥取県", "id": 2 },
        { "address": "青谷町青谷", "city": "鳥取市", "postcode": "6890501", "prefecture": "鳥取県", "id": 3 },
        { "address": "青谷町井手", "city": "鳥取市", "postcode": "6890535", "prefecture": "鳥取県", "id": 4 },
        { "address": "青谷町大坪", "city": "鳥取市", "postcode": "6890518", "prefecture": "鳥取県", "id": 5 },
        { "address": "青谷町奥崎", "city": "鳥取市", "postcode": "6890519", "prefecture": "鳥取県", "id": 6 },
        { "address": "青谷町小畑", "city": "鳥取市", "postcode": "6890516", "prefecture": "鳥取県", "id": 7 },
        { "address": "青谷町紙屋", "city": "鳥取市", "postcode": "6890526", "prefecture": "鳥取県", "id": 8 },
        { "address": "青谷町亀尻", "city": "鳥取市", "postcode": "6890522", "prefecture": "鳥取県", "id": 9 },
        { "address": "青谷町河原", "city": "鳥取市", "postcode": "6890515", "prefecture": "鳥取県", "id": 10 },
        { "address": "青谷町北河原", "city": "鳥取市", "postcode": "6890532", "prefecture": "鳥取県", "id": 11 },
        { "address": "青谷町絹見", "city": "鳥取市", "postcode": "6890533", "prefecture": "鳥取県", "id": 12 },
        { "address": "青谷町楠根", "city": "鳥取市", "postcode": "6890527", "prefecture": "鳥取県", "id": 13 },
        { "address": "青谷町蔵内", "city": "鳥取市", "postcode": "6890513", "prefecture": "鳥取県", "id": 14 },
        { "address": "青谷町桑原", "city": "鳥取市", "postcode": "6890529", "prefecture": "鳥取県", "id": 15 },
        { "address": "青谷町栄町", "city": "鳥取市", "postcode": "6890537", "prefecture": "鳥取県", "id": 16 },
        { "address": "青谷町澄水", "city": "鳥取市", "postcode": "6890528", "prefecture": "鳥取県", "id": 17 },
        { "address": "青谷町田原谷", "city": "鳥取市", "postcode": "6890525", "prefecture": "鳥取県", "id": 18 },
        { "address": "青谷町露谷", "city": "鳥取市", "postcode": "6890521", "prefecture": "鳥取県", "id": 19 },
        { "address": "青谷町長和瀬", "city": "鳥取市", "postcode": "6890536", "prefecture": "鳥取県", "id": 20 },
        { "address": "青谷町鳴滝", "city": "鳥取市", "postcode": "6890531", "prefecture": "鳥取県", "id": 21 },
        { "address": "青谷町八葉寺", "city": "鳥取市", "postcode": "6890524", "prefecture": "鳥取県", "id": 22 },
        { "address": "青谷町早牛", "city": "鳥取市", "postcode": "6890517", "prefecture": "鳥取県", "id": 23 },
        { "address": "青谷町山田", "city": "鳥取市", "postcode": "6890523", "prefecture": "鳥取県", "id": 24 },
        { "address": "青谷町山根", "city": "鳥取市", "postcode": "6890514", "prefecture": "鳥取県", "id": 25 },
        { "address": "青谷町養郷", "city": "鳥取市", "postcode": "6890512", "prefecture": "鳥取県", "id": 26 },
        { "address": "青谷町吉川", "city": "鳥取市", "postcode": "6890534", "prefecture": "鳥取県", "id": 27 },
        { "address": "青谷町善田", "city": "鳥取市", "postcode": "6890511", "prefecture": "鳥取県", "id": 28 },
        { "address": "秋里", "city": "鳥取市", "postcode": "6800902", "prefecture": "鳥取県", "id": 29 },
        { "address": "赤子田", "city": "鳥取市", "postcode": "6801146", "prefecture": "鳥取県", "id": 30 },
        { "address": "朝月", "city": "鳥取市", "postcode": "6801166", "prefecture": "鳥取県", "id": 31 },
        { "address": "有富", "city": "鳥取市", "postcode": "6801176", "prefecture": "鳥取県", "id": 32 },
        { "address": "猪子", "city": "鳥取市", "postcode": "6801164", "prefecture": "鳥取県", "id": 33 },
        { "address": "今町", "city": "鳥取市", "postcode": "6800822", "prefecture": "鳥取県", "id": 34 },
        { "address": "岩倉", "city": "鳥取市", "postcode": "6800081", "prefecture": "鳥取県", "id": 35 },
        { "address": "岩坪", "city": "鳥取市", "postcode": "6801157", "prefecture": "鳥取県", "id": 36 },
        { "address": "岩吉", "city": "鳥取市", "postcode": "6800931", "prefecture": "鳥取県", "id": 37 },
        { "address": "上原", "city": "鳥取市", "postcode": "6801422", "prefecture": "鳥取県", "id": 38 },
        { "address": "上町", "city": "鳥取市", "postcode": "6800015", "prefecture": "鳥取県", "id": 39 },
        { "address": "内海中", "city": "鳥取市", "postcode": "6890205", "prefecture": "鳥取県", "id": 40 },
        { "address": "永楽温泉町", "city": "鳥取市", "postcode": "6800834", "prefecture": "鳥取県", "id": 41 },
        { "address": "江崎町", "city": "鳥取市", "postcode": "6800013", "prefecture": "鳥取県", "id": 42 },
        { "address": "江津", "city": "鳥取市", "postcode": "6800901", "prefecture": "鳥取県", "id": 43 },
        { "address": "戎町", "city": "鳥取市", "postcode": "6800055", "prefecture": "鳥取県", "id": 44 },
        { "address": "円護寺", "city": "鳥取市", "postcode": "6800005", "prefecture": "鳥取県", "id": 45 },
        { "address": "円通寺", "city": "鳥取市", "postcode": "6801144", "prefecture": "鳥取県", "id": 46 },
        { "address": "扇町", "city": "鳥取市", "postcode": "6800846", "prefecture": "鳥取県", "id": 47 },
        { "address": "大榎町", "city": "鳥取市", "postcode": "6800043", "prefecture": "鳥取県", "id": 48 },
        { "address": "大杙", "city": "鳥取市", "postcode": "6800851", "prefecture": "鳥取県", "id": 49 },
        { "address": "大塚", "city": "鳥取市", "postcode": "6801415", "prefecture": "鳥取県", "id": 50 },
        { "address": "大畑", "city": "鳥取市", "postcode": "6801437", "prefecture": "鳥取県", "id": 51 },
        { "address": "晩稲", "city": "鳥取市", "postcode": "6800904", "prefecture": "鳥取県", "id": 52 },
        { "address": "桶屋町", "city": "鳥取市", "postcode": "6800054", "prefecture": "鳥取県", "id": 53 },
        { "address": "尾崎", "city": "鳥取市", "postcode": "6801427", "prefecture": "鳥取県", "id": 54 },
        { "address": "面影", "city": "鳥取市", "postcode": "6800855", "prefecture": "鳥取県", "id": 55 },
        { "address": "御弓町", "city": "鳥取市", "postcode": "6800044", "prefecture": "鳥取県", "id": 56 },
        { "address": "海蔵寺", "city": "鳥取市", "postcode": "6891117", "prefecture": "鳥取県", "id": 57 },
        { "address": "覚寺", "city": "鳥取市", "postcode": "6800003", "prefecture": "鳥取県", "id": 58 },
        { "address": "掛出町", "city": "鳥取市", "postcode": "6800041", "prefecture": "鳥取県", "id": 59 },
        { "address": "紙子谷", "city": "鳥取市", "postcode": "6891115", "prefecture": "鳥取県", "id": 60 },
        { "address": "鍛冶町", "city": "鳥取市", "postcode": "6800052", "prefecture": "鳥取県", "id": 61 },
        { "address": "片原", "city": "鳥取市", "postcode": "6800023", "prefecture": "鳥取県", "id": 62 },
        { "address": "桂木", "city": "鳥取市", "postcode": "6891104", "prefecture": "鳥取県", "id": 63 },
        { "address": "桂見", "city": "鳥取市", "postcode": "6801417", "prefecture": "鳥取県", "id": 64 },
        { "address": "香取", "city": "鳥取市", "postcode": "6891114", "prefecture": "鳥取県", "id": 65 },
        { "address": "金沢", "city": "鳥取市", "postcode": "6801439", "prefecture": "鳥取県", "id": 66 },
        { "address": "叶", "city": "鳥取市", "postcode": "6800874", "prefecture": "鳥取県", "id": 67 },
        { "address": "上味野", "city": "鳥取市", "postcode": "6801167", "prefecture": "鳥取県", "id": 68 },
        { "address": "上魚町", "city": "鳥取市", "postcode": "6800047", "prefecture": "鳥取県", "id": 69 },
        { "address": "上砂見", "city": "鳥取市", "postcode": "6801156", "prefecture": "鳥取県", "id": 70 },
        { "address": "上段", "city": "鳥取市", "postcode": "6801421", "prefecture": "鳥取県", "id": 71 },
        { "address": "賀露町", "city": "鳥取市", "postcode": "6800905", "prefecture": "鳥取県", "id": 72 },
        { "address": "賀露町北", "city": "鳥取市", "postcode": "6800907", "prefecture": "鳥取県", "id": 73 },
        { "address": "賀露町西", "city": "鳥取市", "postcode": "6800908", "prefecture": "鳥取県", "id": 74 },
        { "address": "賀露町南", "city": "鳥取市", "postcode": "6800909", "prefecture": "鳥取県", "id": 75 },
        { "address": "川端", "city": "鳥取市", "postcode": "6800036", "prefecture": "鳥取県", "id": 76 },
        { "address": "河原町鮎ケ丘", "city": "鳥取市", "postcode": "6801208", "prefecture": "鳥取県", "id": 77 },
        { "address": "河原町稲常", "city": "鳥取市", "postcode": "6801203", "prefecture": "鳥取県", "id": 78 },
        { "address": "河原町今在家", "city": "鳥取市", "postcode": "6801205", "prefecture": "鳥取県", "id": 79 },
        { "address": "河原町牛戸", "city": "鳥取市", "postcode": "6801225", "prefecture": "鳥取県", "id": 80 },
        { "address": "河原町小倉", "city": "鳥取市", "postcode": "6801245", "prefecture": "鳥取県", "id": 81 },
        { "address": "河原町小河内", "city": "鳥取市", "postcode": "6801253", "prefecture": "鳥取県", "id": 82 },
        { "address": "河原町小畑", "city": "鳥取市", "postcode": "6801232", "prefecture": "鳥取県", "id": 83 },
        { "address": "河原町片山", "city": "鳥取市", "postcode": "6801204", "prefecture": "鳥取県", "id": 84 },
        { "address": "河原町釜口", "city": "鳥取市", "postcode": "6801216", "prefecture": "鳥取県", "id": 85 },
        { "address": "河原町河原", "city": "鳥取市", "postcode": "6801251", "prefecture": "鳥取県", "id": 86 },
        { "address": "河原町神馬", "city": "鳥取市", "postcode": "6801254", "prefecture": "鳥取県", "id": 87 },
        { "address": "河原町北村", "city": "鳥取市", "postcode": "6801234", "prefecture": "鳥取県", "id": 88 },
        { "address": "河原町郷原", "city": "鳥取市", "postcode": "6801207", "prefecture": "鳥取県", "id": 89 },
        { "address": "河原町佐貫", "city": "鳥取市", "postcode": "6801243", "prefecture": "鳥取県", "id": 90 },
        { "address": "河原町高福", "city": "鳥取市", "postcode": "6801213", "prefecture": "鳥取県", "id": 91 },
        { "address": "河原町谷一木", "city": "鳥取市", "postcode": "6801242", "prefecture": "鳥取県", "id": 92 },
        { "address": "河原町天神原", "city": "鳥取市", "postcode": "6801223", "prefecture": "鳥取県", "id": 93 },
        { "address": "河原町徳吉", "city": "鳥取市", "postcode": "6801212", "prefecture": "鳥取県", "id": 94 },
        { "address": "河原町中井", "city": "鳥取市", "postcode": "6801224", "prefecture": "鳥取県", "id": 95 },
        { "address": "河原町長瀬", "city": "鳥取市", "postcode": "6801241", "prefecture": "鳥取県", "id": 96 },
        { "address": "河原町西円通寺", "city": "鳥取市", "postcode": "6801209", "prefecture": "鳥取県", "id": 97 },
        { "address": "河原町曳田", "city": "鳥取市", "postcode": "6801222", "prefecture": "鳥取県", "id": 98 },
        { "address": "河原町袋河原", "city": "鳥取市", "postcode": "6801201", "prefecture": "鳥取県", "id": 99 },
        { "address": "河原町布袋", "city": "鳥取市", "postcode": "6801202", "prefecture": "鳥取県", "id": 100 },
        { "address": "河原町本鹿", "city": "鳥取市", "postcode": "6801252", "prefecture": "鳥取県", "id": 101 },
        { "address": "河原町水根", "city": "鳥取市", "postcode": "6801244", "prefecture": "鳥取県", "id": 102 },
        { "address": "河原町三谷", "city": "鳥取市", "postcode": "6801206", "prefecture": "鳥取県", "id": 103 },
        { "address": "河原町山上", "city": "鳥取市", "postcode": "6801246", "prefecture": "鳥取県", "id": 104 },
        { "address": "河原町山手", "city": "鳥取市", "postcode": "6801211", "prefecture": "鳥取県", "id": 105 },
        { "address": "河原町湯谷", "city": "鳥取市", "postcode": "6801231", "prefecture": "鳥取県", "id": 106 },
        { "address": "河原町弓河内", "city": "鳥取市", "postcode": "6801233", "prefecture": "鳥取県", "id": 107 },
        { "address": "河原町八日市", "city": "鳥取市", "postcode": "6801214", "prefecture": "鳥取県", "id": 108 },
        { "address": "河原町渡一木", "city": "鳥取市", "postcode": "6801221", "prefecture": "鳥取県", "id": 109 },
        { "address": "河原町和奈見", "city": "鳥取市", "postcode": "6801215", "prefecture": "鳥取県", "id": 110 },
        { "address": "瓦町", "city": "鳥取市", "postcode": "6800821", "prefecture": "鳥取県", "id": 111 },
        { "address": "北園", "city": "鳥取市", "postcode": "6800004", "prefecture": "鳥取県", "id": 112 },
        { "address": "北村", "city": "鳥取市", "postcode": "6801172", "prefecture": "鳥取県", "id": 113 },
        { "address": "行徳", "city": "鳥取市", "postcode": "6800824", "prefecture": "鳥取県", "id": 114 },
        { "address": "国安", "city": "鳥取市", "postcode": "6801132", "prefecture": "鳥取県", "id": 115 },
        { "address": "雲山", "city": "鳥取市", "postcode": "6800862", "prefecture": "鳥取県", "id": 116 },
        { "address": "蔵田", "city": "鳥取市", "postcode": "6801141", "prefecture": "鳥取県", "id": 117 },
        { "address": "栗谷町", "city": "鳥取市", "postcode": "6800012", "prefecture": "鳥取県", "id": 118 },
        { "address": "気高町飯里", "city": "鳥取市", "postcode": "6890343", "prefecture": "鳥取県", "id": 119 },
        { "address": "気高町会下", "city": "鳥取市", "postcode": "6890355", "prefecture": "鳥取県", "id": 120 },
        { "address": "気高町奥沢見", "city": "鳥取市", "postcode": "6890211", "prefecture": "鳥取県", "id": 121 },
        { "address": "気高町下石", "city": "鳥取市", "postcode": "6890341", "prefecture": "鳥取県", "id": 122 },
        { "address": "気高町勝見", "city": "鳥取市", "postcode": "6890332", "prefecture": "鳥取県", "id": 123 },
        { "address": "気高町上光", "city": "鳥取市", "postcode": "6890214", "prefecture": "鳥取県", "id": 124 },
        { "address": "気高町上原", "city": "鳥取市", "postcode": "6890344", "prefecture": "鳥取県", "id": 125 },
        { "address": "気高町北浜", "city": "鳥取市", "postcode": "6890334", "prefecture": "鳥取県", "id": 126 },
        { "address": "気高町郡家", "city": "鳥取市", "postcode": "6890353", "prefecture": "鳥取県", "id": 127 },
        { "address": "気高町酒津", "city": "鳥取市", "postcode": "6890217", "prefecture": "鳥取県", "id": 128 },
        { "address": "気高町重高", "city": "鳥取市", "postcode": "6890224", "prefecture": "鳥取県", "id": 129 },
        { "address": "気高町下坂本", "city": "鳥取市", "postcode": "6890221", "prefecture": "鳥取県", "id": 130 },
        { "address": "気高町下原", "city": "鳥取市", "postcode": "6890356", "prefecture": "鳥取県", "id": 131 },
        { "address": "気高町下光元", "city": "鳥取市", "postcode": "6890213", "prefecture": "鳥取県", "id": 132 },
        { "address": "気高町宿", "city": "鳥取市", "postcode": "6890226", "prefecture": "鳥取県", "id": 133 },
        { "address": "気高町新町", "city": "鳥取市", "postcode": "6890333", "prefecture": "鳥取県", "id": 134 },
        { "address": "気高町高江", "city": "鳥取市", "postcode": "6890352", "prefecture": "鳥取県", "id": 135 },
        { "address": "気高町常松", "city": "鳥取市", "postcode": "6890212", "prefecture": "鳥取県", "id": 136 },
        { "address": "気高町土居", "city": "鳥取市", "postcode": "6890225", "prefecture": "鳥取県", "id": 137 },
        { "address": "気高町殿", "city": "鳥取市", "postcode": "6890342", "prefecture": "鳥取県", "id": 138 },
        { "address": "気高町冨吉", "city": "鳥取市", "postcode": "6890215", "prefecture": "鳥取県", "id": 139 },
        { "address": "気高町日光", "city": "鳥取市", "postcode": "6890222", "prefecture": "鳥取県", "id": 140 },
        { "address": "気高町二本木", "city": "鳥取市", "postcode": "6890223", "prefecture": "鳥取県", "id": 141 },
        { "address": "気高町浜村", "city": "鳥取市", "postcode": "6890331", "prefecture": "鳥取県", "id": 142 },
        { "address": "気高町宝木", "city": "鳥取市", "postcode": "6890216", "prefecture": "鳥取県", "id": 143 },
        { "address": "気高町睦逢", "city": "鳥取市", "postcode": "6890354", "prefecture": "鳥取県", "id": 144 },
        { "address": "気高町八束水", "city": "鳥取市", "postcode": "6890357", "prefecture": "鳥取県", "id": 145 },
        { "address": "気高町山宮", "city": "鳥取市", "postcode": "6890345", "prefecture": "鳥取県", "id": 146 },
        { "address": "気高町八幡", "city": "鳥取市", "postcode": "6890351", "prefecture": "鳥取県", "id": 147 },
        { "address": "玄好町", "city": "鳥取市", "postcode": "6800024", "prefecture": "鳥取県", "id": 148 },
        { "address": "源太", "city": "鳥取市", "postcode": "6801133", "prefecture": "鳥取県", "id": 149 },
        { "address": "越路", "city": "鳥取市", "postcode": "6891124", "prefecture": "鳥取県", "id": 150 },
        { "address": "河内", "city": "鳥取市", "postcode": "6801425", "prefecture": "鳥取県", "id": 151 },
        { "address": "興南町", "city": "鳥取市", "postcode": "6800844", "prefecture": "鳥取県", "id": 152 },
        { "address": "高路", "city": "鳥取市", "postcode": "6801177", "prefecture": "鳥取県", "id": 153 },
        { "address": "国府町麻生", "city": "鳥取市", "postcode": "6800142", "prefecture": "鳥取県", "id": 154 },
        { "address": "国府町雨滝", "city": "鳥取市", "postcode": "6800201", "prefecture": "鳥取県", "id": 155 },
        { "address": "国府町荒舟", "city": "鳥取市", "postcode": "6800216", "prefecture": "鳥取県", "id": 156 },
        { "address": "国府町糸谷", "city": "鳥取市", "postcode": "6800136", "prefecture": "鳥取県", "id": 157 },
        { "address": "国府町稲葉丘", "city": "鳥取市", "postcode": "6808062", "prefecture": "鳥取県", "id": 158 },
        { "address": "国府町石井谷", "city": "鳥取市", "postcode": "6800202", "prefecture": "鳥取県", "id": 159 },
        { "address": "国府町大石", "city": "鳥取市", "postcode": "6800203", "prefecture": "鳥取県", "id": 160 },
        { "address": "国府町岡益", "city": "鳥取市", "postcode": "6800144", "prefecture": "鳥取県", "id": 161 },
        { "address": "国府町奥谷", "city": "鳥取市", "postcode": "6808063", "prefecture": "鳥取県", "id": 162 },
        { "address": "国府町上荒舟", "city": "鳥取市", "postcode": "6800214", "prefecture": "鳥取県", "id": 163 },
        { "address": "国府町上上地", "city": "鳥取市", "postcode": "6800213", "prefecture": "鳥取県", "id": 164 },
        { "address": "国府町神護", "city": "鳥取市", "postcode": "6800221", "prefecture": "鳥取県", "id": 165 },
        { "address": "国府町木原", "city": "鳥取市", "postcode": "6800208", "prefecture": "鳥取県", "id": 166 },
        { "address": "国府町神垣", "city": "鳥取市", "postcode": "6800132", "prefecture": "鳥取県", "id": 167 },
        { "address": "国府町国分寺", "city": "鳥取市", "postcode": "6800155", "prefecture": "鳥取県", "id": 168 },
        { "address": "国府町三代寺", "city": "鳥取市", "postcode": "6800154", "prefecture": "鳥取県", "id": 169 },
        { "address": "国府町拾石", "city": "鳥取市", "postcode": "6800205", "prefecture": "鳥取県", "id": 170 },
        { "address": "国府町下木原", "city": "鳥取市", "postcode": "6800207", "prefecture": "鳥取県", "id": 171 },
        { "address": "国府町新通り", "city": "鳥取市", "postcode": "6808066", "prefecture": "鳥取県", "id": 172 },
        { "address": "国府町新町", "city": "鳥取市", "postcode": "6808065", "prefecture": "鳥取県", "id": 173 },
        { "address": "国府町菅野", "city": "鳥取市", "postcode": "6800211", "prefecture": "鳥取県", "id": 174 },
        { "address": "国府町清水", "city": "鳥取市", "postcode": "6800134", "prefecture": "鳥取県", "id": 175 },
        { "address": "国府町高岡", "city": "鳥取市", "postcode": "6800131", "prefecture": "鳥取県", "id": 176 },
        { "address": "国府町谷", "city": "鳥取市", "postcode": "6800135", "prefecture": "鳥取県", "id": 177 },
        { "address": "国府町玉鉾", "city": "鳥取市", "postcode": "6800143", "prefecture": "鳥取県", "id": 178 },
        { "address": "国府町中郷", "city": "鳥取市", "postcode": "6800156", "prefecture": "鳥取県", "id": 179 },
        { "address": "国府町庁", "city": "鳥取市", "postcode": "6800152", "prefecture": "鳥取県", "id": 180 },
        { "address": "国府町栃本", "city": "鳥取市", "postcode": "6800206", "prefecture": "鳥取県", "id": 181 },
        { "address": "国府町殿", "city": "鳥取市", "postcode": "6800222", "prefecture": "鳥取県", "id": 182 },
        { "address": "国府町中河原", "city": "鳥取市", "postcode": "6800223", "prefecture": "鳥取県", "id": 183 },
        { "address": "国府町楠城", "city": "鳥取市", "postcode": "6800204", "prefecture": "鳥取県", "id": 184 },
        { "address": "国府町新井", "city": "鳥取市", "postcode": "6800226", "prefecture": "鳥取県", "id": 185 },
        { "address": "国府町広西", "city": "鳥取市", "postcode": "6800145", "prefecture": "鳥取県", "id": 186 },
        { "address": "国府町分上", "city": "鳥取市", "postcode": "6808064", "prefecture": "鳥取県", "id": 187 },
        { "address": "国府町法花寺", "city": "鳥取市", "postcode": "6800153", "prefecture": "鳥取県", "id": 188 },
        { "address": "国府町町屋", "city": "鳥取市", "postcode": "6800146", "prefecture": "鳥取県", "id": 189 },
        { "address": "国府町松尾", "city": "鳥取市", "postcode": "6800224", "prefecture": "鳥取県", "id": 190 },
        { "address": "国府町美歎", "city": "鳥取市", "postcode": "6800141", "prefecture": "鳥取県", "id": 191 },
        { "address": "国府町宮下", "city": "鳥取市", "postcode": "6800151", "prefecture": "鳥取県", "id": 192 },
        { "address": "国府町山崎", "city": "鳥取市", "postcode": "6800215", "prefecture": "鳥取県", "id": 193 },
        { "address": "国府町山根", "city": "鳥取市", "postcode": "6800133", "prefecture": "鳥取県", "id": 194 },
        { "address": "国府町吉野", "city": "鳥取市", "postcode": "6800225", "prefecture": "鳥取県", "id": 195 },
        { "address": "国府町上地", "city": "鳥取市", "postcode": "6800212", "prefecture": "鳥取県", "id": 196 },
        { "address": "古郡家", "city": "鳥取市", "postcode": "6891125", "prefecture": "鳥取県", "id": 197 },
        { "address": "小西谷", "city": "鳥取市", "postcode": "6800073", "prefecture": "鳥取県", "id": 198 },
        { "address": "小沢見", "city": "鳥取市", "postcode": "6890207", "prefecture": "鳥取県", "id": 199 },
        { "address": "五反田町", "city": "鳥取市", "postcode": "6800932", "prefecture": "鳥取県", "id": 200 },
        { "address": "寿町", "city": "鳥取市", "postcode": "6800813", "prefecture": "鳥取県", "id": 201 },
        { "address": "湖山町", "city": "鳥取市", "postcode": "6800946", "prefecture": "鳥取県", "id": 202 },
        { "address": "湖山町東", "city": "鳥取市", "postcode": "6800942", "prefecture": "鳥取県", "id": 203 },
        { "address": "湖山町西", "city": "鳥取市", "postcode": "6800947", "prefecture": "鳥取県", "id": 204 },
        { "address": "湖山町南", "city": "鳥取市", "postcode": "6800945", "prefecture": "鳥取県", "id": 205 },
        { "address": "湖山町北", "city": "鳥取市", "postcode": "6800941", "prefecture": "鳥取県", "id": 206 },
        { "address": "材木町", "city": "鳥取市", "postcode": "6800021", "prefecture": "鳥取県", "id": 207 },
        { "address": "幸町", "city": "鳥取市", "postcode": "6800823", "prefecture": "鳥取県", "id": 208 },
        { "address": "栄町", "city": "鳥取市", "postcode": "6800831", "prefecture": "鳥取県", "id": 209 },
        { "address": "桜谷", "city": "鳥取市", "postcode": "6800853", "prefecture": "鳥取県", "id": 210 },
        { "address": "佐治町大井", "city": "鳥取市", "postcode": "6891304", "prefecture": "鳥取県", "id": 211 },
        { "address": "佐治町尾際", "city": "鳥取市", "postcode": "6891324", "prefecture": "鳥取県", "id": 212 },
        { "address": "佐治町葛谷", "city": "鳥取市", "postcode": "6891301", "prefecture": "鳥取県", "id": 213 },
        { "address": "佐治町加瀬木", "city": "鳥取市", "postcode": "6891313", "prefecture": "鳥取県", "id": 214 },
        { "address": "佐治町加茂", "city": "鳥取市", "postcode": "6891314", "prefecture": "鳥取県", "id": 215 },
        { "address": "佐治町刈地", "city": "鳥取市", "postcode": "6891303", "prefecture": "鳥取県", "id": 216 },
        { "address": "佐治町河本", "city": "鳥取市", "postcode": "6891321", "prefecture": "鳥取県", "id": 217 },
        { "address": "佐治町小原", "city": "鳥取市", "postcode": "6891302", "prefecture": "鳥取県", "id": 218 },
        { "address": "佐治町高山", "city": "鳥取市", "postcode": "6891312", "prefecture": "鳥取県", "id": 219 },
        { "address": "佐治町つく谷", "city": "鳥取市", "postcode": "6891322", "prefecture": "鳥取県", "id": 220 },
        { "address": "佐治町津無", "city": "鳥取市", "postcode": "6891307", "prefecture": "鳥取県", "id": 221 },
        { "address": "佐治町津野", "city": "鳥取市", "postcode": "6891311", "prefecture": "鳥取県", "id": 222 },
        { "address": "佐治町栃原", "city": "鳥取市", "postcode": "6891326", "prefecture": "鳥取県", "id": 223 },
        { "address": "佐治町中", "city": "鳥取市", "postcode": "6891325", "prefecture": "鳥取県", "id": 224 },
        { "address": "佐治町畑", "city": "鳥取市", "postcode": "6891315", "prefecture": "鳥取県", "id": 225 },
        { "address": "佐治町福園", "city": "鳥取市", "postcode": "6891316", "prefecture": "鳥取県", "id": 226 },
        { "address": "佐治町古市", "city": "鳥取市", "postcode": "6891306", "prefecture": "鳥取県", "id": 227 },
        { "address": "佐治町森坪", "city": "鳥取市", "postcode": "6891305", "prefecture": "鳥取県", "id": 228 },
        { "address": "佐治町余戸", "city": "鳥取市", "postcode": "6891323", "prefecture": "鳥取県", "id": 229 },
        { "address": "里仁", "city": "鳥取市", "postcode": "6800935", "prefecture": "鳥取県", "id": 230 },
        { "address": "鹿野町今市", "city": "鳥取市", "postcode": "6890425", "prefecture": "鳥取県", "id": 231 },
        { "address": "鹿野町岡木", "city": "鳥取市", "postcode": "6890422", "prefecture": "鳥取県", "id": 232 },
        { "address": "鹿野町乙亥正", "city": "鳥取市", "postcode": "6890421", "prefecture": "鳥取県", "id": 233 },
        { "address": "鹿野町河内", "city": "鳥取市", "postcode": "6890412", "prefecture": "鳥取県", "id": 234 },
        { "address": "鹿野町小別所", "city": "鳥取市", "postcode": "6890413", "prefecture": "鳥取県", "id": 235 },
        { "address": "鹿野町鹿野", "city": "鳥取市", "postcode": "6890405", "prefecture": "鳥取県", "id": 236 },
        { "address": "鹿野町鷲峯", "city": "鳥取市", "postcode": "6890411", "prefecture": "鳥取県", "id": 237 },
        { "address": "鹿野町末用", "city": "鳥取市", "postcode": "6890403", "prefecture": "鳥取県", "id": 238 },
        { "address": "鹿野町寺内", "city": "鳥取市", "postcode": "6890426", "prefecture": "鳥取県", "id": 239 },
        { "address": "鹿野町閉野", "city": "鳥取市", "postcode": "6890402", "prefecture": "鳥取県", "id": 240 },
        { "address": "鹿野町中園", "city": "鳥取市", "postcode": "6890423", "prefecture": "鳥取県", "id": 241 },
        { "address": "鹿野町広木", "city": "鳥取市", "postcode": "6890401", "prefecture": "鳥取県", "id": 242 },
        { "address": "鹿野町水谷", "city": "鳥取市", "postcode": "6890404", "prefecture": "鳥取県", "id": 243 },
        { "address": "鹿野町宮方", "city": "鳥取市", "postcode": "6890424", "prefecture": "鳥取県", "id": 244 },
        { "address": "倭文", "city": "鳥取市", "postcode": "6801151", "prefecture": "鳥取県", "id": 245 },
        { "address": "篠坂", "city": "鳥取市", "postcode": "6801174", "prefecture": "鳥取県", "id": 246 },
        { "address": "嶋", "city": "鳥取市", "postcode": "6801411", "prefecture": "鳥取県", "id": 247 },
        { "address": "下味野", "city": "鳥取市", "postcode": "6801165", "prefecture": "鳥取県", "id": 248 },
        { "address": "下砂見", "city": "鳥取市", "postcode": "6801154", "prefecture": "鳥取県", "id": 249 },
        { "address": "下段", "city": "鳥取市", "postcode": "6801414", "prefecture": "鳥取県", "id": 250 },
        { "address": "商栄町", "city": "鳥取市", "postcode": "6800912", "prefecture": "鳥取県", "id": 251 },
        { "address": "生山", "city": "鳥取市", "postcode": "6891103", "prefecture": "鳥取県", "id": 252 },
        { "address": "尚徳町", "city": "鳥取市", "postcode": "6800017", "prefecture": "鳥取県", "id": 253 },
        { "address": "菖蒲", "city": "鳥取市", "postcode": "6800922", "prefecture": "鳥取県", "id": 254 },
        { "address": "正蓮寺", "city": "鳥取市", "postcode": "6800854", "prefecture": "鳥取県", "id": 255 },
        { "address": "職人町", "city": "鳥取市", "postcode": "6800056", "prefecture": "鳥取県", "id": 256 },
        { "address": "新", "city": "鳥取市", "postcode": "6800861", "prefecture": "鳥取県", "id": 257 },
        { "address": "新品治町", "city": "鳥取市", "postcode": "6800812", "prefecture": "鳥取県", "id": 258 },
        { "address": "新町", "city": "鳥取市", "postcode": "6800035", "prefecture": "鳥取県", "id": 259 },
        { "address": "末広温泉町", "city": "鳥取市", "postcode": "6800833", "prefecture": "鳥取県", "id": 260 },
        { "address": "杉崎", "city": "鳥取市", "postcode": "6891101", "prefecture": "鳥取県", "id": 261 },
        { "address": "数津", "city": "鳥取市", "postcode": "6800875", "prefecture": "鳥取県", "id": 262 },
        { "address": "瀬田蔵", "city": "鳥取市", "postcode": "6801435", "prefecture": "鳥取県", "id": 263 },
        { "address": "双六原", "city": "鳥取市", "postcode": "6801432", "prefecture": "鳥取県", "id": 264 },
        { "address": "大桷", "city": "鳥取市", "postcode": "6801418", "prefecture": "鳥取県", "id": 265 },
        { "address": "大覚寺", "city": "鳥取市", "postcode": "6800863", "prefecture": "鳥取県", "id": 266 },
        { "address": "高住", "city": "鳥取市", "postcode": "6801416", "prefecture": "鳥取県", "id": 267 },
        { "address": "大工町頭", "city": "鳥取市", "postcode": "6800045", "prefecture": "鳥取県", "id": 268 },
        { "address": "滝山", "city": "鳥取市", "postcode": "6800072", "prefecture": "鳥取県", "id": 269 },
        { "address": "竹生", "city": "鳥取市", "postcode": "6801162", "prefecture": "鳥取県", "id": 270 },
        { "address": "田島", "city": "鳥取市", "postcode": "6800804", "prefecture": "鳥取県", "id": 271 },
        { "address": "立川町", "city": "鳥取市", "postcode": "6800061", "prefecture": "鳥取県", "id": 272 },
        { "address": "玉津", "city": "鳥取市", "postcode": "6801152", "prefecture": "鳥取県", "id": 273 },
        { "address": "足山", "city": "鳥取市", "postcode": "6800943", "prefecture": "鳥取県", "id": 274 },
        { "address": "茶町", "city": "鳥取市", "postcode": "6800032", "prefecture": "鳥取県", "id": 275 },
        { "address": "千代水", "city": "鳥取市", "postcode": "6800911", "prefecture": "鳥取県", "id": 276 },
        { "address": "津ノ井", "city": "鳥取市", "postcode": "6891102", "prefecture": "鳥取県", "id": 277 },
        { "address": "寺町", "city": "鳥取市", "postcode": "6800053", "prefecture": "鳥取県", "id": 278 },
        { "address": "田園町", "city": "鳥取市", "postcode": "6800803", "prefecture": "鳥取県", "id": 279 },
        { "address": "天神町", "city": "鳥取市", "postcode": "6800847", "prefecture": "鳥取県", "id": 280 },
        { "address": "徳尾", "city": "鳥取市", "postcode": "6800934", "prefecture": "鳥取県", "id": 281 },
        { "address": "徳吉", "city": "鳥取市", "postcode": "6800933", "prefecture": "鳥取県", "id": 282 },
        { "address": "富安", "city": "鳥取市", "postcode": "6800845", "prefecture": "鳥取県", "id": 283 },
        { "address": "中大路", "city": "鳥取市", "postcode": "6891106", "prefecture": "鳥取県", "id": 284 },
        { "address": "中砂見", "city": "鳥取市", "postcode": "6801155", "prefecture": "鳥取県", "id": 285 },
        { "address": "中町", "city": "鳥取市", "postcode": "6800016", "prefecture": "鳥取県", "id": 286 },
        { "address": "中村", "city": "鳥取市", "postcode": "6801175", "prefecture": "鳥取県", "id": 287 },
        { "address": "長柄", "city": "鳥取市", "postcode": "6801436", "prefecture": "鳥取県", "id": 288 },
        { "address": "南栄町", "city": "鳥取市", "postcode": "6891121", "prefecture": "鳥取県", "id": 289 },
        { "address": "二階町", "city": "鳥取市", "postcode": "6800033", "prefecture": "鳥取県", "id": 290 },
        { "address": "西今在家", "city": "鳥取市", "postcode": "6801173", "prefecture": "鳥取県", "id": 291 },
        { "address": "西円通寺", "city": "鳥取市", "postcode": "6801145", "prefecture": "鳥取県", "id": 292 },
        { "address": "西大路", "city": "鳥取市", "postcode": "6891107", "prefecture": "鳥取県", "id": 293 },
        { "address": "西品治", "city": "鳥取市", "postcode": "6800811", "prefecture": "鳥取県", "id": 294 },
        { "address": "西町", "city": "鳥取市", "postcode": "6800022", "prefecture": "鳥取県", "id": 295 },
        { "address": "祢宜谷", "city": "鳥取市", "postcode": "6891113", "prefecture": "鳥取県", "id": 296 },
        { "address": "野坂", "city": "鳥取市", "postcode": "6801413", "prefecture": "鳥取県", "id": 297 },
        { "address": "野寺", "city": "鳥取市", "postcode": "6800924", "prefecture": "鳥取県", "id": 298 },
        { "address": "白兎", "city": "鳥取市", "postcode": "6890206", "prefecture": "鳥取県", "id": 299 },
        { "address": "橋本", "city": "鳥取市", "postcode": "6801142", "prefecture": "鳥取県", "id": 300 },
        { "address": "長谷", "city": "鳥取市", "postcode": "6801153", "prefecture": "鳥取県", "id": 301 },
        { "address": "八坂", "city": "鳥取市", "postcode": "6801143", "prefecture": "鳥取県", "id": 302 },
        { "address": "服部", "city": "鳥取市", "postcode": "6800923", "prefecture": "鳥取県", "id": 303 },
        { "address": "馬場", "city": "鳥取市", "postcode": "6801131", "prefecture": "鳥取県", "id": 304 },
        { "address": "馬場町", "city": "鳥取市", "postcode": "6800014", "prefecture": "鳥取県", "id": 305 },
        { "address": "浜坂", "city": "鳥取市", "postcode": "6800001", "prefecture": "鳥取県", "id": 306 },
        { "address": "浜坂東", "city": "鳥取市", "postcode": "6800002", "prefecture": "鳥取県", "id": 307 },
        { "address": "東今在家", "city": "鳥取市", "postcode": "6800852", "prefecture": "鳥取県", "id": 308 },
        { "address": "東大路", "city": "鳥取市", "postcode": "6891105", "prefecture": "鳥取県", "id": 309 },
        { "address": "東品治町", "city": "鳥取市", "postcode": "6800835", "prefecture": "鳥取県", "id": 310 },
        { "address": "東町", "city": "鳥取市", "postcode": "6800011", "prefecture": "鳥取県", "id": 311 },
        { "address": "久末", "city": "鳥取市", "postcode": "6891123", "prefecture": "鳥取県", "id": 312 },
        { "address": "広岡", "city": "鳥取市", "postcode": "6891116", "prefecture": "鳥取県", "id": 313 },
        { "address": "福井", "city": "鳥取市", "postcode": "6801438", "prefecture": "鳥取県", "id": 314 },
        { "address": "福部町海士", "city": "鳥取市", "postcode": "6890106", "prefecture": "鳥取県", "id": 315 },
        { "address": "福部町岩戸", "city": "鳥取市", "postcode": "6890101", "prefecture": "鳥取県", "id": 316 },
        { "address": "福部町久志羅", "city": "鳥取市", "postcode": "6808021", "prefecture": "鳥取県", "id": 317 },
        { "address": "福部町久志羅", "city": "鳥取市", "postcode": "6890113", "prefecture": "鳥取県", "id": 318 },
        { "address": "福部町蔵見", "city": "鳥取市", "postcode": "6890112", "prefecture": "鳥取県", "id": 319 },
        { "address": "福部町栗谷", "city": "鳥取市", "postcode": "6890111", "prefecture": "鳥取県", "id": 320 },
        { "address": "福部町左近", "city": "鳥取市", "postcode": "6808022", "prefecture": "鳥取県", "id": 321 },
        { "address": "福部町左近", "city": "鳥取市", "postcode": "6890114", "prefecture": "鳥取県", "id": 322 },
        { "address": "福部町高江", "city": "鳥取市", "postcode": "6890103", "prefecture": "鳥取県", "id": 323 },
        { "address": "福部町中", "city": "鳥取市", "postcode": "6890116", "prefecture": "鳥取県", "id": 324 },
        { "address": "福部町南田", "city": "鳥取市", "postcode": "6890117", "prefecture": "鳥取県", "id": 325 },
        { "address": "福部町細川", "city": "鳥取市", "postcode": "6890102", "prefecture": "鳥取県", "id": 326 },
        { "address": "福部町八重原", "city": "鳥取市", "postcode": "6890115", "prefecture": "鳥取県", "id": 327 },
        { "address": "福部町箭溪", "city": "鳥取市", "postcode": "6890104", "prefecture": "鳥取県", "id": 328 },
        { "address": "福部町湯山", "city": "鳥取市", "postcode": "6890105", "prefecture": "鳥取県", "id": 329 },
        { "address": "伏野", "city": "鳥取市", "postcode": "6890201", "prefecture": "鳥取県", "id": 330 },
        { "address": "布勢", "city": "鳥取市", "postcode": "6800944", "prefecture": "鳥取県", "id": 331 },
        { "address": "船木", "city": "鳥取市", "postcode": "6891122", "prefecture": "鳥取県", "id": 332 },
        { "address": "古市", "city": "鳥取市", "postcode": "6800865", "prefecture": "鳥取県", "id": 333 },
        { "address": "古海", "city": "鳥取市", "postcode": "6800921", "prefecture": "鳥取県", "id": 334 },
        { "address": "卯垣", "city": "鳥取市", "postcode": "6800074", "prefecture": "鳥取県", "id": 335 },
        { "address": "庖丁人町", "city": "鳥取市", "postcode": "6800042", "prefecture": "鳥取県", "id": 336 },
        { "address": "細見", "city": "鳥取市", "postcode": "6801426", "prefecture": "鳥取県", "id": 337 },
        { "address": "洞谷", "city": "鳥取市", "postcode": "6801434", "prefecture": "鳥取県", "id": 338 },
        { "address": "本町", "city": "鳥取市", "postcode": "6800031", "prefecture": "鳥取県", "id": 339 },
        { "address": "槇原", "city": "鳥取市", "postcode": "6801424", "prefecture": "鳥取県", "id": 340 },
        { "address": "松上", "city": "鳥取市", "postcode": "6801423", "prefecture": "鳥取県", "id": 341 },
        { "address": "松並町", "city": "鳥取市", "postcode": "6800801", "prefecture": "鳥取県", "id": 342 },
        { "address": "松原", "city": "鳥取市", "postcode": "6801444", "prefecture": "鳥取県", "id": 343 },
        { "address": "的場", "city": "鳥取市", "postcode": "6800873", "prefecture": "鳥取県", "id": 344 },
        { "address": "丸山町", "city": "鳥取市", "postcode": "6800006", "prefecture": "鳥取県", "id": 345 },
        { "address": "御熊", "city": "鳥取市", "postcode": "6890204", "prefecture": "鳥取県", "id": 346 },
        { "address": "三津", "city": "鳥取市", "postcode": "6890203", "prefecture": "鳥取県", "id": 347 },
        { "address": "緑ケ丘", "city": "鳥取市", "postcode": "6800915", "prefecture": "鳥取県", "id": 348 },
        { "address": "港町", "city": "鳥取市", "postcode": "6800906", "prefecture": "鳥取県", "id": 349 },
        { "address": "南隈", "city": "鳥取市", "postcode": "6800903", "prefecture": "鳥取県", "id": 350 },
        { "address": "南町", "city": "鳥取市", "postcode": "6800814", "prefecture": "鳥取県", "id": 351 },
        { "address": "南安長", "city": "鳥取市", "postcode": "6800914", "prefecture": "鳥取県", "id": 352 },
        { "address": "南吉方", "city": "鳥取市", "postcode": "6800843", "prefecture": "鳥取県", "id": 353 },
        { "address": "美萩野", "city": "鳥取市", "postcode": "6890202", "prefecture": "鳥取県", "id": 354 },
        { "address": "宮谷", "city": "鳥取市", "postcode": "6801412", "prefecture": "鳥取県", "id": 355 },
        { "address": "宮長", "city": "鳥取市", "postcode": "6800872", "prefecture": "鳥取県", "id": 356 },
        { "address": "三山口", "city": "鳥取市", "postcode": "6801428", "prefecture": "鳥取県", "id": 357 },
        { "address": "妙徳寺", "city": "鳥取市", "postcode": "6801431", "prefecture": "鳥取県", "id": 358 },
        { "address": "美和", "city": "鳥取市", "postcode": "6891126", "prefecture": "鳥取県", "id": 359 },
        { "address": "向国安", "city": "鳥取市", "postcode": "6801161", "prefecture": "鳥取県", "id": 360 },
        { "address": "用瀬町赤波", "city": "鳥取市", "postcode": "6891215", "prefecture": "鳥取県", "id": 361 },
        { "address": "用瀬町旭ケ丘", "city": "鳥取市", "postcode": "6891214", "prefecture": "鳥取県", "id": 362 },
        { "address": "用瀬町安蔵", "city": "鳥取市", "postcode": "6891227", "prefecture": "鳥取県", "id": 363 },
        { "address": "用瀬町家奥", "city": "鳥取市", "postcode": "6891222", "prefecture": "鳥取県", "id": 364 },
        { "address": "用瀬町江波", "city": "鳥取市", "postcode": "6891229", "prefecture": "鳥取県", "id": 365 },
        { "address": "用瀬町金屋", "city": "鳥取市", "postcode": "6891223", "prefecture": "鳥取県", "id": 366 },
        { "address": "用瀬町川中", "city": "鳥取市", "postcode": "6891226", "prefecture": "鳥取県", "id": 367 },
        { "address": "用瀬町樟原", "city": "鳥取市", "postcode": "6891224", "prefecture": "鳥取県", "id": 368 },
        { "address": "用瀬町鷹狩", "city": "鳥取市", "postcode": "6891213", "prefecture": "鳥取県", "id": 369 },
        { "address": "用瀬町古用瀬", "city": "鳥取市", "postcode": "6891221", "prefecture": "鳥取県", "id": 370 },
        { "address": "用瀬町別府", "city": "鳥取市", "postcode": "6891211", "prefecture": "鳥取県", "id": 371 },
        { "address": "用瀬町美成", "city": "鳥取市", "postcode": "6891212", "prefecture": "鳥取県", "id": 372 },
        { "address": "用瀬町宮原", "city": "鳥取市", "postcode": "6891225", "prefecture": "鳥取県", "id": 373 },
        { "address": "用瀬町用瀬", "city": "鳥取市", "postcode": "6891201", "prefecture": "鳥取県", "id": 374 },
        { "address": "用瀬町屋住", "city": "鳥取市", "postcode": "6891228", "prefecture": "鳥取県", "id": 375 },
        { "address": "元魚町", "city": "鳥取市", "postcode": "6800034", "prefecture": "鳥取県", "id": 376 },
        { "address": "元大工町", "city": "鳥取市", "postcode": "6800046", "prefecture": "鳥取県", "id": 377 },
        { "address": "本高", "city": "鳥取市", "postcode": "6801171", "prefecture": "鳥取県", "id": 378 },
        { "address": "元町", "city": "鳥取市", "postcode": "6800037", "prefecture": "鳥取県", "id": 379 },
        { "address": "百谷", "city": "鳥取市", "postcode": "6800071", "prefecture": "鳥取県", "id": 380 },
        { "address": "薬師町", "city": "鳥取市", "postcode": "6800806", "prefecture": "鳥取県", "id": 381 },
        { "address": "安長", "city": "鳥取市", "postcode": "6800913", "prefecture": "鳥取県", "id": 382 },
        { "address": "矢矯", "city": "鳥取市", "postcode": "6801433", "prefecture": "鳥取県", "id": 383 },
        { "address": "山城町", "city": "鳥取市", "postcode": "6800008", "prefecture": "鳥取県", "id": 384 },
        { "address": "弥生町", "city": "鳥取市", "postcode": "6800832", "prefecture": "鳥取県", "id": 385 },
        { "address": "湯所町", "city": "鳥取市", "postcode": "6800007", "prefecture": "鳥取県", "id": 386 },
        { "address": "横枕", "city": "鳥取市", "postcode": "6801163", "prefecture": "鳥取県", "id": 387 },
        { "address": "吉岡温泉町", "city": "鳥取市", "postcode": "6801442", "prefecture": "鳥取県", "id": 388 },
        { "address": "吉方", "city": "鳥取市", "postcode": "6800842", "prefecture": "鳥取県", "id": 389 },
        { "address": "吉方温泉", "city": "鳥取市", "postcode": "6800841", "prefecture": "鳥取県", "id": 390 },
        { "address": "吉方町", "city": "鳥取市", "postcode": "6800062", "prefecture": "鳥取県", "id": 391 },
        { "address": "良田", "city": "鳥取市", "postcode": "6801441", "prefecture": "鳥取県", "id": 392 },
        { "address": "吉成", "city": "鳥取市", "postcode": "6800864", "prefecture": "鳥取県", "id": 393 },
        { "address": "吉成南町", "city": "鳥取市", "postcode": "6800871", "prefecture": "鳥取県", "id": 394 },
        { "address": "六反田", "city": "鳥取市", "postcode": "6801443", "prefecture": "鳥取県", "id": 395 },
        { "address": "若桜町", "city": "鳥取市", "postcode": "6800051", "prefecture": "鳥取県", "id": 396 },
        { "address": "若葉台南", "city": "鳥取市", "postcode": "6891112", "prefecture": "鳥取県", "id": 397 },
        { "address": "若葉台北", "city": "鳥取市", "postcode": "6891111", "prefecture": "鳥取県", "id": 398 },
        { "city": "米子市", "postcode": "6830000", "prefecture": "鳥取県", "id": 399 },
        { "address": "青木", "city": "米子市", "postcode": "6830252", "prefecture": "鳥取県", "id": 400 },
        { "address": "赤井手", "city": "米子市", "postcode": "6893515", "prefecture": "鳥取県", "id": 401 },
        { "address": "朝日町", "city": "米子市", "postcode": "6830813", "prefecture": "鳥取県", "id": 402 },
        { "address": "愛宕町", "city": "米子市", "postcode": "6830046", "prefecture": "鳥取県", "id": 403 },
        { "address": "安倍", "city": "米子市", "postcode": "6830846", "prefecture": "鳥取県", "id": 404 },
        { "address": "石井", "city": "米子市", "postcode": "6830021", "prefecture": "鳥取県", "id": 405 },
        { "address": "泉", "city": "米子市", "postcode": "6893512", "prefecture": "鳥取県", "id": 406 },
        { "address": "一部", "city": "米子市", "postcode": "6893533", "prefecture": "鳥取県", "id": 407 },
        { "address": "今在家", "city": "米子市", "postcode": "6893542", "prefecture": "鳥取県", "id": 408 },
        { "address": "岩倉町", "city": "米子市", "postcode": "6830833", "prefecture": "鳥取県", "id": 409 },
        { "address": "陰田町", "city": "米子市", "postcode": "6830027", "prefecture": "鳥取県", "id": 410 },
        { "address": "内町", "city": "米子市", "postcode": "6830834", "prefecture": "鳥取県", "id": 411 },
        { "address": "浦津", "city": "米子市", "postcode": "6893544", "prefecture": "鳥取県", "id": 412 },
        { "address": "榎原", "city": "米子市", "postcode": "6830257", "prefecture": "鳥取県", "id": 413 },
        { "address": "大崎", "city": "米子市", "postcode": "6830104", "prefecture": "鳥取県", "id": 414 },
        { "address": "大篠津町", "city": "米子市", "postcode": "6830101", "prefecture": "鳥取県", "id": 415 },
        { "address": "大谷町", "city": "米子市", "postcode": "6830045", "prefecture": "鳥取県", "id": 416 },
        { "address": "大袋", "city": "米子市", "postcode": "6830256", "prefecture": "鳥取県", "id": 417 },
        { "address": "岡成", "city": "米子市", "postcode": "6893513", "prefecture": "鳥取県", "id": 418 },
        { "address": "奥谷", "city": "米子市", "postcode": "6830016", "prefecture": "鳥取県", "id": 419 },
        { "address": "尾高", "city": "米子市", "postcode": "6893514", "prefecture": "鳥取県", "id": 420 },
        { "address": "尾高町", "city": "米子市", "postcode": "6830814", "prefecture": "鳥取県", "id": 421 },
        { "address": "皆生", "city": "米子市", "postcode": "6830003", "prefecture": "鳥取県", "id": 422 },
        { "address": "皆生温泉", "city": "米子市", "postcode": "6830001", "prefecture": "鳥取県", "id": 423 },
        { "address": "皆生新田", "city": "米子市", "postcode": "6830002", "prefecture": "鳥取県", "id": 424 },
        { "address": "角盤町", "city": "米子市", "postcode": "6830812", "prefecture": "鳥取県", "id": 425 },
        { "address": "兼久", "city": "米子市", "postcode": "6830251", "prefecture": "鳥取県", "id": 426 },
        { "address": "上安曇", "city": "米子市", "postcode": "6830255", "prefecture": "鳥取県", "id": 427 },
        { "address": "上後藤", "city": "米子市", "postcode": "6830841", "prefecture": "鳥取県", "id": 428 },
        { "address": "上新印", "city": "米子市", "postcode": "6893532", "prefecture": "鳥取県", "id": 429 },
        { "address": "上福原", "city": "米子市", "postcode": "6830004", "prefecture": "鳥取県", "id": 430 },
        { "address": "加茂町", "city": "米子市", "postcode": "6830823", "prefecture": "鳥取県", "id": 431 },
        { "address": "蚊屋", "city": "米子市", "postcode": "6893543", "prefecture": "鳥取県", "id": 432 },
        { "address": "河岡", "city": "米子市", "postcode": "6893521", "prefecture": "鳥取県", "id": 433 },
        { "address": "河崎", "city": "米子市", "postcode": "6830852", "prefecture": "鳥取県", "id": 434 },
        { "address": "勝田町", "city": "米子市", "postcode": "6830051", "prefecture": "鳥取県", "id": 435 },
        { "address": "観音寺", "city": "米子市", "postcode": "6830007", "prefecture": "鳥取県", "id": 436 },
        { "address": "観音寺新町", "city": "米子市", "postcode": "6830009", "prefecture": "鳥取県", "id": 437 },
        { "address": "祇園町", "city": "米子市", "postcode": "6830047", "prefecture": "鳥取県", "id": 438 },
        { "address": "義方町", "city": "米子市", "postcode": "6830844", "prefecture": "鳥取県", "id": 439 },
        { "address": "錦海町", "city": "米子市", "postcode": "6830825", "prefecture": "鳥取県", "id": 440 },
        { "address": "日下", "city": "米子市", "postcode": "6893522", "prefecture": "鳥取県", "id": 441 },
        { "address": "車尾", "city": "米子市", "postcode": "6830006", "prefecture": "鳥取県", "id": 442 },
        { "address": "車尾南", "city": "米子市", "postcode": "6830008", "prefecture": "鳥取県", "id": 443 },
        { "address": "熊党", "city": "米子市", "postcode": "6893546", "prefecture": "鳥取県", "id": 444 },
        { "address": "久米町", "city": "米子市", "postcode": "6830824", "prefecture": "鳥取県", "id": 445 },
        { "address": "糀町", "city": "米子市", "postcode": "6830054", "prefecture": "鳥取県", "id": 446 },
        { "address": "紺屋町", "city": "米子市", "postcode": "6830062", "prefecture": "鳥取県", "id": 447 },
        { "address": "古豊千", "city": "米子市", "postcode": "6893537", "prefecture": "鳥取県", "id": 448 },
        { "address": "三本松", "city": "米子市", "postcode": "6830842", "prefecture": "鳥取県", "id": 449 },
        { "address": "塩町", "city": "米子市", "postcode": "6830042", "prefecture": "鳥取県", "id": 450 },
        { "address": "下安曇", "city": "米子市", "postcode": "6830253", "prefecture": "鳥取県", "id": 451 },
        { "address": "下新印", "city": "米子市", "postcode": "6893531", "prefecture": "鳥取県", "id": 452 },
        { "address": "下郷", "city": "米子市", "postcode": "6893511", "prefecture": "鳥取県", "id": 453 },
        { "address": "昭和町", "city": "米子市", "postcode": "6830037", "prefecture": "鳥取県", "id": 454 },
        { "address": "新開", "city": "米子市", "postcode": "6830801", "prefecture": "鳥取県", "id": 455 },
        { "address": "末広町", "city": "米子市", "postcode": "6830043", "prefecture": "鳥取県", "id": 456 },
        { "address": "諏訪", "city": "米子市", "postcode": "6830013", "prefecture": "鳥取県", "id": 457 },
        { "address": "石州府", "city": "米子市", "postcode": "6893524", "prefecture": "鳥取県", "id": 458 },
        { "address": "大工町", "city": "米子市", "postcode": "6830044", "prefecture": "鳥取県", "id": 459 },
        { "address": "高島", "city": "米子市", "postcode": "6893536", "prefecture": "鳥取県", "id": 460 },
        { "address": "立町", "city": "米子市", "postcode": "6830832", "prefecture": "鳥取県", "id": 461 },
        { "address": "茶町", "city": "米子市", "postcode": "6830041", "prefecture": "鳥取県", "id": 462 },
        { "address": "寺町", "city": "米子市", "postcode": "6830831", "prefecture": "鳥取県", "id": 463 },
        { "address": "天神町", "city": "米子市", "postcode": "6830821", "prefecture": "鳥取県", "id": 464 },
        { "address": "道笑町", "city": "米子市", "postcode": "6830064", "prefecture": "鳥取県", "id": 465 },
        { "address": "富益町", "city": "米子市", "postcode": "6830103", "prefecture": "鳥取県", "id": 466 },
        { "address": "中島", "city": "米子市", "postcode": "6830005", "prefecture": "鳥取県", "id": 467 },
        { "address": "中町", "city": "米子市", "postcode": "6830822", "prefecture": "鳥取県", "id": 468 },
        { "address": "永江", "city": "米子市", "postcode": "6830014", "prefecture": "鳥取県", "id": 469 },
        { "address": "長砂町", "city": "米子市", "postcode": "6830033", "prefecture": "鳥取県", "id": 470 },
        { "address": "奈喜良", "city": "米子市", "postcode": "6830022", "prefecture": "鳥取県", "id": 471 },
        { "address": "灘町", "city": "米子市", "postcode": "6830835", "prefecture": "鳥取県", "id": 472 },
        { "address": "新山", "city": "米子市", "postcode": "6830026", "prefecture": "鳥取県", "id": 473 },
        { "address": "錦町", "city": "米子市", "postcode": "6830811", "prefecture": "鳥取県", "id": 474 },
        { "address": "西倉吉町", "city": "米子市", "postcode": "6830816", "prefecture": "鳥取県", "id": 475 },
        { "address": "西町", "city": "米子市", "postcode": "6830826", "prefecture": "鳥取県", "id": 476 },
        { "address": "西福原", "city": "米子市", "postcode": "6830805", "prefecture": "鳥取県", "id": 477 },
        { "address": "二本木", "city": "米子市", "postcode": "6893541", "prefecture": "鳥取県", "id": 478 },
        { "address": "博労町", "city": "米子市", "postcode": "6830052", "prefecture": "鳥取県", "id": 479 },
        { "address": "橋本", "city": "米子市", "postcode": "6830023", "prefecture": "鳥取県", "id": 480 },
        { "address": "旗ヶ崎", "city": "米子市", "postcode": "6830845", "prefecture": "鳥取県", "id": 481 },
        { "address": "花園町", "city": "米子市", "postcode": "6830836", "prefecture": "鳥取県", "id": 482 },
        { "address": "東倉吉町", "city": "米子市", "postcode": "6830815", "prefecture": "鳥取県", "id": 483 },
        { "address": "東町", "city": "米子市", "postcode": "6830067", "prefecture": "鳥取県", "id": 484 },
        { "address": "東福原", "city": "米子市", "postcode": "6830802", "prefecture": "鳥取県", "id": 485 },
        { "address": "東山町", "city": "米子市", "postcode": "6830031", "prefecture": "鳥取県", "id": 486 },
        { "address": "東八幡", "city": "米子市", "postcode": "6893535", "prefecture": "鳥取県", "id": 487 },
        { "address": "彦名新田", "city": "米子市", "postcode": "6830855", "prefecture": "鳥取県", "id": 488 },
        { "address": "彦名町", "city": "米子市", "postcode": "6830854", "prefecture": "鳥取県", "id": 489 },
        { "address": "日ノ出町", "city": "米子市", "postcode": "6830803", "prefecture": "鳥取県", "id": 490 },
        { "address": "日野町", "city": "米子市", "postcode": "6830066", "prefecture": "鳥取県", "id": 491 },
        { "address": "日原", "city": "米子市", "postcode": "6830015", "prefecture": "鳥取県", "id": 492 },
        { "address": "福市", "city": "米子市", "postcode": "6830011", "prefecture": "鳥取県", "id": 493 },
        { "address": "福万", "city": "米子市", "postcode": "6893523", "prefecture": "鳥取県", "id": 494 },
        { "address": "冨士見町", "city": "米子市", "postcode": "6830055", "prefecture": "鳥取県", "id": 495 },
        { "address": "古市", "city": "米子市", "postcode": "6830025", "prefecture": "鳥取県", "id": 496 },
        { "address": "別所", "city": "米子市", "postcode": "6830254", "prefecture": "鳥取県", "id": 497 },
        { "address": "法勝寺町", "city": "米子市", "postcode": "6830063", "prefecture": "鳥取県", "id": 498 },
        { "address": "万能町", "city": "米子市", "postcode": "6830065", "prefecture": "鳥取県", "id": 499 },
        { "address": "水浜", "city": "米子市", "postcode": "6893534", "prefecture": "鳥取県", "id": 500 },
        { "address": "三旗町", "city": "米子市", "postcode": "6830843", "prefecture": "鳥取県", "id": 501 },
        { "address": "美吉", "city": "米子市", "postcode": "6830034", "prefecture": "鳥取県", "id": 502 },
        { "address": "宗像", "city": "米子市", "postcode": "6830017", "prefecture": "鳥取県", "id": 503 },
        { "address": "明治町", "city": "米子市", "postcode": "6830053", "prefecture": "鳥取県", "id": 504 },
        { "address": "目久美町", "city": "米子市", "postcode": "6830035", "prefecture": "鳥取県", "id": 505 },
        { "address": "弥生町", "city": "米子市", "postcode": "6830036", "prefecture": "鳥取県", "id": 506 },
        { "address": "八幡", "city": "米子市", "postcode": "6830012", "prefecture": "鳥取県", "id": 507 },
        { "address": "陽田町", "city": "米子市", "postcode": "6830032", "prefecture": "鳥取県", "id": 508 },
        { "address": "吉岡", "city": "米子市", "postcode": "6893545", "prefecture": "鳥取県", "id": 509 },
        { "address": "吉谷", "city": "米子市", "postcode": "6830024", "prefecture": "鳥取県", "id": 510 },
        { "address": "葭津", "city": "米子市", "postcode": "6830105", "prefecture": "鳥取県", "id": 511 },
        { "address": "四日市町", "city": "米子市", "postcode": "6830061", "prefecture": "鳥取県", "id": 512 },
        { "address": "淀江町稲吉", "city": "米子市", "postcode": "6893412", "prefecture": "鳥取県", "id": 513 },
        { "address": "淀江町今津", "city": "米子市", "postcode": "6893401", "prefecture": "鳥取県", "id": 514 },
        { "address": "淀江町小波", "city": "米子市", "postcode": "6893423", "prefecture": "鳥取県", "id": 515 },
        { "address": "淀江町佐陀", "city": "米子市", "postcode": "6893425", "prefecture": "鳥取県", "id": 516 },
        { "address": "淀江町高井谷", "city": "米子市", "postcode": "6893418", "prefecture": "鳥取県", "id": 517 },
        { "address": "淀江町富繁", "city": "米子市", "postcode": "6893415", "prefecture": "鳥取県", "id": 518 },
        { "address": "淀江町中西尾", "city": "米子市", "postcode": "6893417", "prefecture": "鳥取県", "id": 519 },
        { "address": "淀江町中間", "city": "米子市", "postcode": "6893424", "prefecture": "鳥取県", "id": 520 },
        { "address": "淀江町西尾原", "city": "米子市", "postcode": "6893414", "prefecture": "鳥取県", "id": 521 },
        { "address": "淀江町西原", "city": "米子市", "postcode": "6893403", "prefecture": "鳥取県", "id": 522 },
        { "address": "淀江町平岡", "city": "米子市", "postcode": "6893422", "prefecture": "鳥取県", "id": 523 },
        { "address": "淀江町福井", "city": "米子市", "postcode": "6893416", "prefecture": "鳥取県", "id": 524 },
        { "address": "淀江町福岡", "city": "米子市", "postcode": "6893411", "prefecture": "鳥取県", "id": 525 },
        { "address": "淀江町福頼", "city": "米子市", "postcode": "6893421", "prefecture": "鳥取県", "id": 526 },
        { "address": "淀江町本宮", "city": "米子市", "postcode": "6893413", "prefecture": "鳥取県", "id": 527 },
        { "address": "淀江町淀江", "city": "米子市", "postcode": "6893402", "prefecture": "鳥取県", "id": 528 },
        { "address": "米原", "city": "米子市", "postcode": "6830804", "prefecture": "鳥取県", "id": 529 },
        { "address": "夜見町", "city": "米子市", "postcode": "6830851", "prefecture": "鳥取県", "id": 530 },
        { "address": "流通町", "city": "米子市", "postcode": "6893547", "prefecture": "鳥取県", "id": 531 },
        { "address": "両三柳", "city": "米子市", "postcode": "6830853", "prefecture": "鳥取県", "id": 532 },
        { "address": "和田町", "city": "米子市", "postcode": "6830102", "prefecture": "鳥取県", "id": 533 },
        { "city": "倉吉市", "postcode": "6820000", "prefecture": "鳥取県", "id": 534 },
        { "address": "葵町", "city": "倉吉市", "postcode": "6820822", "prefecture": "鳥取県", "id": 535 },
        { "address": "上井", "city": "倉吉市", "postcode": "6820021", "prefecture": "鳥取県", "id": 536 },
        { "address": "上井町", "city": "倉吉市", "postcode": "6820022", "prefecture": "鳥取県", "id": 537 },
        { "address": "旭田町", "city": "倉吉市", "postcode": "6820871", "prefecture": "鳥取県", "id": 538 },
        { "address": "穴窪", "city": "倉吉市", "postcode": "6820001", "prefecture": "鳥取県", "id": 539 },
        { "address": "穴沢", "city": "倉吉市", "postcode": "6820901", "prefecture": "鳥取県", "id": 540 },
        { "address": "伊木", "city": "倉吉市", "postcode": "6820024", "prefecture": "鳥取県", "id": 541 },
        { "address": "生田", "city": "倉吉市", "postcode": "6820855", "prefecture": "鳥取県", "id": 542 },
        { "address": "石塚", "city": "倉吉市", "postcode": "6820933", "prefecture": "鳥取県", "id": 543 },
        { "address": "井手畑", "city": "倉吉市", "postcode": "6820006", "prefecture": "鳥取県", "id": 544 },
        { "address": "今在家", "city": "倉吉市", "postcode": "6820641", "prefecture": "鳥取県", "id": 545 },
        { "address": "巌城", "city": "倉吉市", "postcode": "6820801", "prefecture": "鳥取県", "id": 546 },
        { "address": "岩倉", "city": "倉吉市", "postcode": "6820842", "prefecture": "鳥取県", "id": 547 },
        { "address": "魚町", "city": "倉吉市", "postcode": "6820821", "prefecture": "鳥取県", "id": 548 },
        { "address": "上灘町", "city": "倉吉市", "postcode": "6820811", "prefecture": "鳥取県", "id": 549 },
        { "address": "越中町", "city": "倉吉市", "postcode": "6820865", "prefecture": "鳥取県", "id": 550 },
        { "address": "円谷町", "city": "倉吉市", "postcode": "6820813", "prefecture": "鳥取県", "id": 551 },
        { "address": "大河内", "city": "倉吉市", "postcode": "6820623", "prefecture": "鳥取県", "id": 552 },
        { "address": "大沢", "city": "倉吉市", "postcode": "6820947", "prefecture": "鳥取県", "id": 553 },
        { "address": "大立", "city": "倉吉市", "postcode": "6820632", "prefecture": "鳥取県", "id": 554 },
        { "address": "大谷", "city": "倉吉市", "postcode": "6820941", "prefecture": "鳥取県", "id": 555 },
        { "address": "大谷茶屋", "city": "倉吉市", "postcode": "6820948", "prefecture": "鳥取県", "id": 556 },
        { "address": "大塚", "city": "倉吉市", "postcode": "6820011", "prefecture": "鳥取県", "id": 557 },
        { "address": "大平町", "city": "倉吉市", "postcode": "6820042", "prefecture": "鳥取県", "id": 558 },
        { "address": "大宮", "city": "倉吉市", "postcode": "6820841", "prefecture": "鳥取県", "id": 559 },
        { "address": "岡", "city": "倉吉市", "postcode": "6820645", "prefecture": "鳥取県", "id": 560 },
        { "address": "小鴨", "city": "倉吉市", "postcode": "6820931", "prefecture": "鳥取県", "id": 561 },
        { "address": "尾田", "city": "倉吉市", "postcode": "6820607", "prefecture": "鳥取県", "id": 562 },
        { "address": "大原", "city": "倉吉市", "postcode": "6820034", "prefecture": "鳥取県", "id": 563 },
        { "address": "尾原", "city": "倉吉市", "postcode": "6820904", "prefecture": "鳥取県", "id": 564 },
        { "address": "海田東町", "city": "倉吉市", "postcode": "6820014", "prefecture": "鳥取県", "id": 565 },
        { "address": "海田西町", "city": "倉吉市", "postcode": "6820016", "prefecture": "鳥取県", "id": 566 },
        { "address": "海田南町", "city": "倉吉市", "postcode": "6820015", "prefecture": "鳥取県", "id": 567 },
        { "address": "鍛冶町", "city": "倉吉市", "postcode": "6820864", "prefecture": "鳥取県", "id": 568 },
        { "address": "上神", "city": "倉吉市", "postcode": "6820902", "prefecture": "鳥取県", "id": 569 },
        { "address": "忰谷", "city": "倉吉市", "postcode": "6820621", "prefecture": "鳥取県", "id": 570 },
        { "address": "金森町", "city": "倉吉市", "postcode": "6820875", "prefecture": "鳥取県", "id": 571 },
        { "address": "河北町", "city": "倉吉市", "postcode": "6820041", "prefecture": "鳥取県", "id": 572 },
        { "address": "上大立", "city": "倉吉市", "postcode": "6820631", "prefecture": "鳥取県", "id": 573 },
        { "address": "上福田", "city": "倉吉市", "postcode": "6820642", "prefecture": "鳥取県", "id": 574 },
        { "address": "上古川", "city": "倉吉市", "postcode": "6820934", "prefecture": "鳥取県", "id": 575 },
        { "address": "上余戸", "city": "倉吉市", "postcode": "6820032", "prefecture": "鳥取県", "id": 576 },
        { "address": "上米積", "city": "倉吉市", "postcode": "6820602", "prefecture": "鳥取県", "id": 577 },
        { "address": "鴨川町", "city": "倉吉市", "postcode": "6820923", "prefecture": "鳥取県", "id": 578 },
        { "address": "鴨河内", "city": "倉吉市", "postcode": "6820846", "prefecture": "鳥取県", "id": 579 },
        { "address": "河来見", "city": "倉吉市", "postcode": "6820633", "prefecture": "鳥取県", "id": 580 },
        { "address": "河原町", "city": "倉吉市", "postcode": "6820924", "prefecture": "鳥取県", "id": 581 },
        { "address": "北野", "city": "倉吉市", "postcode": "6820857", "prefecture": "鳥取県", "id": 582 },
        { "address": "北面", "city": "倉吉市", "postcode": "6820903", "prefecture": "鳥取県", "id": 583 },
        { "address": "蔵内", "city": "倉吉市", "postcode": "6820932", "prefecture": "鳥取県", "id": 584 },
        { "address": "栗尾", "city": "倉吉市", "postcode": "6820033", "prefecture": "鳥取県", "id": 585 },
        { "address": "黒見", "city": "倉吉市", "postcode": "6820945", "prefecture": "鳥取県", "id": 586 },
        { "address": "国府", "city": "倉吉市", "postcode": "6820942", "prefecture": "鳥取県", "id": 587 },
        { "address": "広栄町", "city": "倉吉市", "postcode": "6820035", "prefecture": "鳥取県", "id": 588 },
        { "address": "荒神町", "city": "倉吉市", "postcode": "6820883", "prefecture": "鳥取県", "id": 589 },
        { "address": "国分寺", "city": "倉吉市", "postcode": "6820943", "prefecture": "鳥取県", "id": 590 },
        { "address": "越殿町", "city": "倉吉市", "postcode": "6820867", "prefecture": "鳥取県", "id": 591 },
        { "address": "小田", "city": "倉吉市", "postcode": "6820044", "prefecture": "鳥取県", "id": 592 },
        { "address": "小田東", "city": "倉吉市", "postcode": "6820045", "prefecture": "鳥取県", "id": 593 },
        { "address": "幸町", "city": "倉吉市", "postcode": "6820807", "prefecture": "鳥取県", "id": 594 },
        { "address": "堺町", "city": "倉吉市", "postcode": "6820885", "prefecture": "鳥取県", "id": 595 },
        { "address": "桜", "city": "倉吉市", "postcode": "6820634", "prefecture": "鳥取県", "id": 596 },
        { "address": "沢谷", "city": "倉吉市", "postcode": "6820606", "prefecture": "鳥取県", "id": 597 },
        { "address": "志津", "city": "倉吉市", "postcode": "6820613", "prefecture": "鳥取県", "id": 598 },
        { "address": "下大江", "city": "倉吉市", "postcode": "6820837", "prefecture": "鳥取県", "id": 599 },
        { "address": "下田中町", "city": "倉吉市", "postcode": "6820812", "prefecture": "鳥取県", "id": 600 },
        { "address": "下福田", "city": "倉吉市", "postcode": "6820643", "prefecture": "鳥取県", "id": 601 },
        { "address": "下古川", "city": "倉吉市", "postcode": "6820005", "prefecture": "鳥取県", "id": 602 },
        { "address": "下余戸", "city": "倉吉市", "postcode": "6820031", "prefecture": "鳥取県", "id": 603 },
        { "address": "下米積", "city": "倉吉市", "postcode": "6820601", "prefecture": "鳥取県", "id": 604 },
        { "address": "秋喜", "city": "倉吉市", "postcode": "6820925", "prefecture": "鳥取県", "id": 605 },
        { "address": "秋喜西町", "city": "倉吉市", "postcode": "6820926", "prefecture": "鳥取県", "id": 606 },
        { "address": "昭和町", "city": "倉吉市", "postcode": "6820806", "prefecture": "鳥取県", "id": 607 },
        { "address": "新田", "city": "倉吉市", "postcode": "6820003", "prefecture": "鳥取県", "id": 608 },
        { "address": "新町", "city": "倉吉市", "postcode": "6820861", "prefecture": "鳥取県", "id": 609 },
        { "address": "新陽町", "city": "倉吉市", "postcode": "6820815", "prefecture": "鳥取県", "id": 610 },
        { "address": "鋤", "city": "倉吉市", "postcode": "6820952", "prefecture": "鳥取県", "id": 611 },
        { "address": "杉野", "city": "倉吉市", "postcode": "6820611", "prefecture": "鳥取県", "id": 612 },
        { "address": "菅原", "city": "倉吉市", "postcode": "6820843", "prefecture": "鳥取県", "id": 613 },
        { "address": "住吉町", "city": "倉吉市", "postcode": "6820817", "prefecture": "鳥取県", "id": 614 },
        { "address": "清谷", "city": "倉吉市", "postcode": "6820012", "prefecture": "鳥取県", "id": 615 },
        { "address": "清谷町", "city": "倉吉市", "postcode": "6820017", "prefecture": "鳥取県", "id": 616 },
        { "address": "関金町安歩", "city": "倉吉市", "postcode": "6820401", "prefecture": "鳥取県", "id": 617 },
        { "address": "関金町今西", "city": "倉吉市", "postcode": "6820421", "prefecture": "鳥取県", "id": 618 },
        { "address": "関金町大鳥居", "city": "倉吉市", "postcode": "6820402", "prefecture": "鳥取県", "id": 619 },
        { "address": "関金町小泉", "city": "倉吉市", "postcode": "6820433", "prefecture": "鳥取県", "id": 620 },
        { "address": "関金町郡家", "city": "倉吉市", "postcode": "6820413", "prefecture": "鳥取県", "id": 621 },
        { "address": "関金町関金宿", "city": "倉吉市", "postcode": "6820411", "prefecture": "鳥取県", "id": 622 },
        { "address": "関金町泰久寺", "city": "倉吉市", "postcode": "6820404", "prefecture": "鳥取県", "id": 623 },
        { "address": "関金町野添", "city": "倉吉市", "postcode": "6820434", "prefecture": "鳥取県", "id": 624 },
        { "address": "関金町福原", "city": "倉吉市", "postcode": "6820432", "prefecture": "鳥取県", "id": 625 },
        { "address": "関金町堀", "city": "倉吉市", "postcode": "6820422", "prefecture": "鳥取県", "id": 626 },
        { "address": "関金町松河原", "city": "倉吉市", "postcode": "6820403", "prefecture": "鳥取県", "id": 627 },
        { "address": "関金町明高", "city": "倉吉市", "postcode": "6820423", "prefecture": "鳥取県", "id": 628 },
        { "address": "関金町山口", "city": "倉吉市", "postcode": "6820412", "prefecture": "鳥取県", "id": 629 },
        { "address": "関金町米富", "city": "倉吉市", "postcode": "6820431", "prefecture": "鳥取県", "id": 630 },
        { "address": "瀬崎町", "city": "倉吉市", "postcode": "6820863", "prefecture": "鳥取県", "id": 631 },
        { "address": "大正町", "city": "倉吉市", "postcode": "6820886", "prefecture": "鳥取県", "id": 632 },
        { "address": "駄経寺町", "city": "倉吉市", "postcode": "6820816", "prefecture": "鳥取県", "id": 633 },
        { "address": "立見", "city": "倉吉市", "postcode": "6820626", "prefecture": "鳥取県", "id": 634 },
        { "address": "谷", "city": "倉吉市", "postcode": "6820954", "prefecture": "鳥取県", "id": 635 },
        { "address": "津原", "city": "倉吉市", "postcode": "6820951", "prefecture": "鳥取県", "id": 636 },
        { "address": "寺谷", "city": "倉吉市", "postcode": "6820911", "prefecture": "鳥取県", "id": 637 },
        { "address": "天神町", "city": "倉吉市", "postcode": "6820043", "prefecture": "鳥取県", "id": 638 },
        { "address": "研屋町", "city": "倉吉市", "postcode": "6820884", "prefecture": "鳥取県", "id": 639 },
        { "address": "富海", "city": "倉吉市", "postcode": "6820832", "prefecture": "鳥取県", "id": 640 },
        { "address": "中江", "city": "倉吉市", "postcode": "6820002", "prefecture": "鳥取県", "id": 641 },
        { "address": "中河原", "city": "倉吉市", "postcode": "6820856", "prefecture": "鳥取県", "id": 642 },
        { "address": "中野", "city": "倉吉市", "postcode": "6820612", "prefecture": "鳥取県", "id": 643 },
        { "address": "仲ノ町", "city": "倉吉市", "postcode": "6820824", "prefecture": "鳥取県", "id": 644 },
        { "address": "長坂新町", "city": "倉吉市", "postcode": "6820836", "prefecture": "鳥取県", "id": 645 },
        { "address": "長坂町", "city": "倉吉市", "postcode": "6820835", "prefecture": "鳥取県", "id": 646 },
        { "address": "長谷", "city": "倉吉市", "postcode": "6820622", "prefecture": "鳥取県", "id": 647 },
        { "address": "西岩倉町", "city": "倉吉市", "postcode": "6820874", "prefecture": "鳥取県", "id": 648 },
        { "address": "西倉吉町", "city": "倉吉市", "postcode": "6820851", "prefecture": "鳥取県", "id": 649 },
        { "address": "西仲町", "city": "倉吉市", "postcode": "6820825", "prefecture": "鳥取県", "id": 650 },
        { "address": "西福守町", "city": "倉吉市", "postcode": "6820921", "prefecture": "鳥取県", "id": 651 },
        { "address": "西町", "city": "倉吉市", "postcode": "6820862", "prefecture": "鳥取県", "id": 652 },
        { "address": "虹ケ丘町", "city": "倉吉市", "postcode": "6820036", "prefecture": "鳥取県", "id": 653 },
        { "address": "八幡町", "city": "倉吉市", "postcode": "6820831", "prefecture": "鳥取県", "id": 654 },
        { "address": "服部", "city": "倉吉市", "postcode": "6820635", "prefecture": "鳥取県", "id": 655 },
        { "address": "半坂", "city": "倉吉市", "postcode": "6820953", "prefecture": "鳥取県", "id": 656 },
        { "address": "馬場町", "city": "倉吉市", "postcode": "6820914", "prefecture": "鳥取県", "id": 657 },
        { "address": "般若", "city": "倉吉市", "postcode": "6820624", "prefecture": "鳥取県", "id": 658 },
        { "address": "東巌城町", "city": "倉吉市", "postcode": "6820802", "prefecture": "鳥取県", "id": 659 },
        { "address": "東岩倉町", "city": "倉吉市", "postcode": "6820873", "prefecture": "鳥取県", "id": 660 },
        { "address": "東鴨", "city": "倉吉市", "postcode": "6820834", "prefecture": "鳥取県", "id": 661 },
        { "address": "東鴨新町", "city": "倉吉市", "postcode": "6820833", "prefecture": "鳥取県", "id": 662 },
        { "address": "東昭和町", "city": "倉吉市", "postcode": "6820804", "prefecture": "鳥取県", "id": 663 },
        { "address": "東仲町", "city": "倉吉市", "postcode": "6820826", "prefecture": "鳥取県", "id": 664 },
        { "address": "東町", "city": "倉吉市", "postcode": "6820823", "prefecture": "鳥取県", "id": 665 },
        { "address": "広瀬", "city": "倉吉市", "postcode": "6820844", "prefecture": "鳥取県", "id": 666 },
        { "address": "広瀬町", "city": "倉吉市", "postcode": "6820866", "prefecture": "鳥取県", "id": 667 },
        { "address": "福積", "city": "倉吉市", "postcode": "6820644", "prefecture": "鳥取県", "id": 668 },
        { "address": "福富", "city": "倉吉市", "postcode": "6820605", "prefecture": "鳥取県", "id": 669 },
        { "address": "福庭", "city": "倉吉市", "postcode": "6820013", "prefecture": "鳥取県", "id": 670 },
        { "address": "福庭町", "city": "倉吉市", "postcode": "6820018", "prefecture": "鳥取県", "id": 671 },
        { "address": "福光", "city": "倉吉市", "postcode": "6820944", "prefecture": "鳥取県", "id": 672 },
        { "address": "福本", "city": "倉吉市", "postcode": "6820604", "prefecture": "鳥取県", "id": 673 },
        { "address": "福守町", "city": "倉吉市", "postcode": "6820922", "prefecture": "鳥取県", "id": 674 },
        { "address": "福山", "city": "倉吉市", "postcode": "6820847", "prefecture": "鳥取県", "id": 675 },
        { "address": "福吉町", "city": "倉吉市", "postcode": "6820872", "prefecture": "鳥取県", "id": 676 },
        { "address": "不入岡", "city": "倉吉市", "postcode": "6820915", "prefecture": "鳥取県", "id": 677 },
        { "address": "古川沢", "city": "倉吉市", "postcode": "6820004", "prefecture": "鳥取県", "id": 678 },
        { "address": "別所", "city": "倉吉市", "postcode": "6820905", "prefecture": "鳥取県", "id": 679 },
        { "address": "丸山町", "city": "倉吉市", "postcode": "6820852", "prefecture": "鳥取県", "id": 680 },
        { "address": "三江", "city": "倉吉市", "postcode": "6820603", "prefecture": "鳥取県", "id": 681 },
        { "address": "みどり町", "city": "倉吉市", "postcode": "6820854", "prefecture": "鳥取県", "id": 682 },
        { "address": "湊町", "city": "倉吉市", "postcode": "6820882", "prefecture": "鳥取県", "id": 683 },
        { "address": "南昭和町", "city": "倉吉市", "postcode": "6820805", "prefecture": "鳥取県", "id": 684 },
        { "address": "耳", "city": "倉吉市", "postcode": "6820845", "prefecture": "鳥取県", "id": 685 },
        { "address": "宮川町", "city": "倉吉市", "postcode": "6820881", "prefecture": "鳥取県", "id": 686 },
        { "address": "見日町", "city": "倉吉市", "postcode": "6820803", "prefecture": "鳥取県", "id": 687 },
        { "address": "明治町", "city": "倉吉市", "postcode": "6820887", "prefecture": "鳥取県", "id": 688 },
        { "address": "椋波", "city": "倉吉市", "postcode": "6820625", "prefecture": "鳥取県", "id": 689 },
        { "address": "森", "city": "倉吉市", "postcode": "6820615", "prefecture": "鳥取県", "id": 690 },
        { "address": "八屋", "city": "倉吉市", "postcode": "6820025", "prefecture": "鳥取県", "id": 691 },
        { "address": "山根", "city": "倉吉市", "postcode": "6820023", "prefecture": "鳥取県", "id": 692 },
        { "address": "横田", "city": "倉吉市", "postcode": "6820946", "prefecture": "鳥取県", "id": 693 },
        { "address": "余戸谷町", "city": "倉吉市", "postcode": "6820853", "prefecture": "鳥取県", "id": 694 },
        { "address": "米田町", "city": "倉吉市", "postcode": "6820814", "prefecture": "鳥取県", "id": 695 },
        { "address": "和田", "city": "倉吉市", "postcode": "6820912", "prefecture": "鳥取県", "id": 696 },
        { "address": "和田東町", "city": "倉吉市", "postcode": "6820913", "prefecture": "鳥取県", "id": 697 },
        { "city": "境港市", "postcode": "6840000", "prefecture": "鳥取県", "id": 698 },
        { "address": "相生町", "city": "境港市", "postcode": "6840011", "prefecture": "鳥取県", "id": 699 },
        { "address": "上道町", "city": "境港市", "postcode": "6840033", "prefecture": "鳥取県", "id": 700 },
        { "address": "朝日町", "city": "境港市", "postcode": "6840013", "prefecture": "鳥取県", "id": 701 },
        { "address": "栄町", "city": "境港市", "postcode": "6840006", "prefecture": "鳥取県", "id": 702 },
        { "address": "京町", "city": "境港市", "postcode": "6840023", "prefecture": "鳥取県", "id": 703 },
        { "address": "幸神町", "city": "境港市", "postcode": "6840056", "prefecture": "鳥取県", "id": 704 },
        { "address": "小篠津町", "city": "境港市", "postcode": "6840053", "prefecture": "鳥取県", "id": 705 },
        { "address": "佐斐神町", "city": "境港市", "postcode": "6840055", "prefecture": "鳥取県", "id": 706 },
        { "address": "財ノ木町", "city": "境港市", "postcode": "6840054", "prefecture": "鳥取県", "id": 707 },
        { "address": "三軒屋町", "city": "境港市", "postcode": "6840064", "prefecture": "鳥取県", "id": 708 },
        { "address": "潮見町", "city": "境港市", "postcode": "6840074", "prefecture": "鳥取県", "id": 709 },
        { "address": "東雲町", "city": "境港市", "postcode": "6840015", "prefecture": "鳥取県", "id": 710 },
        { "address": "芝町", "city": "境港市", "postcode": "6840066", "prefecture": "鳥取県", "id": 711 },
        { "address": "清水町", "city": "境港市", "postcode": "6840001", "prefecture": "鳥取県", "id": 712 },
        { "address": "昭和町", "city": "境港市", "postcode": "6840034", "prefecture": "鳥取県", "id": 713 },
        { "address": "末広町", "city": "境港市", "postcode": "6840026", "prefecture": "鳥取県", "id": 714 },
        { "address": "誠道町", "city": "境港市", "postcode": "6840063", "prefecture": "鳥取県", "id": 715 },
        { "address": "大正町", "city": "境港市", "postcode": "6840004", "prefecture": "鳥取県", "id": 716 },
        { "address": "高松町", "city": "境港市", "postcode": "6840045", "prefecture": "鳥取県", "id": 717 },
        { "address": "竹内団地", "city": "境港市", "postcode": "6840046", "prefecture": "鳥取県", "id": 718 },
        { "address": "竹内町", "city": "境港市", "postcode": "6840043", "prefecture": "鳥取県", "id": 719 },
        { "address": "外江町", "city": "境港市", "postcode": "6840071", "prefecture": "鳥取県", "id": 720 },
        { "address": "中海干拓地", "city": "境港市", "postcode": "6840073", "prefecture": "鳥取県", "id": 721 },
        { "address": "中野町", "city": "境港市", "postcode": "6840041", "prefecture": "鳥取県", "id": 722 },
        { "address": "中町", "city": "境港市", "postcode": "6840012", "prefecture": "鳥取県", "id": 723 },
        { "address": "新屋町", "city": "境港市", "postcode": "6840051", "prefecture": "鳥取県", "id": 724 },
        { "address": "西工業団地", "city": "境港市", "postcode": "6840075", "prefecture": "鳥取県", "id": 725 },
        { "address": "入船町", "city": "境港市", "postcode": "6840014", "prefecture": "鳥取県", "id": 726 },
        { "address": "蓮池町", "city": "境港市", "postcode": "6840062", "prefecture": "鳥取県", "id": 727 },
        { "address": "花町", "city": "境港市", "postcode": "6840016", "prefecture": "鳥取県", "id": 728 },
        { "address": "馬場崎町", "city": "境港市", "postcode": "6840021", "prefecture": "鳥取県", "id": 729 },
        { "address": "浜ノ町", "city": "境港市", "postcode": "6840003", "prefecture": "鳥取県", "id": 730 },
        { "address": "東本町", "city": "境港市", "postcode": "6840027", "prefecture": "鳥取県", "id": 731 },
        { "address": "日ノ出町", "city": "境港市", "postcode": "6840024", "prefecture": "鳥取県", "id": 732 },
        { "address": "福定町", "city": "境港市", "postcode": "6840042", "prefecture": "鳥取県", "id": 733 },
        { "address": "本町", "city": "境港市", "postcode": "6840025", "prefecture": "鳥取県", "id": 734 },
        { "address": "松ケ枝町", "city": "境港市", "postcode": "6840005", "prefecture": "鳥取県", "id": 735 },
        { "address": "岬町", "city": "境港市", "postcode": "6840017", "prefecture": "鳥取県", "id": 736 },
        { "address": "湊町", "city": "境港市", "postcode": "6840031", "prefecture": "鳥取県", "id": 737 },
        { "address": "美保町", "city": "境港市", "postcode": "6840044", "prefecture": "鳥取県", "id": 738 },
        { "address": "麦垣町", "city": "境港市", "postcode": "6840052", "prefecture": "鳥取県", "id": 739 },
        { "address": "明治町", "city": "境港市", "postcode": "6840022", "prefecture": "鳥取県", "id": 740 },
        { "address": "元町", "city": "境港市", "postcode": "6840032", "prefecture": "鳥取県", "id": 741 },
        { "address": "森岡町", "city": "境港市", "postcode": "6840065", "prefecture": "鳥取県", "id": 742 },
        { "address": "弥生町", "city": "境港市", "postcode": "6840002", "prefecture": "鳥取県", "id": 743 },
        { "address": "夕日ケ丘", "city": "境港市", "postcode": "6840076", "prefecture": "鳥取県", "id": 744 },
        { "address": "米川町", "city": "境港市", "postcode": "6840061", "prefecture": "鳥取県", "id": 745 },
        { "address": "渡町", "city": "境港市", "postcode": "6840072", "prefecture": "鳥取県", "id": 746 },
        { "city": "岩美郡岩美町", "postcode": "6810000", "prefecture": "鳥取県", "id": 747 },
        { "address": "相谷", "city": "岩美郡岩美町", "postcode": "6810002", "prefecture": "鳥取県", "id": 748 },
        { "address": "相山", "city": "岩美郡岩美町", "postcode": "6810036", "prefecture": "鳥取県", "id": 749 },
        { "address": "網代", "city": "岩美郡岩美町", "postcode": "6810074", "prefecture": "鳥取県", "id": 750 },
        { "address": "洗井", "city": "岩美郡岩美町", "postcode": "6810032", "prefecture": "鳥取県", "id": 751 },
        { "address": "荒金", "city": "岩美郡岩美町", "postcode": "6810055", "prefecture": "鳥取県", "id": 752 },
        { "address": "池谷", "city": "岩美郡岩美町", "postcode": "6810047", "prefecture": "鳥取県", "id": 753 },
        { "address": "岩井", "city": "岩美郡岩美町", "postcode": "6810024", "prefecture": "鳥取県", "id": 754 },
        { "address": "岩常", "city": "岩美郡岩美町", "postcode": "6810052", "prefecture": "鳥取県", "id": 755 },
        { "address": "岩本", "city": "岩美郡岩美町", "postcode": "6810072", "prefecture": "鳥取県", "id": 756 },
        { "address": "院内", "city": "岩美郡岩美町", "postcode": "6810054", "prefecture": "鳥取県", "id": 757 },
        { "address": "宇治", "city": "岩美郡岩美町", "postcode": "6810025", "prefecture": "鳥取県", "id": 758 },
        { "address": "浦富", "city": "岩美郡岩美町", "postcode": "6810003", "prefecture": "鳥取県", "id": 759 },
        { "address": "延興寺", "city": "岩美郡岩美町", "postcode": "6810046", "prefecture": "鳥取県", "id": 760 },
        { "address": "大坂", "city": "岩美郡岩美町", "postcode": "6810043", "prefecture": "鳥取県", "id": 761 },
        { "address": "太田", "city": "岩美郡岩美町", "postcode": "6810063", "prefecture": "鳥取県", "id": 762 },
        { "address": "大谷", "city": "岩美郡岩美町", "postcode": "6810073", "prefecture": "鳥取県", "id": 763 },
        { "address": "大羽尾", "city": "岩美郡岩美町", "postcode": "6810014", "prefecture": "鳥取県", "id": 764 },
        { "address": "小田", "city": "岩美郡岩美町", "postcode": "6810042", "prefecture": "鳥取県", "id": 765 },
        { "address": "恩志", "city": "岩美郡岩美町", "postcode": "6810062", "prefecture": "鳥取県", "id": 766 },
        { "address": "蒲生", "city": "岩美郡岩美町", "postcode": "6810031", "prefecture": "鳥取県", "id": 767 },
        { "address": "唐川", "city": "岩美郡岩美町", "postcode": "6810045", "prefecture": "鳥取県", "id": 768 },
        { "address": "河崎", "city": "岩美郡岩美町", "postcode": "6810051", "prefecture": "鳥取県", "id": 769 },
        { "address": "銀山", "city": "岩美郡岩美町", "postcode": "6810034", "prefecture": "鳥取県", "id": 770 },
        { "address": "陸上", "city": "岩美郡岩美町", "postcode": "6810011", "prefecture": "鳥取県", "id": 771 },
        { "address": "黒谷", "city": "岩美郡岩美町", "postcode": "6810041", "prefecture": "鳥取県", "id": 772 },
        { "address": "小羽尾", "city": "岩美郡岩美町", "postcode": "6810013", "prefecture": "鳥取県", "id": 773 },
        { "address": "白地", "city": "岩美郡岩美町", "postcode": "6810022", "prefecture": "鳥取県", "id": 774 },
        { "address": "高住", "city": "岩美郡岩美町", "postcode": "6810053", "prefecture": "鳥取県", "id": 775 },
        { "address": "高山", "city": "岩美郡岩美町", "postcode": "6810061", "prefecture": "鳥取県", "id": 776 },
        { "address": "田後", "city": "岩美郡岩美町", "postcode": "6810071", "prefecture": "鳥取県", "id": 777 },
        { "address": "田河内", "city": "岩美郡岩美町", "postcode": "6810012", "prefecture": "鳥取県", "id": 778 },
        { "address": "長郷", "city": "岩美郡岩美町", "postcode": "6810056", "prefecture": "鳥取県", "id": 779 },
        { "address": "外邑", "city": "岩美郡岩美町", "postcode": "6810044", "prefecture": "鳥取県", "id": 780 },
        { "address": "鳥越", "city": "岩美郡岩美町", "postcode": "6810033", "prefecture": "鳥取県", "id": 781 },
        { "address": "長谷", "city": "岩美郡岩美町", "postcode": "6810021", "prefecture": "鳥取県", "id": 782 },
        { "address": "新井", "city": "岩美郡岩美町", "postcode": "6810065", "prefecture": "鳥取県", "id": 783 },
        { "address": "馬場", "city": "岩美郡岩美町", "postcode": "6810035", "prefecture": "鳥取県", "id": 784 },
        { "address": "本庄", "city": "岩美郡岩美町", "postcode": "6810064", "prefecture": "鳥取県", "id": 785 },
        { "address": "牧谷", "city": "岩美郡岩美町", "postcode": "6810001", "prefecture": "鳥取県", "id": 786 },
        { "address": "真名", "city": "岩美郡岩美町", "postcode": "6810023", "prefecture": "鳥取県", "id": 787 },
        { "city": "八頭郡若桜町", "postcode": "6800700", "prefecture": "鳥取県", "id": 788 },
        { "address": "赤松", "city": "八頭郡若桜町", "postcode": "6800713", "prefecture": "鳥取県", "id": 789 },
        { "address": "浅井", "city": "八頭郡若桜町", "postcode": "6800722", "prefecture": "鳥取県", "id": 790 },
        { "address": "糸白見", "city": "八頭郡若桜町", "postcode": "6800743", "prefecture": "鳥取県", "id": 791 },
        { "address": "岩屋堂", "city": "八頭郡若桜町", "postcode": "6800731", "prefecture": "鳥取県", "id": 792 },
        { "address": "大炊", "city": "八頭郡若桜町", "postcode": "6800741", "prefecture": "鳥取県", "id": 793 },
        { "address": "大野", "city": "八頭郡若桜町", "postcode": "6800733", "prefecture": "鳥取県", "id": 794 },
        { "address": "落折", "city": "八頭郡若桜町", "postcode": "6800735", "prefecture": "鳥取県", "id": 795 },
        { "address": "小船", "city": "八頭郡若桜町", "postcode": "6800734", "prefecture": "鳥取県", "id": 796 },
        { "address": "岸野", "city": "八頭郡若桜町", "postcode": "6800742", "prefecture": "鳥取県", "id": 797 },
        { "address": "来見野", "city": "八頭郡若桜町", "postcode": "6800714", "prefecture": "鳥取県", "id": 798 },
        { "address": "香田", "city": "八頭郡若桜町", "postcode": "6800723", "prefecture": "鳥取県", "id": 799 },
        { "address": "須澄", "city": "八頭郡若桜町", "postcode": "6800745", "prefecture": "鳥取県", "id": 800 },
        { "address": "高野", "city": "八頭郡若桜町", "postcode": "6800712", "prefecture": "鳥取県", "id": 801 },
        { "address": "つく米", "city": "八頭郡若桜町", "postcode": "6800728", "prefecture": "鳥取県", "id": 802 },
        { "address": "中原", "city": "八頭郡若桜町", "postcode": "6800732", "prefecture": "鳥取県", "id": 803 },
        { "address": "長砂", "city": "八頭郡若桜町", "postcode": "6800724", "prefecture": "鳥取県", "id": 804 },
        { "address": "根安", "city": "八頭郡若桜町", "postcode": "6800744", "prefecture": "鳥取県", "id": 805 },
        { "address": "淵見", "city": "八頭郡若桜町", "postcode": "6800726", "prefecture": "鳥取県", "id": 806 },
        { "address": "三倉", "city": "八頭郡若桜町", "postcode": "6800711", "prefecture": "鳥取県", "id": 807 },
        { "address": "茗荷谷", "city": "八頭郡若桜町", "postcode": "6800727", "prefecture": "鳥取県", "id": 808 },
        { "address": "諸鹿", "city": "八頭郡若桜町", "postcode": "6800715", "prefecture": "鳥取県", "id": 809 },
        { "address": "屋堂羅", "city": "八頭郡若桜町", "postcode": "6800721", "prefecture": "鳥取県", "id": 810 },
        { "address": "湯原", "city": "八頭郡若桜町", "postcode": "6800725", "prefecture": "鳥取県", "id": 811 },
        { "address": "吉川", "city": "八頭郡若桜町", "postcode": "6800746", "prefecture": "鳥取県", "id": 812 },
        { "address": "若桜", "city": "八頭郡若桜町", "postcode": "6800701", "prefecture": "鳥取県", "id": 813 },
        { "city": "八頭郡智頭町", "postcode": "6891400", "prefecture": "鳥取県", "id": 814 },
        { "address": "芦津", "city": "八頭郡智頭町", "postcode": "6891412", "prefecture": "鳥取県", "id": 815 },
        { "address": "市瀬", "city": "八頭郡智頭町", "postcode": "6891401", "prefecture": "鳥取県", "id": 816 },
        { "address": "岩神", "city": "八頭郡智頭町", "postcode": "6891404", "prefecture": "鳥取県", "id": 817 },
        { "address": "宇波", "city": "八頭郡智頭町", "postcode": "6891465", "prefecture": "鳥取県", "id": 818 },
        { "address": "大背", "city": "八頭郡智頭町", "postcode": "6891451", "prefecture": "鳥取県", "id": 819 },
        { "address": "大内", "city": "八頭郡智頭町", "postcode": "6891421", "prefecture": "鳥取県", "id": 820 },
        { "address": "大屋", "city": "八頭郡智頭町", "postcode": "6891442", "prefecture": "鳥取県", "id": 821 },
        { "address": "大呂", "city": "八頭郡智頭町", "postcode": "6891413", "prefecture": "鳥取県", "id": 822 },
        { "address": "奥本", "city": "八頭郡智頭町", "postcode": "6891452", "prefecture": "鳥取県", "id": 823 },
        { "address": "尾見", "city": "八頭郡智頭町", "postcode": "6891422", "prefecture": "鳥取県", "id": 824 },
        { "address": "木原", "city": "八頭郡智頭町", "postcode": "6891436", "prefecture": "鳥取県", "id": 825 },
        { "address": "口宇波", "city": "八頭郡智頭町", "postcode": "6891464", "prefecture": "鳥取県", "id": 826 },
        { "address": "口波多", "city": "八頭郡智頭町", "postcode": "6891467", "prefecture": "鳥取県", "id": 827 },
        { "address": "慶所", "city": "八頭郡智頭町", "postcode": "6891441", "prefecture": "鳥取県", "id": 828 },
        { "address": "毛谷", "city": "八頭郡智頭町", "postcode": "6891416", "prefecture": "鳥取県", "id": 829 },
        { "address": "河津原", "city": "八頭郡智頭町", "postcode": "6891454", "prefecture": "鳥取県", "id": 830 },
        { "address": "郷原", "city": "八頭郡智頭町", "postcode": "6891415", "prefecture": "鳥取県", "id": 831 },
        { "address": "駒帰", "city": "八頭郡智頭町", "postcode": "6891424", "prefecture": "鳥取県", "id": 832 },
        { "address": "坂原", "city": "八頭郡智頭町", "postcode": "6891461", "prefecture": "鳥取県", "id": 833 },
        { "address": "篠坂", "city": "八頭郡智頭町", "postcode": "6891417", "prefecture": "鳥取県", "id": 834 },
        { "address": "惣地", "city": "八頭郡智頭町", "postcode": "6891468", "prefecture": "鳥取県", "id": 835 },
        { "address": "智頭", "city": "八頭郡智頭町", "postcode": "6891402", "prefecture": "鳥取県", "id": 836 },
        { "address": "中田", "city": "八頭郡智頭町", "postcode": "6891462", "prefecture": "鳥取県", "id": 837 },
        { "address": "中原", "city": "八頭郡智頭町", "postcode": "6891423", "prefecture": "鳥取県", "id": 838 },
        { "address": "新見", "city": "八頭郡智頭町", "postcode": "6891463", "prefecture": "鳥取県", "id": 839 },
        { "address": "西宇塚", "city": "八頭郡智頭町", "postcode": "6891455", "prefecture": "鳥取県", "id": 840 },
        { "address": "西谷", "city": "八頭郡智頭町", "postcode": "6891426", "prefecture": "鳥取県", "id": 841 },
        { "address": "西野", "city": "八頭郡智頭町", "postcode": "6891414", "prefecture": "鳥取県", "id": 842 },
        { "address": "野原", "city": "八頭郡智頭町", "postcode": "6891444", "prefecture": "鳥取県", "id": 843 },
        { "address": "波多", "city": "八頭郡智頭町", "postcode": "6891466", "prefecture": "鳥取県", "id": 844 },
        { "address": "埴師", "city": "八頭郡智頭町", "postcode": "6891433", "prefecture": "鳥取県", "id": 845 },
        { "address": "早瀬", "city": "八頭郡智頭町", "postcode": "6891445", "prefecture": "鳥取県", "id": 846 },
        { "address": "東宇塚", "city": "八頭郡智頭町", "postcode": "6891453", "prefecture": "鳥取県", "id": 847 },
        { "address": "福原", "city": "八頭郡智頭町", "postcode": "6891425", "prefecture": "鳥取県", "id": 848 },
        { "address": "穂見", "city": "八頭郡智頭町", "postcode": "6891432", "prefecture": "鳥取県", "id": 849 },
        { "address": "真鹿野", "city": "八頭郡智頭町", "postcode": "6891443", "prefecture": "鳥取県", "id": 850 },
        { "address": "三田", "city": "八頭郡智頭町", "postcode": "6891437", "prefecture": "鳥取県", "id": 851 },
        { "address": "南方", "city": "八頭郡智頭町", "postcode": "6891403", "prefecture": "鳥取県", "id": 852 },
        { "address": "三吉", "city": "八頭郡智頭町", "postcode": "6891434", "prefecture": "鳥取県", "id": 853 },
        { "address": "八河谷", "city": "八頭郡智頭町", "postcode": "6891411", "prefecture": "鳥取県", "id": 854 },
        { "address": "山根", "city": "八頭郡智頭町", "postcode": "6891431", "prefecture": "鳥取県", "id": 855 },
        { "address": "横田", "city": "八頭郡智頭町", "postcode": "6891435", "prefecture": "鳥取県", "id": 856 },
        { "city": "八頭郡八頭町", "postcode": "6800400", "prefecture": "鳥取県", "id": 857 },
        { "address": "明辺", "city": "八頭郡八頭町", "postcode": "6800302", "prefecture": "鳥取県", "id": 858 },
        { "address": "麻生", "city": "八頭郡八頭町", "postcode": "6800305", "prefecture": "鳥取県", "id": 859 },
        { "address": "池田", "city": "八頭郡八頭町", "postcode": "6800452", "prefecture": "鳥取県", "id": 860 },
        { "address": "井古", "city": "八頭郡八頭町", "postcode": "6800425", "prefecture": "鳥取県", "id": 861 },
        { "address": "石田百井", "city": "八頭郡八頭町", "postcode": "6800454", "prefecture": "鳥取県", "id": 862 },
        { "address": "市谷", "city": "八頭郡八頭町", "postcode": "6800442", "prefecture": "鳥取県", "id": 863 },
        { "address": "市場", "city": "八頭郡八頭町", "postcode": "6800311", "prefecture": "鳥取県", "id": 864 },
        { "address": "稲荷", "city": "八頭郡八頭町", "postcode": "6800424", "prefecture": "鳥取県", "id": 865 },
        { "address": "岩淵", "city": "八頭郡八頭町", "postcode": "6800537", "prefecture": "鳥取県", "id": 866 },
        { "address": "延命寺", "city": "八頭郡八頭町", "postcode": "6800434", "prefecture": "鳥取県", "id": 867 },
        { "address": "大江", "city": "八頭郡八頭町", "postcode": "6800416", "prefecture": "鳥取県", "id": 868 },
        { "address": "大坪", "city": "八頭郡八頭町", "postcode": "6800435", "prefecture": "鳥取県", "id": 869 },
        { "address": "奥谷", "city": "八頭郡八頭町", "postcode": "6800427", "prefecture": "鳥取県", "id": 870 },
        { "address": "奥野", "city": "八頭郡八頭町", "postcode": "6800543", "prefecture": "鳥取県", "id": 871 },
        { "address": "落岩", "city": "八頭郡八頭町", "postcode": "6800303", "prefecture": "鳥取県", "id": 872 },
        { "address": "下坂", "city": "八頭郡八頭町", "postcode": "6800426", "prefecture": "鳥取県", "id": 873 },
        { "address": "皆原", "city": "八頭郡八頭町", "postcode": "6800533", "prefecture": "鳥取県", "id": 874 },
        { "address": "柿原", "city": "八頭郡八頭町", "postcode": "6800545", "prefecture": "鳥取県", "id": 875 },
        { "address": "覚王寺", "city": "八頭郡八頭町", "postcode": "6800312", "prefecture": "鳥取県", "id": 876 },
        { "address": "鍛冶屋", "city": "八頭郡八頭町", "postcode": "6800534", "prefecture": "鳥取県", "id": 877 },
        { "address": "門尾", "city": "八頭郡八頭町", "postcode": "6800422", "prefecture": "鳥取県", "id": 878 },
        { "address": "上津黒", "city": "八頭郡八頭町", "postcode": "6800313", "prefecture": "鳥取県", "id": 879 },
        { "address": "上野", "city": "八頭郡八頭町", "postcode": "6800401", "prefecture": "鳥取県", "id": 880 },
        { "address": "上峰寺", "city": "八頭郡八頭町", "postcode": "6800432", "prefecture": "鳥取県", "id": 881 },
        { "address": "北山", "city": "八頭郡八頭町", "postcode": "6800601", "prefecture": "鳥取県", "id": 882 },
        { "address": "日下部", "city": "八頭郡八頭町", "postcode": "6800526", "prefecture": "鳥取県", "id": 883 },
        { "address": "国中", "city": "八頭郡八頭町", "postcode": "6800457", "prefecture": "鳥取県", "id": 884 },
        { "address": "久能寺", "city": "八頭郡八頭町", "postcode": "6800451", "prefecture": "鳥取県", "id": 885 },
        { "address": "郡家殿", "city": "八頭郡八頭町", "postcode": "6800443", "prefecture": "鳥取県", "id": 886 },
        { "address": "郡家", "city": "八頭郡八頭町", "postcode": "6800461", "prefecture": "鳥取県", "id": 887 },
        { "address": "小別府", "city": "八頭郡八頭町", "postcode": "6800523", "prefecture": "鳥取県", "id": 888 },
        { "address": "才代", "city": "八頭郡八頭町", "postcode": "6800531", "prefecture": "鳥取県", "id": 889 },
        { "address": "坂田", "city": "八頭郡八頭町", "postcode": "6800473", "prefecture": "鳥取県", "id": 890 },
        { "address": "桜ヶ丘", "city": "八頭郡八頭町", "postcode": "6800527", "prefecture": "鳥取県", "id": 891 },
        { "address": "佐崎", "city": "八頭郡八頭町", "postcode": "6800544", "prefecture": "鳥取県", "id": 892 },
        { "address": "篠波", "city": "八頭郡八頭町", "postcode": "6800316", "prefecture": "鳥取県", "id": 893 },
        { "address": "塩上", "city": "八頭郡八頭町", "postcode": "6800413", "prefecture": "鳥取県", "id": 894 },
        { "address": "重枝", "city": "八頭郡八頭町", "postcode": "6800606", "prefecture": "鳥取県", "id": 895 },
        { "address": "志子部", "city": "八頭郡八頭町", "postcode": "6800407", "prefecture": "鳥取県", "id": 896 },
        { "address": "志谷", "city": "八頭郡八頭町", "postcode": "6800612", "prefecture": "鳥取県", "id": 897 },
        { "address": "島", "city": "八頭郡八頭町", "postcode": "6800605", "prefecture": "鳥取県", "id": 898 },
        { "address": "下門尾", "city": "八頭郡八頭町", "postcode": "6800421", "prefecture": "鳥取県", "id": 899 },
        { "address": "下津黒", "city": "八頭郡八頭町", "postcode": "6800314", "prefecture": "鳥取県", "id": 900 },
        { "address": "下野", "city": "八頭郡八頭町", "postcode": "6800415", "prefecture": "鳥取県", "id": 901 },
        { "address": "下濃", "city": "八頭郡八頭町", "postcode": "6800472", "prefecture": "鳥取県", "id": 902 },
        { "address": "下峰寺", "city": "八頭郡八頭町", "postcode": "6800431", "prefecture": "鳥取県", "id": 903 },
        { "address": "新興寺", "city": "八頭郡八頭町", "postcode": "6800522", "prefecture": "鳥取県", "id": 904 },
        { "address": "清徳", "city": "八頭郡八頭町", "postcode": "6800541", "prefecture": "鳥取県", "id": 905 },
        { "address": "大門", "city": "八頭郡八頭町", "postcode": "6800445", "prefecture": "鳥取県", "id": 906 },
        { "address": "徳丸", "city": "八頭郡八頭町", "postcode": "6800607", "prefecture": "鳥取県", "id": 907 },
        { "address": "富枝", "city": "八頭郡八頭町", "postcode": "6800611", "prefecture": "鳥取県", "id": 908 },
        { "address": "中", "city": "八頭郡八頭町", "postcode": "6800614", "prefecture": "鳥取県", "id": 909 },
        { "address": "西谷", "city": "八頭郡八頭町", "postcode": "6800408", "prefecture": "鳥取県", "id": 910 },
        { "address": "西御門", "city": "八頭郡八頭町", "postcode": "6800441", "prefecture": "鳥取県", "id": 911 },
        { "address": "野町", "city": "八頭郡八頭町", "postcode": "6800306", "prefecture": "鳥取県", "id": 912 },
        { "address": "橋本", "city": "八頭郡八頭町", "postcode": "6800414", "prefecture": "鳥取県", "id": 913 },
        { "address": "土師百井", "city": "八頭郡八頭町", "postcode": "6800455", "prefecture": "鳥取県", "id": 914 },
        { "address": "花", "city": "八頭郡八頭町", "postcode": "6800444", "prefecture": "鳥取県", "id": 915 },
        { "address": "花原", "city": "八頭郡八頭町", "postcode": "6800437", "prefecture": "鳥取県", "id": 916 },
        { "address": "隼福", "city": "八頭郡八頭町", "postcode": "6800402", "prefecture": "鳥取県", "id": 917 },
        { "address": "隼郡家", "city": "八頭郡八頭町", "postcode": "6800405", "prefecture": "鳥取県", "id": 918 },
        { "address": "稗谷", "city": "八頭郡八頭町", "postcode": "6800613", "prefecture": "鳥取県", "id": 919 },
        { "address": "東", "city": "八頭郡八頭町", "postcode": "6800532", "prefecture": "鳥取県", "id": 920 },
        { "address": "日田", "city": "八頭郡八頭町", "postcode": "6800603", "prefecture": "鳥取県", "id": 921 },
        { "address": "姫路", "city": "八頭郡八頭町", "postcode": "6800301", "prefecture": "鳥取県", "id": 922 },
        { "address": "福井", "city": "八頭郡八頭町", "postcode": "6800403", "prefecture": "鳥取県", "id": 923 },
        { "address": "福地", "city": "八頭郡八頭町", "postcode": "6800307", "prefecture": "鳥取県", "id": 924 },
        { "address": "福本", "city": "八頭郡八頭町", "postcode": "6800462", "prefecture": "鳥取県", "id": 925 },
        { "address": "船岡", "city": "八頭郡八頭町", "postcode": "6800471", "prefecture": "鳥取県", "id": 926 },
        { "address": "船岡殿", "city": "八頭郡八頭町", "postcode": "6800411", "prefecture": "鳥取県", "id": 927 },
        { "address": "別府", "city": "八頭郡八頭町", "postcode": "6800315", "prefecture": "鳥取県", "id": 928 },
        { "address": "堀越", "city": "八頭郡八頭町", "postcode": "6800423", "prefecture": "鳥取県", "id": 929 },
        { "address": "万代寺", "city": "八頭郡八頭町", "postcode": "6800453", "prefecture": "鳥取県", "id": 930 },
        { "address": "三浦", "city": "八頭郡八頭町", "postcode": "6800536", "prefecture": "鳥取県", "id": 931 },
        { "address": "見槻", "city": "八頭郡八頭町", "postcode": "6800406", "prefecture": "鳥取県", "id": 932 },
        { "address": "見槻中", "city": "八頭郡八頭町", "postcode": "6800404", "prefecture": "鳥取県", "id": 933 },
        { "address": "水口", "city": "八頭郡八頭町", "postcode": "6800412", "prefecture": "鳥取県", "id": 934 },
        { "address": "南", "city": "八頭郡八頭町", "postcode": "6800604", "prefecture": "鳥取県", "id": 935 },
        { "address": "宮谷", "city": "八頭郡八頭町", "postcode": "6800463", "prefecture": "鳥取県", "id": 936 },
        { "address": "三山口", "city": "八頭郡八頭町", "postcode": "6800535", "prefecture": "鳥取県", "id": 937 },
        { "address": "茂田", "city": "八頭郡八頭町", "postcode": "6800524", "prefecture": "鳥取県", "id": 938 },
        { "address": "茂谷", "city": "八頭郡八頭町", "postcode": "6800542", "prefecture": "鳥取県", "id": 939 },
        { "address": "安井宿", "city": "八頭郡八頭町", "postcode": "6800521", "prefecture": "鳥取県", "id": 940 },
        { "address": "山路", "city": "八頭郡八頭町", "postcode": "6800436", "prefecture": "鳥取県", "id": 941 },
        { "address": "山志谷", "city": "八頭郡八頭町", "postcode": "6800304", "prefecture": "鳥取県", "id": 942 },
        { "address": "山田", "city": "八頭郡八頭町", "postcode": "6800438", "prefecture": "鳥取県", "id": 943 },
        { "address": "山上", "city": "八頭郡八頭町", "postcode": "6800433", "prefecture": "鳥取県", "id": 944 },
        { "address": "用呂", "city": "八頭郡八頭町", "postcode": "6800602", "prefecture": "鳥取県", "id": 945 },
        { "address": "横田", "city": "八頭郡八頭町", "postcode": "6800525", "prefecture": "鳥取県", "id": 946 },
        { "address": "米岡", "city": "八頭郡八頭町", "postcode": "6800456", "prefecture": "鳥取県", "id": 947 },
        { "address": "破岩", "city": "八頭郡八頭町", "postcode": "6800474", "prefecture": "鳥取県", "id": 948 },
        { "city": "東伯郡三朝町", "postcode": "6820100", "prefecture": "鳥取県", "id": 949 },
        { "address": "赤松", "city": "東伯郡三朝町", "postcode": "6820172", "prefecture": "鳥取県", "id": 950 },
        { "address": "穴鴨", "city": "東伯郡三朝町", "postcode": "6820303", "prefecture": "鳥取県", "id": 951 },
        { "address": "今泉", "city": "東伯郡三朝町", "postcode": "6820151", "prefecture": "鳥取県", "id": 952 },
        { "address": "大柿", "city": "東伯郡三朝町", "postcode": "6820177", "prefecture": "鳥取県", "id": 953 },
        { "address": "大瀬", "city": "東伯郡三朝町", "postcode": "6820121", "prefecture": "鳥取県", "id": 954 },
        { "address": "大谷", "city": "東伯郡三朝町", "postcode": "6820315", "prefecture": "鳥取県", "id": 955 },
        { "address": "小河内", "city": "東伯郡三朝町", "postcode": "6820157", "prefecture": "鳥取県", "id": 956 },
        { "address": "恩地", "city": "東伯郡三朝町", "postcode": "6820173", "prefecture": "鳥取県", "id": 957 },
        { "address": "柿谷", "city": "東伯郡三朝町", "postcode": "6820161", "prefecture": "鳥取県", "id": 958 },
        { "address": "片柴", "city": "東伯郡三朝町", "postcode": "6820135", "prefecture": "鳥取県", "id": 959 },
        { "address": "加谷", "city": "東伯郡三朝町", "postcode": "6820302", "prefecture": "鳥取県", "id": 960 },
        { "address": "鎌田", "city": "東伯郡三朝町", "postcode": "6820154", "prefecture": "鳥取県", "id": 961 },
        { "address": "上西谷", "city": "東伯郡三朝町", "postcode": "6820313", "prefecture": "鳥取県", "id": 962 },
        { "address": "神倉", "city": "東伯郡三朝町", "postcode": "6820142", "prefecture": "鳥取県", "id": 963 },
        { "address": "木地山", "city": "東伯郡三朝町", "postcode": "6820301", "prefecture": "鳥取県", "id": 964 },
        { "address": "久原", "city": "東伯郡三朝町", "postcode": "6820375", "prefecture": "鳥取県", "id": 965 },
        { "address": "恋谷", "city": "東伯郡三朝町", "postcode": "6820123", "prefecture": "鳥取県", "id": 966 },
        { "address": "坂本", "city": "東伯郡三朝町", "postcode": "6820136", "prefecture": "鳥取県", "id": 967 },
        { "address": "桜ケ丘", "city": "東伯郡三朝町", "postcode": "6820133", "prefecture": "鳥取県", "id": 968 },
        { "address": "下谷", "city": "東伯郡三朝町", "postcode": "6820156", "prefecture": "鳥取県", "id": 969 },
        { "address": "下西谷", "city": "東伯郡三朝町", "postcode": "6820312", "prefecture": "鳥取県", "id": 970 },
        { "address": "下畑", "city": "東伯郡三朝町", "postcode": "6820316", "prefecture": "鳥取県", "id": 971 },
        { "address": "助谷", "city": "東伯郡三朝町", "postcode": "6820176", "prefecture": "鳥取県", "id": 972 },
        { "address": "砂原", "city": "東伯郡三朝町", "postcode": "6820124", "prefecture": "鳥取県", "id": 973 },
        { "address": "曹源寺", "city": "東伯郡三朝町", "postcode": "6820374", "prefecture": "鳥取県", "id": 974 },
        { "address": "高橋", "city": "東伯郡三朝町", "postcode": "6820146", "prefecture": "鳥取県", "id": 975 },
        { "address": "田代", "city": "東伯郡三朝町", "postcode": "6820314", "prefecture": "鳥取県", "id": 976 },
        { "address": "俵原", "city": "東伯郡三朝町", "postcode": "6820131", "prefecture": "鳥取県", "id": 977 },
        { "address": "笏賀", "city": "東伯郡三朝町", "postcode": "6820158", "prefecture": "鳥取県", "id": 978 },
        { "address": "天神", "city": "東伯郡三朝町", "postcode": "6820153", "prefecture": "鳥取県", "id": 979 },
        { "address": "徳本", "city": "東伯郡三朝町", "postcode": "6820125", "prefecture": "鳥取県", "id": 980 },
        { "address": "中津", "city": "東伯郡三朝町", "postcode": "6820141", "prefecture": "鳥取県", "id": 981 },
        { "address": "鉛山", "city": "東伯郡三朝町", "postcode": "6820162", "prefecture": "鳥取県", "id": 982 },
        { "address": "西尾", "city": "東伯郡三朝町", "postcode": "6820145", "prefecture": "鳥取県", "id": 983 },
        { "address": "西小鹿", "city": "東伯郡三朝町", "postcode": "6820144", "prefecture": "鳥取県", "id": 984 },
        { "address": "東小鹿", "city": "東伯郡三朝町", "postcode": "6820143", "prefecture": "鳥取県", "id": 985 },
        { "address": "福田", "city": "東伯郡三朝町", "postcode": "6820159", "prefecture": "鳥取県", "id": 986 },
        { "address": "福本", "city": "東伯郡三朝町", "postcode": "6820317", "prefecture": "鳥取県", "id": 987 },
        { "address": "福山", "city": "東伯郡三朝町", "postcode": "6820311", "prefecture": "鳥取県", "id": 988 },
        { "address": "福吉", "city": "東伯郡三朝町", "postcode": "6820163", "prefecture": "鳥取県", "id": 989 },
        { "address": "牧", "city": "東伯郡三朝町", "postcode": "6820178", "prefecture": "鳥取県", "id": 990 },
        { "address": "三徳", "city": "東伯郡三朝町", "postcode": "6820132", "prefecture": "鳥取県", "id": 991 },
        { "address": "本泉", "city": "東伯郡三朝町", "postcode": "6820152", "prefecture": "鳥取県", "id": 992 },
        { "address": "山田", "city": "東伯郡三朝町", "postcode": "6820122", "prefecture": "鳥取県", "id": 993 },
        { "address": "湯谷", "city": "東伯郡三朝町", "postcode": "6820171", "prefecture": "鳥取県", "id": 994 },
        { "address": "吉尾", "city": "東伯郡三朝町", "postcode": "6820155", "prefecture": "鳥取県", "id": 995 },
        { "address": "余戸", "city": "東伯郡三朝町", "postcode": "6820134", "prefecture": "鳥取県", "id": 996 },
        { "city": "東伯郡湯梨浜町", "postcode": "6820700", "prefecture": "鳥取県", "id": 997 },
        { "address": "赤池", "city": "東伯郡湯梨浜町", "postcode": "6820714", "prefecture": "鳥取県", "id": 998 },
        { "address": "麻畑", "city": "東伯郡湯梨浜町", "postcode": "6890721", "prefecture": "鳥取県", "id": 999 },
        { "address": "旭", "city": "東伯郡湯梨浜町", "postcode": "6890713", "prefecture": "鳥取県", "id": 1000 },
        { "address": "石脇", "city": "東伯郡湯梨浜町", "postcode": "6890602", "prefecture": "鳥取県", "id": 1001 },
        { "address": "羽衣石", "city": "東伯郡湯梨浜町", "postcode": "6890733", "prefecture": "鳥取県", "id": 1002 },
        { "address": "宇谷", "city": "東伯郡湯梨浜町", "postcode": "6890607", "prefecture": "鳥取県", "id": 1003 },
        { "address": "宇野", "city": "東伯郡湯梨浜町", "postcode": "6820701", "prefecture": "鳥取県", "id": 1004 },
        { "address": "漆原", "city": "東伯郡湯梨浜町", "postcode": "6890702", "prefecture": "鳥取県", "id": 1005 },
        { "address": "小鹿谷", "city": "東伯郡湯梨浜町", "postcode": "6890729", "prefecture": "鳥取県", "id": 1006 },
        { "address": "方面", "city": "東伯郡湯梨浜町", "postcode": "6890724", "prefecture": "鳥取県", "id": 1007 },
        { "address": "門田", "city": "東伯郡湯梨浜町", "postcode": "6890736", "prefecture": "鳥取県", "id": 1008 },
        { "address": "上浅津", "city": "東伯郡湯梨浜町", "postcode": "6820712", "prefecture": "鳥取県", "id": 1009 },
        { "address": "上橋津", "city": "東伯郡湯梨浜町", "postcode": "6820703", "prefecture": "鳥取県", "id": 1010 },
        { "address": "川上", "city": "東伯郡湯梨浜町", "postcode": "6890722", "prefecture": "鳥取県", "id": 1011 },
        { "address": "北福", "city": "東伯郡湯梨浜町", "postcode": "6890701", "prefecture": "鳥取県", "id": 1012 },
        { "address": "国信", "city": "東伯郡湯梨浜町", "postcode": "6890726", "prefecture": "鳥取県", "id": 1013 },
        { "address": "小浜", "city": "東伯郡湯梨浜町", "postcode": "6890603", "prefecture": "鳥取県", "id": 1014 },
        { "address": "佐美", "city": "東伯郡湯梨浜町", "postcode": "6890735", "prefecture": "鳥取県", "id": 1015 },
        { "address": "下浅津", "city": "東伯郡湯梨浜町", "postcode": "6820711", "prefecture": "鳥取県", "id": 1016 },
        { "address": "白石", "city": "東伯郡湯梨浜町", "postcode": "6890704", "prefecture": "鳥取県", "id": 1017 },
        { "address": "園", "city": "東伯郡湯梨浜町", "postcode": "6890605", "prefecture": "鳥取県", "id": 1018 },
        { "address": "高辻", "city": "東伯郡湯梨浜町", "postcode": "6890723", "prefecture": "鳥取県", "id": 1019 },
        { "address": "田後", "city": "東伯郡湯梨浜町", "postcode": "6820721", "prefecture": "鳥取県", "id": 1020 },
        { "address": "田畑", "city": "東伯郡湯梨浜町", "postcode": "6890727", "prefecture": "鳥取県", "id": 1021 },
        { "address": "中興寺", "city": "東伯郡湯梨浜町", "postcode": "6890712", "prefecture": "鳥取県", "id": 1022 },
        { "address": "筒地", "city": "東伯郡湯梨浜町", "postcode": "6890604", "prefecture": "鳥取県", "id": 1023 },
        { "address": "泊", "city": "東伯郡湯梨浜町", "postcode": "6890601", "prefecture": "鳥取県", "id": 1024 },
        { "address": "長江", "city": "東伯郡湯梨浜町", "postcode": "6890737", "prefecture": "鳥取県", "id": 1025 },
        { "address": "長和田", "city": "東伯郡湯梨浜町", "postcode": "6890732", "prefecture": "鳥取県", "id": 1026 },
        { "address": "野方", "city": "東伯郡湯梨浜町", "postcode": "6890705", "prefecture": "鳥取県", "id": 1027 },
        { "address": "野花", "city": "東伯郡湯梨浜町", "postcode": "6890731", "prefecture": "鳥取県", "id": 1028 },
        { "address": "橋津", "city": "東伯郡湯梨浜町", "postcode": "6820702", "prefecture": "鳥取県", "id": 1029 },
        { "address": "埴見", "city": "東伯郡湯梨浜町", "postcode": "6890734", "prefecture": "鳥取県", "id": 1030 },
        { "address": "原", "city": "東伯郡湯梨浜町", "postcode": "6890606", "prefecture": "鳥取県", "id": 1031 },
        {
            "address": "はわい温泉",
            "city": "東伯郡湯梨浜町",
            "postcode": "6820715",
            "prefecture": "鳥取県",
            "id": 1032
        },
        {
            "address": "はわい長瀬",
            "city": "東伯郡湯梨浜町",
            "postcode": "6820722",
            "prefecture": "鳥取県",
            "id": 1033
        },
        { "address": "引地", "city": "東伯郡湯梨浜町", "postcode": "6890715", "prefecture": "鳥取県", "id": 1034 },
        { "address": "久留", "city": "東伯郡湯梨浜町", "postcode": "6820723", "prefecture": "鳥取県", "id": 1035 },
        { "address": "久見", "city": "東伯郡湯梨浜町", "postcode": "6890728", "prefecture": "鳥取県", "id": 1036 },
        { "address": "藤津", "city": "東伯郡湯梨浜町", "postcode": "6890706", "prefecture": "鳥取県", "id": 1037 },
        { "address": "別所", "city": "東伯郡湯梨浜町", "postcode": "6890725", "prefecture": "鳥取県", "id": 1038 },
        { "address": "方地", "city": "東伯郡湯梨浜町", "postcode": "6890703", "prefecture": "鳥取県", "id": 1039 },
        { "address": "松崎", "city": "東伯郡湯梨浜町", "postcode": "6890711", "prefecture": "鳥取県", "id": 1040 },
        { "address": "水下", "city": "東伯郡湯梨浜町", "postcode": "6820724", "prefecture": "鳥取県", "id": 1041 },
        { "address": "光吉", "city": "東伯郡湯梨浜町", "postcode": "6820713", "prefecture": "鳥取県", "id": 1042 },
        { "address": "南谷", "city": "東伯郡湯梨浜町", "postcode": "6820704", "prefecture": "鳥取県", "id": 1043 },
        { "address": "宮内", "city": "東伯郡湯梨浜町", "postcode": "6890707", "prefecture": "鳥取県", "id": 1044 },
        { "address": "龍島", "city": "東伯郡湯梨浜町", "postcode": "6890714", "prefecture": "鳥取県", "id": 1045 },
        { "city": "東伯郡琴浦町", "postcode": "6892300", "prefecture": "鳥取県", "id": 1046 },
        { "address": "赤碕", "city": "東伯郡琴浦町", "postcode": "6892501", "prefecture": "鳥取県", "id": 1047 },
        { "address": "出上", "city": "東伯郡琴浦町", "postcode": "6892511", "prefecture": "鳥取県", "id": 1048 },
        { "address": "梅田", "city": "東伯郡琴浦町", "postcode": "6892543", "prefecture": "鳥取県", "id": 1049 },
        { "address": "浦安", "city": "東伯郡琴浦町", "postcode": "6892352", "prefecture": "鳥取県", "id": 1050 },
        { "address": "大杉", "city": "東伯郡琴浦町", "postcode": "6892344", "prefecture": "鳥取県", "id": 1051 },
        { "address": "逢束", "city": "東伯郡琴浦町", "postcode": "6892304", "prefecture": "鳥取県", "id": 1052 },
        { "address": "大父", "city": "東伯郡琴浦町", "postcode": "6892524", "prefecture": "鳥取県", "id": 1053 },
        { "address": "尾張", "city": "東伯郡琴浦町", "postcode": "6892535", "prefecture": "鳥取県", "id": 1054 },
        { "address": "笠見", "city": "東伯郡琴浦町", "postcode": "6892306", "prefecture": "鳥取県", "id": 1055 },
        { "address": "勝田", "city": "東伯郡琴浦町", "postcode": "6892512", "prefecture": "鳥取県", "id": 1056 },
        { "address": "金屋", "city": "東伯郡琴浦町", "postcode": "6892312", "prefecture": "鳥取県", "id": 1057 },
        { "address": "上伊勢", "city": "東伯郡琴浦町", "postcode": "6892315", "prefecture": "鳥取県", "id": 1058 },
        { "address": "公文", "city": "東伯郡琴浦町", "postcode": "6892342", "prefecture": "鳥取県", "id": 1059 },
        { "address": "倉坂", "city": "東伯郡琴浦町", "postcode": "6892341", "prefecture": "鳥取県", "id": 1060 },
        { "address": "釛", "city": "東伯郡琴浦町", "postcode": "6892355", "prefecture": "鳥取県", "id": 1061 },
        { "address": "佐崎", "city": "東伯郡琴浦町", "postcode": "6892531", "prefecture": "鳥取県", "id": 1062 },
        { "address": "三本杉", "city": "東伯郡琴浦町", "postcode": "6892334", "prefecture": "鳥取県", "id": 1063 },
        { "address": "下伊勢", "city": "東伯郡琴浦町", "postcode": "6892316", "prefecture": "鳥取県", "id": 1064 },
        { "address": "下大江", "city": "東伯郡琴浦町", "postcode": "6892314", "prefecture": "鳥取県", "id": 1065 },
        { "address": "杉地", "city": "東伯郡琴浦町", "postcode": "6892331", "prefecture": "鳥取県", "id": 1066 },
        { "address": "杉下", "city": "東伯郡琴浦町", "postcode": "6892313", "prefecture": "鳥取県", "id": 1067 },
        { "address": "太一垣", "city": "東伯郡琴浦町", "postcode": "6892532", "prefecture": "鳥取県", "id": 1068 },
        { "address": "高岡", "city": "東伯郡琴浦町", "postcode": "6892523", "prefecture": "鳥取県", "id": 1069 },
        { "address": "竹内", "city": "東伯郡琴浦町", "postcode": "6892521", "prefecture": "鳥取県", "id": 1070 },
        { "address": "田越", "city": "東伯郡琴浦町", "postcode": "6892356", "prefecture": "鳥取県", "id": 1071 },
        { "address": "槻下", "city": "東伯郡琴浦町", "postcode": "6892305", "prefecture": "鳥取県", "id": 1072 },
        { "address": "徳万", "city": "東伯郡琴浦町", "postcode": "6892303", "prefecture": "鳥取県", "id": 1073 },
        { "address": "中尾", "city": "東伯郡琴浦町", "postcode": "6892311", "prefecture": "鳥取県", "id": 1074 },
        { "address": "中津原", "city": "東伯郡琴浦町", "postcode": "6892335", "prefecture": "鳥取県", "id": 1075 },
        { "address": "中村", "city": "東伯郡琴浦町", "postcode": "6892533", "prefecture": "鳥取県", "id": 1076 },
        { "address": "西宮", "city": "東伯郡琴浦町", "postcode": "6892513", "prefecture": "鳥取県", "id": 1077 },
        { "address": "野井倉", "city": "東伯郡琴浦町", "postcode": "6892336", "prefecture": "鳥取県", "id": 1078 },
        { "address": "野田", "city": "東伯郡琴浦町", "postcode": "6892346", "prefecture": "鳥取県", "id": 1079 },
        { "address": "箆津", "city": "東伯郡琴浦町", "postcode": "6892544", "prefecture": "鳥取県", "id": 1080 },
        { "address": "八反田", "city": "東伯郡琴浦町", "postcode": "6892322", "prefecture": "鳥取県", "id": 1081 },
        { "address": "福永", "city": "東伯郡琴浦町", "postcode": "6892345", "prefecture": "鳥取県", "id": 1082 },
        { "address": "古長", "city": "東伯郡琴浦町", "postcode": "6892332", "prefecture": "鳥取県", "id": 1083 },
        { "address": "別所", "city": "東伯郡琴浦町", "postcode": "6892502", "prefecture": "鳥取県", "id": 1084 },
        { "address": "別宮", "city": "東伯郡琴浦町", "postcode": "6892333", "prefecture": "鳥取県", "id": 1085 },
        { "address": "保", "city": "東伯郡琴浦町", "postcode": "6892351", "prefecture": "鳥取県", "id": 1086 },
        { "address": "法万", "city": "東伯郡琴浦町", "postcode": "6892325", "prefecture": "鳥取県", "id": 1087 },
        { "address": "松谷", "city": "東伯郡琴浦町", "postcode": "6892503", "prefecture": "鳥取県", "id": 1088 },
        { "address": "丸尾", "city": "東伯郡琴浦町", "postcode": "6892302", "prefecture": "鳥取県", "id": 1089 },
        { "address": "光", "city": "東伯郡琴浦町", "postcode": "6892534", "prefecture": "鳥取県", "id": 1090 },
        { "address": "光好", "city": "東伯郡琴浦町", "postcode": "6892326", "prefecture": "鳥取県", "id": 1091 },
        { "address": "三保", "city": "東伯郡琴浦町", "postcode": "6892353", "prefecture": "鳥取県", "id": 1092 },
        { "address": "宮木", "city": "東伯郡琴浦町", "postcode": "6892522", "prefecture": "鳥取県", "id": 1093 },
        { "address": "宮場", "city": "東伯郡琴浦町", "postcode": "6892323", "prefecture": "鳥取県", "id": 1094 },
        { "address": "美好", "city": "東伯郡琴浦町", "postcode": "6892354", "prefecture": "鳥取県", "id": 1095 },
        { "address": "森藤", "city": "東伯郡琴浦町", "postcode": "6892321", "prefecture": "鳥取県", "id": 1096 },
        { "address": "矢下", "city": "東伯郡琴浦町", "postcode": "6892324", "prefecture": "鳥取県", "id": 1097 },
        { "address": "八橋", "city": "東伯郡琴浦町", "postcode": "6892301", "prefecture": "鳥取県", "id": 1098 },
        { "address": "山川", "city": "東伯郡琴浦町", "postcode": "6892525", "prefecture": "鳥取県", "id": 1099 },
        { "address": "山田", "city": "東伯郡琴浦町", "postcode": "6892343", "prefecture": "鳥取県", "id": 1100 },
        { "address": "八幡", "city": "東伯郡琴浦町", "postcode": "6892541", "prefecture": "鳥取県", "id": 1101 },
        { "address": "湯坂", "city": "東伯郡琴浦町", "postcode": "6892542", "prefecture": "鳥取県", "id": 1102 },
        { "city": "東伯郡北栄町", "postcode": "6892200", "prefecture": "鳥取県", "id": 1103 },
        { "address": "岩坪", "city": "東伯郡北栄町", "postcode": "6892216", "prefecture": "鳥取県", "id": 1104 },
        { "address": "江北", "city": "東伯郡北栄町", "postcode": "6892101", "prefecture": "鳥取県", "id": 1105 },
        { "address": "大島", "city": "東伯郡北栄町", "postcode": "6892206", "prefecture": "鳥取県", "id": 1106 },
        { "address": "大谷", "city": "東伯郡北栄町", "postcode": "6892223", "prefecture": "鳥取県", "id": 1107 },
        { "address": "上種", "city": "東伯郡北栄町", "postcode": "6892213", "prefecture": "鳥取県", "id": 1108 },
        { "address": "亀谷", "city": "東伯郡北栄町", "postcode": "6892211", "prefecture": "鳥取県", "id": 1109 },
        { "address": "北尾", "city": "東伯郡北栄町", "postcode": "6892114", "prefecture": "鳥取県", "id": 1110 },
        { "address": "国坂", "city": "東伯郡北栄町", "postcode": "6892102", "prefecture": "鳥取県", "id": 1111 },
        { "address": "下種", "city": "東伯郡北栄町", "postcode": "6892212", "prefecture": "鳥取県", "id": 1112 },
        { "address": "下神", "city": "東伯郡北栄町", "postcode": "6892105", "prefecture": "鳥取県", "id": 1113 },
        { "address": "瀬戸", "city": "東伯郡北栄町", "postcode": "6892205", "prefecture": "鳥取県", "id": 1114 },
        { "address": "田井", "city": "東伯郡北栄町", "postcode": "6892103", "prefecture": "鳥取県", "id": 1115 },
        { "address": "妻波", "city": "東伯郡北栄町", "postcode": "6892224", "prefecture": "鳥取県", "id": 1116 },
        { "address": "西園", "city": "東伯郡北栄町", "postcode": "6892201", "prefecture": "鳥取県", "id": 1117 },
        { "address": "西高尾", "city": "東伯郡北栄町", "postcode": "6892215", "prefecture": "鳥取県", "id": 1118 },
        { "address": "西穂波", "city": "東伯郡北栄町", "postcode": "6892207", "prefecture": "鳥取県", "id": 1119 },
        { "address": "土下", "city": "東伯郡北栄町", "postcode": "6892111", "prefecture": "鳥取県", "id": 1120 },
        { "address": "原", "city": "東伯郡北栄町", "postcode": "6892203", "prefecture": "鳥取県", "id": 1121 },
        { "address": "東園", "city": "東伯郡北栄町", "postcode": "6892202", "prefecture": "鳥取県", "id": 1122 },
        { "address": "東高尾", "city": "東伯郡北栄町", "postcode": "6892214", "prefecture": "鳥取県", "id": 1123 },
        { "address": "北条島", "city": "東伯郡北栄町", "postcode": "6892112", "prefecture": "鳥取県", "id": 1124 },
        { "address": "穂波", "city": "東伯郡北栄町", "postcode": "6892204", "prefecture": "鳥取県", "id": 1125 },
        { "address": "曲", "city": "東伯郡北栄町", "postcode": "6892115", "prefecture": "鳥取県", "id": 1126 },
        { "address": "松神", "city": "東伯郡北栄町", "postcode": "6892106", "prefecture": "鳥取県", "id": 1127 },
        { "address": "六尾", "city": "東伯郡北栄町", "postcode": "6892208", "prefecture": "鳥取県", "id": 1128 },
        { "address": "弓原", "city": "東伯郡北栄町", "postcode": "6892104", "prefecture": "鳥取県", "id": 1129 },
        { "address": "由良宿", "city": "東伯郡北栄町", "postcode": "6892221", "prefecture": "鳥取県", "id": 1130 },
        { "address": "米里", "city": "東伯郡北栄町", "postcode": "6892113", "prefecture": "鳥取県", "id": 1131 },
        { "city": "西伯郡日吉津村", "postcode": "6893500", "prefecture": "鳥取県", "id": 1132 },
        { "address": "今吉", "city": "西伯郡日吉津村", "postcode": "6893551", "prefecture": "鳥取県", "id": 1133 },
        { "address": "富吉", "city": "西伯郡日吉津村", "postcode": "6893552", "prefecture": "鳥取県", "id": 1134 },
        { "address": "日吉津", "city": "西伯郡日吉津村", "postcode": "6893553", "prefecture": "鳥取県", "id": 1135 },
        { "city": "西伯郡大山町", "postcode": "6893200", "prefecture": "鳥取県", "id": 1136 },
        { "address": "赤坂", "city": "西伯郡大山町", "postcode": "6893111", "prefecture": "鳥取県", "id": 1137 },
        { "address": "赤松", "city": "西伯郡大山町", "postcode": "6893319", "prefecture": "鳥取県", "id": 1138 },
        { "address": "稲光", "city": "西伯郡大山町", "postcode": "6893334", "prefecture": "鳥取県", "id": 1139 },
        { "address": "今在家", "city": "西伯郡大山町", "postcode": "6893314", "prefecture": "鳥取県", "id": 1140 },
        { "address": "石井垣", "city": "西伯郡大山町", "postcode": "6893102", "prefecture": "鳥取県", "id": 1141 },
        { "address": "上野", "city": "西伯郡大山町", "postcode": "6893302", "prefecture": "鳥取県", "id": 1142 },
        { "address": "上市", "city": "西伯郡大山町", "postcode": "6893124", "prefecture": "鳥取県", "id": 1143 },
        { "address": "大塚", "city": "西伯郡大山町", "postcode": "6893226", "prefecture": "鳥取県", "id": 1144 },
        { "address": "岡", "city": "西伯郡大山町", "postcode": "6893121", "prefecture": "鳥取県", "id": 1145 },
        { "address": "押平", "city": "西伯郡大山町", "postcode": "6893225", "prefecture": "鳥取県", "id": 1146 },
        { "address": "加茂", "city": "西伯郡大山町", "postcode": "6893214", "prefecture": "鳥取県", "id": 1147 },
        { "address": "神原", "city": "西伯郡大山町", "postcode": "6893305", "prefecture": "鳥取県", "id": 1148 },
        { "address": "清原", "city": "西伯郡大山町", "postcode": "6893308", "prefecture": "鳥取県", "id": 1149 },
        { "address": "国信", "city": "西伯郡大山町", "postcode": "6893309", "prefecture": "鳥取県", "id": 1150 },
        { "address": "倉谷", "city": "西伯郡大山町", "postcode": "6893202", "prefecture": "鳥取県", "id": 1151 },
        { "address": "小竹", "city": "西伯郡大山町", "postcode": "6893203", "prefecture": "鳥取県", "id": 1152 },
        { "address": "古御堂", "city": "西伯郡大山町", "postcode": "6893222", "prefecture": "鳥取県", "id": 1153 },
        { "address": "栄田", "city": "西伯郡大山町", "postcode": "6893115", "prefecture": "鳥取県", "id": 1154 },
        { "address": "佐摩", "city": "西伯郡大山町", "postcode": "6893313", "prefecture": "鳥取県", "id": 1155 },
        { "address": "塩津", "city": "西伯郡大山町", "postcode": "6893122", "prefecture": "鳥取県", "id": 1156 },
        { "address": "下市", "city": "西伯郡大山町", "postcode": "6893125", "prefecture": "鳥取県", "id": 1157 },
        { "address": "下甲", "city": "西伯郡大山町", "postcode": "6893112", "prefecture": "鳥取県", "id": 1158 },
        { "address": "荘田", "city": "西伯郡大山町", "postcode": "6893323", "prefecture": "鳥取県", "id": 1159 },
        { "address": "上万", "city": "西伯郡大山町", "postcode": "6893335", "prefecture": "鳥取県", "id": 1160 },
        { "address": "末長", "city": "西伯郡大山町", "postcode": "6893332", "prefecture": "鳥取県", "id": 1161 },
        { "address": "末吉", "city": "西伯郡大山町", "postcode": "6893331", "prefecture": "鳥取県", "id": 1162 },
        { "address": "住吉", "city": "西伯郡大山町", "postcode": "6893123", "prefecture": "鳥取県", "id": 1163 },
        { "address": "退休寺", "city": "西伯郡大山町", "postcode": "6893133", "prefecture": "鳥取県", "id": 1164 },
        { "address": "大山", "city": "西伯郡大山町", "postcode": "6893318", "prefecture": "鳥取県", "id": 1165 },
        { "address": "高田", "city": "西伯郡大山町", "postcode": "6893224", "prefecture": "鳥取県", "id": 1166 },
        { "address": "高橋", "city": "西伯郡大山町", "postcode": "6893134", "prefecture": "鳥取県", "id": 1167 },
        { "address": "鈑戸", "city": "西伯郡大山町", "postcode": "6893317", "prefecture": "鳥取県", "id": 1168 },
        { "address": "田中", "city": "西伯郡大山町", "postcode": "6893114", "prefecture": "鳥取県", "id": 1169 },
        { "address": "茶畑", "city": "西伯郡大山町", "postcode": "6893223", "prefecture": "鳥取県", "id": 1170 },
        { "address": "潮音寺", "city": "西伯郡大山町", "postcode": "6893101", "prefecture": "鳥取県", "id": 1171 },
        { "address": "束積", "city": "西伯郡大山町", "postcode": "6893105", "prefecture": "鳥取県", "id": 1172 },
        { "address": "唐王", "city": "西伯郡大山町", "postcode": "6893333", "prefecture": "鳥取県", "id": 1173 },
        { "address": "所子", "city": "西伯郡大山町", "postcode": "6893303", "prefecture": "鳥取県", "id": 1174 },
        { "address": "殿河内", "city": "西伯郡大山町", "postcode": "6893135", "prefecture": "鳥取県", "id": 1175 },
        { "address": "富岡", "city": "西伯郡大山町", "postcode": "6893325", "prefecture": "鳥取県", "id": 1176 },
        { "address": "富長", "city": "西伯郡大山町", "postcode": "6893221", "prefecture": "鳥取県", "id": 1177 },
        { "address": "豊成", "city": "西伯郡大山町", "postcode": "6893201", "prefecture": "鳥取県", "id": 1178 },
        { "address": "豊房", "city": "西伯郡大山町", "postcode": "6893316", "prefecture": "鳥取県", "id": 1179 },
        { "address": "長田", "city": "西伯郡大山町", "postcode": "6893322", "prefecture": "鳥取県", "id": 1180 },
        { "address": "中高", "city": "西伯郡大山町", "postcode": "6893306", "prefecture": "鳥取県", "id": 1181 },
        { "address": "長野", "city": "西伯郡大山町", "postcode": "6893136", "prefecture": "鳥取県", "id": 1182 },
        { "address": "名和", "city": "西伯郡大山町", "postcode": "6893212", "prefecture": "鳥取県", "id": 1183 },
        { "address": "西坪", "city": "西伯郡大山町", "postcode": "6893205", "prefecture": "鳥取県", "id": 1184 },
        { "address": "野田", "city": "西伯郡大山町", "postcode": "6893307", "prefecture": "鳥取県", "id": 1185 },
        { "address": "羽田井", "city": "西伯郡大山町", "postcode": "6893106", "prefecture": "鳥取県", "id": 1186 },
        { "address": "東坪", "city": "西伯郡大山町", "postcode": "6893204", "prefecture": "鳥取県", "id": 1187 },
        { "address": "樋口", "city": "西伯郡大山町", "postcode": "6893103", "prefecture": "鳥取県", "id": 1188 },
        { "address": "平", "city": "西伯郡大山町", "postcode": "6893321", "prefecture": "鳥取県", "id": 1189 },
        { "address": "平木", "city": "西伯郡大山町", "postcode": "6893304", "prefecture": "鳥取県", "id": 1190 },
        { "address": "平田", "city": "西伯郡大山町", "postcode": "6893336", "prefecture": "鳥取県", "id": 1191 },
        { "address": "福尾", "city": "西伯郡大山町", "postcode": "6893301", "prefecture": "鳥取県", "id": 1192 },
        { "address": "坊領", "city": "西伯郡大山町", "postcode": "6893312", "prefecture": "鳥取県", "id": 1193 },
        { "address": "前", "city": "西伯郡大山町", "postcode": "6893315", "prefecture": "鳥取県", "id": 1194 },
        { "address": "松河原", "city": "西伯郡大山町", "postcode": "6893132", "prefecture": "鳥取県", "id": 1195 },
        { "address": "御来屋", "city": "西伯郡大山町", "postcode": "6893211", "prefecture": "鳥取県", "id": 1196 },
        { "address": "御崎", "city": "西伯郡大山町", "postcode": "6893113", "prefecture": "鳥取県", "id": 1197 },
        { "address": "宮内", "city": "西伯郡大山町", "postcode": "6893311", "prefecture": "鳥取県", "id": 1198 },
        { "address": "妻木", "city": "西伯郡大山町", "postcode": "6893324", "prefecture": "鳥取県", "id": 1199 },
        { "address": "門前", "city": "西伯郡大山町", "postcode": "6893213", "prefecture": "鳥取県", "id": 1200 },
        { "address": "八重", "city": "西伯郡大山町", "postcode": "6893104", "prefecture": "鳥取県", "id": 1201 },
        { "address": "保田", "city": "西伯郡大山町", "postcode": "6893327", "prefecture": "鳥取県", "id": 1202 },
        { "address": "安原", "city": "西伯郡大山町", "postcode": "6893326", "prefecture": "鳥取県", "id": 1203 },
        { "city": "西伯郡南部町", "postcode": "6830300", "prefecture": "鳥取県", "id": 1204 },
        { "address": "阿賀", "city": "西伯郡南部町", "postcode": "6830322", "prefecture": "鳥取県", "id": 1205 },
        { "address": "浅井", "city": "西伯郡南部町", "postcode": "6830227", "prefecture": "鳥取県", "id": 1206 },
        { "address": "朝金", "city": "西伯郡南部町", "postcode": "6830216", "prefecture": "鳥取県", "id": 1207 },
        { "address": "池野", "city": "西伯郡南部町", "postcode": "6830218", "prefecture": "鳥取県", "id": 1208 },
        { "address": "市山", "city": "西伯郡南部町", "postcode": "6830222", "prefecture": "鳥取県", "id": 1209 },
        { "address": "井上", "city": "西伯郡南部町", "postcode": "6830223", "prefecture": "鳥取県", "id": 1210 },
        { "address": "猪小路", "city": "西伯郡南部町", "postcode": "6830367", "prefecture": "鳥取県", "id": 1211 },
        { "address": "大木屋", "city": "西伯郡南部町", "postcode": "6830345", "prefecture": "鳥取県", "id": 1212 },
        { "address": "荻名", "city": "西伯郡南部町", "postcode": "6830215", "prefecture": "鳥取県", "id": 1213 },
        { "address": "落合", "city": "西伯郡南部町", "postcode": "6830337", "prefecture": "鳥取県", "id": 1214 },
        { "address": "掛相", "city": "西伯郡南部町", "postcode": "6830331", "prefecture": "鳥取県", "id": 1215 },
        { "address": "金田", "city": "西伯郡南部町", "postcode": "6830224", "prefecture": "鳥取県", "id": 1216 },
        { "address": "上中谷", "city": "西伯郡南部町", "postcode": "6830344", "prefecture": "鳥取県", "id": 1217 },
        { "address": "鴨部", "city": "西伯郡南部町", "postcode": "6830341", "prefecture": "鳥取県", "id": 1218 },
        { "address": "北方", "city": "西伯郡南部町", "postcode": "6830361", "prefecture": "鳥取県", "id": 1219 },
        { "address": "絹屋", "city": "西伯郡南部町", "postcode": "6830364", "prefecture": "鳥取県", "id": 1220 },
        { "address": "伐株", "city": "西伯郡南部町", "postcode": "6830356", "prefecture": "鳥取県", "id": 1221 },
        { "address": "境", "city": "西伯郡南部町", "postcode": "6830311", "prefecture": "鳥取県", "id": 1222 },
        { "address": "清水川", "city": "西伯郡南部町", "postcode": "6830321", "prefecture": "鳥取県", "id": 1223 },
        { "address": "下中谷", "city": "西伯郡南部町", "postcode": "6830343", "prefecture": "鳥取県", "id": 1224 },
        { "address": "高姫", "city": "西伯郡南部町", "postcode": "6830226", "prefecture": "鳥取県", "id": 1225 },
        { "address": "武信", "city": "西伯郡南部町", "postcode": "6830354", "prefecture": "鳥取県", "id": 1226 },
        { "address": "田住", "city": "西伯郡南部町", "postcode": "6830214", "prefecture": "鳥取県", "id": 1227 },
        { "address": "鶴田", "city": "西伯郡南部町", "postcode": "6830217", "prefecture": "鳥取県", "id": 1228 },
        { "address": "寺内", "city": "西伯郡南部町", "postcode": "6830202", "prefecture": "鳥取県", "id": 1229 },
        { "address": "天万", "city": "西伯郡南部町", "postcode": "6830201", "prefecture": "鳥取県", "id": 1230 },
        { "address": "道河内", "city": "西伯郡南部町", "postcode": "6830355", "prefecture": "鳥取県", "id": 1231 },
        { "address": "東上", "city": "西伯郡南部町", "postcode": "6830334", "prefecture": "鳥取県", "id": 1232 },
        { "address": "徳長", "city": "西伯郡南部町", "postcode": "6830353", "prefecture": "鳥取県", "id": 1233 },
        { "address": "中", "city": "西伯郡南部町", "postcode": "6830335", "prefecture": "鳥取県", "id": 1234 },
        { "address": "鍋倉", "city": "西伯郡南部町", "postcode": "6830365", "prefecture": "鳥取県", "id": 1235 },
        { "address": "西", "city": "西伯郡南部町", "postcode": "6830363", "prefecture": "鳥取県", "id": 1236 },
        { "address": "西原", "city": "西伯郡南部町", "postcode": "6830213", "prefecture": "鳥取県", "id": 1237 },
        { "address": "西町", "city": "西伯郡南部町", "postcode": "6830302", "prefecture": "鳥取県", "id": 1238 },
        { "address": "能竹", "city": "西伯郡南部町", "postcode": "6830342", "prefecture": "鳥取県", "id": 1239 },
        { "address": "馬佐良", "city": "西伯郡南部町", "postcode": "6830332", "prefecture": "鳥取県", "id": 1240 },
        { "address": "馬場", "city": "西伯郡南部町", "postcode": "6830352", "prefecture": "鳥取県", "id": 1241 },
        { "address": "原", "city": "西伯郡南部町", "postcode": "6830362", "prefecture": "鳥取県", "id": 1242 },
        { "address": "東町", "city": "西伯郡南部町", "postcode": "6830301", "prefecture": "鳥取県", "id": 1243 },
        { "address": "福里", "city": "西伯郡南部町", "postcode": "6830204", "prefecture": "鳥取県", "id": 1244 },
        { "address": "福成", "city": "西伯郡南部町", "postcode": "6830312", "prefecture": "鳥取県", "id": 1245 },
        { "address": "福頼", "city": "西伯郡南部町", "postcode": "6830336", "prefecture": "鳥取県", "id": 1246 },
        { "address": "法勝寺", "city": "西伯郡南部町", "postcode": "6830351", "prefecture": "鳥取県", "id": 1247 },
        { "address": "円山", "city": "西伯郡南部町", "postcode": "6830211", "prefecture": "鳥取県", "id": 1248 },
        { "address": "御内谷", "city": "西伯郡南部町", "postcode": "6830225", "prefecture": "鳥取県", "id": 1249 },
        { "address": "三崎", "city": "西伯郡南部町", "postcode": "6830203", "prefecture": "鳥取県", "id": 1250 },
        { "address": "宮前", "city": "西伯郡南部町", "postcode": "6830221", "prefecture": "鳥取県", "id": 1251 },
        { "address": "諸木", "city": "西伯郡南部町", "postcode": "6830212", "prefecture": "鳥取県", "id": 1252 },
        { "address": "八金", "city": "西伯郡南部町", "postcode": "6830333", "prefecture": "鳥取県", "id": 1253 },
        { "address": "倭", "city": "西伯郡南部町", "postcode": "6830323", "prefecture": "鳥取県", "id": 1254 },
        { "address": "与一谷", "city": "西伯郡南部町", "postcode": "6830366", "prefecture": "鳥取県", "id": 1255 },
        { "city": "西伯郡伯耆町", "postcode": "6894100", "prefecture": "鳥取県", "id": 1256 },
        { "address": "岩立", "city": "西伯郡伯耆町", "postcode": "6894214", "prefecture": "鳥取県", "id": 1257 },
        { "address": "岩屋谷", "city": "西伯郡伯耆町", "postcode": "6894123", "prefecture": "鳥取県", "id": 1258 },
        { "address": "上野", "city": "西伯郡伯耆町", "postcode": "6894212", "prefecture": "鳥取県", "id": 1259 },
        { "address": "宇代", "city": "西伯郡伯耆町", "postcode": "6894207", "prefecture": "鳥取県", "id": 1260 },
        { "address": "遠藤", "city": "西伯郡伯耆町", "postcode": "6894134", "prefecture": "鳥取県", "id": 1261 },
        { "address": "大内", "city": "西伯郡伯耆町", "postcode": "6894215", "prefecture": "鳥取県", "id": 1262 },
        { "address": "大江", "city": "西伯郡伯耆町", "postcode": "6894211", "prefecture": "鳥取県", "id": 1263 },
        { "address": "大倉", "city": "西伯郡伯耆町", "postcode": "6894205", "prefecture": "鳥取県", "id": 1264 },
        { "address": "大坂", "city": "西伯郡伯耆町", "postcode": "6894226", "prefecture": "鳥取県", "id": 1265 },
        { "address": "大滝", "city": "西伯郡伯耆町", "postcode": "6894222", "prefecture": "鳥取県", "id": 1266 },
        { "address": "大殿", "city": "西伯郡伯耆町", "postcode": "6894121", "prefecture": "鳥取県", "id": 1267 },
        { "address": "大原", "city": "西伯郡伯耆町", "postcode": "6894102", "prefecture": "鳥取県", "id": 1268 },
        { "address": "押口", "city": "西伯郡伯耆町", "postcode": "6894135", "prefecture": "鳥取県", "id": 1269 },
        { "address": "小野", "city": "西伯郡伯耆町", "postcode": "6894113", "prefecture": "鳥取県", "id": 1270 },
        { "address": "金屋谷", "city": "西伯郡伯耆町", "postcode": "6894213", "prefecture": "鳥取県", "id": 1271 },
        { "address": "上細見", "city": "西伯郡伯耆町", "postcode": "6894112", "prefecture": "鳥取県", "id": 1272 },
        { "address": "岸本", "city": "西伯郡伯耆町", "postcode": "6894132", "prefecture": "鳥取県", "id": 1273 },
        { "address": "貴住", "city": "西伯郡伯耆町", "postcode": "6894203", "prefecture": "鳥取県", "id": 1274 },
        { "address": "清原", "city": "西伯郡伯耆町", "postcode": "6894111", "prefecture": "鳥取県", "id": 1275 },
        { "address": "久古", "city": "西伯郡伯耆町", "postcode": "6894105", "prefecture": "鳥取県", "id": 1276 },
        { "address": "口別所", "city": "西伯郡伯耆町", "postcode": "6894106", "prefecture": "鳥取県", "id": 1277 },
        { "address": "小林", "city": "西伯郡伯耆町", "postcode": "6894101", "prefecture": "鳥取県", "id": 1278 },
        { "address": "小町", "city": "西伯郡伯耆町", "postcode": "6894115", "prefecture": "鳥取県", "id": 1279 },
        { "address": "坂長", "city": "西伯郡伯耆町", "postcode": "6894122", "prefecture": "鳥取県", "id": 1280 },
        { "address": "三部", "city": "西伯郡伯耆町", "postcode": "6894246", "prefecture": "鳥取県", "id": 1281 },
        { "address": "荘", "city": "西伯郡伯耆町", "postcode": "6894243", "prefecture": "鳥取県", "id": 1282 },
        { "address": "白水", "city": "西伯郡伯耆町", "postcode": "6894225", "prefecture": "鳥取県", "id": 1283 },
        { "address": "須村", "city": "西伯郡伯耆町", "postcode": "6894107", "prefecture": "鳥取県", "id": 1284 },
        { "address": "添谷", "city": "西伯郡伯耆町", "postcode": "6894217", "prefecture": "鳥取県", "id": 1285 },
        { "address": "立岩", "city": "西伯郡伯耆町", "postcode": "6894114", "prefecture": "鳥取県", "id": 1286 },
        { "address": "谷川", "city": "西伯郡伯耆町", "postcode": "6894204", "prefecture": "鳥取県", "id": 1287 },
        { "address": "父原", "city": "西伯郡伯耆町", "postcode": "6894244", "prefecture": "鳥取県", "id": 1288 },
        { "address": "栃原", "city": "西伯郡伯耆町", "postcode": "6894223", "prefecture": "鳥取県", "id": 1289 },
        { "address": "富江", "city": "西伯郡伯耆町", "postcode": "6894221", "prefecture": "鳥取県", "id": 1290 },
        { "address": "中祖", "city": "西伯郡伯耆町", "postcode": "6894241", "prefecture": "鳥取県", "id": 1291 },
        { "address": "長山", "city": "西伯郡伯耆町", "postcode": "6894202", "prefecture": "鳥取県", "id": 1292 },
        { "address": "二部", "city": "西伯郡伯耆町", "postcode": "6894233", "prefecture": "鳥取県", "id": 1293 },
        { "address": "根雨原", "city": "西伯郡伯耆町", "postcode": "6894224", "prefecture": "鳥取県", "id": 1294 },
        { "address": "畑池", "city": "西伯郡伯耆町", "postcode": "6894234", "prefecture": "鳥取県", "id": 1295 },
        { "address": "番原", "city": "西伯郡伯耆町", "postcode": "6894104", "prefecture": "鳥取県", "id": 1296 },
        { "address": "福居", "city": "西伯郡伯耆町", "postcode": "6894237", "prefecture": "鳥取県", "id": 1297 },
        { "address": "福岡", "city": "西伯郡伯耆町", "postcode": "6894235", "prefecture": "鳥取県", "id": 1298 },
        { "address": "福岡原", "city": "西伯郡伯耆町", "postcode": "6894136", "prefecture": "鳥取県", "id": 1299 },
        { "address": "福兼", "city": "西伯郡伯耆町", "postcode": "6894216", "prefecture": "鳥取県", "id": 1300 },
        { "address": "福島", "city": "西伯郡伯耆町", "postcode": "6894232", "prefecture": "鳥取県", "id": 1301 },
        { "address": "福吉", "city": "西伯郡伯耆町", "postcode": "6894245", "prefecture": "鳥取県", "id": 1302 },
        { "address": "船越", "city": "西伯郡伯耆町", "postcode": "6894231", "prefecture": "鳥取県", "id": 1303 },
        { "address": "古市", "city": "西伯郡伯耆町", "postcode": "6894242", "prefecture": "鳥取県", "id": 1304 },
        { "address": "真野", "city": "西伯郡伯耆町", "postcode": "6894103", "prefecture": "鳥取県", "id": 1305 },
        { "address": "丸山", "city": "西伯郡伯耆町", "postcode": "6894108", "prefecture": "鳥取県", "id": 1306 },
        { "address": "溝口", "city": "西伯郡伯耆町", "postcode": "6894201", "prefecture": "鳥取県", "id": 1307 },
        { "address": "宮原", "city": "西伯郡伯耆町", "postcode": "6894206", "prefecture": "鳥取県", "id": 1308 },
        { "address": "焼杉", "city": "西伯郡伯耆町", "postcode": "6894236", "prefecture": "鳥取県", "id": 1309 },
        { "address": "吉定", "city": "西伯郡伯耆町", "postcode": "6894131", "prefecture": "鳥取県", "id": 1310 },
        { "address": "吉長", "city": "西伯郡伯耆町", "postcode": "6894133", "prefecture": "鳥取県", "id": 1311 },
        { "city": "日野郡日南町", "postcode": "6895200", "prefecture": "鳥取県", "id": 1312 },
        { "address": "阿毘縁", "city": "日野郡日南町", "postcode": "6895551", "prefecture": "鳥取県", "id": 1313 },
        { "address": "印賀", "city": "日野郡日南町", "postcode": "6895531", "prefecture": "鳥取県", "id": 1314 },
        { "address": "折渡", "city": "日野郡日南町", "postcode": "6895534", "prefecture": "鳥取県", "id": 1315 },
        { "address": "笠木", "city": "日野郡日南町", "postcode": "6895543", "prefecture": "鳥取県", "id": 1316 },
        { "address": "霞", "city": "日野郡日南町", "postcode": "6895212", "prefecture": "鳥取県", "id": 1317 },
        { "address": "神戸上", "city": "日野郡日南町", "postcode": "6895662", "prefecture": "鳥取県", "id": 1318 },
        { "address": "上石見", "city": "日野郡日南町", "postcode": "6895663", "prefecture": "鳥取県", "id": 1319 },
        { "address": "上萩山", "city": "日野郡日南町", "postcode": "6895223", "prefecture": "鳥取県", "id": 1320 },
        { "address": "神福", "city": "日野郡日南町", "postcode": "6895672", "prefecture": "鳥取県", "id": 1321 },
        { "address": "河上", "city": "日野郡日南町", "postcode": "6895221", "prefecture": "鳥取県", "id": 1322 },
        { "address": "佐木谷", "city": "日野郡日南町", "postcode": "6895541", "prefecture": "鳥取県", "id": 1323 },
        { "address": "下阿毘縁", "city": "日野郡日南町", "postcode": "6895552", "prefecture": "鳥取県", "id": 1324 },
        { "address": "下石見", "city": "日野郡日南町", "postcode": "6895665", "prefecture": "鳥取県", "id": 1325 },
        { "address": "生山", "city": "日野郡日南町", "postcode": "6895211", "prefecture": "鳥取県", "id": 1326 },
        { "address": "菅沢", "city": "日野郡日南町", "postcode": "6895532", "prefecture": "鳥取県", "id": 1327 },
        { "address": "宝谷", "city": "日野郡日南町", "postcode": "6895533", "prefecture": "鳥取県", "id": 1328 },
        { "address": "多里", "city": "日野郡日南町", "postcode": "6895224", "prefecture": "鳥取県", "id": 1329 },
        { "address": "茶屋", "city": "日野郡日南町", "postcode": "6895544", "prefecture": "鳥取県", "id": 1330 },
        { "address": "豊栄", "city": "日野郡日南町", "postcode": "6895673", "prefecture": "鳥取県", "id": 1331 },
        { "address": "中石見", "city": "日野郡日南町", "postcode": "6895664", "prefecture": "鳥取県", "id": 1332 },
        { "address": "新屋", "city": "日野郡日南町", "postcode": "6895225", "prefecture": "鳥取県", "id": 1333 },
        { "address": "萩原", "city": "日野郡日南町", "postcode": "6895222", "prefecture": "鳥取県", "id": 1334 },
        { "address": "花口", "city": "日野郡日南町", "postcode": "6895661", "prefecture": "鳥取県", "id": 1335 },
        { "address": "福寿実", "city": "日野郡日南町", "postcode": "6895545", "prefecture": "鳥取県", "id": 1336 },
        { "address": "福塚", "city": "日野郡日南町", "postcode": "6895671", "prefecture": "鳥取県", "id": 1337 },
        { "address": "福万来", "city": "日野郡日南町", "postcode": "6895542", "prefecture": "鳥取県", "id": 1338 },
        { "address": "丸山", "city": "日野郡日南町", "postcode": "6895213", "prefecture": "鳥取県", "id": 1339 },
        { "address": "三栄", "city": "日野郡日南町", "postcode": "6895214", "prefecture": "鳥取県", "id": 1340 },
        { "address": "宮内", "city": "日野郡日南町", "postcode": "6895216", "prefecture": "鳥取県", "id": 1341 },
        { "address": "三吉", "city": "日野郡日南町", "postcode": "6895666", "prefecture": "鳥取県", "id": 1342 },
        { "address": "矢戸", "city": "日野郡日南町", "postcode": "6895215", "prefecture": "鳥取県", "id": 1343 },
        { "address": "湯河", "city": "日野郡日南町", "postcode": "6895226", "prefecture": "鳥取県", "id": 1344 },
        { "city": "日野郡日野町", "postcode": "6894500", "prefecture": "鳥取県", "id": 1345 },
        { "address": "秋縄", "city": "日野郡日野町", "postcode": "6894515", "prefecture": "鳥取県", "id": 1346 },
        { "address": "板井原", "city": "日野郡日野町", "postcode": "6894513", "prefecture": "鳥取県", "id": 1347 },
        { "address": "榎市", "city": "日野郡日野町", "postcode": "6894523", "prefecture": "鳥取県", "id": 1348 },
        { "address": "小河内", "city": "日野郡日野町", "postcode": "6895136", "prefecture": "鳥取県", "id": 1349 },
        { "address": "貝原", "city": "日野郡日野町", "postcode": "6894501", "prefecture": "鳥取県", "id": 1350 },
        { "address": "門谷", "city": "日野郡日野町", "postcode": "6894516", "prefecture": "鳥取県", "id": 1351 },
        { "address": "上菅", "city": "日野郡日野町", "postcode": "6895137", "prefecture": "鳥取県", "id": 1352 },
        { "address": "金持", "city": "日野郡日野町", "postcode": "6894512", "prefecture": "鳥取県", "id": 1353 },
        { "address": "久住", "city": "日野郡日野町", "postcode": "6895132", "prefecture": "鳥取県", "id": 1354 },
        { "address": "黒坂", "city": "日野郡日野町", "postcode": "6895131", "prefecture": "鳥取県", "id": 1355 },
        { "address": "高尾", "city": "日野郡日野町", "postcode": "6894511", "prefecture": "鳥取県", "id": 1356 },
        { "address": "小原", "city": "日野郡日野町", "postcode": "6894525", "prefecture": "鳥取県", "id": 1357 },
        { "address": "下榎", "city": "日野郡日野町", "postcode": "6894526", "prefecture": "鳥取県", "id": 1358 },
        { "address": "下黒坂", "city": "日野郡日野町", "postcode": "6895133", "prefecture": "鳥取県", "id": 1359 },
        { "address": "下菅", "city": "日野郡日野町", "postcode": "6895134", "prefecture": "鳥取県", "id": 1360 },
        { "address": "津地", "city": "日野郡日野町", "postcode": "6894521", "prefecture": "鳥取県", "id": 1361 },
        { "address": "中菅", "city": "日野郡日野町", "postcode": "6895135", "prefecture": "鳥取県", "id": 1362 },
        { "address": "濁谷", "city": "日野郡日野町", "postcode": "6894517", "prefecture": "鳥取県", "id": 1363 },
        { "address": "根雨", "city": "日野郡日野町", "postcode": "6894503", "prefecture": "鳥取県", "id": 1364 },
        { "address": "野田", "city": "日野郡日野町", "postcode": "6894504", "prefecture": "鳥取県", "id": 1365 },
        { "address": "舟場", "city": "日野郡日野町", "postcode": "6894505", "prefecture": "鳥取県", "id": 1366 },
        { "address": "別所", "city": "日野郡日野町", "postcode": "6894524", "prefecture": "鳥取県", "id": 1367 },
        { "address": "本郷", "city": "日野郡日野町", "postcode": "6894522", "prefecture": "鳥取県", "id": 1368 },
        { "address": "三谷", "city": "日野郡日野町", "postcode": "6894502", "prefecture": "鳥取県", "id": 1369 },
        { "address": "三土", "city": "日野郡日野町", "postcode": "6894514", "prefecture": "鳥取県", "id": 1370 },
        { "address": "安原", "city": "日野郡日野町", "postcode": "6894527", "prefecture": "鳥取県", "id": 1371 },
        { "city": "日野郡江府町", "postcode": "6894400", "prefecture": "鳥取県", "id": 1372 },
        { "address": "江尾", "city": "日野郡江府町", "postcode": "6894401", "prefecture": "鳥取県", "id": 1373 },
        { "address": "大河原", "city": "日野郡江府町", "postcode": "6894434", "prefecture": "鳥取県", "id": 1374 },
        { "address": "貝田", "city": "日野郡江府町", "postcode": "6894435", "prefecture": "鳥取県", "id": 1375 },
        { "address": "柿原", "city": "日野郡江府町", "postcode": "6894432", "prefecture": "鳥取県", "id": 1376 },
        { "address": "久連", "city": "日野郡江府町", "postcode": "6894403", "prefecture": "鳥取県", "id": 1377 },
        { "address": "小江尾", "city": "日野郡江府町", "postcode": "6894402", "prefecture": "鳥取県", "id": 1378 },
        { "address": "下蚊屋", "city": "日野郡江府町", "postcode": "6894425", "prefecture": "鳥取県", "id": 1379 },
        { "address": "佐川", "city": "日野郡江府町", "postcode": "6894431", "prefecture": "鳥取県", "id": 1380 },
        { "address": "下安井", "city": "日野郡江府町", "postcode": "6894412", "prefecture": "鳥取県", "id": 1381 },
        { "address": "洲河崎", "city": "日野郡江府町", "postcode": "6894413", "prefecture": "鳥取県", "id": 1382 },
        { "address": "杉谷", "city": "日野郡江府町", "postcode": "6894422", "prefecture": "鳥取県", "id": 1383 },
        { "address": "助沢", "city": "日野郡江府町", "postcode": "6894426", "prefecture": "鳥取県", "id": 1384 },
        { "address": "俣野", "city": "日野郡江府町", "postcode": "6894414", "prefecture": "鳥取県", "id": 1385 },
        { "address": "御机", "city": "日野郡江府町", "postcode": "6894424", "prefecture": "鳥取県", "id": 1386 },
        { "address": "宮市", "city": "日野郡江府町", "postcode": "6894421", "prefecture": "鳥取県", "id": 1387 },
        { "address": "美用", "city": "日野郡江府町", "postcode": "6894423", "prefecture": "鳥取県", "id": 1388 },
        { "address": "武庫", "city": "日野郡江府町", "postcode": "6894411", "prefecture": "鳥取県", "id": 1389 },
        { "address": "吉原", "city": "日野郡江府町", "postcode": "6894433", "prefecture": "鳥取県", "id": 1390 }
    ]
}
